{
"type": "FeatureCollection",
"name": "alamance_county_clerk_of_superior_court_rep",
"crs": { "type": "name", "properties": { "name": "urn:ogc:def:crs:OGC:1.3:CRS84" } },
"features": [
{ "type": "Feature", "properties": { "county": "ALAMANCE", "precinct": "1", "enr_desc": "Patterson", "winner": "Kristie Miller Culler", "winner_votes": 534, "winner_share": 80.300751879699249, "runner_up": "Steve McGilvray", "runner_up_votes": 131, "runner_up_share": 19.699248120300751, "contest_votes": 665, "margin_of_victory": 60.601503759398497, "is_tie": false, "results": [ { "candidate": "Kristie Miller Culler", "votes": 534, "share": 80.30075187969925 }, { "candidate": "Steve McGilvray", "votes": 131, "share": 19.69924812030075 } ], "participated": true, "map_key": "ALAMANCE_1" }, "geometry": { "type": "Polygon", "coordinates": [ [ [ -79.540389990827066, 35.966481000011441 ], [ -79.432509990928438, 35.96042599999965 ], [ -79.432658991572367, 35.950256999616258 ], [ -79.431971990857036, 35.889104000437193 ], [ -79.432773991300365, 35.843684000328615 ], [ -79.542427991097554, 35.843302999849996 ], [ -79.540389990827066, 35.966481000011441 ] ] ] } },
{ "type": "Feature", "properties": { "county": "ALAMANCE", "precinct": "2", "enr_desc": "Coble", "winner": "Kristie Miller Culler", "winner_votes": 671, "winner_share": 75.139977603583432, "runner_up": "Steve McGilvray", "runner_up_votes": 222, "runner_up_share": 24.860022396416571, "contest_votes": 893, "margin_of_victory": 50.279955207166864, "is_tie": false, "results": [ { "candidate": "Kristie Miller Culler", "votes": 671, "share": 75.13997760358343 }, { "candidate": "Steve McGilvray", "votes": 222, "share": 24.86002239641657 } ], "participated": true, "map_key": "ALAMANCE_2" }, "geometry": { "type": "Polygon", "coordinates": [ [ [ -79.539411990983609, 36.045737999841045 ], [ -79.537481991139686, 36.044371999900427 ], [ -79.534838991337836, 36.043821000185147 ], [ -79.533340990836479, 36.044032000269986 ], [ -79.532050991513714, 36.045351999821897 ], [ -79.529446991653842, 36.045273999762536 ], [ -79.52785799097974, 36.042992000277536 ], [ -79.526330991522215, 36.041794000055532 ], [ -79.524659991625484, 36.04006200043225 ], [ -79.524430975875347, 36.039826248478384 ], [ -79.52442199147923, 36.039817000340321 ], [ -79.519432991682294, 36.036298999748631 ], [ -79.513836991344391, 36.038606000304426 ], [ -79.510409991466702, 36.038656999666898 ], [ -79.509358991686852, 36.03814699965708 ], [ -79.508232991614705, 36.035281999604663 ], [ -79.505482991188217, 36.034446000324209 ], [ -79.503647991569508, 36.038265000393601 ], [ -79.503508991064791, 36.04135899979952 ], [ -79.502684990806173, 36.042264000359175 ], [ -79.499897991266835, 36.042695000319057 ], [ -79.493654991153321, 36.037503000198647 ], [ -79.489427991487005, 36.036039999823878 ], [ -79.487965991160848, 36.036417000147743 ], [ -79.487210990644641, 36.037153000139526 ], [ -79.488512991646559, 36.038629999604595 ], [ -79.488380991172946, 36.03989000038743 ], [ -79.485608990792329, 36.039442999703041 ], [ -79.482360990943434, 36.036533000322251 ], [ -79.481849991008957, 36.033627000389544 ], [ -79.478568990917083, 36.033080000254799 ], [ -79.472779990665671, 36.033873999599123 ], [ -79.470444991626678, 36.032416000012987 ], [ -79.468232991477578, 36.032137999771415 ], [ -79.464145990696309, 36.033649000001184 ], [ -79.460443991654159, 36.030840000281607 ], [ -79.458851991444121, 36.031272999806099 ], [ -79.458113991552281, 36.032737000032704 ], [ -79.454642991236668, 36.033526999811755 ], [ -79.44673699144893, 36.032002999588848 ], [ -79.444490991042713, 36.029915000347863 ], [ -79.440701991221076, 36.028255000431876 ], [ -79.436177991564051, 36.025964000081281 ], [ -79.434039991653876, 36.0259649997327 ], [ -79.426430991649411, 36.021504999850059 ], [ -79.423937990904179, 36.017489999911511 ], [ -79.42483299103435, 36.015674999628274 ], [ -79.427046990973409, 36.016977999744206 ], [ -79.427685991193258, 36.015994000403708 ], [ -79.428702991561266, 36.015999000406694 ], [ -79.432509990928438, 35.96042599999965 ], [ -79.540389990827066, 35.966481000011441 ], [ -79.539411990983609, 36.045737999841045 ] ] ] } },
{ "type": "Feature", "properties": { "county": "ALAMANCE", "precinct": "35", "enr_desc": "Boone 5", "winner": "Kristie Miller Culler", "winner_votes": 310, "winner_share": 68.131868131868131, "runner_up": "Steve McGilvray", "runner_up_votes": 145, "runner_up_share": 31.868131868131865, "contest_votes": 455, "margin_of_victory": 36.263736263736263, "is_tie": false, "results": [ { "candidate": "Kristie Miller Culler", "votes": 310, "share": 68.13186813186813 }, { "candidate": "Steve McGilvray", "votes": 145, "share": 31.868131868131865 } ], "participated": true, "map_key": "ALAMANCE_35" }, "geometry": { "type": "Polygon", "coordinates": [ [ [ -79.490997990950007, 36.105640999927566 ], [ -79.498911991521908, 36.103140000110031 ], [ -79.51026499155418, 36.102775999697606 ], [ -79.513755991233182, 36.101952999700849 ], [ -79.521520990755832, 36.103081000021767 ], [ -79.521659990899181, 36.108002000037807 ], [ -79.522861991240148, 36.10797600021283 ], [ -79.522774990868783, 36.105463999882993 ], [ -79.524079991627644, 36.104673000408646 ], [ -79.524096991449554, 36.106448999960591 ], [ -79.52805599146329, 36.106570999766895 ], [ -79.527916991185776, 36.107831999623336 ], [ -79.531234991096397, 36.107910999713603 ], [ -79.530957990705005, 36.110847000210157 ], [ -79.532754990711013, 36.110573000146907 ], [ -79.525742991642318, 36.118878999673861 ], [ -79.527775991235359, 36.125925999778694 ], [ -79.527861991211651, 36.132886999867189 ], [ -79.532515991479684, 36.136142000423199 ], [ -79.53723399100852, 36.135858999686704 ], [ -79.536716991298647, 36.151778000032571 ], [ -79.532759990736807, 36.155474000343204 ], [ -79.529725990842635, 36.155930999776537 ], [ -79.519613991152795, 36.154531000156162 ], [ -79.515639990610197, 36.150716000295347 ], [ -79.511821990785037, 36.148663000443925 ], [ -79.512036991316748, 36.156763000380366 ], [ -79.514308991665814, 36.163456999652851 ], [ -79.512900990672804, 36.166650999799273 ], [ -79.50030699063214, 36.154072000482046 ], [ -79.492672990711611, 36.153864000294533 ], [ -79.489159991010666, 36.152981000182074 ], [ -79.490390991470704, 36.15009399981988 ], [ -79.494217990834244, 36.147251999723586 ], [ -79.492333990596705, 36.14420799994037 ], [ -79.484094991339802, 36.142515000466773 ], [ -79.479450991153982, 36.138646999974966 ], [ -79.472302991533908, 36.135718999746757 ], [ -79.469093991171675, 36.135774999886422 ], [ -79.465003991670855, 36.133346999746934 ], [ -79.469358991534477, 36.125073000181537 ], [ -79.471581990858695, 36.118885000179404 ], [ -79.472575991351349, 36.11309399985624 ], [ -79.472755990903153, 36.112422000368277 ], [ -79.479679991552004, 36.110558999714208 ], [ -79.486596990808422, 36.104727999590601 ], [ -79.487449991191738, 36.106650999942183 ], [ -79.490997990950007, 36.105640999927566 ] ] ] } },
{ "type": "Feature", "properties": { "county": "ALAMANCE", "precinct": "03C", "enr_desc": "Central Boone", "winner": "Kristie Miller Culler", "winner_votes": 349, "winner_share": 81.16279069767441, "runner_up": "Steve McGilvray", "runner_up_votes": 81, "runner_up_share": 18.837209302325579, "contest_votes": 430, "margin_of_victory": 62.325581395348834, "is_tie": false, "results": [ { "candidate": "Kristie Miller Culler", "votes": 349, "share": 81.16279069767441 }, { "candidate": "Steve McGilvray", "votes": 81, "share": 18.83720930232558 } ], "participated": true, "map_key": "ALAMANCE_03C" }, "geometry": { "type": "Polygon", "coordinates": [ [ [ -79.495632991541129, 36.080214000243451 ], [ -79.496474991422971, 36.080299000475549 ], [ -79.503526991372468, 36.080929000218383 ], [ -79.513709990927694, 36.08037699990571 ], [ -79.513721734293441, 36.080376671185554 ], [ -79.514388991363646, 36.080357999747086 ], [ -79.524069990808698, 36.080444000354234 ], [ -79.52399899141399, 36.081445000126713 ], [ -79.523522991051536, 36.082098999863952 ], [ -79.516973991070714, 36.082625999606684 ], [ -79.513631991103097, 36.082359999902273 ], [ -79.512090990940308, 36.084528000061816 ], [ -79.512025990705553, 36.086448999705283 ], [ -79.508899991689233, 36.086395000342804 ], [ -79.508697991594786, 36.082792999688692 ], [ -79.507172991641497, 36.083759000425935 ], [ -79.505589991077414, 36.083641000102219 ], [ -79.505435991231181, 36.086733999724714 ], [ -79.502081990901317, 36.088809000462604 ], [ -79.496349990768863, 36.088030999754146 ], [ -79.496439991602088, 36.0891369996706 ], [ -79.494145990976449, 36.090129000010869 ], [ -79.495359991036793, 36.091892000038172 ], [ -79.494736991328395, 36.098472999613797 ], [ -79.492721991610509, 36.098333000480388 ], [ -79.493442990597885, 36.104029999909578 ], [ -79.492541991052363, 36.104229000075641 ], [ -79.492080990706427, 36.103342999778718 ], [ -79.490035991441559, 36.10365900028107 ], [ -79.490997990950007, 36.105640999927566 ], [ -79.487449991191738, 36.106650999942183 ], [ -79.486596990808422, 36.104727999590601 ], [ -79.479679991552004, 36.110558999714208 ], [ -79.472755990903153, 36.112422000368277 ], [ -79.476917991644669, 36.096931999902303 ], [ -79.478588990591277, 36.090082000083328 ], [ -79.478647991142068, 36.090090000305466 ], [ -79.487237991097714, 36.086231999957931 ], [ -79.491557991050101, 36.080581000414533 ], [ -79.495632991541129, 36.080214000243451 ] ] ] } },
{ "type": "Feature", "properties": { "county": "ALAMANCE", "precinct": "03N2", "enr_desc": "North Boone 2", "winner": "Kristie Miller Culler", "winner_votes": 91, "winner_share": 73.983739837398375, "runner_up": "Steve McGilvray", "runner_up_votes": 32, "runner_up_share": 26.016260162601629, "contest_votes": 123, "margin_of_victory": 47.967479674796749, "is_tie": false, "results": [ { "candidate": "Kristie Miller Culler", "votes": 91, "share": 73.98373983739837 }, { "candidate": "Steve McGilvray", "votes": 32, "share": 26.01626016260163 } ], "participated": true, "map_key": "ALAMANCE_03N2" }, "geometry": { "type": "Polygon", "coordinates": [ [ [ -79.516973991070714, 36.082625999606684 ], [ -79.523522991051536, 36.082098999863952 ], [ -79.52399899141399, 36.081445000126713 ], [ -79.527301991695481, 36.081638000320837 ], [ -79.534714991087426, 36.087582000166996 ], [ -79.534268990950096, 36.087927000297562 ], [ -79.531080990746133, 36.085402999604092 ], [ -79.525893991688932, 36.090279999910891 ], [ -79.526587991138271, 36.085628000155559 ], [ -79.525937991396901, 36.085657999685203 ], [ -79.526116991619162, 36.088247999992376 ], [ -79.524535991028145, 36.09050099982985 ], [ -79.522719991050948, 36.088281000087058 ], [ -79.517756991078997, 36.086223999779222 ], [ -79.516973991070714, 36.082625999606684 ] ] ] } },
{ "type": "Feature", "properties": { "county": "ALAMANCE", "precinct": "03N", "enr_desc": "North Boone", "winner": "Kristie Miller Culler", "winner_votes": 271, "winner_share": 75.487465181058496, "runner_up": "Steve McGilvray", "runner_up_votes": 88, "runner_up_share": 24.512534818941504, "contest_votes": 359, "margin_of_victory": 50.974930362116993, "is_tie": false, "results": [ { "candidate": "Kristie Miller Culler", "votes": 271, "share": 75.4874651810585 }, { "candidate": "Steve McGilvray", "votes": 88, "share": 24.512534818941504 } ], "participated": true, "map_key": "ALAMANCE_03N" }, "geometry": { "type": "Polygon", "coordinates": [ [ [ -79.516973991070714, 36.082625999606684 ], [ -79.517756991078997, 36.086223999779222 ], [ -79.522719991050948, 36.088281000087058 ], [ -79.524535991028145, 36.09050099982985 ], [ -79.526116991619162, 36.088247999992376 ], [ -79.525937991396901, 36.085657999685203 ], [ -79.526587991138271, 36.085628000155559 ], [ -79.525893991688932, 36.090279999910891 ], [ -79.531080990746133, 36.085402999604092 ], [ -79.534268990950096, 36.087927000297562 ], [ -79.534714991087426, 36.087582000166996 ], [ -79.535147990987866, 36.087925999839555 ], [ -79.531910990754099, 36.090619000243464 ], [ -79.527341991200402, 36.093296999966014 ], [ -79.524637991476141, 36.090647999801604 ], [ -79.523749991432524, 36.091517999653242 ], [ -79.520330991184863, 36.097068000122491 ], [ -79.522495991185963, 36.103208000409197 ], [ -79.521520990755832, 36.103081000021767 ], [ -79.513755991233182, 36.101952999700849 ], [ -79.51026499155418, 36.102775999697606 ], [ -79.498911991521908, 36.103140000110031 ], [ -79.490997990950007, 36.105640999927566 ], [ -79.490035991441559, 36.10365900028107 ], [ -79.492080990706427, 36.103342999778718 ], [ -79.492541991052363, 36.104229000075641 ], [ -79.493442990597885, 36.104029999909578 ], [ -79.492721991610509, 36.098333000480388 ], [ -79.494736991328395, 36.098472999613797 ], [ -79.495359991036793, 36.091892000038172 ], [ -79.494145990976449, 36.090129000010869 ], [ -79.496439991602088, 36.0891369996706 ], [ -79.496349990768863, 36.088030999754146 ], [ -79.502081990901317, 36.088809000462604 ], [ -79.505435991231181, 36.086733999724714 ], [ -79.505589991077414, 36.083641000102219 ], [ -79.507172991641497, 36.083759000425935 ], [ -79.508697991594786, 36.082792999688692 ], [ -79.508899991689233, 36.086395000342804 ], [ -79.512025990705553, 36.086448999705283 ], [ -79.512090990940308, 36.084528000061816 ], [ -79.513631991103097, 36.082359999902273 ], [ -79.516973991070714, 36.082625999606684 ] ] ] } },
{ "type": "Feature", "properties": { "county": "ALAMANCE", "precinct": "03W", "enr_desc": "West Boone", "winner": "Kristie Miller Culler", "winner_votes": 241, "winner_share": 69.252873563218387, "runner_up": "Steve McGilvray", "runner_up_votes": 107, "runner_up_share": 30.747126436781606, "contest_votes": 348, "margin_of_victory": 38.505747126436781, "is_tie": false, "results": [ { "candidate": "Kristie Miller Culler", "votes": 241, "share": 69.25287356321839 }, { "candidate": "Steve McGilvray", "votes": 107, "share": 30.747126436781606 } ], "participated": true, "map_key": "ALAMANCE_03W" }, "geometry": { "type": "Polygon", "coordinates": [ [ [ -79.53723399100852, 36.135858999686704 ], [ -79.532515991479684, 36.136142000423199 ], [ -79.527861991211651, 36.132886999867189 ], [ -79.527775991235359, 36.125925999778694 ], [ -79.525742991642318, 36.118878999673861 ], [ -79.532754990711013, 36.110573000146907 ], [ -79.530957990705005, 36.110847000210157 ], [ -79.531234991096397, 36.107910999713603 ], [ -79.527916991185776, 36.107831999623336 ], [ -79.52805599146329, 36.106570999766895 ], [ -79.524096991449554, 36.106448999960591 ], [ -79.524079991627644, 36.104673000408646 ], [ -79.522774990868783, 36.105463999882993 ], [ -79.522861991240148, 36.10797600021283 ], [ -79.521659990899181, 36.108002000037807 ], [ -79.521520990755832, 36.103081000021767 ], [ -79.522495991185963, 36.103208000409197 ], [ -79.520330991184863, 36.097068000122491 ], [ -79.523749991432524, 36.091517999653242 ], [ -79.524637991476141, 36.090647999801604 ], [ -79.527341991200402, 36.093296999966014 ], [ -79.531910990754099, 36.090619000243464 ], [ -79.535147990987866, 36.087925999839555 ], [ -79.534714991087426, 36.087582000166996 ], [ -79.527301991695481, 36.081638000320837 ], [ -79.52399899141399, 36.081445000126713 ], [ -79.524069990808698, 36.080444000354234 ], [ -79.539162990731754, 36.081152000245382 ], [ -79.53723399100852, 36.135858999686704 ] ] ] } },
{ "type": "Feature", "properties": { "county": "ALAMANCE", "precinct": "4", "enr_desc": "Morton", "winner": "Kristie Miller Culler", "winner_votes": 596, "winner_share": 75.443037974683548, "runner_up": "Steve McGilvray", "runner_up_votes": 194, "runner_up_share": 24.556962025316455, "contest_votes": 790, "margin_of_victory": 50.886075949367097, "is_tie": false, "results": [ { "candidate": "Kristie Miller Culler", "votes": 596, "share": 75.44303797468355 }, { "candidate": "Steve McGilvray", "votes": 194, "share": 24.556962025316455 } ], "participated": true, "map_key": "ALAMANCE_4" }, "geometry": { "type": "Polygon", "coordinates": [ [ [ -79.536716991298647, 36.151778000032571 ], [ -79.531864991425365, 36.249672999619932 ], [ -79.442679991451854, 36.24764699962428 ], [ -79.441142991440984, 36.223699999979686 ], [ -79.440054990761624, 36.156910999808844 ], [ -79.440404991303879, 36.135721000258854 ], [ -79.441749991363736, 36.135302000439872 ], [ -79.447294991498893, 36.136748999967196 ], [ -79.452615990604443, 36.134906999708136 ], [ -79.453720991443063, 36.135267999953498 ], [ -79.454384990661254, 36.137189999921581 ], [ -79.45715799142917, 36.137495999816061 ], [ -79.458879990937945, 36.136503000120697 ], [ -79.459213990899471, 36.13396100005496 ], [ -79.460097990967256, 36.13292600021564 ], [ -79.462592991273141, 36.132556999853215 ], [ -79.465003991670855, 36.133346999746934 ], [ -79.469093991171675, 36.135774999886422 ], [ -79.472302991533908, 36.135718999746757 ], [ -79.479450991153982, 36.138646999974966 ], [ -79.484094991339802, 36.142515000466773 ], [ -79.492333990596705, 36.14420799994037 ], [ -79.494217990834244, 36.147251999723586 ], [ -79.490390991470704, 36.15009399981988 ], [ -79.489159991010666, 36.152981000182074 ], [ -79.492672990711611, 36.153864000294533 ], [ -79.50030699063214, 36.154072000482046 ], [ -79.512900990672804, 36.166650999799273 ], [ -79.514308991665814, 36.163456999652851 ], [ -79.512036991316748, 36.156763000380366 ], [ -79.511821990785037, 36.148663000443925 ], [ -79.515639990610197, 36.150716000295347 ], [ -79.519613991152795, 36.154531000156162 ], [ -79.529725990842635, 36.155930999776537 ], [ -79.532759990736807, 36.155474000343204 ], [ -79.536716991298647, 36.151778000032571 ] ] ] } },
{ "type": "Feature", "properties": { "county": "ALAMANCE", "precinct": "5", "enr_desc": "Faucette", "winner": "Kristie Miller Culler", "winner_votes": 555, "winner_share": 75.0, "runner_up": "Steve McGilvray", "runner_up_votes": 185, "runner_up_share": 25.0, "contest_votes": 740, "margin_of_victory": 50.0, "is_tie": false, "results": [ { "candidate": "Kristie Miller Culler", "votes": 555, "share": 75.0 }, { "candidate": "Steve McGilvray", "votes": 185, "share": 25.0 } ], "participated": true, "map_key": "ALAMANCE_5" }, "geometry": { "type": "Polygon", "coordinates": [ [ [ -79.385748991492804, 36.105485000030818 ], [ -79.390242990876999, 36.109012999779843 ], [ -79.393630991207019, 36.109900999927063 ], [ -79.396556990888129, 36.112411000105567 ], [ -79.397377991496654, 36.114782999724405 ], [ -79.402170990837547, 36.119830999655122 ], [ -79.408624991256971, 36.124592999923301 ], [ -79.414415991031163, 36.130062999857138 ], [ -79.421403991583233, 36.132544000380932 ], [ -79.42477599100458, 36.135414999887779 ], [ -79.429139990590485, 36.137534999837889 ], [ -79.433682990900934, 36.141751999964903 ], [ -79.435314990948072, 36.141190000046187 ], [ -79.43673299164314, 36.138059000408674 ], [ -79.440404991303879, 36.135721000258854 ], [ -79.440054990761624, 36.156910999808844 ], [ -79.441142991440984, 36.223699999979686 ], [ -79.442679991451854, 36.24764699962428 ], [ -79.365366990660249, 36.245886999589381 ], [ -79.367072990721638, 36.137327999993204 ], [ -79.367323991385462, 36.120266999683103 ], [ -79.369972991200569, 36.120567000356282 ], [ -79.369702991377963, 36.119706000386245 ], [ -79.370910990657791, 36.11997900046709 ], [ -79.372004991106451, 36.118445000263861 ], [ -79.3717429911149, 36.117301999600201 ], [ -79.372956990981365, 36.116534000278946 ], [ -79.374787991217445, 36.11720499988099 ], [ -79.375111990669808, 36.115368999629368 ], [ -79.376677991199344, 36.11357500002007 ], [ -79.375567990833261, 36.110277000355708 ], [ -79.377086990774217, 36.110274000412005 ], [ -79.376878991671774, 36.108998999840658 ], [ -79.378807991660238, 36.108111999689704 ], [ -79.379909991536678, 36.109418000237319 ], [ -79.385748991492804, 36.105485000030818 ] ] ] } },
{ "type": "Feature", "properties": { "county": "ALAMANCE", "precinct": "63", "enr_desc": "Graham 3", "winner": "Kristie Miller Culler", "winner_votes": 99, "winner_share": 70.212765957446805, "runner_up": "Steve McGilvray", "runner_up_votes": 42, "runner_up_share": 29.787234042553191, "contest_votes": 141, "margin_of_victory": 40.425531914893611, "is_tie": false, "results": [ { "candidate": "Kristie Miller Culler", "votes": 99, "share": 70.2127659574468 }, { "candidate": "Steve McGilvray", "votes": 42, "share": 29.78723404255319 } ], "participated": true, "map_key": "ALAMANCE_63" }, "geometry": { "type": "Polygon", "coordinates": [ [ [ -79.386797991157522, 36.088644999776733 ], [ -79.393169990878945, 36.088701999645913 ], [ -79.393060990824395, 36.086929000424448 ], [ -79.395668991585651, 36.087487000184083 ], [ -79.395753991550848, 36.085211000159511 ], [ -79.39969099167476, 36.084692000079109 ], [ -79.405648991003162, 36.085610999652381 ], [ -79.406210991056, 36.083035999805368 ], [ -79.408756991536492, 36.083503000197602 ], [ -79.406184991164153, 36.089507000194551 ], [ -79.406021991371716, 36.095305000193754 ], [ -79.405822991566637, 36.10248799995027 ], [ -79.404653991356938, 36.105998000040074 ], [ -79.402072990735761, 36.109069999629163 ], [ -79.403733990628595, 36.114349999737371 ], [ -79.405831990775567, 36.117186999709332 ], [ -79.409123990998921, 36.119303000220171 ], [ -79.408964991221822, 36.124389000062621 ], [ -79.408624991256971, 36.124592999923301 ], [ -79.402170990837547, 36.119830999655122 ], [ -79.397377991496654, 36.114782999724405 ], [ -79.396556990888129, 36.112411000105567 ], [ -79.393630991207019, 36.109900999927063 ], [ -79.390242990876999, 36.109012999779843 ], [ -79.385748991492804, 36.105485000030818 ], [ -79.379477991170262, 36.100230000143853 ], [ -79.371968990695876, 36.095783999593287 ], [ -79.373793991377894, 36.095193999774317 ], [ -79.37399899094639, 36.09592000026668 ], [ -79.37531199066936, 36.095632000470196 ], [ -79.374951991404302, 36.094407999608514 ], [ -79.376922990735835, 36.093765000287242 ], [ -79.376907991335855, 36.092751999643035 ], [ -79.380530991221832, 36.092762000358213 ], [ -79.380615991420356, 36.094304999919807 ], [ -79.383584991570913, 36.093826999660436 ], [ -79.384972991486123, 36.092804000379033 ], [ -79.38524599120629, 36.090867000243449 ], [ -79.386891991143898, 36.091214000359301 ], [ -79.386797991157522, 36.088644999776733 ] ] ] } },
{ "type": "Feature", "properties": { "county": "ALAMANCE", "precinct": "64", "enr_desc": "Graham 4", "winner": "Kristie Miller Culler", "winner_votes": 506, "winner_share": 71.468926553672318, "runner_up": "Steve McGilvray", "runner_up_votes": 202, "runner_up_share": 28.531073446327682, "contest_votes": 708, "margin_of_victory": 42.937853107344637, "is_tie": false, "results": [ { "candidate": "Kristie Miller Culler", "votes": 506, "share": 71.46892655367232 }, { "candidate": "Steve McGilvray", "votes": 202, "share": 28.53107344632768 } ], "participated": true, "map_key": "ALAMANCE_64" }, "geometry": { "type": "Polygon", "coordinates": [ [ [ -79.39452999119861, 36.024110999973828 ], [ -79.395805991423586, 36.025198999607056 ], [ -79.396858990759867, 36.024728000197911 ], [ -79.396027991232941, 36.019685000315562 ], [ -79.397336990673381, 36.018244999850076 ], [ -79.398961990905988, 36.018414999844332 ], [ -79.399843990991954, 36.022564000441655 ], [ -79.40296499070223, 36.020528999651525 ], [ -79.408384991015083, 36.019727000186897 ], [ -79.411096991473542, 36.017645000421936 ], [ -79.414697991240885, 36.016344000269761 ], [ -79.421103990626719, 36.016498000146157 ], [ -79.423937990904179, 36.017489999911511 ], [ -79.426430991649411, 36.021504999850059 ], [ -79.434039991653876, 36.0259649997327 ], [ -79.436177991564051, 36.025964000081281 ], [ -79.440701991221076, 36.028255000431876 ], [ -79.438387991010103, 36.032007000471481 ], [ -79.433663991461302, 36.059929000131298 ], [ -79.431114991170688, 36.063946000378159 ], [ -79.415177991111491, 36.062706999848622 ], [ -79.400185990660773, 36.059940000116406 ], [ -79.399352991026561, 36.051968000304029 ], [ -79.398275991592598, 36.049570000246568 ], [ -79.396089990681148, 36.047404999679785 ], [ -79.395554990706458, 36.043383000246735 ], [ -79.393487991642729, 36.040281000160078 ], [ -79.392606990886421, 36.036844000379652 ], [ -79.393011991507819, 36.034219999976187 ], [ -79.392330991635092, 36.031986000388919 ], [ -79.39452999119861, 36.024110999973828 ] ] ] } },
{ "type": "Feature", "properties": { "county": "ALAMANCE", "precinct": "06N", "enr_desc": "North Graham", "winner": "Kristie Miller Culler", "winner_votes": 97, "winner_share": 69.285714285714278, "runner_up": "Steve McGilvray", "runner_up_votes": 43, "runner_up_share": 30.714285714285715, "contest_votes": 140, "margin_of_victory": 38.571428571428562, "is_tie": false, "results": [ { "candidate": "Kristie Miller Culler", "votes": 97, "share": 69.28571428571428 }, { "candidate": "Steve McGilvray", "votes": 43, "share": 30.714285714285715 } ], "participated": true, "map_key": "ALAMANCE_06N" }, "geometry": { "type": "Polygon", "coordinates": [ [ [ -79.413040990874975, 36.073641000003796 ], [ -79.413506990862089, 36.084241999781 ], [ -79.408578991402678, 36.082617000349472 ], [ -79.408756991536492, 36.083503000197602 ], [ -79.406210991056, 36.083035999805368 ], [ -79.405648991003162, 36.085610999652381 ], [ -79.39969099167476, 36.084692000079109 ], [ -79.395753991550848, 36.085211000159511 ], [ -79.395668991585651, 36.087487000184083 ], [ -79.393060990824395, 36.086929000424448 ], [ -79.393169990878945, 36.088701999645913 ], [ -79.386797991157522, 36.088644999776733 ], [ -79.384597991522611, 36.088450000009658 ], [ -79.384024990648825, 36.087363999931704 ], [ -79.381441990650558, 36.086228999739703 ], [ -79.380329990917716, 36.086927999971905 ], [ -79.378628991186105, 36.084814999962781 ], [ -79.385664990875782, 36.082603000073874 ], [ -79.385208990848938, 36.078477000390642 ], [ -79.395548990785599, 36.069285000098937 ], [ -79.40781899141966, 36.069483999799509 ], [ -79.413040990874975, 36.073641000003796 ] ] ] } },
{ "type": "Feature", "properties": { "county": "ALAMANCE", "precinct": "06S", "enr_desc": "South Graham", "winner": "Kristie Miller Culler", "winner_votes": 290, "winner_share": 72.681704260651628, "runner_up": "Steve McGilvray", "runner_up_votes": 109, "runner_up_share": 27.318295739348368, "contest_votes": 399, "margin_of_victory": 45.363408521303256, "is_tie": false, "results": [ { "candidate": "Kristie Miller Culler", "votes": 290, "share": 72.68170426065163 }, { "candidate": "Steve McGilvray", "votes": 109, "share": 27.31829573934837 } ], "participated": true, "map_key": "ALAMANCE_06S" }, "geometry": { "type": "Polygon", "coordinates": [ [ [ -79.39452999119861, 36.024110999973828 ], [ -79.392330991635092, 36.031986000388919 ], [ -79.393011991507819, 36.034219999976187 ], [ -79.392606990886421, 36.036844000379652 ], [ -79.393487991642729, 36.040281000160078 ], [ -79.395554990706458, 36.043383000246735 ], [ -79.396089990681148, 36.047404999679785 ], [ -79.398275991592598, 36.049570000246568 ], [ -79.399352991026561, 36.051968000304029 ], [ -79.400185990660773, 36.059940000116406 ], [ -79.386408991679787, 36.062244000189317 ], [ -79.37422599094829, 36.068440000175258 ], [ -79.360721990920155, 36.06886299976172 ], [ -79.361624990937671, 36.064559000203467 ], [ -79.363776991464491, 36.060791999820999 ], [ -79.366421991245147, 36.05915200020884 ], [ -79.367791991598523, 36.057100000099432 ], [ -79.366095991247391, 36.049399000271229 ], [ -79.368032990698907, 36.045806000128749 ], [ -79.367283991689163, 36.04278799963221 ], [ -79.364028991179339, 36.040100999632521 ], [ -79.363120991541635, 36.038074000459915 ], [ -79.363513990961266, 36.036363999681001 ], [ -79.365704991241913, 36.03477999990276 ], [ -79.366574991118824, 36.033981000157773 ], [ -79.366995990673772, 36.031276000117501 ], [ -79.369170991411934, 36.028284000393896 ], [ -79.365030990671841, 36.022329000111768 ], [ -79.365448991024024, 36.017186999879392 ], [ -79.369670990781003, 36.018368000065799 ], [ -79.376169991521877, 36.017241000196307 ], [ -79.380046991263072, 36.017571000060137 ], [ -79.384052990760878, 36.021675000282919 ], [ -79.385399991592436, 36.024782000441711 ], [ -79.386943991479498, 36.025428999756414 ], [ -79.389718991478759, 36.025743000169591 ], [ -79.39183499128464, 36.023606999628335 ], [ -79.39452999119861, 36.024110999973828 ] ] ] } },
{ "type": "Feature", "properties": { "county": "ALAMANCE", "precinct": "06E", "enr_desc": "East Graham", "winner": "Kristie Miller Culler", "winner_votes": 167, "winner_share": 67.068273092369481, "runner_up": "Steve McGilvray", "runner_up_votes": 82, "runner_up_share": 32.931726907630519, "contest_votes": 249, "margin_of_victory": 34.136546184738961, "is_tie": false, "results": [ { "candidate": "Kristie Miller Culler", "votes": 167, "share": 67.06827309236948 }, { "candidate": "Steve McGilvray", "votes": 82, "share": 32.93172690763052 } ], "participated": true, "map_key": "ALAMANCE_06E" }, "geometry": { "type": "Polygon", "coordinates": [ [ [ -79.400185990660773, 36.059940000116406 ], [ -79.415177991111491, 36.062706999848622 ], [ -79.416780990606284, 36.065409000453542 ], [ -79.414668991197786, 36.069299000356288 ], [ -79.415110990738924, 36.071866000372346 ], [ -79.413045991377373, 36.07198599960082 ], [ -79.413040990874975, 36.073641000003796 ], [ -79.40781899141966, 36.069483999799509 ], [ -79.395548990785599, 36.069285000098937 ], [ -79.385208990848938, 36.078477000390642 ], [ -79.385664990875782, 36.082603000073874 ], [ -79.378628991186105, 36.084814999962781 ], [ -79.376176991665886, 36.081827999924236 ], [ -79.376427990985363, 36.077713999882491 ], [ -79.370105990965357, 36.077306000176407 ], [ -79.371133991260407, 36.07934999962243 ], [ -79.371360991516312, 36.0846830000119 ], [ -79.365725991693608, 36.086317999729737 ], [ -79.362396991575594, 36.082221000406285 ], [ -79.361768990782281, 36.079564999692238 ], [ -79.359006990972517, 36.075013999731162 ], [ -79.360721990920155, 36.06886299976172 ], [ -79.37422599094829, 36.068440000175258 ], [ -79.386408991679787, 36.062244000189317 ], [ -79.400185990660773, 36.059940000116406 ] ] ] } },
{ "type": "Feature", "properties": { "county": "ALAMANCE", "precinct": "06W", "enr_desc": "West Graham", "winner": "Kristie Miller Culler", "winner_votes": 57, "winner_share": 67.058823529411754, "runner_up": "Steve McGilvray", "runner_up_votes": 28, "runner_up_share": 32.941176470588232, "contest_votes": 85, "margin_of_victory": 34.117647058823522, "is_tie": false, "results": [ { "candidate": "Kristie Miller Culler", "votes": 57, "share": 67.05882352941175 }, { "candidate": "Steve McGilvray", "votes": 28, "share": 32.94117647058823 } ], "participated": true, "map_key": "ALAMANCE_06W" }, "geometry": { "type": "Polygon", "coordinates": [ [ [ -79.415177991111491, 36.062706999848622 ], [ -79.431114991170688, 36.063946000378159 ], [ -79.427850991254914, 36.067550000280988 ], [ -79.42596899073925, 36.067729000403283 ], [ -79.425932990779074, 36.072765999987283 ], [ -79.418281990839318, 36.078010999647354 ], [ -79.417805991543531, 36.085736000291242 ], [ -79.413506990862089, 36.084241999781 ], [ -79.413040990874975, 36.073641000003796 ], [ -79.413045991377373, 36.07198599960082 ], [ -79.415110990738924, 36.071866000372346 ], [ -79.414668991197786, 36.069299000356288 ], [ -79.416780990606284, 36.065409000453542 ], [ -79.415177991111491, 36.062706999848622 ] ] ] } },
{ "type": "Feature", "properties": { "county": "ALAMANCE", "precinct": "7", "enr_desc": "Albright", "winner": "Kristie Miller Culler", "winner_votes": 567, "winner_share": 74.900924702774105, "runner_up": "Steve McGilvray", "runner_up_votes": 190, "runner_up_share": 25.099075297225891, "contest_votes": 757, "margin_of_victory": 49.801849405548211, "is_tie": false, "results": [ { "candidate": "Kristie Miller Culler", "votes": 567, "share": 74.9009247027741 }, { "candidate": "Steve McGilvray", "votes": 190, "share": 25.09907529722589 } ], "participated": true, "map_key": "ALAMANCE_7" }, "geometry": { "type": "Polygon", "coordinates": [ [ [ -79.432658991572367, 35.950256999616258 ], [ -79.432509990928438, 35.96042599999965 ], [ -79.428702991561266, 36.015999000406694 ], [ -79.427685991193258, 36.015994000403708 ], [ -79.427046990973409, 36.016977999744206 ], [ -79.42483299103435, 36.015674999628274 ], [ -79.423937990904179, 36.017489999911511 ], [ -79.421103990626719, 36.016498000146157 ], [ -79.414697991240885, 36.016344000269761 ], [ -79.411096991473542, 36.017645000421936 ], [ -79.408384991015083, 36.019727000186897 ], [ -79.40296499070223, 36.020528999651525 ], [ -79.399843990991954, 36.022564000441655 ], [ -79.398961990905988, 36.018414999844332 ], [ -79.397336990673381, 36.018244999850076 ], [ -79.396027991232941, 36.019685000315562 ], [ -79.396858990759867, 36.024728000197911 ], [ -79.395805991423586, 36.025198999607056 ], [ -79.39452999119861, 36.024110999973828 ], [ -79.39183499128464, 36.023606999628335 ], [ -79.389718991478759, 36.025743000169591 ], [ -79.386943991479498, 36.025428999756414 ], [ -79.385399991592436, 36.024782000441711 ], [ -79.384052990760878, 36.021675000282919 ], [ -79.380046991263072, 36.017571000060137 ], [ -79.376169991521877, 36.017241000196307 ], [ -79.369670990781003, 36.018368000065799 ], [ -79.365448991024024, 36.017186999879392 ], [ -79.365541991680217, 36.015772999848437 ], [ -79.361750990861594, 36.00647899988553 ], [ -79.356418991574458, 36.000620999618903 ], [ -79.351926991368927, 35.993073999769891 ], [ -79.350249990724606, 35.989006000017383 ], [ -79.350436991043551, 35.980722000216325 ], [ -79.349367990780962, 35.977797000349327 ], [ -79.340820990699484, 35.969387000360392 ], [ -79.33844199086505, 35.965152000293216 ], [ -79.33252999066103, 35.95771800028249 ], [ -79.341365991499657, 35.957964999767754 ], [ -79.352149990632682, 35.949405000217602 ], [ -79.432658991572367, 35.950256999616258 ] ] ] } },
{ "type": "Feature", "properties": { "county": "ALAMANCE", "precinct": "09N", "enr_desc": "North Thompson", "winner": "Kristie Miller Culler", "winner_votes": 216, "winner_share": 66.873065015479867, "runner_up": "Steve McGilvray", "runner_up_votes": 107, "runner_up_share": 33.126934984520126, "contest_votes": 323, "margin_of_victory": 33.746130030959741, "is_tie": false, "results": [ { "candidate": "Kristie Miller Culler", "votes": 216, "share": 66.87306501547987 }, { "candidate": "Steve McGilvray", "votes": 107, "share": 33.126934984520126 } ], "participated": true, "map_key": "ALAMANCE_09N" }, "geometry": { "type": "Polygon", "coordinates": [ [ [ -79.351926991368927, 35.993073999769891 ], [ -79.356418991574458, 36.000620999618903 ], [ -79.361750990861594, 36.00647899988553 ], [ -79.365541991680217, 36.015772999848437 ], [ -79.365448991024024, 36.017186999879392 ], [ -79.365030990671841, 36.022329000111768 ], [ -79.369170991411934, 36.028284000393896 ], [ -79.366995990673772, 36.031276000117501 ], [ -79.366574991118824, 36.033981000157773 ], [ -79.365704991241913, 36.03477999990276 ], [ -79.282997991503123, 36.035095000184242 ], [ -79.286024991213793, 36.034285999949596 ], [ -79.288078991550051, 36.032614000358372 ], [ -79.287856991161675, 36.031332999750987 ], [ -79.289633990809307, 36.030989999849091 ], [ -79.291543991443078, 36.032646000015248 ], [ -79.292019990662325, 36.031895000131932 ], [ -79.29127199140585, 36.030166999745383 ], [ -79.293002991653779, 36.027371000302821 ], [ -79.29920999100483, 36.030098999802767 ], [ -79.29969499135143, 36.02765299966854 ], [ -79.299011990692904, 36.026245000340687 ], [ -79.301291990706289, 36.023500000041373 ], [ -79.301908991133914, 36.025692999781825 ], [ -79.303721991074468, 36.02624600028053 ], [ -79.31444099099788, 36.025109000267761 ], [ -79.312330990852828, 36.024104999761668 ], [ -79.312739991160058, 36.022617999931455 ], [ -79.314580991654523, 36.022314000258717 ], [ -79.317845990921896, 36.023999000168907 ], [ -79.317851991438317, 36.024852000197548 ], [ -79.31932199129578, 36.025798999624669 ], [ -79.320683990723083, 36.024849000466844 ], [ -79.320112991077295, 36.022977999787784 ], [ -79.321662991241212, 36.022709000000269 ], [ -79.323014991576798, 36.021383999830938 ], [ -79.322934990724846, 36.018916000293082 ], [ -79.324962990783405, 36.019073999789882 ], [ -79.327439991700004, 36.021917000309926 ], [ -79.327969990735696, 36.019691000278833 ], [ -79.326297991053863, 36.018809000041131 ], [ -79.330082991247167, 36.015482999885378 ], [ -79.330346990824722, 36.017785000222453 ], [ -79.331170991299757, 36.018116999609106 ], [ -79.334639991022613, 36.01467899976069 ], [ -79.337941991171604, 36.016158000458262 ], [ -79.338507991040757, 36.009276999619615 ], [ -79.339329991251816, 36.008915999820587 ], [ -79.339430990804217, 36.009810999589497 ], [ -79.340720991605096, 36.010327999957198 ], [ -79.342208991594916, 36.00996100035529 ], [ -79.340866990764894, 36.003932000122454 ], [ -79.342875990691553, 36.004577000285501 ], [ -79.343966991050138, 36.003792999693516 ], [ -79.342186990737076, 36.00303499959545 ], [ -79.34271199148354, 36.000549000419234 ], [ -79.345644991322146, 36.001652000032095 ], [ -79.347353991658309, 35.999963000346945 ], [ -79.348918991150356, 35.99639200020632 ], [ -79.347603991404753, 35.994875999930812 ], [ -79.352172991403791, 35.9954890003402 ], [ -79.351926991368927, 35.993073999769891 ] ] ] } },
{ "type": "Feature", "properties": { "county": "ALAMANCE", "precinct": "09S", "enr_desc": "South Thompson", "winner": "Kristie Miller Culler", "winner_votes": 420, "winner_share": 68.852459016393439, "runner_up": "Steve McGilvray", "runner_up_votes": 190, "runner_up_share": 31.147540983606557, "contest_votes": 610, "margin_of_victory": 37.704918032786878, "is_tie": false, "results": [ { "candidate": "Kristie Miller Culler", "votes": 420, "share": 68.85245901639344 }, { "candidate": "Steve McGilvray", "votes": 190, "share": 31.147540983606557 } ], "participated": true, "map_key": "ALAMANCE_09S" }, "geometry": { "type": "Polygon", "coordinates": [ [ [ -79.268242991415434, 35.909182000135125 ], [ -79.274206991357289, 35.909673000432569 ], [ -79.282332991067179, 35.912723000224005 ], [ -79.28498799140489, 35.912507999693531 ], [ -79.29168499148517, 35.916932000161871 ], [ -79.297969991281576, 35.923200000283956 ], [ -79.302363991151751, 35.934246999577752 ], [ -79.314907990978142, 35.941196000324268 ], [ -79.319276990678901, 35.945098000045128 ], [ -79.324955991346101, 35.946723000334508 ], [ -79.33252999066103, 35.95771800028249 ], [ -79.33844199086505, 35.965152000293216 ], [ -79.340820990699484, 35.969387000360392 ], [ -79.349367990780962, 35.977797000349327 ], [ -79.350436991043551, 35.980722000216325 ], [ -79.350249990724606, 35.989006000017383 ], [ -79.351926991368927, 35.993073999769891 ], [ -79.352172991403791, 35.9954890003402 ], [ -79.347603991404753, 35.994875999930812 ], [ -79.348918991150356, 35.99639200020632 ], [ -79.347353991658309, 35.999963000346945 ], [ -79.345644991322146, 36.001652000032095 ], [ -79.34271199148354, 36.000549000419234 ], [ -79.342186990737076, 36.00303499959545 ], [ -79.343966991050138, 36.003792999693516 ], [ -79.342875990691553, 36.004577000285501 ], [ -79.340866990764894, 36.003932000122454 ], [ -79.342208991594916, 36.00996100035529 ], [ -79.340720991605096, 36.010327999957198 ], [ -79.339430990804217, 36.009810999589497 ], [ -79.339329991251816, 36.008915999820587 ], [ -79.338507991040757, 36.009276999619615 ], [ -79.337941991171604, 36.016158000458262 ], [ -79.334639991022613, 36.01467899976069 ], [ -79.331170991299757, 36.018116999609106 ], [ -79.330346990824722, 36.017785000222453 ], [ -79.330082991247167, 36.015482999885378 ], [ -79.326297991053863, 36.018809000041131 ], [ -79.327969990735696, 36.019691000278833 ], [ -79.327439991700004, 36.021917000309926 ], [ -79.324962990783405, 36.019073999789882 ], [ -79.322934990724846, 36.018916000293082 ], [ -79.323014991576798, 36.021383999830938 ], [ -79.321662991241212, 36.022709000000269 ], [ -79.320112991077295, 36.022977999787784 ], [ -79.320683990723083, 36.024849000466844 ], [ -79.31932199129578, 36.025798999624669 ], [ -79.317851991438317, 36.024852000197548 ], [ -79.317845990921896, 36.023999000168907 ], [ -79.314580991654523, 36.022314000258717 ], [ -79.312739991160058, 36.022617999931455 ], [ -79.312330990852828, 36.024104999761668 ], [ -79.31444099099788, 36.025109000267761 ], [ -79.303721991074468, 36.02624600028053 ], [ -79.301908991133914, 36.025692999781825 ], [ -79.301291990706289, 36.023500000041373 ], [ -79.299011990692904, 36.026245000340687 ], [ -79.29969499135143, 36.02765299966854 ], [ -79.29920999100483, 36.030098999802767 ], [ -79.293002991653779, 36.027371000302821 ], [ -79.29127199140585, 36.030166999745383 ], [ -79.292019990662325, 36.031895000131932 ], [ -79.291543991443078, 36.032646000015248 ], [ -79.289633990809307, 36.030989999849091 ], [ -79.287856991161675, 36.031332999750987 ], [ -79.288078991550051, 36.032614000358372 ], [ -79.286024991213793, 36.034285999949596 ], [ -79.282997991503123, 36.035095000184242 ], [ -79.261964990883087, 36.0353569996036 ], [ -79.263377991250096, 35.973714999653907 ], [ -79.264540991644992, 35.973744999779356 ], [ -79.262923991625371, 35.968668000460333 ], [ -79.26398799160448, 35.967791999907327 ], [ -79.26323299167322, 35.967297999694516 ], [ -79.264151991203008, 35.949158999672548 ], [ -79.263821991121148, 35.933439999942586 ], [ -79.264378990622248, 35.933514 ], [ -79.263838990883201, 35.93143500041122 ], [ -79.264470990883567, 35.931077999945849 ], [ -79.263863991647099, 35.92973000032292 ], [ -79.264026991675522, 35.914114000227983 ], [ -79.267148991431995, 35.913691000132495 ], [ -79.268433991089339, 35.910930000315112 ], [ -79.268242991415434, 35.909182000135125 ] ] ] } },
{ "type": "Feature", "properties": { "county": "ALAMANCE", "precinct": "08N", "enr_desc": "North Newlin", "winner": "Kristie Miller Culler", "winner_votes": 359, "winner_share": 82.339449541284409, "runner_up": "Steve McGilvray", "runner_up_votes": 77, "runner_up_share": 17.660550458715598, "contest_votes": 436, "margin_of_victory": 64.678899082568819, "is_tie": false, "results": [ { "candidate": "Kristie Miller Culler", "votes": 359, "share": 82.33944954128441 }, { "candidate": "Steve McGilvray", "votes": 77, "share": 17.660550458715598 } ], "participated": true, "map_key": "ALAMANCE_08N" }, "geometry": { "type": "Polygon", "coordinates": [ [ [ -79.25401699079967, 35.883391000343849 ], [ -79.266774991367114, 35.886123999761622 ], [ -79.266928991312852, 35.89250599967388 ], [ -79.268278990721711, 35.892297000344037 ], [ -79.270156990819842, 35.889570000358098 ], [ -79.271112991013922, 35.890710999967609 ], [ -79.271787990615891, 35.890367000160531 ], [ -79.270794990908826, 35.886572000194228 ], [ -79.276201990905605, 35.884857000382901 ], [ -79.280336991294476, 35.885248000216414 ], [ -79.281640991347629, 35.884670000163631 ], [ -79.281910990740059, 35.885791999799402 ], [ -79.281092991617754, 35.886659000348551 ], [ -79.283026991177735, 35.887764999626874 ], [ -79.29053999150382, 35.88493400001736 ], [ -79.292084991456505, 35.886541000258816 ], [ -79.293229991691064, 35.886148999953022 ], [ -79.29128199123582, 35.888547999710283 ], [ -79.291900991274161, 35.88931899997403 ], [ -79.295221991423759, 35.887665999776537 ], [ -79.294937991254429, 35.886574000016608 ], [ -79.296151990963935, 35.884927999901358 ], [ -79.295895991006972, 35.883308000403289 ], [ -79.299191991224546, 35.884363999696646 ], [ -79.299578991606765, 35.885614999979786 ], [ -79.304188991304343, 35.88592399997831 ], [ -79.304248991659421, 35.884317000077395 ], [ -79.305775991165859, 35.883902000003069 ], [ -79.308913991004616, 35.888655000470941 ], [ -79.310102991681958, 35.888199999961799 ], [ -79.311436991371636, 35.884636000158991 ], [ -79.312198991309216, 35.884323999776747 ], [ -79.313447990843684, 35.885605000106814 ], [ -79.315201990762247, 35.885861000338558 ], [ -79.315626990769047, 35.887644000342206 ], [ -79.316864991326156, 35.888676000292634 ], [ -79.3173239912837, 35.887845000275341 ], [ -79.316092991038985, 35.884926999681959 ], [ -79.316223990918118, 35.881052999610333 ], [ -79.321074990744265, 35.879273999641903 ], [ -79.322395991089181, 35.880285999875831 ], [ -79.321543991629255, 35.881469000237686 ], [ -79.323950990987626, 35.881961999867109 ], [ -79.326893991500256, 35.878966000344747 ], [ -79.328002991091807, 35.87880899971023 ], [ -79.327651991526906, 35.877129999582181 ], [ -79.328271991271464, 35.877304000395775 ], [ -79.328698991371212, 35.880702000407517 ], [ -79.327249990972547, 35.882254999902528 ], [ -79.328849990714843, 35.883959999617659 ], [ -79.331457991651462, 35.883737000017312 ], [ -79.335498990847469, 35.884894000195395 ], [ -79.336213991666781, 35.883110999634404 ], [ -79.335177991349838, 35.882530999749179 ], [ -79.335298991176856, 35.881332999734582 ], [ -79.343643990754416, 35.888890000189214 ], [ -79.346714990956485, 35.88886600008211 ], [ -79.346915990991363, 35.887814999634784 ], [ -79.345974991279419, 35.8869659999066 ], [ -79.346656990997445, 35.886368999670047 ], [ -79.348706990939434, 35.887696999858207 ], [ -79.34849399104462, 35.88928299978334 ], [ -79.352552991019522, 35.887433000232264 ], [ -79.359727990641019, 35.891106999886929 ], [ -79.364124991536357, 35.89206500034809 ], [ -79.365147991409543, 35.891365999622252 ], [ -79.367560990826902, 35.893812000363582 ], [ -79.367475990804664, 35.898850999763056 ], [ -79.371486991036264, 35.898544000276921 ], [ -79.371013991555472, 35.896742999815281 ], [ -79.373107991331821, 35.895861000401183 ], [ -79.37423999164821, 35.899213000107494 ], [ -79.377190991115796, 35.899332000076228 ], [ -79.378775991686226, 35.900186999744029 ], [ -79.378838990628054, 35.902146000139219 ], [ -79.381190991033833, 35.902363000443877 ], [ -79.382365991041368, 35.901990000438566 ], [ -79.382208991048216, 35.900478000077356 ], [ -79.385073991246699, 35.901034999631676 ], [ -79.384664991584046, 35.900024999825696 ], [ -79.385854991319491, 35.89957999998375 ], [ -79.387007991052755, 35.900333999924982 ], [ -79.387556991670209, 35.89767700008467 ], [ -79.394169991622576, 35.897112999755855 ], [ -79.395767990760405, 35.895323000300685 ], [ -79.400732990773804, 35.893968999782778 ], [ -79.404683991233497, 35.896761000144082 ], [ -79.407093991541174, 35.896209999755094 ], [ -79.41219399171159, 35.896952999741217 ], [ -79.414120990907506, 35.898100999721251 ], [ -79.417619991408628, 35.893791000061974 ], [ -79.41946999133576, 35.893245999614308 ], [ -79.419082990877925, 35.891594000431745 ], [ -79.419671990810244, 35.891013999842144 ], [ -79.422679990877398, 35.891666999726993 ], [ -79.423697991465431, 35.890765999870716 ], [ -79.425941990918616, 35.890768999642354 ], [ -79.427351991274591, 35.891738000436888 ], [ -79.428264990856491, 35.889366000136945 ], [ -79.429719990735038, 35.889872999789532 ], [ -79.431971990857036, 35.889104000437193 ], [ -79.432658991572367, 35.950256999616258 ], [ -79.352149990632682, 35.949405000217602 ], [ -79.341365991499657, 35.957964999767754 ], [ -79.33252999066103, 35.95771800028249 ], [ -79.324955991346101, 35.946723000334508 ], [ -79.319276990678901, 35.945098000045128 ], [ -79.314907990978142, 35.941196000324268 ], [ -79.302363991151751, 35.934246999577752 ], [ -79.297969991281576, 35.923200000283956 ], [ -79.29168499148517, 35.916932000161871 ], [ -79.28498799140489, 35.912507999693531 ], [ -79.282332991067179, 35.912723000224005 ], [ -79.274206991357289, 35.909673000432569 ], [ -79.268242991415434, 35.909182000135125 ], [ -79.260418990968716, 35.905614000179298 ], [ -79.256915990699099, 35.902054999755542 ], [ -79.256530990668352, 35.900511000105723 ], [ -79.257859991470639, 35.897475000253159 ], [ -79.258163991609749, 35.892618999933021 ], [ -79.255961991687911, 35.886274000266276 ], [ -79.25401699079967, 35.883391000343849 ] ] ] } },
{ "type": "Feature", "properties": { "county": "ALAMANCE", "precinct": "08S", "enr_desc": "South Newlin", "winner": "Kristie Miller Culler", "winner_votes": 176, "winner_share": 68.75, "runner_up": "Steve McGilvray", "runner_up_votes": 80, "runner_up_share": 31.25, "contest_votes": 256, "margin_of_victory": 37.5, "is_tie": false, "results": [ { "candidate": "Kristie Miller Culler", "votes": 176, "share": 68.75 }, { "candidate": "Steve McGilvray", "votes": 80, "share": 31.25 } ], "participated": true, "map_key": "ALAMANCE_08S" }, "geometry": { "type": "Polygon", "coordinates": [ [ [ -79.432773991300365, 35.843684000328615 ], [ -79.431971990857036, 35.889104000437193 ], [ -79.429719990735038, 35.889872999789532 ], [ -79.428264990856491, 35.889366000136945 ], [ -79.427351991274591, 35.891738000436888 ], [ -79.425941990918616, 35.890768999642354 ], [ -79.423697991465431, 35.890765999870716 ], [ -79.422679990877398, 35.891666999726993 ], [ -79.419671990810244, 35.891013999842144 ], [ -79.419082990877925, 35.891594000431745 ], [ -79.41946999133576, 35.893245999614308 ], [ -79.417619991408628, 35.893791000061974 ], [ -79.414120990907506, 35.898100999721251 ], [ -79.41219399171159, 35.896952999741217 ], [ -79.407093991541174, 35.896209999755094 ], [ -79.404683991233497, 35.896761000144082 ], [ -79.400732990773804, 35.893968999782778 ], [ -79.395767990760405, 35.895323000300685 ], [ -79.394169991622576, 35.897112999755855 ], [ -79.387556991670209, 35.89767700008467 ], [ -79.387007991052755, 35.900333999924982 ], [ -79.385854991319491, 35.89957999998375 ], [ -79.384664991584046, 35.900024999825696 ], [ -79.385073991246699, 35.901034999631676 ], [ -79.382208991048216, 35.900478000077356 ], [ -79.382365991041368, 35.901990000438566 ], [ -79.381190991033833, 35.902363000443877 ], [ -79.378838990628054, 35.902146000139219 ], [ -79.378775991686226, 35.900186999744029 ], [ -79.377190991115796, 35.899332000076228 ], [ -79.37423999164821, 35.899213000107494 ], [ -79.373107991331821, 35.895861000401183 ], [ -79.371013991555472, 35.896742999815281 ], [ -79.371486991036264, 35.898544000276921 ], [ -79.367475990804664, 35.898850999763056 ], [ -79.367560990826902, 35.893812000363582 ], [ -79.365147991409543, 35.891365999622252 ], [ -79.364124991536357, 35.89206500034809 ], [ -79.359727990641019, 35.891106999886929 ], [ -79.352552991019522, 35.887433000232264 ], [ -79.34849399104462, 35.88928299978334 ], [ -79.348706990939434, 35.887696999858207 ], [ -79.346656990997445, 35.886368999670047 ], [ -79.345974991279419, 35.8869659999066 ], [ -79.346915990991363, 35.887814999634784 ], [ -79.346714990956485, 35.88886600008211 ], [ -79.343643990754416, 35.888890000189214 ], [ -79.335298991176856, 35.881332999734582 ], [ -79.335177991349838, 35.882530999749179 ], [ -79.336213991666781, 35.883110999634404 ], [ -79.335498990847469, 35.884894000195395 ], [ -79.331457991651462, 35.883737000017312 ], [ -79.328849990714843, 35.883959999617659 ], [ -79.327249990972547, 35.882254999902528 ], [ -79.328698991371212, 35.880702000407517 ], [ -79.328271991271464, 35.877304000395775 ], [ -79.327651991526906, 35.877129999582181 ], [ -79.328002991091807, 35.87880899971023 ], [ -79.326893991500256, 35.878966000344747 ], [ -79.323950990987626, 35.881961999867109 ], [ -79.321543991629255, 35.881469000237686 ], [ -79.322395991089181, 35.880285999875831 ], [ -79.321074990744265, 35.879273999641903 ], [ -79.316223990918118, 35.881052999610333 ], [ -79.316092991038985, 35.884926999681959 ], [ -79.3173239912837, 35.887845000275341 ], [ -79.316864991326156, 35.888676000292634 ], [ -79.315626990769047, 35.887644000342206 ], [ -79.315201990762247, 35.885861000338558 ], [ -79.313447990843684, 35.885605000106814 ], [ -79.312198991309216, 35.884323999776747 ], [ -79.311436991371636, 35.884636000158991 ], [ -79.310102991681958, 35.888199999961799 ], [ -79.308913991004616, 35.888655000470941 ], [ -79.305775991165859, 35.883902000003069 ], [ -79.304248991659421, 35.884317000077395 ], [ -79.304188991304343, 35.88592399997831 ], [ -79.299578991606765, 35.885614999979786 ], [ -79.299191991224546, 35.884363999696646 ], [ -79.295895991006972, 35.883308000403289 ], [ -79.296151990963935, 35.884927999901358 ], [ -79.294937991254429, 35.886574000016608 ], [ -79.295221991423759, 35.887665999776537 ], [ -79.291900991274161, 35.88931899997403 ], [ -79.29128199123582, 35.888547999710283 ], [ -79.293229991691064, 35.886148999953022 ], [ -79.292084991456505, 35.886541000258816 ], [ -79.29053999150382, 35.88493400001736 ], [ -79.283026991177735, 35.887764999626874 ], [ -79.281092991617754, 35.886659000348551 ], [ -79.281910990740059, 35.885791999799402 ], [ -79.281640991347629, 35.884670000163631 ], [ -79.280336991294476, 35.885248000216414 ], [ -79.276201990905605, 35.884857000382901 ], [ -79.270794990908826, 35.886572000194228 ], [ -79.271787990615891, 35.890367000160531 ], [ -79.271112991013922, 35.890710999967609 ], [ -79.270156990819842, 35.889570000358098 ], [ -79.268278990721711, 35.892297000344037 ], [ -79.266928991312852, 35.89250599967388 ], [ -79.266774991367114, 35.886123999761622 ], [ -79.25401699079967, 35.883391000343849 ], [ -79.250309990823965, 35.87884200003132 ], [ -79.249334990803945, 35.875997999787437 ], [ -79.250953990904378, 35.871123000456663 ], [ -79.248927990954002, 35.866164000063741 ], [ -79.249427991070732, 35.862697000330137 ], [ -79.250774990646789, 35.860098999988303 ], [ -79.250392991582615, 35.856978000080623 ], [ -79.248377991010813, 35.85463600025237 ], [ -79.240011991149913, 35.852448999573291 ], [ -79.236968991431809, 35.850612000089733 ], [ -79.237311990856099, 35.844121999911856 ], [ -79.432773991300365, 35.843684000328615 ] ] ] } },
{ "type": "Feature", "properties": { "county": "ALAMANCE", "precinct": "10N", "enr_desc": "North Melville", "winner": "Kristie Miller Culler", "winner_votes": 290, "winner_share": 68.557919621749406, "runner_up": "Steve McGilvray", "runner_up_votes": 133, "runner_up_share": 31.442080378250591, "contest_votes": 423, "margin_of_victory": 37.115839243498812, "is_tie": false, "results": [ { "candidate": "Kristie Miller Culler", "votes": 290, "share": 68.5579196217494 }, { "candidate": "Steve McGilvray", "votes": 133, "share": 31.44208037825059 } ], "participated": true, "map_key": "ALAMANCE_10N" }, "geometry": { "type": "Polygon", "coordinates": [ [ [ -79.260374990999566, 36.094073000015257 ], [ -79.269756990972112, 36.096619000372314 ], [ -79.27637299072012, 36.09809900004683 ], [ -79.298608990971942, 36.098973999870594 ], [ -79.313938991014126, 36.09351800014305 ], [ -79.322391991387377, 36.094044999612692 ], [ -79.32715499061257, 36.091325000043618 ], [ -79.332691991218098, 36.090718999891045 ], [ -79.333297991100366, 36.091971000099853 ], [ -79.334521991102235, 36.091176000177533 ], [ -79.335739990987094, 36.092362000065322 ], [ -79.336512991541326, 36.095632999595168 ], [ -79.334162990927979, 36.09700200035045 ], [ -79.331950991273573, 36.099801000215955 ], [ -79.329953991164246, 36.098590000342661 ], [ -79.328486991144004, 36.099008999618412 ], [ -79.32677499167589, 36.101575000137146 ], [ -79.32702099167463, 36.102878000130701 ], [ -79.32504599135612, 36.105075999952795 ], [ -79.321038991558922, 36.10317600013007 ], [ -79.317625990811649, 36.106678999728295 ], [ -79.313675990732378, 36.107435000275828 ], [ -79.312718991300443, 36.113550999860969 ], [ -79.306254991422932, 36.117164000363871 ], [ -79.306508991106895, 36.120988000084296 ], [ -79.298779991445201, 36.126343000089221 ], [ -79.298891990642701, 36.12895299987521 ], [ -79.295617991274469, 36.132568999750468 ], [ -79.295447991158653, 36.134766999807397 ], [ -79.293201991679936, 36.137805999613327 ], [ -79.259517991046494, 36.137278999824439 ], [ -79.260049990943557, 36.110460000432226 ], [ -79.25951999139869, 36.109632999909294 ], [ -79.260065990882893, 36.109635999631855 ], [ -79.260102991398895, 36.107767999576375 ], [ -79.259575991118126, 36.104647999577651 ], [ -79.258694991463599, 36.103762999733021 ], [ -79.26010799084797, 36.103219000078624 ], [ -79.259402991661773, 36.102789999723399 ], [ -79.259539990820358, 36.097118999961125 ], [ -79.260374990999566, 36.094073000015257 ] ] ] } },
{ "type": "Feature", "properties": { "county": "ALAMANCE", "precinct": "103", "enr_desc": "Melville 3", "winner": "Kristie Miller Culler", "winner_votes": 336, "winner_share": 71.948608137044971, "runner_up": "Steve McGilvray", "runner_up_votes": 131, "runner_up_share": 28.051391862955033, "contest_votes": 467, "margin_of_victory": 43.897216274089942, "is_tie": false, "results": [ { "candidate": "Kristie Miller Culler", "votes": 336, "share": 71.94860813704497 }, { "candidate": "Steve McGilvray", "votes": 131, "share": 28.051391862955033 } ], "participated": true, "map_key": "ALAMANCE_103" }, "geometry": { "type": "Polygon", "coordinates": [ [ [ -79.261964990883087, 36.0353569996036 ], [ -79.282997991503123, 36.035095000184242 ], [ -79.365704991241913, 36.03477999990276 ], [ -79.363513990961266, 36.036363999681001 ], [ -79.363120991541635, 36.038074000459915 ], [ -79.364028991179339, 36.040100999632521 ], [ -79.367283991689163, 36.04278799963221 ], [ -79.368032990698907, 36.045806000128749 ], [ -79.366499991233297, 36.044466999817189 ], [ -79.362628991466906, 36.043879999911091 ], [ -79.362074990983785, 36.045260999821139 ], [ -79.359905991543272, 36.046138000275427 ], [ -79.359712991219979, 36.048946999869209 ], [ -79.360683991082311, 36.050579000474947 ], [ -79.358689990726504, 36.050663000420244 ], [ -79.355938990957867, 36.049420999942946 ], [ -79.353604991378489, 36.052471999730699 ], [ -79.354960990959171, 36.055193000239193 ], [ -79.352501991270898, 36.059828000382737 ], [ -79.353045991543055, 36.061013000307277 ], [ -79.355853990974438, 36.062486000273516 ], [ -79.352117991670383, 36.065391000236836 ], [ -79.349804991668165, 36.064030999867001 ], [ -79.348538990762222, 36.065563000266998 ], [ -79.344935991321123, 36.06653700007935 ], [ -79.343765991204862, 36.071416999762711 ], [ -79.342386991370475, 36.07291599979208 ], [ -79.342884990951731, 36.074866999738447 ], [ -79.344352991452936, 36.074852999600331 ], [ -79.343680990625558, 36.073605999974887 ], [ -79.344831990705131, 36.074024000332074 ], [ -79.345010991245871, 36.075690000175285 ], [ -79.342685991055447, 36.076956000299987 ], [ -79.341250991042415, 36.079332000198463 ], [ -79.337581991247276, 36.079671999736604 ], [ -79.336669991234714, 36.083859999645348 ], [ -79.334184990733533, 36.086015000329866 ], [ -79.32460399165349, 36.085910999706606 ], [ -79.32387699091862, 36.083084999629996 ], [ -79.324206991047049, 36.079672999916518 ], [ -79.321409990836486, 36.073037000383479 ], [ -79.31349199090468, 36.069091000330268 ], [ -79.303265991261938, 36.058288999589998 ], [ -79.294168991678248, 36.058588000337437 ], [ -79.289308990682301, 36.057224999597047 ], [ -79.28560899152329, 36.057353999813955 ], [ -79.281131990607761, 36.05908199989873 ], [ -79.272093991442716, 36.060026999652052 ], [ -79.267694991679477, 36.061641000452894 ], [ -79.265548990642699, 36.062186999627698 ], [ -79.262142991293857, 36.061681000077755 ], [ -79.261215990669555, 36.061551999716571 ], [ -79.261744991150636, 36.041467999688273 ], [ -79.260859990597652, 36.040086000242439 ], [ -79.2618069916157, 36.039873000300346 ], [ -79.261964990883087, 36.0353569996036 ] ] ] } },
{ "type": "Feature", "properties": { "county": "ALAMANCE", "precinct": "11", "enr_desc": "Pleasant Grove", "winner": "Kristie Miller Culler", "winner_votes": 306, "winner_share": 73.381294964028783, "runner_up": "Steve McGilvray", "runner_up_votes": 111, "runner_up_share": 26.618705035971225, "contest_votes": 417, "margin_of_victory": 46.762589928057558, "is_tie": false, "results": [ { "candidate": "Kristie Miller Culler", "votes": 306, "share": 73.38129496402878 }, { "candidate": "Steve McGilvray", "votes": 111, "share": 26.618705035971225 } ], "participated": true, "map_key": "ALAMANCE_11" }, "geometry": { "type": "Polygon", "coordinates": [ [ [ -79.293201991679936, 36.137805999613327 ], [ -79.367072990721638, 36.137327999993204 ], [ -79.365366990660249, 36.245886999589381 ], [ -79.257951990971151, 36.243444999723174 ], [ -79.258008991677713, 36.239127999673656 ], [ -79.25749599118771, 36.239126999687841 ], [ -79.259517991046494, 36.137278999824439 ], [ -79.293201991679936, 36.137805999613327 ] ] ] } },
{ "type": "Feature", "properties": { "county": "ALAMANCE", "precinct": "104", "enr_desc": "Melville 4", "winner": "Kristie Miller Culler", "winner_votes": 96, "winner_share": 67.605633802816897, "runner_up": "Steve McGilvray", "runner_up_votes": 46, "runner_up_share": 32.394366197183103, "contest_votes": 142, "margin_of_victory": 35.211267605633793, "is_tie": false, "results": [ { "candidate": "Kristie Miller Culler", "votes": 96, "share": 67.6056338028169 }, { "candidate": "Steve McGilvray", "votes": 46, "share": 32.3943661971831 } ], "participated": true, "map_key": "ALAMANCE_104" }, "geometry": { "type": "Polygon", "coordinates": [ [ [ -79.267694991679477, 36.061641000452894 ], [ -79.268978991004332, 36.066655000308153 ], [ -79.275247991028579, 36.077370000268438 ], [ -79.269619990759509, 36.089235999892395 ], [ -79.275359990901322, 36.090862000435187 ], [ -79.272453991505699, 36.09714300015667 ], [ -79.269756990972112, 36.096619000372314 ], [ -79.260374990999566, 36.094073000015257 ], [ -79.260361991147988, 36.075593999591419 ], [ -79.261436990748194, 36.070870000151125 ], [ -79.261197990830169, 36.068844999678618 ], [ -79.260379990627428, 36.068845000421646 ], [ -79.260462990625669, 36.066483000055328 ], [ -79.26145799140582, 36.065670999780956 ], [ -79.262142991293857, 36.061681000077755 ], [ -79.265548990642699, 36.062186999627698 ], [ -79.267694991679477, 36.061641000452894 ] ] ] } },
{ "type": "Feature", "properties": { "county": "ALAMANCE", "precinct": "10S1", "enr_desc": "South Melville", "winner": "Kristie Miller Culler", "winner_votes": 321, "winner_share": 65.913757700205338, "runner_up": "Steve McGilvray", "runner_up_votes": 166, "runner_up_share": 34.086242299794662, "contest_votes": 487, "margin_of_victory": 31.827515400410675, "is_tie": false, "results": [ { "candidate": "Kristie Miller Culler", "votes": 321, "share": 65.91375770020534 }, { "candidate": "Steve McGilvray", "votes": 166, "share": 34.08624229979466 } ], "participated": true, "map_key": "ALAMANCE_10S1" }, "geometry": { "type": "Polygon", "coordinates": [ [ [ -79.334184990733533, 36.086015000329866 ], [ -79.332691991218098, 36.090718999891045 ], [ -79.32715499061257, 36.091325000043618 ], [ -79.322391991387377, 36.094044999612692 ], [ -79.313938991014126, 36.09351800014305 ], [ -79.298608990971942, 36.098973999870594 ], [ -79.27637299072012, 36.09809900004683 ], [ -79.269756990972112, 36.096619000372314 ], [ -79.272453991505699, 36.09714300015667 ], [ -79.275359990901322, 36.090862000435187 ], [ -79.269619990759509, 36.089235999892395 ], [ -79.275247991028579, 36.077370000268438 ], [ -79.268978991004332, 36.066655000308153 ], [ -79.267694991679477, 36.061641000452894 ], [ -79.272093991442716, 36.060026999652052 ], [ -79.281131990607761, 36.05908199989873 ], [ -79.28560899152329, 36.057353999813955 ], [ -79.289308990682301, 36.057224999597047 ], [ -79.294168991678248, 36.058588000337437 ], [ -79.303265991261938, 36.058288999589998 ], [ -79.31349199090468, 36.069091000330268 ], [ -79.321409990836486, 36.073037000383479 ], [ -79.324206991047049, 36.079672999916518 ], [ -79.32387699091862, 36.083084999629996 ], [ -79.32460399165349, 36.085910999706606 ], [ -79.334184990733533, 36.086015000329866 ] ] ] } },
{ "type": "Feature", "properties": { "county": "ALAMANCE", "precinct": "1210", "enr_desc": "Burlington 10", "winner": "Kristie Miller Culler", "winner_votes": 94, "winner_share": 67.142857142857139, "runner_up": "Steve McGilvray", "runner_up_votes": 46, "runner_up_share": 32.857142857142854, "contest_votes": 140, "margin_of_victory": 34.285714285714285, "is_tie": false, "results": [ { "candidate": "Kristie Miller Culler", "votes": 94, "share": 67.14285714285714 }, { "candidate": "Steve McGilvray", "votes": 46, "share": 32.857142857142854 } ], "participated": true, "map_key": "ALAMANCE_1210" }, "geometry": { "type": "Polygon", "coordinates": [ [ [ -79.45112999092558, 36.077666999651953 ], [ -79.438955991609689, 36.072814000262937 ], [ -79.434840991630509, 36.070301000081827 ], [ -79.431150990671171, 36.068024999858736 ], [ -79.427850991254914, 36.067550000280988 ], [ -79.431114991170688, 36.063946000378159 ], [ -79.441148991072851, 36.065258999839891 ], [ -79.464945991236988, 36.064614999595534 ], [ -79.468884990614811, 36.065354000227465 ], [ -79.466731990666872, 36.070077999727317 ], [ -79.457265991138314, 36.073277999748825 ], [ -79.45112999092558, 36.077666999651953 ] ] ] } },
{ "type": "Feature", "properties": { "county": "ALAMANCE", "precinct": "125", "enr_desc": "Burlington 5", "winner": "Kristie Miller Culler", "winner_votes": 173, "winner_share": 74.891774891774887, "runner_up": "Steve McGilvray", "runner_up_votes": 58, "runner_up_share": 25.108225108225106, "contest_votes": 231, "margin_of_victory": 49.78354978354978, "is_tie": false, "results": [ { "candidate": "Kristie Miller Culler", "votes": 173, "share": 74.89177489177489 }, { "candidate": "Steve McGilvray", "votes": 58, "share": 25.108225108225106 } ], "participated": true, "map_key": "ALAMANCE_125" }, "geometry": { "type": "Polygon", "coordinates": [ [ [ -79.468884990614811, 36.065354000227465 ], [ -79.483093991091792, 36.069394999682679 ], [ -79.482619990885425, 36.071656000342429 ], [ -79.482527991200655, 36.07209799969376 ], [ -79.480656991423629, 36.080894999789635 ], [ -79.461138990857535, 36.082723000199451 ], [ -79.45112999092558, 36.077666999651953 ], [ -79.457265991138314, 36.073277999748825 ], [ -79.466731990666872, 36.070077999727317 ], [ -79.468884990614811, 36.065354000227465 ] ] ] } },
{ "type": "Feature", "properties": { "county": "ALAMANCE", "precinct": "126", "enr_desc": "Burlington 6", "winner": "Kristie Miller Culler", "winner_votes": 263, "winner_share": 79.939209726443778, "runner_up": "Steve McGilvray", "runner_up_votes": 66, "runner_up_share": 20.060790273556233, "contest_votes": 329, "margin_of_victory": 59.878419452887542, "is_tie": false, "results": [ { "candidate": "Kristie Miller Culler", "votes": 263, "share": 79.93920972644378 }, { "candidate": "Steve McGilvray", "votes": 66, "share": 20.060790273556233 } ], "participated": true, "map_key": "ALAMANCE_126" }, "geometry": { "type": "Polygon", "coordinates": [ [ [ -79.455587991235546, 36.084102999707689 ], [ -79.461138990857535, 36.082723000199451 ], [ -79.480656991423629, 36.080894999789635 ], [ -79.479104990684348, 36.088037999827016 ], [ -79.478588990591277, 36.090082000083328 ], [ -79.476917991644669, 36.096931999902303 ], [ -79.459614990613304, 36.094888000480495 ], [ -79.457886991446571, 36.096136999903798 ], [ -79.455971991398528, 36.094493999894155 ], [ -79.456427991350452, 36.08625200046032 ], [ -79.455587991235546, 36.084102999707689 ] ] ] } },
{ "type": "Feature", "properties": { "county": "ALAMANCE", "precinct": "128", "enr_desc": "Burlington 8", "winner": "Kristie Miller Culler", "winner_votes": 48, "winner_share": 70.588235294117652, "runner_up": "Steve McGilvray", "runner_up_votes": 20, "runner_up_share": 29.411764705882355, "contest_votes": 68, "margin_of_victory": 41.176470588235297, "is_tie": false, "results": [ { "candidate": "Kristie Miller Culler", "votes": 48, "share": 70.58823529411765 }, { "candidate": "Steve McGilvray", "votes": 20, "share": 29.411764705882355 } ], "participated": true, "map_key": "ALAMANCE_128" }, "geometry": { "type": "Polygon", "coordinates": [ [ [ -79.45112999092558, 36.077666999651953 ], [ -79.461138990857535, 36.082723000199451 ], [ -79.455587991235546, 36.084102999707689 ], [ -79.449921990616431, 36.085625999823243 ], [ -79.435724991055892, 36.094419999722021 ], [ -79.430480991014051, 36.088891999836541 ], [ -79.428497991060851, 36.086760999690171 ], [ -79.433966991323885, 36.08329399980294 ], [ -79.434840991630509, 36.070301000081827 ], [ -79.438955991609689, 36.072814000262937 ], [ -79.45112999092558, 36.077666999651953 ] ] ] } },
{ "type": "Feature", "properties": { "county": "ALAMANCE", "precinct": "124", "enr_desc": "Burlington 4", "winner": "Kristie Miller Culler", "winner_votes": 169, "winner_share": 79.342723004694832, "runner_up": "Steve McGilvray", "runner_up_votes": 44, "runner_up_share": 20.657276995305164, "contest_votes": 213, "margin_of_victory": 58.685446009389665, "is_tie": false, "results": [ { "candidate": "Kristie Miller Culler", "votes": 169, "share": 79.34272300469483 }, { "candidate": "Steve McGilvray", "votes": 44, "share": 20.657276995305164 } ], "participated": true, "map_key": "ALAMANCE_124" }, "geometry": { "type": "Polygon", "coordinates": [ [ [ -79.457886991446571, 36.096136999903798 ], [ -79.459614990613304, 36.094888000480495 ], [ -79.476917991644669, 36.096931999902303 ], [ -79.472755990903153, 36.112422000368277 ], [ -79.472575991351349, 36.11309399985624 ], [ -79.452738990892939, 36.103539000472402 ], [ -79.458380991016412, 36.099098999644767 ], [ -79.457886991446571, 36.096136999903798 ] ] ] } },
{ "type": "Feature", "properties": { "county": "ALAMANCE", "precinct": "127", "enr_desc": "Burlington 7", "winner": "Kristie Miller Culler", "winner_votes": 130, "winner_share": 78.787878787878782, "runner_up": "Steve McGilvray", "runner_up_votes": 35, "runner_up_share": 21.212121212121211, "contest_votes": 165, "margin_of_victory": 57.575757575757571, "is_tie": false, "results": [ { "candidate": "Kristie Miller Culler", "votes": 130, "share": 78.78787878787878 }, { "candidate": "Steve McGilvray", "votes": 35, "share": 21.21212121212121 } ], "participated": true, "map_key": "ALAMANCE_127" }, "geometry": { "type": "Polygon", "coordinates": [ [ [ -79.438600991023378, 36.097701999789393 ], [ -79.441006990694689, 36.100013000005241 ], [ -79.444797991413083, 36.102034000239421 ], [ -79.452738990892939, 36.103539000472402 ], [ -79.472575991351349, 36.11309399985624 ], [ -79.471581990858695, 36.118885000179404 ], [ -79.469358991534477, 36.125073000181537 ], [ -79.465003991670855, 36.133346999746934 ], [ -79.462592991273141, 36.132556999853215 ], [ -79.460097990967256, 36.13292600021564 ], [ -79.459213990899471, 36.13396100005496 ], [ -79.458879990937945, 36.136503000120697 ], [ -79.45715799142917, 36.137495999816061 ], [ -79.454384990661254, 36.137189999921581 ], [ -79.453720991443063, 36.135267999953498 ], [ -79.452615990604443, 36.134906999708136 ], [ -79.447294991498893, 36.136748999967196 ], [ -79.441749991363736, 36.135302000439872 ], [ -79.440404991303879, 36.135721000258854 ], [ -79.43673299164314, 36.138059000408674 ], [ -79.435314990948072, 36.141190000046187 ], [ -79.433682990900934, 36.141751999964903 ], [ -79.429139990590485, 36.137534999837889 ], [ -79.42477599100458, 36.135414999887779 ], [ -79.421403991583233, 36.132544000380932 ], [ -79.414415991031163, 36.130062999857138 ], [ -79.408624991256971, 36.124592999923301 ], [ -79.408964991221822, 36.124389000062621 ], [ -79.412524991598318, 36.124587000035397 ], [ -79.420363991123125, 36.123225999914816 ], [ -79.424249991622631, 36.120471999888117 ], [ -79.426475991648076, 36.117806999910492 ], [ -79.42920599141479, 36.116835000348111 ], [ -79.431536991369896, 36.113923000234394 ], [ -79.433983991072665, 36.108363999921949 ], [ -79.434290991308046, 36.102706000436271 ], [ -79.437245990601809, 36.102716000374897 ], [ -79.439007991509001, 36.103560000091136 ], [ -79.439310990979138, 36.099447999970721 ], [ -79.439985991312938, 36.099555000199487 ], [ -79.438164991316626, 36.098129999725288 ], [ -79.438600991023378, 36.097701999789393 ] ] ] } },
{ "type": "Feature", "properties": { "county": "ALAMANCE", "precinct": "12W", "enr_desc": "West Burlington", "winner": "Kristie Miller Culler", "winner_votes": 165, "winner_share": 78.94736842105263, "runner_up": "Steve McGilvray", "runner_up_votes": 44, "runner_up_share": 21.052631578947366, "contest_votes": 209, "margin_of_victory": 57.89473684210526, "is_tie": false, "results": [ { "candidate": "Kristie Miller Culler", "votes": 165, "share": 78.94736842105263 }, { "candidate": "Steve McGilvray", "votes": 44, "share": 21.052631578947366 } ], "participated": true, "map_key": "ALAMANCE_12W" }, "geometry": { "type": "Polygon", "coordinates": [ [ [ -79.457886991446571, 36.096136999903798 ], [ -79.458380991016412, 36.099098999644767 ], [ -79.452738990892939, 36.103539000472402 ], [ -79.444797991413083, 36.102034000239421 ], [ -79.441006990694689, 36.100013000005241 ], [ -79.438600991023378, 36.097701999789393 ], [ -79.435724991055892, 36.094419999722021 ], [ -79.449921990616431, 36.085625999823243 ], [ -79.455587991235546, 36.084102999707689 ], [ -79.456427991350452, 36.08625200046032 ], [ -79.455971991398528, 36.094493999894155 ], [ -79.457886991446571, 36.096136999903798 ] ] ] } },
{ "type": "Feature", "properties": { "county": "ALAMANCE", "precinct": "129", "enr_desc": "Burlington 9", "winner": "Kristie Miller Culler", "winner_votes": 228, "winner_share": 78.350515463917532, "runner_up": "Steve McGilvray", "runner_up_votes": 63, "runner_up_share": 21.649484536082475, "contest_votes": 291, "margin_of_victory": 56.701030927835056, "is_tie": false, "results": [ { "candidate": "Kristie Miller Culler", "votes": 228, "share": 78.35051546391753 }, { "candidate": "Steve McGilvray", "votes": 63, "share": 21.649484536082475 } ], "participated": true, "map_key": "ALAMANCE_129" }, "geometry": { "type": "Polygon", "coordinates": [ [ [ -79.440701991221076, 36.028255000431876 ], [ -79.444490991042713, 36.029915000347863 ], [ -79.44673699144893, 36.032002999588848 ], [ -79.454642991236668, 36.033526999811755 ], [ -79.458113991552281, 36.032737000032704 ], [ -79.458851991444121, 36.031272999806099 ], [ -79.460443991654159, 36.030840000281607 ], [ -79.464145990696309, 36.033649000001184 ], [ -79.468232991477578, 36.032137999771415 ], [ -79.470444991626678, 36.032416000012987 ], [ -79.472779990665671, 36.033873999599123 ], [ -79.478568990917083, 36.033080000254799 ], [ -79.481849991008957, 36.033627000389544 ], [ -79.482360990943434, 36.036533000322251 ], [ -79.485608990792329, 36.039442999703041 ], [ -79.488380991172946, 36.03989000038743 ], [ -79.483927991237906, 36.065760999713248 ], [ -79.483623990779975, 36.067272999801745 ], [ -79.483093991091792, 36.069394999682679 ], [ -79.468884990614811, 36.065354000227465 ], [ -79.464945991236988, 36.064614999595534 ], [ -79.441148991072851, 36.065258999839891 ], [ -79.431114991170688, 36.063946000378159 ], [ -79.433663991461302, 36.059929000131298 ], [ -79.438387991010103, 36.032007000471481 ], [ -79.440701991221076, 36.028255000431876 ] ] ] } },
{ "type": "Feature", "properties": { "county": "ALAMANCE", "precinct": "12E", "enr_desc": "East Burlington", "winner": "Kristie Miller Culler", "winner_votes": 46, "winner_share": 67.64705882352942, "runner_up": "Steve McGilvray", "runner_up_votes": 22, "runner_up_share": 32.352941176470587, "contest_votes": 68, "margin_of_victory": 35.294117647058833, "is_tie": false, "results": [ { "candidate": "Kristie Miller Culler", "votes": 46, "share": 67.64705882352942 }, { "candidate": "Steve McGilvray", "votes": 22, "share": 32.35294117647059 } ], "participated": true, "map_key": "ALAMANCE_12E" }, "geometry": { "type": "Polygon", "coordinates": [ [ [ -79.430480991014051, 36.088891999836541 ], [ -79.435724991055892, 36.094419999722021 ], [ -79.429740991034691, 36.097637999604984 ], [ -79.418312990814016, 36.09791100012221 ], [ -79.406021991371716, 36.095305000193754 ], [ -79.406184991164153, 36.089507000194551 ], [ -79.408756991536492, 36.083503000197602 ], [ -79.408578991402678, 36.082617000349472 ], [ -79.413506990862089, 36.084241999781 ], [ -79.417805991543531, 36.085736000291242 ], [ -79.417948990596059, 36.087421000435171 ], [ -79.425377991546327, 36.087050999678944 ], [ -79.429717991645461, 36.089352999813237 ], [ -79.430480991014051, 36.088891999836541 ] ] ] } },
{ "type": "Feature", "properties": { "county": "ALAMANCE", "precinct": "12N", "enr_desc": "North Burlington", "winner": "Kristie Miller Culler", "winner_votes": 47, "winner_share": 65.277777777777786, "runner_up": "Steve McGilvray", "runner_up_votes": 25, "runner_up_share": 34.722222222222221, "contest_votes": 72, "margin_of_victory": 30.555555555555564, "is_tie": false, "results": [ { "candidate": "Kristie Miller Culler", "votes": 47, "share": 65.27777777777779 }, { "candidate": "Steve McGilvray", "votes": 25, "share": 34.72222222222222 } ], "participated": true, "map_key": "ALAMANCE_12N" }, "geometry": { "type": "Polygon", "coordinates": [ [ [ -79.406021991371716, 36.095305000193754 ], [ -79.418312990814016, 36.09791100012221 ], [ -79.429740991034691, 36.097637999604984 ], [ -79.435724991055892, 36.094419999722021 ], [ -79.438600991023378, 36.097701999789393 ], [ -79.438164991316626, 36.098129999725288 ], [ -79.439985991312938, 36.099555000199487 ], [ -79.439310990979138, 36.099447999970721 ], [ -79.439007991509001, 36.103560000091136 ], [ -79.437245990601809, 36.102716000374897 ], [ -79.434290991308046, 36.102706000436271 ], [ -79.433983991072665, 36.108363999921949 ], [ -79.431536991369896, 36.113923000234394 ], [ -79.42920599141479, 36.116835000348111 ], [ -79.426475991648076, 36.117806999910492 ], [ -79.424249991622631, 36.120471999888117 ], [ -79.420363991123125, 36.123225999914816 ], [ -79.412524991598318, 36.124587000035397 ], [ -79.408964991221822, 36.124389000062621 ], [ -79.409123990998921, 36.119303000220171 ], [ -79.405831990775567, 36.117186999709332 ], [ -79.403733990628595, 36.114349999737371 ], [ -79.402072990735761, 36.109069999629163 ], [ -79.404653991356938, 36.105998000040074 ], [ -79.405822991566637, 36.10248799995027 ], [ -79.406021991371716, 36.095305000193754 ] ] ] } },
{ "type": "Feature", "properties": { "county": "ALAMANCE", "precinct": "12S", "enr_desc": "South Burlington", "winner": "Kristie Miller Culler", "winner_votes": 25, "winner_share": 60.975609756097562, "runner_up": "Steve McGilvray", "runner_up_votes": 16, "runner_up_share": 39.024390243902438, "contest_votes": 41, "margin_of_victory": 21.951219512195124, "is_tie": false, "results": [ { "candidate": "Kristie Miller Culler", "votes": 25, "share": 60.97560975609756 }, { "candidate": "Steve McGilvray", "votes": 16, "share": 39.02439024390244 } ], "participated": true, "map_key": "ALAMANCE_12S" }, "geometry": { "type": "Polygon", "coordinates": [ [ [ -79.427850991254914, 36.067550000280988 ], [ -79.431150990671171, 36.068024999858736 ], [ -79.434840991630509, 36.070301000081827 ], [ -79.433966991323885, 36.08329399980294 ], [ -79.428497991060851, 36.086760999690171 ], [ -79.430480991014051, 36.088891999836541 ], [ -79.429717991645461, 36.089352999813237 ], [ -79.425377991546327, 36.087050999678944 ], [ -79.417948990596059, 36.087421000435171 ], [ -79.417805991543531, 36.085736000291242 ], [ -79.418281990839318, 36.078010999647354 ], [ -79.425932990779074, 36.072765999987283 ], [ -79.42596899073925, 36.067729000403283 ], [ -79.427850991254914, 36.067550000280988 ] ] ] } },
{ "type": "Feature", "properties": { "county": "ALAMANCE", "precinct": "13", "enr_desc": "Haw River", "winner": "Kristie Miller Culler", "winner_votes": 279, "winner_share": 74.4, "runner_up": "Steve McGilvray", "runner_up_votes": 96, "runner_up_share": 25.6, "contest_votes": 375, "margin_of_victory": 48.8, "is_tie": false, "results": [ { "candidate": "Kristie Miller Culler", "votes": 279, "share": 74.4 }, { "candidate": "Steve McGilvray", "votes": 96, "share": 25.6 } ], "participated": true, "map_key": "ALAMANCE_13" }, "geometry": { "type": "Polygon", "coordinates": [ [ [ -79.386797991157522, 36.088644999776733 ], [ -79.386891991143898, 36.091214000359301 ], [ -79.38524599120629, 36.090867000243449 ], [ -79.384972991486123, 36.092804000379033 ], [ -79.383584991570913, 36.093826999660436 ], [ -79.380615991420356, 36.094304999919807 ], [ -79.380530991221832, 36.092762000358213 ], [ -79.376907991335855, 36.092751999643035 ], [ -79.376922990735835, 36.093765000287242 ], [ -79.374951991404302, 36.094407999608514 ], [ -79.37531199066936, 36.095632000470196 ], [ -79.37399899094639, 36.09592000026668 ], [ -79.373793991377894, 36.095193999774317 ], [ -79.371968990695876, 36.095783999593287 ], [ -79.379477991170262, 36.100230000143853 ], [ -79.385748991492804, 36.105485000030818 ], [ -79.379909991536678, 36.109418000237319 ], [ -79.378807991660238, 36.108111999689704 ], [ -79.376878991671774, 36.108998999840658 ], [ -79.377086990774217, 36.110274000412005 ], [ -79.375567990833261, 36.110277000355708 ], [ -79.376677991199344, 36.11357500002007 ], [ -79.375111990669808, 36.115368999629368 ], [ -79.374787991217445, 36.11720499988099 ], [ -79.372956990981365, 36.116534000278946 ], [ -79.3717429911149, 36.117301999600201 ], [ -79.372004991106451, 36.118445000263861 ], [ -79.370910990657791, 36.11997900046709 ], [ -79.369702991377963, 36.119706000386245 ], [ -79.369972991200569, 36.120567000356282 ], [ -79.367323991385462, 36.120266999683103 ], [ -79.367072990721638, 36.137327999993204 ], [ -79.293201991679936, 36.137805999613327 ], [ -79.295447991158653, 36.134766999807397 ], [ -79.295617991274469, 36.132568999750468 ], [ -79.298891990642701, 36.12895299987521 ], [ -79.298779991445201, 36.126343000089221 ], [ -79.306508991106895, 36.120988000084296 ], [ -79.306254991422932, 36.117164000363871 ], [ -79.312718991300443, 36.113550999860969 ], [ -79.313675990732378, 36.107435000275828 ], [ -79.317625990811649, 36.106678999728295 ], [ -79.321038991558922, 36.10317600013007 ], [ -79.32504599135612, 36.105075999952795 ], [ -79.32702099167463, 36.102878000130701 ], [ -79.32677499167589, 36.101575000137146 ], [ -79.328486991144004, 36.099008999618412 ], [ -79.329953991164246, 36.098590000342661 ], [ -79.331950991273573, 36.099801000215955 ], [ -79.334162990927979, 36.09700200035045 ], [ -79.336512991541326, 36.095632999595168 ], [ -79.335739990987094, 36.092362000065322 ], [ -79.334521991102235, 36.091176000177533 ], [ -79.333297991100366, 36.091971000099853 ], [ -79.332691991218098, 36.090718999891045 ], [ -79.334184990733533, 36.086015000329866 ], [ -79.336669991234714, 36.083859999645348 ], [ -79.337581991247276, 36.079671999736604 ], [ -79.341250991042415, 36.079332000198463 ], [ -79.342685991055447, 36.076956000299987 ], [ -79.345010991245871, 36.075690000175285 ], [ -79.344831990705131, 36.074024000332074 ], [ -79.343680990625558, 36.073605999974887 ], [ -79.344352991452936, 36.074852999600331 ], [ -79.342884990951731, 36.074866999738447 ], [ -79.342386991370475, 36.07291599979208 ], [ -79.343765991204862, 36.071416999762711 ], [ -79.344935991321123, 36.06653700007935 ], [ -79.348538990762222, 36.065563000266998 ], [ -79.349804991668165, 36.064030999867001 ], [ -79.352117991670383, 36.065391000236836 ], [ -79.355853990974438, 36.062486000273516 ], [ -79.353045991543055, 36.061013000307277 ], [ -79.352501991270898, 36.059828000382737 ], [ -79.354960990959171, 36.055193000239193 ], [ -79.353604991378489, 36.052471999730699 ], [ -79.355938990957867, 36.049420999942946 ], [ -79.358689990726504, 36.050663000420244 ], [ -79.360683991082311, 36.050579000474947 ], [ -79.359712991219979, 36.048946999869209 ], [ -79.359905991543272, 36.046138000275427 ], [ -79.362074990983785, 36.045260999821139 ], [ -79.362628991466906, 36.043879999911091 ], [ -79.366499991233297, 36.044466999817189 ], [ -79.368032990698907, 36.045806000128749 ], [ -79.366095991247391, 36.049399000271229 ], [ -79.367791991598523, 36.057100000099432 ], [ -79.366421991245147, 36.05915200020884 ], [ -79.363776991464491, 36.060791999820999 ], [ -79.361624990937671, 36.064559000203467 ], [ -79.360721990920155, 36.06886299976172 ], [ -79.359006990972517, 36.075013999731162 ], [ -79.361768990782281, 36.079564999692238 ], [ -79.362396991575594, 36.082221000406285 ], [ -79.365725991693608, 36.086317999729737 ], [ -79.371360991516312, 36.0846830000119 ], [ -79.371133991260407, 36.07934999962243 ], [ -79.370105990965357, 36.077306000176407 ], [ -79.376427990985363, 36.077713999882491 ], [ -79.376176991665886, 36.081827999924236 ], [ -79.378628991186105, 36.084814999962781 ], [ -79.380329990917716, 36.086927999971905 ], [ -79.381441990650558, 36.086228999739703 ], [ -79.384024990648825, 36.087363999931704 ], [ -79.384597991522611, 36.088450000009658 ], [ -79.386797991157522, 36.088644999776733 ] ] ] } },
{ "type": "Feature", "properties": { "county": "ALAMANCE", "precinct": "03SE", "enr_desc": "South Boone E", "winner": "Kristie Miller Culler", "winner_votes": 238, "winner_share": 70.414201183431956, "runner_up": "Steve McGilvray", "runner_up_votes": 100, "runner_up_share": 29.585798816568047, "contest_votes": 338, "margin_of_victory": 40.828402366863912, "is_tie": false, "results": [ { "candidate": "Kristie Miller Culler", "votes": 238, "share": 70.41420118343196 }, { "candidate": "Steve McGilvray", "votes": 100, "share": 29.585798816568047 } ], "participated": true, "map_key": "ALAMANCE_03SE" }, "geometry": { "type": "Polygon", "coordinates": [ [ [ -79.524430975875347, 36.039826248478384 ], [ -79.519376565110349, 36.042483770233737 ], [ -79.517047500207539, 36.045971579454623 ], [ -79.509436210187019, 36.049892294383191 ], [ -79.505838252048861, 36.059117700441178 ], [ -79.509480070784008, 36.060701494339426 ], [ -79.519684854797461, 36.068270842305282 ], [ -79.516785425935396, 36.069186755984873 ], [ -79.510549760286196, 36.06713573952586 ], [ -79.50864928176523, 36.067310142783541 ], [ -79.505373525887222, 36.068383568633323 ], [ -79.50511513010953, 36.070772100578445 ], [ -79.503551793882437, 36.071369219278097 ], [ -79.51479246645043, 36.076898208545785 ], [ -79.513721734293441, 36.080376671185554 ], [ -79.513709990927694, 36.08037699990571 ], [ -79.503526991372468, 36.080929000218383 ], [ -79.496474991422971, 36.080299000475549 ], [ -79.495632991541129, 36.080214000243451 ], [ -79.491557991050101, 36.080581000414533 ], [ -79.487237991097714, 36.086231999957931 ], [ -79.478647991142068, 36.090090000305466 ], [ -79.479104990684348, 36.088037999827016 ], [ -79.480656991423629, 36.080894999789635 ], [ -79.482527991200655, 36.07209799969376 ], [ -79.482619990885425, 36.071656000342429 ], [ -79.483093991091792, 36.069394999682679 ], [ -79.483623990779975, 36.067272999801745 ], [ -79.483927991237906, 36.065760999713248 ], [ -79.488380991172946, 36.03989000038743 ], [ -79.488512991646559, 36.038629999604595 ], [ -79.487210990644641, 36.037153000139526 ], [ -79.487965991160848, 36.036417000147743 ], [ -79.489427991487005, 36.036039999823878 ], [ -79.493654991153321, 36.037503000198647 ], [ -79.499897991266835, 36.042695000319057 ], [ -79.502684990806173, 36.042264000359175 ], [ -79.503508991064791, 36.04135899979952 ], [ -79.503647991569508, 36.038265000393601 ], [ -79.505482991188217, 36.034446000324209 ], [ -79.508232991614705, 36.035281999604663 ], [ -79.509358991686852, 36.03814699965708 ], [ -79.510409991466702, 36.038656999666898 ], [ -79.513836991344391, 36.038606000304426 ], [ -79.519432991682294, 36.036298999748631 ], [ -79.52442199147923, 36.039817000340321 ], [ -79.524430975875347, 36.039826248478384 ] ] ] } },
{ "type": "Feature", "properties": { "county": "ALAMANCE", "precinct": "03SM", "enr_desc": "South Boone M", "winner": "Kristie Miller Culler", "winner_votes": 221, "winner_share": 71.753246753246756, "runner_up": "Steve McGilvray", "runner_up_votes": 87, "runner_up_share": 28.246753246753247, "contest_votes": 308, "margin_of_victory": 43.506493506493513, "is_tie": false, "results": [ { "candidate": "Kristie Miller Culler", "votes": 221, "share": 71.75324675324676 }, { "candidate": "Steve McGilvray", "votes": 87, "share": 28.246753246753247 } ], "participated": true, "map_key": "ALAMANCE_03SM" }, "geometry": { "type": "Polygon", "coordinates": [ [ [ -79.513721734293441, 36.080376671185554 ], [ -79.51479246645043, 36.076898208545785 ], [ -79.503551793882437, 36.071369219278097 ], [ -79.50511513010953, 36.070772100578445 ], [ -79.505373525887222, 36.068383568633323 ], [ -79.50864928176523, 36.067310142783541 ], [ -79.510549760286196, 36.06713573952586 ], [ -79.516785425935396, 36.069186755984873 ], [ -79.519684854797461, 36.068270842305282 ], [ -79.509480070784008, 36.060701494339426 ], [ -79.505838252048861, 36.059117700441178 ], [ -79.509436210187019, 36.049892294383191 ], [ -79.517047500207539, 36.045971579454623 ], [ -79.519376565110349, 36.042483770233737 ], [ -79.524430975875347, 36.039826248478384 ], [ -79.524659991625484, 36.04006200043225 ], [ -79.526330991522215, 36.041794000055532 ], [ -79.52785799097974, 36.042992000277536 ], [ -79.529446991653842, 36.045273999762536 ], [ -79.532050991513714, 36.045351999821897 ], [ -79.533340990836479, 36.044032000269986 ], [ -79.534838991337836, 36.043821000185147 ], [ -79.537481991139686, 36.044371999900427 ], [ -79.539411990983609, 36.045737999841045 ], [ -79.539162990731754, 36.081152000245382 ], [ -79.524069990808698, 36.080444000354234 ], [ -79.514388991363646, 36.080357999747086 ], [ -79.513721734293441, 36.080376671185554 ] ] ] } }
]
}
