{
"type": "FeatureCollection",
"name": "alexander_county_board_of_education_district_02_rep",
"crs": { "type": "name", "properties": { "name": "urn:ogc:def:crs:OGC:1.3:CRS84" } },
"features": [
{ "type": "Feature", "properties": { "county": "ALEXANDER", "precinct": "B2", "enr_desc": "Bethlehem 2", "winner": "Chris Smith", "winner_votes": 170.0, "winner_share": 76.233183856502237, "runner_up": "Rob Arguelles", "runner_up_votes": 53.0, "runner_up_share": 23.766816143497756, "contest_votes": 223.0, "margin_of_victory": 52.46636771300448, "is_tie": false, "results": [ { "candidate": "Chris Smith", "votes": 170, "share": 76.23318385650224 }, { "candidate": "Rob Arguelles", "votes": 53, "share": 23.766816143497756 } ], "participated": true, "map_key": "ALEXANDER_B2" }, "geometry": { "type": "Polygon", "coordinates": [ [ [ -81.251278990952798, 35.814722000569731 ], [ -81.252265991323085, 35.810636999946446 ], [ -81.254112991264734, 35.808798000110798 ], [ -81.267280991516358, 35.804495000446728 ], [ -81.280114991283199, 35.80613500034957 ], [ -81.28368499112544, 35.804755000050847 ], [ -81.288994991357882, 35.80039000053943 ], [ -81.298073991077345, 35.79819300024247 ], [ -81.299538990690252, 35.798337999888105 ], [ -81.304398991053361, 35.802547999910189 ], [ -81.303792991551262, 35.805506000049924 ], [ -81.305184991064948, 35.809254000034926 ], [ -81.307348991196619, 35.825397000072073 ], [ -81.308614991550613, 35.830798000113269 ], [ -81.311300991497902, 35.835233000004706 ], [ -81.309910991254199, 35.843837000321109 ], [ -81.306084991684074, 35.851890000529828 ], [ -81.305888990998398, 35.856733000550079 ], [ -81.302557990828049, 35.868352000474538 ], [ -81.30402799150815, 35.872752999915441 ], [ -81.308948991672239, 35.87576200012861 ], [ -81.308253991251519, 35.880038000555373 ], [ -81.306158991079727, 35.88328900039734 ], [ -81.305847991406893, 35.889332999942667 ], [ -81.301139990836987, 35.893956000515971 ], [ -81.296607991320258, 35.895664000103928 ], [ -81.293679991606041, 35.898183000225757 ], [ -81.292972991370874, 35.897621999922436 ], [ -81.290981990827049, 35.895109999891666 ], [ -81.290492990929096, 35.89122000023076 ], [ -81.288531990777074, 35.887354999865131 ], [ -81.286811991105495, 35.877611000316769 ], [ -81.283388991595615, 35.871767999815518 ], [ -81.280620991334047, 35.869215000402896 ], [ -81.280220990864947, 35.867515000378319 ], [ -81.278757991166074, 35.86728599974942 ], [ -81.275916991523403, 35.864004000176919 ], [ -81.271789991555707, 35.856928000385324 ], [ -81.269140990948088, 35.85608900021753 ], [ -81.266963991032782, 35.856882000289794 ], [ -81.266259991640553, 35.856403000500421 ], [ -81.26611099097785, 35.853509000129264 ], [ -81.267215991171085, 35.849830000031659 ], [ -81.261583990867976, 35.850971999848348 ], [ -81.25709399080425, 35.844837000499581 ], [ -81.255451991489664, 35.840877000107838 ], [ -81.255314990995316, 35.839483999960159 ], [ -81.258232991519662, 35.83539900025859 ], [ -81.257171991183185, 35.834742000592684 ], [ -81.256957990672234, 35.833492000536111 ], [ -81.258552990762098, 35.830355000535235 ], [ -81.255280991190347, 35.826573000016289 ], [ -81.255078990932702, 35.823474000460145 ], [ -81.25553099155843, 35.824494999829064 ], [ -81.257351991361205, 35.824478000087531 ], [ -81.261833990704602, 35.828672000370986 ], [ -81.264150990702291, 35.829511999760037 ], [ -81.257558991661583, 35.824006000187936 ], [ -81.252890991614038, 35.821749999906679 ], [ -81.252809990699518, 35.817423000548075 ], [ -81.251278990952798, 35.814722000569731 ] ] ] } },
{ "type": "Feature", "properties": { "county": "ALEXANDER", "precinct": "B1", "enr_desc": "Bethlehem 1", "winner": "Chris Smith", "winner_votes": 34.0, "winner_share": 73.91304347826086, "runner_up": "Rob Arguelles", "runner_up_votes": 12.0, "runner_up_share": 26.086956521739129, "contest_votes": 46.0, "margin_of_victory": 47.826086956521735, "is_tie": false, "results": [ { "candidate": "Chris Smith", "votes": 34, "share": 73.91304347826086 }, { "candidate": "Rob Arguelles", "votes": 12, "share": 26.08695652173913 } ], "participated": true, "map_key": "ALEXANDER_B1" }, "geometry": { "type": "Polygon", "coordinates": [ [ [ -81.304398991053361, 35.802547999910189 ], [ -81.309085991441293, 35.802385999974099 ], [ -81.313516991400206, 35.798069999833459 ], [ -81.315912991632914, 35.79685699990312 ], [ -81.334271991564435, 35.796281000593844 ], [ -81.333979990882412, 35.798504999872236 ], [ -81.331873991170951, 35.800503999841979 ], [ -81.331904991000798, 35.802670999965777 ], [ -81.332911991294239, 35.803829999781684 ], [ -81.335032990719867, 35.803777000367724 ], [ -81.335660990811547, 35.80749700001973 ], [ -81.337916991420258, 35.812631000238419 ], [ -81.335742991388528, 35.814513999835953 ], [ -81.339973990828383, 35.816056999933366 ], [ -81.339729990915686, 35.816890999890425 ], [ -81.337396990841597, 35.817910999991589 ], [ -81.339898991058618, 35.824155000563351 ], [ -81.340520991073745, 35.82441000018833 ], [ -81.340976990929889, 35.823007999852159 ], [ -81.34235799101458, 35.822360000364391 ], [ -81.344033991713502, 35.824691000109276 ], [ -81.333372990621726, 35.87889200008653 ], [ -81.3271749913322, 35.885684000593024 ], [ -81.321283990754793, 35.888660000355728 ], [ -81.320395991630747, 35.889887000606471 ], [ -81.317729991211294, 35.890570000471214 ], [ -81.31557899097416, 35.893527000390947 ], [ -81.310739991190346, 35.892329000397069 ], [ -81.308702990963425, 35.890412000375278 ], [ -81.305847991406893, 35.889332999942667 ], [ -81.306158991079727, 35.88328900039734 ], [ -81.308253991251519, 35.880038000555373 ], [ -81.308948991672239, 35.87576200012861 ], [ -81.30402799150815, 35.872752999915441 ], [ -81.302557990828049, 35.868352000474538 ], [ -81.305888990998398, 35.856733000550079 ], [ -81.306084991684074, 35.851890000529828 ], [ -81.309910991254199, 35.843837000321109 ], [ -81.311300991497902, 35.835233000004706 ], [ -81.308614991550613, 35.830798000113269 ], [ -81.307348991196619, 35.825397000072073 ], [ -81.305184991064948, 35.809254000034926 ], [ -81.303792991551262, 35.805506000049924 ], [ -81.304398991053361, 35.802547999910189 ] ] ] } },
{ "type": "Feature", "properties": { "county": "ALEXANDER", "precinct": "E", "enr_desc": "Ellendale", "winner": "Chris Smith", "winner_votes": 51.0, "winner_share": 83.606557377049185, "runner_up": "Rob Arguelles", "runner_up_votes": 10.0, "runner_up_share": 16.393442622950818, "contest_votes": 61.0, "margin_of_victory": 67.21311475409837, "is_tie": false, "results": [ { "candidate": "Chris Smith", "votes": 51, "share": 83.60655737704919 }, { "candidate": "Rob Arguelles", "votes": 10, "share": 16.39344262295082 } ], "participated": true, "map_key": "ALEXANDER_E" }, "geometry": { "type": "Polygon", "coordinates": [ [ [ -81.333372990621726, 35.87889200008653 ], [ -81.342904990856127, 35.92320300012809 ], [ -81.328323991132152, 35.996583000361568 ], [ -81.326490991134364, 35.99482900057771 ], [ -81.322504990624608, 35.996847000111202 ], [ -81.317854990623431, 35.996868999951431 ], [ -81.315840991002915, 36.000698000232873 ], [ -81.313899991680827, 36.001461000491325 ], [ -81.314351990915128, 36.004259000142675 ], [ -81.308605991581146, 36.005435999837928 ], [ -81.306401990976084, 36.004401000063218 ], [ -81.303511990910039, 36.005050000314547 ], [ -81.301417990760896, 36.004291000088379 ], [ -81.300636990773015, 36.005982000142886 ], [ -81.299309991423328, 36.006402000039856 ], [ -81.294631991082966, 36.001817000183628 ], [ -81.292954990923391, 36.001930999776718 ], [ -81.289776991138268, 36.000474999887921 ], [ -81.288868991556654, 35.998686999924836 ], [ -81.283053990659724, 35.993107000008088 ], [ -81.283026991449205, 35.99223899982811 ], [ -81.280001991091623, 35.990488000342999 ], [ -81.281238990853666, 35.986207000515314 ], [ -81.287252991257901, 35.98884800059151 ], [ -81.289518991025531, 35.988524999879552 ], [ -81.291508991177579, 35.986209999811997 ], [ -81.292964991218881, 35.982757000275377 ], [ -81.29213299151364, 35.981466000266678 ], [ -81.292893990986158, 35.978953000557162 ], [ -81.292050990849077, 35.975636000442989 ], [ -81.289325991588882, 35.97532199984429 ], [ -81.288756991260883, 35.973345000441654 ], [ -81.286080991450135, 35.972249000577079 ], [ -81.281811990905339, 35.96773499993558 ], [ -81.274248991303523, 35.967819999753054 ], [ -81.275768990723478, 35.964050999987293 ], [ -81.274159990862799, 35.963572999803375 ], [ -81.271125991276023, 35.959863000087246 ], [ -81.269118991172562, 35.95912599994832 ], [ -81.267233991423836, 35.956871000001712 ], [ -81.265401990987925, 35.956217000503273 ], [ -81.261548990791624, 35.956478000051028 ], [ -81.260609991084436, 35.955263000108452 ], [ -81.261739991433558, 35.954202999717495 ], [ -81.261280990651301, 35.951850999830754 ], [ -81.260078991407113, 35.951003999804733 ], [ -81.258672991575267, 35.950524999794233 ], [ -81.256190991610652, 35.951638999729838 ], [ -81.25572199161175, 35.953089000532145 ], [ -81.254696990766703, 35.952617999973988 ], [ -81.253347990796954, 35.948763999984401 ], [ -81.250004991061573, 35.94407399987788 ], [ -81.248053990975862, 35.942579000128447 ], [ -81.245512991297971, 35.942800999920109 ], [ -81.246178991663967, 35.943473000023666 ], [ -81.245604991125091, 35.9449419998951 ], [ -81.244108990664429, 35.944255999978388 ], [ -81.242483990925322, 35.942065000483723 ], [ -81.23827999102582, 35.944224000538313 ], [ -81.236249990788508, 35.943370999752304 ], [ -81.23233199148163, 35.943465999965383 ], [ -81.231684991653395, 35.940345000225449 ], [ -81.226952990881642, 35.941217000154346 ], [ -81.224396991498381, 35.938453999872422 ], [ -81.22505099132276, 35.936322000116562 ], [ -81.224152991700706, 35.933377999744415 ], [ -81.223185991070679, 35.929517000518871 ], [ -81.220567991681406, 35.926185000142048 ], [ -81.217735990744558, 35.925317999915045 ], [ -81.216435991655686, 35.928772000468719 ], [ -81.214801991421254, 35.927377000254431 ], [ -81.214269990965377, 35.924278000122577 ], [ -81.218956991337663, 35.913138000536954 ], [ -81.218344991211652, 35.911357000601676 ], [ -81.219006991691742, 35.908460000403167 ], [ -81.215414990857283, 35.904273000413745 ], [ -81.212893991368588, 35.903438999853286 ], [ -81.213671990920275, 35.900411000410216 ], [ -81.211316990922427, 35.898974000600148 ], [ -81.213064991088174, 35.896836999921661 ], [ -81.214502990629185, 35.895739999782535 ], [ -81.216232990625556, 35.891283000047757 ], [ -81.218712991208534, 35.890576999932065 ], [ -81.220501991046163, 35.887541000390961 ], [ -81.228435991426124, 35.886382000451455 ], [ -81.226772991245909, 35.880441999833828 ], [ -81.224850991531596, 35.877132000078731 ], [ -81.224789991589319, 35.873647000112499 ], [ -81.220817991551627, 35.866739999881133 ], [ -81.220676991516328, 35.861759999918689 ], [ -81.221286990615667, 35.860452999816985 ], [ -81.223921991493881, 35.85854400047014 ], [ -81.227135990743591, 35.858411000203105 ], [ -81.230283991282704, 35.856880000265882 ], [ -81.235067990645916, 35.857210000540064 ], [ -81.23812199158067, 35.859233000413667 ], [ -81.240905990855438, 35.859016000086818 ], [ -81.246717991538404, 35.85663900053742 ], [ -81.250897991413083, 35.853827000507536 ], [ -81.255523991362892, 35.853654000326152 ], [ -81.261583990867976, 35.850971999848348 ], [ -81.267215991171085, 35.849830000031659 ], [ -81.26611099097785, 35.853509000129264 ], [ -81.266259991640553, 35.856403000500421 ], [ -81.266963991032782, 35.856882000289794 ], [ -81.269140990948088, 35.85608900021753 ], [ -81.271789991555707, 35.856928000385324 ], [ -81.275916991523403, 35.864004000176919 ], [ -81.278757991166074, 35.86728599974942 ], [ -81.280220990864947, 35.867515000378319 ], [ -81.280620991334047, 35.869215000402896 ], [ -81.283388991595615, 35.871767999815518 ], [ -81.286811991105495, 35.877611000316769 ], [ -81.288531990777074, 35.887354999865131 ], [ -81.290492990929096, 35.89122000023076 ], [ -81.290981990827049, 35.895109999891666 ], [ -81.292972991370874, 35.897621999922436 ], [ -81.293679991606041, 35.898183000225757 ], [ -81.296607991320258, 35.895664000103928 ], [ -81.301139990836987, 35.893956000515971 ], [ -81.305847991406893, 35.889332999942667 ], [ -81.308702990963425, 35.890412000375278 ], [ -81.310739991190346, 35.892329000397069 ], [ -81.31557899097416, 35.893527000390947 ], [ -81.317729991211294, 35.890570000471214 ], [ -81.320395991630747, 35.889887000606471 ], [ -81.321283990754793, 35.888660000355728 ], [ -81.3271749913322, 35.885684000593024 ], [ -81.333372990621726, 35.87889200008653 ] ] ] } },
{ "type": "Feature", "properties": { "county": null, "precinct": null, "enr_desc": "Gwaltney 1 2", "winner": null, "winner_votes": null, "winner_share": null, "runner_up": null, "runner_up_votes": null, "runner_up_share": null, "contest_votes": null, "margin_of_victory": null, "is_tie": false, "results": null, "participated": false, "map_key": null }, "geometry": { "type": "Polygon", "coordinates": [ [ [ -81.10535999120178, 35.997590999789651 ], [ -81.108440990859478, 35.998771000431944 ], [ -81.115402991432646, 35.999066000209687 ], [ -81.121519990645865, 36.001825000024958 ], [ -81.123471990663049, 36.001724999882683 ], [ -81.123752990770868, 36.002223999939503 ], [ -81.122397991528587, 36.003481000242154 ], [ -81.122755991591418, 36.004309000489769 ], [ -81.129886990828382, 36.004522999776299 ], [ -81.132464991054917, 36.006192000589344 ], [ -81.132992990972625, 36.00743999993869 ], [ -81.136471990896439, 36.008309000022138 ], [ -81.131766990641353, 36.013969999879848 ], [ -81.134779991553799, 36.016240000008644 ], [ -81.135729991000147, 36.01830099996549 ], [ -81.13352699137657, 36.020389000291551 ], [ -81.129381991186378, 36.02166600018181 ], [ -81.126441990600654, 36.023634000220177 ], [ -81.133203990985976, 36.028481999855622 ], [ -81.145831991097111, 36.03375999977056 ], [ -81.142905990596631, 36.03629099978712 ], [ -81.139822991550673, 36.037651999979985 ], [ -81.136814990749855, 36.036385000269497 ], [ -81.130238990728287, 36.037598000099507 ], [ -81.123460990658145, 36.037804999888586 ], [ -81.121508991615727, 36.035621000460281 ], [ -81.115798991220345, 36.034248000556779 ], [ -81.111688991075127, 36.037738999790207 ], [ -81.104925991299325, 36.035503999738566 ], [ -81.101419991672046, 36.031831000112014 ], [ -81.098583990674996, 36.030890999799212 ], [ -81.098994991411828, 36.029889000136301 ], [ -81.098112991619544, 36.028162000444155 ], [ -81.057571991480174, 36.031549999986431 ], [ -81.048507990884147, 36.0410800001494 ], [ -81.028832990837046, 36.045652000550312 ], [ -81.003399990618064, 35.99673700033901 ], [ -81.005540991276888, 35.958287000337698 ], [ -81.029847991385665, 35.890124000563404 ], [ -81.031387990764074, 35.889176999825438 ], [ -81.032600991691481, 35.889675999730692 ], [ -81.031932990865499, 35.892310000452753 ], [ -81.03355699123729, 35.893084999802042 ], [ -81.034691990969193, 35.892826000537305 ], [ -81.036609991409179, 35.889879000379402 ], [ -81.0378279906583, 35.889444000491807 ], [ -81.038202991681914, 35.890006000458051 ], [ -81.037034991341571, 35.891517000255838 ], [ -81.037390991074972, 35.893186999723653 ], [ -81.040449991387362, 35.891673000053174 ], [ -81.048591990930447, 35.893126000458274 ], [ -81.049557991232533, 35.896045000586071 ], [ -81.048392990873751, 35.898326000481703 ], [ -81.050310991138019, 35.899552000168086 ], [ -81.054441990690648, 35.89850200009468 ], [ -81.053581991404428, 35.895978000038298 ], [ -81.05640199065671, 35.896472000288632 ], [ -81.057176991642976, 35.898424000528124 ], [ -81.055912991303032, 35.900177000089855 ], [ -81.056764990675717, 35.90123400023046 ], [ -81.058588990621857, 35.902636000272281 ], [ -81.061391991156142, 35.902460000517813 ], [ -81.063016991193052, 35.906150000408921 ], [ -81.067036991255449, 35.907071000123175 ], [ -81.068475991115889, 35.914567000584555 ], [ -81.067374991081081, 35.916248999916611 ], [ -81.065135991556559, 35.916872000429372 ], [ -81.066151990935325, 35.917918999955148 ], [ -81.068179991657701, 35.917300000571679 ], [ -81.070595990788547, 35.919385000291228 ], [ -81.067994991202909, 35.922703000518766 ], [ -81.069411991583252, 35.924510000480701 ], [ -81.067130991090636, 35.925578000124041 ], [ -81.067096991382058, 35.927214000201282 ], [ -81.068888990905577, 35.931195999742869 ], [ -81.06758399164589, 35.933224000523069 ], [ -81.072816990764579, 35.936415000256304 ], [ -81.069463990940363, 35.938810000091806 ], [ -81.071852990973255, 35.942525000392266 ], [ -81.073683991352524, 35.943920999705753 ], [ -81.069848991030725, 35.948025999982534 ], [ -81.070525991560402, 35.949433999838014 ], [ -81.069422990655823, 35.95436699988538 ], [ -81.074518991599675, 35.953929000097013 ], [ -81.076320990829586, 35.954485000230896 ], [ -81.076348991509718, 35.952716999835786 ], [ -81.076956991599545, 35.952653000470214 ], [ -81.076982990689515, 35.956101999914239 ], [ -81.083518990764887, 35.974338000501817 ], [ -81.08586199085768, 35.971646999915251 ], [ -81.085455991413852, 35.974405999981848 ], [ -81.087902990911999, 35.97808900012064 ], [ -81.098457991117243, 35.982142000503757 ], [ -81.09984699143962, 35.985630999853868 ], [ -81.098452991492323, 35.98706399976551 ], [ -81.100715991582973, 35.990658999927412 ], [ -81.10001199143133, 35.991346000149449 ], [ -81.100307990948963, 35.99368200002047 ], [ -81.099097991356871, 35.995638000261444 ], [ -81.10535999120178, 35.997590999789651 ] ] ] } },
{ "type": "Feature", "properties": { "county": null, "precinct": null, "enr_desc": "Little River And Sugar Loaf", "winner": null, "winner_votes": null, "winner_share": null, "runner_up": null, "runner_up_votes": null, "runner_up_share": null, "contest_votes": null, "margin_of_victory": null, "is_tie": false, "results": null, "participated": false, "map_key": null }, "geometry": { "type": "Polygon", "coordinates": [ [ [ -81.19820199123356, 35.955662999872679 ], [ -81.200157991283831, 35.953285999993 ], [ -81.200200990699926, 35.949093999788126 ], [ -81.202482991597364, 35.950515000129229 ], [ -81.208611990852177, 35.948260000059584 ], [ -81.221837991018504, 35.948406000345699 ], [ -81.218055991246274, 35.946234999888553 ], [ -81.216956991453912, 35.941141999754649 ], [ -81.212839991079548, 35.934907000541337 ], [ -81.219515991189056, 35.935217000386984 ], [ -81.224152991700706, 35.933377999744415 ], [ -81.22505099132276, 35.936322000116562 ], [ -81.224396991498381, 35.938453999872422 ], [ -81.226952990881642, 35.941217000154346 ], [ -81.231684991653395, 35.940345000225449 ], [ -81.23233199148163, 35.943465999965383 ], [ -81.236249990788508, 35.943370999752304 ], [ -81.23827999102582, 35.944224000538313 ], [ -81.242483990925322, 35.942065000483723 ], [ -81.244108990664429, 35.944255999978388 ], [ -81.245604991125091, 35.9449419998951 ], [ -81.246178991663967, 35.943473000023666 ], [ -81.245512991297971, 35.942800999920109 ], [ -81.248053990975862, 35.942579000128447 ], [ -81.250004991061573, 35.94407399987788 ], [ -81.253347990796954, 35.948763999984401 ], [ -81.254696990766703, 35.952617999973988 ], [ -81.25572199161175, 35.953089000532145 ], [ -81.256190991610652, 35.951638999729838 ], [ -81.258672991575267, 35.950524999794233 ], [ -81.260078991407113, 35.951003999804733 ], [ -81.261280990651301, 35.951850999830754 ], [ -81.261739991433558, 35.954202999717495 ], [ -81.260609991084436, 35.955263000108452 ], [ -81.261548990791624, 35.956478000051028 ], [ -81.265401990987925, 35.956217000503273 ], [ -81.267233991423836, 35.956871000001712 ], [ -81.269118991172562, 35.95912599994832 ], [ -81.271125991276023, 35.959863000087246 ], [ -81.274159990862799, 35.963572999803375 ], [ -81.275768990723478, 35.964050999987293 ], [ -81.274248991303523, 35.967819999753054 ], [ -81.281811990905339, 35.96773499993558 ], [ -81.286080991450135, 35.972249000577079 ], [ -81.288756991260883, 35.973345000441654 ], [ -81.289325991588882, 35.97532199984429 ], [ -81.292050990849077, 35.975636000442989 ], [ -81.292893990986158, 35.978953000557162 ], [ -81.29213299151364, 35.981466000266678 ], [ -81.292964991218881, 35.982757000275377 ], [ -81.291508991177579, 35.986209999811997 ], [ -81.289518991025531, 35.988524999879552 ], [ -81.287252991257901, 35.98884800059151 ], [ -81.281238990853666, 35.986207000515314 ], [ -81.280001991091623, 35.990488000342999 ], [ -81.283026991449205, 35.99223899982811 ], [ -81.283053990659724, 35.993107000008088 ], [ -81.288868991556654, 35.998686999924836 ], [ -81.289776991138268, 36.000474999887921 ], [ -81.292954990923391, 36.001930999776718 ], [ -81.294631991082966, 36.001817000183628 ], [ -81.299309991423328, 36.006402000039856 ], [ -81.295705991310498, 36.007093000222056 ], [ -81.293003991305937, 36.009415999930937 ], [ -81.290812990770206, 36.009490000191867 ], [ -81.286306991465253, 36.012483000232308 ], [ -81.283869991314049, 36.012894000129393 ], [ -81.284464990669335, 36.01542700027403 ], [ -81.281403990660905, 36.018257999943259 ], [ -81.272054991685124, 36.021624000095301 ], [ -81.268450991230921, 36.024982999895649 ], [ -81.266900991322487, 36.024772000332689 ], [ -81.263955990810075, 36.025899000041917 ], [ -81.261420991519572, 36.025358999916023 ], [ -81.259267990810272, 36.026305000456496 ], [ -81.258436990886139, 36.025294000204198 ], [ -81.256523990843121, 36.026453000327024 ], [ -81.253215990612219, 36.025422999890338 ], [ -81.249873991297207, 36.027263999790378 ], [ -81.244376991218402, 36.024831999904322 ], [ -81.240791991693158, 36.026310999712138 ], [ -81.240428991518741, 36.027948000398965 ], [ -81.23781099103401, 36.030885000404005 ], [ -81.232348991096458, 36.030163000417417 ], [ -81.230152991601528, 36.031453000509082 ], [ -81.219341990933671, 36.029825000539098 ], [ -81.21587199143589, 36.031269000194435 ], [ -81.212253990868561, 36.034106999732096 ], [ -81.207418991036221, 36.032717000033607 ], [ -81.205027991444993, 36.033763999871269 ], [ -81.202867990845306, 36.036147000313278 ], [ -81.195901991144808, 36.035033000571289 ], [ -81.193266991292134, 36.036663000028263 ], [ -81.190279990743363, 36.03721200031184 ], [ -81.19044399131306, 36.036238000360107 ], [ -81.189528991627014, 36.035549000363119 ], [ -81.185824991169738, 36.035711999854819 ], [ -81.182481991175194, 36.033060999962622 ], [ -81.180574990776293, 36.03345600059118 ], [ -81.17573099092742, 36.031105000100148 ], [ -81.173828991025715, 36.02906200018009 ], [ -81.174870991341137, 36.027430999768853 ], [ -81.173902991198588, 36.026161999846003 ], [ -81.168603991509258, 36.025445000225012 ], [ -81.145831991097111, 36.03375999977056 ], [ -81.133203990985976, 36.028481999855622 ], [ -81.126441990600654, 36.023634000220177 ], [ -81.129381991186378, 36.02166600018181 ], [ -81.13352699137657, 36.020389000291551 ], [ -81.135729991000147, 36.01830099996549 ], [ -81.134779991553799, 36.016240000008644 ], [ -81.131766990641353, 36.013969999879848 ], [ -81.136471990896439, 36.008309000022138 ], [ -81.132992990972625, 36.00743999993869 ], [ -81.132464991054917, 36.006192000589344 ], [ -81.129886990828382, 36.004522999776299 ], [ -81.122755991591418, 36.004309000489769 ], [ -81.122397991528587, 36.003481000242154 ], [ -81.123752990770868, 36.002223999939503 ], [ -81.123471990663049, 36.001724999882683 ], [ -81.121519990645865, 36.001825000024958 ], [ -81.115402991432646, 35.999066000209687 ], [ -81.108440990859478, 35.998771000431944 ], [ -81.10535999120178, 35.997590999789651 ], [ -81.109376990997674, 35.990249999884206 ], [ -81.11264399081999, 35.987991999893076 ], [ -81.112391990876588, 35.986402000462817 ], [ -81.116735991314599, 35.988161999819411 ], [ -81.119480991064123, 35.988251000412397 ], [ -81.124349991341688, 35.983465000418768 ], [ -81.131993991525761, 35.981588999960785 ], [ -81.132562991623573, 35.981123000072472 ], [ -81.132174990752844, 35.979402000073769 ], [ -81.134853991245762, 35.978426000113643 ], [ -81.134264991129015, 35.971071000114897 ], [ -81.130953991030665, 35.968236000503829 ], [ -81.129917991030197, 35.966286999903474 ], [ -81.129402991387337, 35.961764000188786 ], [ -81.130765991435467, 35.96102100034188 ], [ -81.140023990720223, 35.956029000538166 ], [ -81.142282991620831, 35.952256999999683 ], [ -81.150307991525764, 35.951006000110532 ], [ -81.151028990709392, 35.954935000325754 ], [ -81.156507991674275, 35.953974999797204 ], [ -81.162459990755451, 35.954204999854639 ], [ -81.162738991601444, 35.958851999962846 ], [ -81.159912991410209, 35.961197000212508 ], [ -81.162778991391733, 35.966896000145788 ], [ -81.175810991144402, 35.963706000551063 ], [ -81.185035990703312, 35.96449299986336 ], [ -81.18984499153278, 35.967951000281772 ], [ -81.192737991061861, 35.968027000218271 ], [ -81.19820199123356, 35.955662999872679 ] ] ] } },
{ "type": "Feature", "properties": { "county": null, "precinct": null, "enr_desc": "Millers", "winner": null, "winner_votes": null, "winner_share": null, "runner_up": null, "runner_up_votes": null, "runner_up_share": null, "contest_votes": null, "margin_of_victory": null, "is_tie": false, "results": null, "participated": false, "map_key": null }, "geometry": { "type": "Polygon", "coordinates": [ [ [ -81.142326991485035, 35.827166999816114 ], [ -81.140776990797832, 35.827918000558675 ], [ -81.141100991575811, 35.829525999889704 ], [ -81.139212991030206, 35.830360000450241 ], [ -81.134622991583242, 35.830627999800697 ], [ -81.133829990882035, 35.831762000210141 ], [ -81.135398991670087, 35.831682999878673 ], [ -81.137025991158794, 35.832759999898038 ], [ -81.141532990670342, 35.842198000472735 ], [ -81.141631991534183, 35.843514000370099 ], [ -81.139939991521885, 35.845935000501669 ], [ -81.138509990657795, 35.85034299974118 ], [ -81.142385991604698, 35.853579999956061 ], [ -81.142673990697133, 35.854987000211871 ], [ -81.138672990921918, 35.862370000346949 ], [ -81.135829991250006, 35.864938999830741 ], [ -81.131409991229631, 35.865798000064778 ], [ -81.138326991013159, 35.872928000541862 ], [ -81.141958991233196, 35.877870000346562 ], [ -81.132386991239287, 35.879302999753669 ], [ -81.126363990706082, 35.883534999772152 ], [ -81.121640991214093, 35.884628999773035 ], [ -81.118744991504698, 35.883567999828884 ], [ -81.118146991507345, 35.882308000594712 ], [ -81.111247991361608, 35.88179200025769 ], [ -81.09591799118229, 35.883716000193175 ], [ -81.083431991264774, 35.875620000025506 ], [ -81.073192991574018, 35.86256199997058 ], [ -81.070012991691726, 35.860328999747509 ], [ -81.065849990624613, 35.855283000197467 ], [ -81.061624990916258, 35.843695999932898 ], [ -81.060450991452399, 35.835108999958926 ], [ -81.062756991048033, 35.827640000018036 ], [ -81.064602991395574, 35.824560999886032 ], [ -81.070056991694628, 35.818141000441621 ], [ -81.075681990787928, 35.814954999982746 ], [ -81.078049991221206, 35.811899999951443 ], [ -81.079264991404983, 35.808993999746122 ], [ -81.078942991734934, 35.802775000495465 ], [ -81.08673099157059, 35.796681000243474 ], [ -81.093698990707821, 35.794033000027618 ], [ -81.101035991601108, 35.787477000395889 ], [ -81.102008990904665, 35.783382000287048 ], [ -81.105822991594181, 35.781902000165054 ], [ -81.106452991580866, 35.778512000356294 ], [ -81.109506990684096, 35.776594000130963 ], [ -81.115752991274377, 35.782308000511449 ], [ -81.120081991725655, 35.784599000108756 ], [ -81.122878990681258, 35.784939000088393 ], [ -81.128413990722024, 35.789383000111314 ], [ -81.129654991588367, 35.800573000208288 ], [ -81.13081199159673, 35.803241000286327 ], [ -81.13285799129855, 35.805290000445545 ], [ -81.13864199168998, 35.808441999768881 ], [ -81.141084991334949, 35.812162000340621 ], [ -81.142310991295901, 35.819807000410236 ], [ -81.142326991485035, 35.827166999816114 ] ] ] } },
{ "type": "Feature", "properties": { "county": null, "precinct": null, "enr_desc": "Sharpes 1 2", "winner": null, "winner_votes": null, "winner_share": null, "runner_up": null, "runner_up_votes": null, "runner_up_share": null, "contest_votes": null, "margin_of_victory": null, "is_tie": false, "results": null, "participated": false, "map_key": null }, "geometry": { "type": "Polygon", "coordinates": [ [ [ -81.060450991452399, 35.835108999958926 ], [ -81.061624990916258, 35.843695999932898 ], [ -81.065849990624613, 35.855283000197467 ], [ -81.070012991691726, 35.860328999747509 ], [ -81.073192991574018, 35.86256199997058 ], [ -81.083431991264774, 35.875620000025506 ], [ -81.09591799118229, 35.883716000193175 ], [ -81.111247991361608, 35.88179200025769 ], [ -81.118146991507345, 35.882308000594712 ], [ -81.118744991504698, 35.883567999828884 ], [ -81.120179990866276, 35.888324000474753 ], [ -81.120300990819402, 35.895539000058896 ], [ -81.12170799088203, 35.899744000089946 ], [ -81.120046991057777, 35.903776000446264 ], [ -81.120450991162684, 35.909510000228288 ], [ -81.125843990903846, 35.91288900057495 ], [ -81.126490991668334, 35.916134000328903 ], [ -81.124736990629842, 35.921459000313831 ], [ -81.119672991710402, 35.926034000386409 ], [ -81.119950991239932, 35.934977999807451 ], [ -81.121723991023288, 35.937504000289337 ], [ -81.127590991222107, 35.938413000392892 ], [ -81.129510990640895, 35.937752999865594 ], [ -81.130080991548056, 35.94224100043116 ], [ -81.132712991678176, 35.948842000055322 ], [ -81.131518991164342, 35.951279999875268 ], [ -81.131714991156912, 35.95284000024467 ], [ -81.129894991105132, 35.95452500048588 ], [ -81.127350991320597, 35.954264999860662 ], [ -81.125716991223598, 35.955809999829128 ], [ -81.12868299156905, 35.960074000303926 ], [ -81.130765991435467, 35.96102100034188 ], [ -81.129402991387337, 35.961764000188786 ], [ -81.129917991030197, 35.966286999903474 ], [ -81.130953991030665, 35.968236000503829 ], [ -81.134264991129015, 35.971071000114897 ], [ -81.134853991245762, 35.978426000113643 ], [ -81.132174990752844, 35.979402000073769 ], [ -81.132562991623573, 35.981123000072472 ], [ -81.131993991525761, 35.981588999960785 ], [ -81.124349991341688, 35.983465000418768 ], [ -81.119480991064123, 35.988251000412397 ], [ -81.116735991314599, 35.988161999819411 ], [ -81.112391990876588, 35.986402000462817 ], [ -81.11264399081999, 35.987991999893076 ], [ -81.109376990997674, 35.990249999884206 ], [ -81.10535999120178, 35.997590999789651 ], [ -81.099097991356871, 35.995638000261444 ], [ -81.100307990948963, 35.99368200002047 ], [ -81.10001199143133, 35.991346000149449 ], [ -81.100715991582973, 35.990658999927412 ], [ -81.098452991492323, 35.98706399976551 ], [ -81.09984699143962, 35.985630999853868 ], [ -81.098457991117243, 35.982142000503757 ], [ -81.087902990911999, 35.97808900012064 ], [ -81.085455991413852, 35.974405999981848 ], [ -81.08586199085768, 35.971646999915251 ], [ -81.083518990764887, 35.974338000501817 ], [ -81.076982990689515, 35.956101999914239 ], [ -81.076956991599545, 35.952653000470214 ], [ -81.076348991509718, 35.952716999835786 ], [ -81.076320990829586, 35.954485000230896 ], [ -81.074518991599675, 35.953929000097013 ], [ -81.069422990655823, 35.95436699988538 ], [ -81.070525991560402, 35.949433999838014 ], [ -81.069848991030725, 35.948025999982534 ], [ -81.073683991352524, 35.943920999705753 ], [ -81.071852990973255, 35.942525000392266 ], [ -81.069463990940363, 35.938810000091806 ], [ -81.072816990764579, 35.936415000256304 ], [ -81.06758399164589, 35.933224000523069 ], [ -81.068888990905577, 35.931195999742869 ], [ -81.067096991382058, 35.927214000201282 ], [ -81.067130991090636, 35.925578000124041 ], [ -81.069411991583252, 35.924510000480701 ], [ -81.067994991202909, 35.922703000518766 ], [ -81.070595990788547, 35.919385000291228 ], [ -81.068179991657701, 35.917300000571679 ], [ -81.066151990935325, 35.917918999955148 ], [ -81.065135991556559, 35.916872000429372 ], [ -81.067374991081081, 35.916248999916611 ], [ -81.068475991115889, 35.914567000584555 ], [ -81.067036991255449, 35.907071000123175 ], [ -81.063016991193052, 35.906150000408921 ], [ -81.061391991156142, 35.902460000517813 ], [ -81.058588990621857, 35.902636000272281 ], [ -81.056764990675717, 35.90123400023046 ], [ -81.055912991303032, 35.900177000089855 ], [ -81.057176991642976, 35.898424000528124 ], [ -81.05640199065671, 35.896472000288632 ], [ -81.053581991404428, 35.895978000038298 ], [ -81.054441990690648, 35.89850200009468 ], [ -81.050310991138019, 35.899552000168086 ], [ -81.048392990873751, 35.898326000481703 ], [ -81.049557991232533, 35.896045000586071 ], [ -81.048591990930447, 35.893126000458274 ], [ -81.040449991387362, 35.891673000053174 ], [ -81.037390991074972, 35.893186999723653 ], [ -81.037034991341571, 35.891517000255838 ], [ -81.038202991681914, 35.890006000458051 ], [ -81.0378279906583, 35.889444000491807 ], [ -81.036609991409179, 35.889879000379402 ], [ -81.034691990969193, 35.892826000537305 ], [ -81.03355699123729, 35.893084999802042 ], [ -81.031932990865499, 35.892310000452753 ], [ -81.032600991691481, 35.889675999730692 ], [ -81.031387990764074, 35.889176999825438 ], [ -81.029847991385665, 35.890124000563404 ], [ -81.041338991545786, 35.857854999977071 ], [ -81.060450991452399, 35.835108999958926 ] ] ] } },
{ "type": "Feature", "properties": { "county": null, "precinct": null, "enr_desc": "Taylorsville 1 4 5", "winner": null, "winner_votes": null, "winner_share": null, "runner_up": null, "runner_up_votes": null, "runner_up_share": null, "contest_votes": null, "margin_of_victory": null, "is_tie": false, "results": null, "participated": false, "map_key": null }, "geometry": { "type": "Polygon", "coordinates": [ [ [ -81.213064991088174, 35.896836999921661 ], [ -81.211316990922427, 35.898974000600148 ], [ -81.213671990920275, 35.900411000410216 ], [ -81.212893991368588, 35.903438999853286 ], [ -81.215414990857283, 35.904273000413745 ], [ -81.219006991691742, 35.908460000403167 ], [ -81.218344991211652, 35.911357000601676 ], [ -81.218956991337663, 35.913138000536954 ], [ -81.214269990965377, 35.924278000122577 ], [ -81.214801991421254, 35.927377000254431 ], [ -81.216435991655686, 35.928772000468719 ], [ -81.217735990744558, 35.925317999915045 ], [ -81.220567991681406, 35.926185000142048 ], [ -81.223185991070679, 35.929517000518871 ], [ -81.224152991700706, 35.933377999744415 ], [ -81.219515991189056, 35.935217000386984 ], [ -81.212839991079548, 35.934907000541337 ], [ -81.216956991453912, 35.941141999754649 ], [ -81.218055991246274, 35.946234999888553 ], [ -81.221837991018504, 35.948406000345699 ], [ -81.208611990852177, 35.948260000059584 ], [ -81.202482991597364, 35.950515000129229 ], [ -81.200200990699926, 35.949093999788126 ], [ -81.200157991283831, 35.953285999993 ], [ -81.19820199123356, 35.955662999872679 ], [ -81.195068990650967, 35.95855800025145 ], [ -81.191154991580902, 35.953467000336815 ], [ -81.189832991691461, 35.948695000353332 ], [ -81.182808990968596, 35.936674000178343 ], [ -81.182439991134103, 35.933840999829727 ], [ -81.178675991482933, 35.929036000066041 ], [ -81.176356991035178, 35.92261499980637 ], [ -81.175411991453956, 35.92289400020104 ], [ -81.172904991244351, 35.917626999946307 ], [ -81.170836990693459, 35.911006999774649 ], [ -81.170878990860103, 35.908004999996209 ], [ -81.16867499063784, 35.904681999834985 ], [ -81.166286991569166, 35.903302999798314 ], [ -81.156176990853609, 35.892266000355491 ], [ -81.149130990701863, 35.890998000169418 ], [ -81.145403991181013, 35.88908199977152 ], [ -81.141444991165415, 35.883906999954142 ], [ -81.142696991267329, 35.879404000344806 ], [ -81.141958991233196, 35.877870000346562 ], [ -81.138326991013159, 35.872928000541862 ], [ -81.131409991229631, 35.865798000064778 ], [ -81.135829991250006, 35.864938999830741 ], [ -81.138672990921918, 35.862370000346949 ], [ -81.142673990697133, 35.854987000211871 ], [ -81.142385991604698, 35.853579999956061 ], [ -81.138509990657795, 35.85034299974118 ], [ -81.139939991521885, 35.845935000501669 ], [ -81.141631991534183, 35.843514000370099 ], [ -81.141532990670342, 35.842198000472735 ], [ -81.137025991158794, 35.832759999898038 ], [ -81.135398991670087, 35.831682999878673 ], [ -81.133829990882035, 35.831762000210141 ], [ -81.134622991583242, 35.830627999800697 ], [ -81.139212991030206, 35.830360000450241 ], [ -81.141100991575811, 35.829525999889704 ], [ -81.140776990797832, 35.827918000558675 ], [ -81.142326991485035, 35.827166999816114 ], [ -81.143794991496037, 35.828076000337191 ], [ -81.149608990610204, 35.828957999740851 ], [ -81.154856991503308, 35.828311000559573 ], [ -81.1572699915193, 35.826069000426344 ], [ -81.161778991732319, 35.824768000504143 ], [ -81.167152991051722, 35.825718999731883 ], [ -81.175940991017413, 35.823054000055755 ], [ -81.190406990888818, 35.822384999826603 ], [ -81.190719991359998, 35.825301999890563 ], [ -81.189064990743347, 35.832461999966753 ], [ -81.18629799142461, 35.836449000453612 ], [ -81.185973990796768, 35.840275000203107 ], [ -81.190819990864426, 35.841321999837241 ], [ -81.198815991027132, 35.840846000354688 ], [ -81.20275399166232, 35.842515000297134 ], [ -81.205344990737828, 35.850474000006827 ], [ -81.203968991181128, 35.851336000403208 ], [ -81.201165990702179, 35.850710000051819 ], [ -81.199698990812635, 35.851712999875119 ], [ -81.202971990613847, 35.852289999946272 ], [ -81.201531991628457, 35.856001000079722 ], [ -81.202581991000088, 35.856398999888391 ], [ -81.209736991525091, 35.854978000442998 ], [ -81.211102991454638, 35.855632999864383 ], [ -81.209228991108418, 35.860980000174919 ], [ -81.210943990877752, 35.862287999778914 ], [ -81.211152990891421, 35.864064999781533 ], [ -81.209232990779725, 35.865223999883113 ], [ -81.206373990974242, 35.864278000602376 ], [ -81.206623990789964, 35.86648800058763 ], [ -81.20425399118804, 35.868940000087903 ], [ -81.20673999170333, 35.870775999937173 ], [ -81.209011990680452, 35.871164000050094 ], [ -81.207479990865068, 35.874268000357553 ], [ -81.208255991573637, 35.876422000054632 ], [ -81.209852991624544, 35.876524000475591 ], [ -81.209990990655029, 35.877740999761699 ], [ -81.209107990922149, 35.878836000600451 ], [ -81.207150991547778, 35.87876199985012 ], [ -81.20453099165816, 35.876384999876386 ], [ -81.204519991472907, 35.879971000187012 ], [ -81.202156990810153, 35.881334000218018 ], [ -81.204227991719321, 35.883001000579128 ], [ -81.203243991180329, 35.885423999845045 ], [ -81.203676990757955, 35.886535000191003 ], [ -81.207720991113433, 35.888999999917381 ], [ -81.210507990640892, 35.893199999942652 ], [ -81.214103990677756, 35.893603999836316 ], [ -81.214318991300445, 35.895230000562385 ], [ -81.213064991088174, 35.896836999921661 ] ] ] } },
{ "type": "Feature", "properties": { "county": null, "precinct": null, "enr_desc": "Taylorsville 2 3", "winner": null, "winner_votes": null, "winner_share": null, "runner_up": null, "runner_up_votes": null, "runner_up_share": null, "contest_votes": null, "margin_of_victory": null, "is_tie": false, "results": null, "participated": false, "map_key": null }, "geometry": { "type": "Polygon", "coordinates": [ [ [ -81.118744991504698, 35.883567999828884 ], [ -81.121640991214093, 35.884628999773035 ], [ -81.126363990706082, 35.883534999772152 ], [ -81.132386991239287, 35.879302999753669 ], [ -81.141958991233196, 35.877870000346562 ], [ -81.142696991267329, 35.879404000344806 ], [ -81.141444991165415, 35.883906999954142 ], [ -81.145403991181013, 35.88908199977152 ], [ -81.149130990701863, 35.890998000169418 ], [ -81.156176990853609, 35.892266000355491 ], [ -81.166286991569166, 35.903302999798314 ], [ -81.16867499063784, 35.904681999834985 ], [ -81.170878990860103, 35.908004999996209 ], [ -81.170836990693459, 35.911006999774649 ], [ -81.172904991244351, 35.917626999946307 ], [ -81.175411991453956, 35.92289400020104 ], [ -81.176356991035178, 35.92261499980637 ], [ -81.178675991482933, 35.929036000066041 ], [ -81.182439991134103, 35.933840999829727 ], [ -81.182808990968596, 35.936674000178343 ], [ -81.189832991691461, 35.948695000353332 ], [ -81.191154991580902, 35.953467000336815 ], [ -81.195068990650967, 35.95855800025145 ], [ -81.19820199123356, 35.955662999872679 ], [ -81.192737991061861, 35.968027000218271 ], [ -81.18984499153278, 35.967951000281772 ], [ -81.185035990703312, 35.96449299986336 ], [ -81.175810991144402, 35.963706000551063 ], [ -81.162778991391733, 35.966896000145788 ], [ -81.159912991410209, 35.961197000212508 ], [ -81.162738991601444, 35.958851999962846 ], [ -81.162459990755451, 35.954204999854639 ], [ -81.156507991674275, 35.953974999797204 ], [ -81.151028990709392, 35.954935000325754 ], [ -81.150307991525764, 35.951006000110532 ], [ -81.142282991620831, 35.952256999999683 ], [ -81.140023990720223, 35.956029000538166 ], [ -81.130765991435467, 35.96102100034188 ], [ -81.12868299156905, 35.960074000303926 ], [ -81.125716991223598, 35.955809999829128 ], [ -81.127350991320597, 35.954264999860662 ], [ -81.129894991105132, 35.95452500048588 ], [ -81.131714991156912, 35.95284000024467 ], [ -81.131518991164342, 35.951279999875268 ], [ -81.132712991678176, 35.948842000055322 ], [ -81.130080991548056, 35.94224100043116 ], [ -81.129510990640895, 35.937752999865594 ], [ -81.127590991222107, 35.938413000392892 ], [ -81.121723991023288, 35.937504000289337 ], [ -81.119950991239932, 35.934977999807451 ], [ -81.119672991710402, 35.926034000386409 ], [ -81.124736990629842, 35.921459000313831 ], [ -81.126490991668334, 35.916134000328903 ], [ -81.125843990903846, 35.91288900057495 ], [ -81.120450991162684, 35.909510000228288 ], [ -81.120046991057777, 35.903776000446264 ], [ -81.12170799088203, 35.899744000089946 ], [ -81.120300990819402, 35.895539000058896 ], [ -81.120179990866276, 35.888324000474753 ], [ -81.118744991504698, 35.883567999828884 ] ] ] } },
{ "type": "Feature", "properties": { "county": "ALEXANDER", "precinct": "W", "enr_desc": "Wittenburg", "winner": "Chris Smith", "winner_votes": 59.0, "winner_share": 52.212389380530979, "runner_up": "Rob Arguelles", "runner_up_votes": 54.0, "runner_up_share": 47.787610619469028, "contest_votes": 113.0, "margin_of_victory": 4.4247787610619511, "is_tie": false, "results": [ { "candidate": "Chris Smith", "votes": 59, "share": 52.21238938053098 }, { "candidate": "Rob Arguelles", "votes": 54, "share": 47.78761061946903 } ], "participated": true, "map_key": "ALEXANDER_W" }, "geometry": { "type": "Polygon", "coordinates": [ [ [ -81.261583990867976, 35.850971999848348 ], [ -81.255523991362892, 35.853654000326152 ], [ -81.250897991413083, 35.853827000507536 ], [ -81.246717991538404, 35.85663900053742 ], [ -81.240905990855438, 35.859016000086818 ], [ -81.23812199158067, 35.859233000413667 ], [ -81.235067990645916, 35.857210000540064 ], [ -81.230283991282704, 35.856880000265882 ], [ -81.227135990743591, 35.858411000203105 ], [ -81.223921991493881, 35.85854400047014 ], [ -81.221286990615667, 35.860452999816985 ], [ -81.220676991516328, 35.861759999918689 ], [ -81.220817991551627, 35.866739999881133 ], [ -81.224789991589319, 35.873647000112499 ], [ -81.224850991531596, 35.877132000078731 ], [ -81.226772991245909, 35.880441999833828 ], [ -81.228435991426124, 35.886382000451455 ], [ -81.220501991046163, 35.887541000390961 ], [ -81.218712991208534, 35.890576999932065 ], [ -81.216232990625556, 35.891283000047757 ], [ -81.214502990629185, 35.895739999782535 ], [ -81.213064991088174, 35.896836999921661 ], [ -81.214318991300445, 35.895230000562385 ], [ -81.214103990677756, 35.893603999836316 ], [ -81.210507990640892, 35.893199999942652 ], [ -81.207720991113433, 35.888999999917381 ], [ -81.203676990757955, 35.886535000191003 ], [ -81.203243991180329, 35.885423999845045 ], [ -81.204227991719321, 35.883001000579128 ], [ -81.202156990810153, 35.881334000218018 ], [ -81.204519991472907, 35.879971000187012 ], [ -81.20453099165816, 35.876384999876386 ], [ -81.207150991547778, 35.87876199985012 ], [ -81.209107990922149, 35.878836000600451 ], [ -81.209990990655029, 35.877740999761699 ], [ -81.209852991624544, 35.876524000475591 ], [ -81.208255991573637, 35.876422000054632 ], [ -81.207479990865068, 35.874268000357553 ], [ -81.209011990680452, 35.871164000050094 ], [ -81.20673999170333, 35.870775999937173 ], [ -81.20425399118804, 35.868940000087903 ], [ -81.206623990789964, 35.86648800058763 ], [ -81.206373990974242, 35.864278000602376 ], [ -81.209232990779725, 35.865223999883113 ], [ -81.211152990891421, 35.864064999781533 ], [ -81.210943990877752, 35.862287999778914 ], [ -81.209228991108418, 35.860980000174919 ], [ -81.211102991454638, 35.855632999864383 ], [ -81.209736991525091, 35.854978000442998 ], [ -81.202581991000088, 35.856398999888391 ], [ -81.201531991628457, 35.856001000079722 ], [ -81.202971990613847, 35.852289999946272 ], [ -81.199698990812635, 35.851712999875119 ], [ -81.201165990702179, 35.850710000051819 ], [ -81.203968991181128, 35.851336000403208 ], [ -81.205344990737828, 35.850474000006827 ], [ -81.20275399166232, 35.842515000297134 ], [ -81.198815991027132, 35.840846000354688 ], [ -81.190819990864426, 35.841321999837241 ], [ -81.185973990796768, 35.840275000203107 ], [ -81.18629799142461, 35.836449000453612 ], [ -81.189064990743347, 35.832461999966753 ], [ -81.190719991359998, 35.825301999890563 ], [ -81.190406990888818, 35.822384999826603 ], [ -81.196080991683644, 35.821161000548358 ], [ -81.201892991418759, 35.823288999996727 ], [ -81.205136991557922, 35.822800000546117 ], [ -81.216185991403307, 35.817277000280349 ], [ -81.222108990872357, 35.811304000219863 ], [ -81.225813991560941, 35.809518999853971 ], [ -81.2318029914004, 35.812318000010187 ], [ -81.240953991484432, 35.812841000261152 ], [ -81.247654991250286, 35.81561499975215 ], [ -81.249641991134851, 35.815685000391966 ], [ -81.251278990952798, 35.814722000569731 ], [ -81.252809990699518, 35.817423000548075 ], [ -81.252890991614038, 35.821749999906679 ], [ -81.257558991661583, 35.824006000187936 ], [ -81.264150990702291, 35.829511999760037 ], [ -81.261833990704602, 35.828672000370986 ], [ -81.257351991361205, 35.824478000087531 ], [ -81.25553099155843, 35.824494999829064 ], [ -81.255078990932702, 35.823474000460145 ], [ -81.255280991190347, 35.826573000016289 ], [ -81.258552990762098, 35.830355000535235 ], [ -81.256957990672234, 35.833492000536111 ], [ -81.257171991183185, 35.834742000592684 ], [ -81.258232991519662, 35.83539900025859 ], [ -81.255314990995316, 35.839483999960159 ], [ -81.255451991489664, 35.840877000107838 ], [ -81.25709399080425, 35.844837000499581 ], [ -81.261583990867976, 35.850971999848348 ] ] ] } }
]
}
