{
"type": "FeatureCollection",
"name": "anson_county_board_of_commissioners_district_02_rep",
"crs": { "type": "name", "properties": { "name": "urn:ogc:def:crs:OGC:1.3:CRS84" } },
"features": [
{ "type": "Feature", "properties": { "county": "ANSON", "precinct": "ANS", "enr_desc": "Ansonville", "winner": "William (Boogie) Short", "winner_votes": 57, "winner_share": 80.281690140845072, "runner_up": "Charles Holley", "runner_up_votes": 14, "runner_up_share": 19.718309859154928, "contest_votes": 71, "margin_of_victory": 60.563380281690144, "is_tie": false, "results": [ { "candidate": "William (Boogie) Short", "votes": 57, "share": 80.28169014084507 }, { "candidate": "Charles Holley", "votes": 14, "share": 19.718309859154928 } ], "participated": true, "map_key": "ANSON_ANS" }, "geometry": { "type": "Polygon", "coordinates": [ [ [ -80.163203991436248, 35.046375999641228 ], [ -80.183677990753807, 35.056491000317088 ], [ -80.188503991420404, 35.060374000071974 ], [ -80.192757991680068, 35.061659000120841 ], [ -80.193709991216906, 35.063025999686324 ], [ -80.193513990826105, 35.065013999759572 ], [ -80.190541990996749, 35.06335500026011 ], [ -80.187992990862924, 35.064141000393747 ], [ -80.187320990876387, 35.065085000485723 ], [ -80.187834991624428, 35.066616999715784 ], [ -80.192663991428219, 35.067626000444832 ], [ -80.195764990971654, 35.070380999643149 ], [ -80.194239990887965, 35.07240800040087 ], [ -80.189169991476803, 35.073290000103995 ], [ -80.186919991484686, 35.074446000419329 ], [ -80.187421990753279, 35.076341000094772 ], [ -80.191747990918728, 35.077795000213797 ], [ -80.191349991011649, 35.079088999659255 ], [ -80.187395991411563, 35.080997000524953 ], [ -80.183918991009833, 35.080705000072832 ], [ -80.181672991245833, 35.081460999670277 ], [ -80.180379991123857, 35.082790999694637 ], [ -80.180528991595168, 35.084704999729283 ], [ -80.183083991551584, 35.086312000201701 ], [ -80.188347990888275, 35.085864000498972 ], [ -80.190028991351937, 35.086545999724024 ], [ -80.189224991306304, 35.091504000453959 ], [ -80.193189991114238, 35.097661999684739 ], [ -80.189777990989981, 35.100529000355166 ], [ -80.18468099100852, 35.100555000060965 ], [ -80.180750991271552, 35.098621000169381 ], [ -80.179297990988815, 35.099188000016625 ], [ -80.182119991711559, 35.102465000248024 ], [ -80.182175991653921, 35.106714000224287 ], [ -80.183187991270415, 35.10879799963984 ], [ -80.184391991035156, 35.109296999899485 ], [ -80.185078991658614, 35.118137000198317 ], [ -80.186834991204833, 35.11957900008877 ], [ -80.190453990926571, 35.126019000411681 ], [ -80.188758991157414, 35.130090000157082 ], [ -80.18284999170163, 35.13283599997208 ], [ -80.181594991277862, 35.137920000330773 ], [ -80.181650991422714, 35.141790000502517 ], [ -80.179752991612943, 35.148601999983768 ], [ -80.178533991180757, 35.1499639998056 ], [ -80.172818991335305, 35.147847000368152 ], [ -80.165495991709079, 35.147435000313138 ], [ -80.160878991140706, 35.148700000296216 ], [ -80.159692991000611, 35.150195000311108 ], [ -80.160192991624882, 35.151892000473715 ], [ -80.166329991716609, 35.158096000282427 ], [ -80.167573991177704, 35.162171000265268 ], [ -80.165587991082489, 35.164666000469978 ], [ -80.15914399170083, 35.167332000433206 ], [ -80.157019990780825, 35.173797000290129 ], [ -80.154564990725319, 35.174895000193239 ], [ -80.151639991384073, 35.174548999826541 ], [ -80.141894991231212, 35.168251000331963 ], [ -80.135741991497042, 35.167636000497147 ], [ -80.13176699140736, 35.173362000327607 ], [ -80.125923991479254, 35.173945000395641 ], [ -80.124174991189705, 35.175281000032051 ], [ -80.12474299097596, 35.177470000282092 ], [ -80.129113991476913, 35.18462899992192 ], [ -80.129433991353835, 35.186564999646009 ], [ -80.128667990831886, 35.188051000055758 ], [ -80.122147990765782, 35.192482999887829 ], [ -80.115497991107731, 35.194217000012351 ], [ -80.112643990848341, 35.193881999812319 ], [ -80.110003990807002, 35.192093999974048 ], [ -80.108499990926305, 35.189735000070314 ], [ -80.10803599098368, 35.185087999771575 ], [ -80.108877991354063, 35.178669999642572 ], [ -80.107070990824312, 35.173062000152711 ], [ -80.1023069907625, 35.168902999862254 ], [ -80.09194899102414, 35.162749000188022 ], [ -80.077677991506619, 35.147595000504644 ], [ -80.076175991128665, 35.143184999908122 ], [ -80.075364991283251, 35.143081000348175 ], [ -80.075465991427322, 35.137460999738785 ], [ -80.074217990747258, 35.132402000393689 ], [ -80.069024991756393, 35.122291000394142 ], [ -80.069685991408605, 35.115001999936879 ], [ -80.068149991744733, 35.112040999873336 ], [ -80.042205991306403, 35.10296699975239 ], [ -80.031134990914879, 35.094382000022144 ], [ -80.024354991260125, 35.090375000273959 ], [ -80.013095991678085, 35.089198999695967 ], [ -79.999377991774864, 35.085541000227295 ], [ -80.002277991362121, 35.071839000104234 ], [ -80.015169991343924, 35.042755000340506 ], [ -80.081528990776434, 35.046770000007108 ], [ -80.162856991228281, 35.050345000104578 ], [ -80.163203991436248, 35.046375999641228 ] ] ] } },
{ "type": "Feature", "properties": { "county": "ANSON", "precinct": "BURN", "enr_desc": "Burnsville", "winner": "William (Boogie) Short", "winner_votes": 104, "winner_share": 69.333333333333343, "runner_up": "Charles Holley", "runner_up_votes": 46, "runner_up_share": 30.666666666666664, "contest_votes": 150, "margin_of_victory": 38.666666666666679, "is_tie": false, "results": [ { "candidate": "William (Boogie) Short", "votes": 104, "share": 69.33333333333334 }, { "candidate": "Charles Holley", "votes": 46, "share": 30.666666666666664 } ], "participated": true, "map_key": "ANSON_BURN" }, "geometry": { "type": "Polygon", "coordinates": [ [ [ -80.178533991180757, 35.1499639998056 ], [ -80.179752991612943, 35.148601999983768 ], [ -80.181650991422714, 35.141790000502517 ], [ -80.181594991277862, 35.137920000330773 ], [ -80.18284999170163, 35.13283599997208 ], [ -80.188758991157414, 35.130090000157082 ], [ -80.190453990926571, 35.126019000411681 ], [ -80.186834991204833, 35.11957900008877 ], [ -80.185078991658614, 35.118137000198317 ], [ -80.184391991035156, 35.109296999899485 ], [ -80.183187991270415, 35.10879799963984 ], [ -80.182175991653921, 35.106714000224287 ], [ -80.182119991711559, 35.102465000248024 ], [ -80.179297990988815, 35.099188000016625 ], [ -80.180750991271552, 35.098621000169381 ], [ -80.18468099100852, 35.100555000060965 ], [ -80.189777990989981, 35.100529000355166 ], [ -80.193189991114238, 35.097661999684739 ], [ -80.189224991306304, 35.091504000453959 ], [ -80.190028991351937, 35.086545999724024 ], [ -80.188347990888275, 35.085864000498972 ], [ -80.183083991551584, 35.086312000201701 ], [ -80.180528991595168, 35.084704999729283 ], [ -80.180379991123857, 35.082790999694637 ], [ -80.181672991245833, 35.081460999670277 ], [ -80.183918991009833, 35.080705000072832 ], [ -80.187395991411563, 35.080997000524953 ], [ -80.191349991011649, 35.079088999659255 ], [ -80.191747990918728, 35.077795000213797 ], [ -80.187421990753279, 35.076341000094772 ], [ -80.186919991484686, 35.074446000419329 ], [ -80.189169991476803, 35.073290000103995 ], [ -80.194239990887965, 35.07240800040087 ], [ -80.195764990971654, 35.070380999643149 ], [ -80.192663991428219, 35.067626000444832 ], [ -80.187834991624428, 35.066616999715784 ], [ -80.187320990876387, 35.065085000485723 ], [ -80.187992990862924, 35.064141000393747 ], [ -80.190541990996749, 35.06335500026011 ], [ -80.193513990826105, 35.065013999759572 ], [ -80.197109991760854, 35.066079999680994 ], [ -80.199455991287849, 35.065503000025849 ], [ -80.200599991782482, 35.063819999772186 ], [ -80.196638991203741, 35.058267999792449 ], [ -80.195771990756953, 35.058102999962585 ], [ -80.193456990846101, 35.060064999977101 ], [ -80.190424991575625, 35.059146999836152 ], [ -80.189632991640195, 35.057731999961121 ], [ -80.190771991235877, 35.057117000048692 ], [ -80.19573799179166, 35.057230999648105 ], [ -80.198740990934652, 35.053019999940346 ], [ -80.202635991127309, 35.052476999758014 ], [ -80.203825990944821, 35.049498000520472 ], [ -80.202182991197006, 35.047555000456761 ], [ -80.202757990777187, 35.046697000269404 ], [ -80.204673991333053, 35.046967000103692 ], [ -80.207867990759226, 35.049571000324896 ], [ -80.209507991010227, 35.049935000278765 ], [ -80.207193990962182, 35.043624000465954 ], [ -80.20923299141937, 35.044344999898868 ], [ -80.21074299156507, 35.047438999871169 ], [ -80.215334990720038, 35.050761999886099 ], [ -80.270388991339885, 35.05270500030975 ], [ -80.293440991528641, 35.051986000013706 ], [ -80.276828991076158, 35.195722000440547 ], [ -80.274782991724038, 35.196805999637327 ], [ -80.271506991408074, 35.201669999906144 ], [ -80.265011990746899, 35.204049999666019 ], [ -80.264030991584647, 35.208267000352244 ], [ -80.259194991493132, 35.208796000051414 ], [ -80.254815991163184, 35.21130000037445 ], [ -80.253190990832778, 35.210910999947018 ], [ -80.251400991521891, 35.20907500024169 ], [ -80.250948991655989, 35.207640000076694 ], [ -80.251669991219927, 35.204546000062393 ], [ -80.250828991448074, 35.202613000081719 ], [ -80.239998990713573, 35.188066999693824 ], [ -80.242099991392465, 35.18157300037327 ], [ -80.241240990798616, 35.179070000152286 ], [ -80.236638991773873, 35.171498000232639 ], [ -80.231246991691194, 35.166681999698369 ], [ -80.230064990727513, 35.163589999898079 ], [ -80.225001991005399, 35.156241000161664 ], [ -80.221277991644683, 35.155423000483765 ], [ -80.207837991349436, 35.155986000220913 ], [ -80.206183990979198, 35.159143000213213 ], [ -80.206102990900604, 35.163777000431679 ], [ -80.205251990718835, 35.165433000012143 ], [ -80.20215099143833, 35.166611000114379 ], [ -80.197802991621998, 35.166653999975338 ], [ -80.194919991355619, 35.165381000127901 ], [ -80.193527991404181, 35.158877000191822 ], [ -80.19155499075886, 35.156219000110141 ], [ -80.185929991228278, 35.15462900032098 ], [ -80.178533991180757, 35.1499639998056 ] ] ] } },
{ "type": "Feature", "properties": { "county": "ANSON", "precinct": "GULL", "enr_desc": "Gulledge", "winner": "William (Boogie) Short", "winner_votes": 40, "winner_share": 74.074074074074076, "runner_up": "Charles Holley", "runner_up_votes": 14, "runner_up_share": 25.925925925925924, "contest_votes": 54, "margin_of_victory": 48.148148148148152, "is_tie": false, "results": [ { "candidate": "William (Boogie) Short", "votes": 40, "share": 74.07407407407408 }, { "candidate": "Charles Holley", "votes": 14, "share": 25.925925925925924 } ], "participated": true, "map_key": "ANSON_GULL" }, "geometry": { "type": "Polygon", "coordinates": [ [ [ -80.043171991428224, 34.809060999845379 ], [ -80.189213990901976, 34.811832000198933 ], [ -80.185279991553941, 34.842520000155403 ], [ -80.183072990757339, 34.845137000292965 ], [ -80.182364990752191, 34.847492999847603 ], [ -80.183218991740716, 34.856543000319036 ], [ -80.184458991675484, 34.860091000077873 ], [ -80.183489991579748, 34.86260999987563 ], [ -80.181251990796255, 34.864939000377696 ], [ -80.169600991679118, 34.879595000452944 ], [ -80.158445990872693, 34.889810999824299 ], [ -80.154040991333858, 34.898824000032945 ], [ -80.153236991204054, 34.90234800001793 ], [ -80.151365991426488, 34.904691999761617 ], [ -80.147364991468635, 34.907341999748311 ], [ -80.141478991241542, 34.908426000331147 ], [ -80.130733991202803, 34.902159000281813 ], [ -80.123613991189416, 34.901211999762836 ], [ -80.109055991375101, 34.896390000079656 ], [ -80.091939990809493, 34.894771000478336 ], [ -80.077989991589234, 34.896302000411538 ], [ -80.070412991491423, 34.898655000086073 ], [ -80.072335990743298, 34.905749000070344 ], [ -80.06808899169701, 34.906443999732609 ], [ -80.065369991695661, 34.911698000079397 ], [ -80.065868991589724, 34.916140999789853 ], [ -80.060487991306857, 34.918895000200813 ], [ -80.055306990765018, 34.918727000451014 ], [ -80.054299990743104, 34.91796600010985 ], [ -80.05186699086839, 34.918711000522293 ], [ -80.043794991140331, 34.913410999673793 ], [ -80.041002990834059, 34.915388999854564 ], [ -80.039732990982074, 34.915075000064782 ], [ -80.03872599150877, 34.913700000124727 ], [ -80.036873991564519, 34.909607999731882 ], [ -80.036915991456368, 34.907282000134593 ], [ -80.034791990935929, 34.903839000425002 ], [ -80.034856991131093, 34.865244999853779 ], [ -80.037313990998243, 34.816696999707787 ], [ -80.043171991428224, 34.809060999845379 ] ] ] } },
{ "type": "Feature", "properties": { "county": "ANSON", "precinct": "LILE", "enr_desc": "Lilesville", "winner": "William (Boogie) Short", "winner_votes": 105, "winner_share": 64.024390243902445, "runner_up": "Charles Holley", "runner_up_votes": 59, "runner_up_share": 35.975609756097562, "contest_votes": 164, "margin_of_victory": 28.048780487804883, "is_tie": false, "results": [ { "candidate": "William (Boogie) Short", "votes": 105, "share": 64.02439024390245 }, { "candidate": "Charles Holley", "votes": 59, "share": 35.97560975609756 } ], "participated": true, "map_key": "ANSON_LILE" }, "geometry": { "type": "Polygon", "coordinates": [ [ [ -79.890855991734128, 34.861844000359078 ], [ -79.891594991239131, 34.863500000107031 ], [ -79.889455991243125, 34.86576900000756 ], [ -79.885759991396995, 34.867143000442013 ], [ -79.885870991239912, 34.868737999776478 ], [ -79.888963990808236, 34.870947000324449 ], [ -79.892109990974888, 34.870576999973331 ], [ -79.893625991136673, 34.872557000289838 ], [ -79.892773991162841, 34.873649999624213 ], [ -79.894090991200059, 34.874583000274058 ], [ -79.893895991066813, 34.875978999978315 ], [ -79.894870991224209, 34.877548999780245 ], [ -79.897434991415309, 34.877259999695063 ], [ -79.899658990812839, 34.878985000111768 ], [ -79.900106991294905, 34.880424000147343 ], [ -79.903302991578997, 34.881304000143473 ], [ -79.90313899086739, 34.884946000140793 ], [ -79.904984990780406, 34.883693999721395 ], [ -79.90824999162335, 34.883728999907788 ], [ -79.911417991777739, 34.885542000331647 ], [ -79.91427799082193, 34.885577000004432 ], [ -79.91710299110639, 34.887407000294729 ], [ -79.921120991486191, 34.888021000383908 ], [ -79.928416991076517, 34.885797000368491 ], [ -79.927527990911045, 34.891468000456982 ], [ -79.928738991601676, 34.894492000261494 ], [ -79.928462991802363, 34.897283999948172 ], [ -79.93084499176959, 34.900729000040769 ], [ -79.930905991546624, 34.903246999802171 ], [ -79.934608991625979, 34.898295999813215 ], [ -79.953216991132564, 34.885773999987912 ], [ -79.972488991230577, 34.874178999626452 ], [ -79.974125991593468, 34.882057999649959 ], [ -79.977226991135609, 34.886681000339877 ], [ -79.980740990734532, 34.895683000193252 ], [ -79.982768991683884, 34.896268000011212 ], [ -79.983336990771448, 34.894638000229826 ], [ -79.98743599161979, 34.892450000011181 ], [ -79.986783990768714, 34.89064299976345 ], [ -79.990939991715649, 34.887227000087179 ], [ -79.991972991221346, 34.887202000354378 ], [ -79.993897991421875, 34.888937999892626 ], [ -79.997466991193434, 34.888505000250937 ], [ -79.999404990780917, 34.887339000273748 ], [ -80.001061991197147, 34.890751000277028 ], [ -80.003727990872051, 34.892099999896487 ], [ -80.003668990965565, 34.892714000304927 ], [ -80.001069991159724, 34.894549999759533 ], [ -79.995906991022153, 34.89437799965863 ], [ -79.994627990914779, 34.895289999821038 ], [ -79.996179991113991, 34.897500000130727 ], [ -79.99906799104096, 34.899236999914912 ], [ -79.999042991757591, 34.901448999726803 ], [ -80.00016099103847, 34.902309000471924 ], [ -79.999573990763579, 34.904067999687634 ], [ -80.008257991096613, 34.902762000210231 ], [ -80.010082991084658, 34.903528000248606 ], [ -80.010485991348702, 34.905144000370363 ], [ -80.012741991434069, 34.90535499973295 ], [ -80.022710991633687, 34.904010999913893 ], [ -80.034791990935929, 34.903839000425002 ], [ -80.036915991456368, 34.907282000134593 ], [ -80.036873991564519, 34.909607999731882 ], [ -80.03872599150877, 34.913700000124727 ], [ -80.02989199150862, 34.915541000242506 ], [ -80.02822399152447, 34.914509999843929 ], [ -80.027953991220215, 34.915060999971004 ], [ -80.02400399146677, 34.914697000253796 ], [ -80.016730991126479, 34.916037000445733 ], [ -80.015461990728667, 34.915496000109414 ], [ -80.020098990750583, 34.926829000111155 ], [ -80.019845991023047, 34.931615999879398 ], [ -80.021539991397361, 34.935945000049443 ], [ -80.020314990784044, 34.939609000235926 ], [ -80.020132990919308, 34.943919999852469 ], [ -80.016978991601277, 34.947788000245289 ], [ -80.016747990808739, 34.949500999880058 ], [ -80.018157991409467, 34.957693000147458 ], [ -80.021523991334817, 34.966359000123752 ], [ -80.021498991600296, 34.970516999835361 ], [ -80.020406991331143, 34.97371100047809 ], [ -80.021360991026654, 34.977535000238312 ], [ -80.019306990817924, 34.977696999765143 ], [ -80.008788991149189, 35.02566000031306 ], [ -80.008454990734549, 35.029838999717754 ], [ -80.00469699160405, 35.034713999632082 ], [ -80.006338991788425, 35.039696000266716 ], [ -80.005262991379041, 35.043861000259746 ], [ -80.010225991268015, 35.044590000239495 ], [ -80.012597990890626, 35.042791999733808 ], [ -80.015169991343924, 35.042755000340506 ], [ -80.002277991362121, 35.071839000104234 ], [ -79.999377991774864, 35.085541000227295 ], [ -79.993376991544793, 35.085459999757347 ], [ -79.986067991578764, 35.08911599986439 ], [ -79.983310991694935, 35.091815999809242 ], [ -79.981737990910574, 35.096821999956788 ], [ -79.978771990730465, 35.100784000049188 ], [ -79.958474991497127, 35.113719000445741 ], [ -79.943649991603209, 35.119080999987034 ], [ -79.933089991759687, 35.118947000425784 ], [ -79.927924991564225, 35.117922999982248 ], [ -79.923570990835088, 35.114873999891323 ], [ -79.921899991192092, 35.106685000184626 ], [ -79.915698991347256, 35.101162000485736 ], [ -79.912517990785602, 35.09606700009774 ], [ -79.911757991594413, 35.091781999772813 ], [ -79.912340991659008, 35.075338000485765 ], [ -79.91169399115509, 35.07231499994451 ], [ -79.908982990984484, 35.066963000030356 ], [ -79.90313199078669, 35.062067999684039 ], [ -79.883785991115218, 35.051856999958048 ], [ -79.878971991153179, 35.047609000284432 ], [ -79.876659991585527, 35.04447199975202 ], [ -79.875594991282156, 35.040116999834282 ], [ -79.876743990940312, 35.035945000464217 ], [ -79.879627991185629, 35.033237999834654 ], [ -79.885302990882792, 35.030383999958872 ], [ -79.892426990740731, 35.024870000226414 ], [ -79.89464499105658, 35.016434999945204 ], [ -79.900016991115208, 35.00904000032407 ], [ -79.900626990805705, 35.005737000306183 ], [ -79.899289991345896, 35.003674000491628 ], [ -79.880495991270081, 34.98883300019174 ], [ -79.872672991581283, 34.984005000508006 ], [ -79.867137991545619, 34.982260000440689 ], [ -79.864792991226295, 34.979988000340441 ], [ -79.863812991446565, 34.974207999897779 ], [ -79.866182990890863, 34.969648999771117 ], [ -79.867484991166748, 34.964028000178295 ], [ -79.872340991763195, 34.955003000070612 ], [ -79.872302990747087, 34.950370999867175 ], [ -79.86699399107566, 34.9398099996612 ], [ -79.860108991814158, 34.933189000149476 ], [ -79.855647991643764, 34.925073000212826 ], [ -79.849609991726751, 34.911361999941512 ], [ -79.848478990841869, 34.904331000147153 ], [ -79.850535991173146, 34.898376000424669 ], [ -79.855694991048551, 34.893003999881643 ], [ -79.865783990869531, 34.879357999672138 ], [ -79.876723991746303, 34.870878999772657 ], [ -79.883135990806551, 34.864451000085545 ], [ -79.886667991268993, 34.862639999857144 ], [ -79.890855991734128, 34.861844000359078 ] ] ] } },
{ "type": "Feature", "properties": { "county": "ANSON", "precinct": "MM", "enr_desc": "Morven/Mcfarlan", "winner": "William (Boogie) Short", "winner_votes": 17, "winner_share": 73.91304347826086, "runner_up": "Charles Holley", "runner_up_votes": 6, "runner_up_share": 26.086956521739129, "contest_votes": 23, "margin_of_victory": 47.826086956521735, "is_tie": false, "results": [ { "candidate": "William (Boogie) Short", "votes": 17, "share": 73.91304347826086 }, { "candidate": "Charles Holley", "votes": 6, "share": 26.08695652173913 } ], "participated": true, "map_key": "ANSON_MM" }, "geometry": { "type": "Polygon", "coordinates": [ [ [ -80.043171991428224, 34.809060999845379 ], [ -80.037313990998243, 34.816696999707787 ], [ -80.034856991131093, 34.865244999853779 ], [ -80.034791990935929, 34.903839000425002 ], [ -80.022710991633687, 34.904010999913893 ], [ -80.012741991434069, 34.90535499973295 ], [ -80.010485991348702, 34.905144000370363 ], [ -80.010082991084658, 34.903528000248606 ], [ -80.008257991096613, 34.902762000210231 ], [ -79.999573990763579, 34.904067999687634 ], [ -80.00016099103847, 34.902309000471924 ], [ -79.999042991757591, 34.901448999726803 ], [ -79.99906799104096, 34.899236999914912 ], [ -79.996179991113991, 34.897500000130727 ], [ -79.994627990914779, 34.895289999821038 ], [ -79.995906991022153, 34.89437799965863 ], [ -80.001069991159724, 34.894549999759533 ], [ -80.003668990965565, 34.892714000304927 ], [ -80.003727990872051, 34.892099999896487 ], [ -80.001061991197147, 34.890751000277028 ], [ -79.999404990780917, 34.887339000273748 ], [ -79.997466991193434, 34.888505000250937 ], [ -79.993897991421875, 34.888937999892626 ], [ -79.991972991221346, 34.887202000354378 ], [ -79.990939991715649, 34.887227000087179 ], [ -79.986783990768714, 34.89064299976345 ], [ -79.98743599161979, 34.892450000011181 ], [ -79.983336990771448, 34.894638000229826 ], [ -79.982768991683884, 34.896268000011212 ], [ -79.980740990734532, 34.895683000193252 ], [ -79.977226991135609, 34.886681000339877 ], [ -79.974125991593468, 34.882057999649959 ], [ -79.972488991230577, 34.874178999626452 ], [ -79.953216991132564, 34.885773999987912 ], [ -79.934608991625979, 34.898295999813215 ], [ -79.930905991546624, 34.903246999802171 ], [ -79.93084499176959, 34.900729000040769 ], [ -79.928462991802363, 34.897283999948172 ], [ -79.928738991601676, 34.894492000261494 ], [ -79.927527990911045, 34.891468000456982 ], [ -79.928416991076517, 34.885797000368491 ], [ -79.921120991486191, 34.888021000383908 ], [ -79.91710299110639, 34.887407000294729 ], [ -79.91427799082193, 34.885577000004432 ], [ -79.911417991777739, 34.885542000331647 ], [ -79.90824999162335, 34.883728999907788 ], [ -79.904984990780406, 34.883693999721395 ], [ -79.90313899086739, 34.884946000140793 ], [ -79.903302991578997, 34.881304000143473 ], [ -79.900106991294905, 34.880424000147343 ], [ -79.899658990812839, 34.878985000111768 ], [ -79.897434991415309, 34.877259999695063 ], [ -79.894870991224209, 34.877548999780245 ], [ -79.893895991066813, 34.875978999978315 ], [ -79.894090991200059, 34.874583000274058 ], [ -79.892773991162841, 34.873649999624213 ], [ -79.893625991136673, 34.872557000289838 ], [ -79.892109990974888, 34.870576999973331 ], [ -79.888963990808236, 34.870947000324449 ], [ -79.885870991239912, 34.868737999776478 ], [ -79.885759991396995, 34.867143000442013 ], [ -79.889455991243125, 34.86576900000756 ], [ -79.891594991239131, 34.863500000107031 ], [ -79.890855991734128, 34.861844000359078 ], [ -79.899140991540193, 34.858870000145785 ], [ -79.902962991121385, 34.854545000460917 ], [ -79.908856991227651, 34.841166999878098 ], [ -79.909965991759435, 34.834813999677188 ], [ -79.912713991828696, 34.826519000461111 ], [ -79.913902991453497, 34.818451999948763 ], [ -79.923088991006566, 34.808756000479207 ], [ -79.927411991065171, 34.806734000396233 ], [ -80.043171991428224, 34.809060999845379 ] ] ] } },
{ "type": "Feature", "properties": { "county": "ANSON", "precinct": "WADES", "enr_desc": "Wadesboro", "winner": "William (Boogie) Short", "winner_votes": 219, "winner_share": 65.568862275449106, "runner_up": "Charles Holley", "runner_up_votes": 115, "runner_up_share": 34.431137724550901, "contest_votes": 334, "margin_of_victory": 31.137724550898206, "is_tie": false, "results": [ { "candidate": "William (Boogie) Short", "votes": 219, "share": 65.5688622754491 }, { "candidate": "Charles Holley", "votes": 115, "share": 34.4311377245509 } ], "participated": true, "map_key": "ANSON_WADES" }, "geometry": { "type": "Polygon", "coordinates": [ [ [ -80.03872599150877, 34.913700000124727 ], [ -80.039732990982074, 34.915075000064782 ], [ -80.041002990834059, 34.915388999854564 ], [ -80.043794991140331, 34.913410999673793 ], [ -80.05186699086839, 34.918711000522293 ], [ -80.054299990743104, 34.91796600010985 ], [ -80.055306990765018, 34.918727000451014 ], [ -80.060487991306857, 34.918895000200813 ], [ -80.065868991589724, 34.916140999789853 ], [ -80.065369991695661, 34.911698000079397 ], [ -80.06808899169701, 34.906443999732609 ], [ -80.072335990743298, 34.905749000070344 ], [ -80.070412991491423, 34.898655000086073 ], [ -80.077989991589234, 34.896302000411538 ], [ -80.091939990809493, 34.894771000478336 ], [ -80.109055991375101, 34.896390000079656 ], [ -80.123613991189416, 34.901211999762836 ], [ -80.130733991202803, 34.902159000281813 ], [ -80.141478991241542, 34.908426000331147 ], [ -80.147364991468635, 34.907341999748311 ], [ -80.151365991426488, 34.904691999761617 ], [ -80.153236991204054, 34.90234800001793 ], [ -80.154040991333858, 34.898824000032945 ], [ -80.158445990872693, 34.889810999824299 ], [ -80.169600991679118, 34.879595000452944 ], [ -80.181251990796255, 34.864939000377696 ], [ -80.174973991123494, 34.930373999964459 ], [ -80.173863991012141, 34.935812999933461 ], [ -80.169504991581022, 34.942278000460448 ], [ -80.170124991478119, 34.945592000435646 ], [ -80.175687991727486, 34.952353999850594 ], [ -80.17536699117133, 34.962361999857194 ], [ -80.178454991355366, 34.971841999890657 ], [ -80.181423990735922, 34.969414999987613 ], [ -80.188610991684456, 34.966923000383943 ], [ -80.190642991579864, 34.971881999920754 ], [ -80.188200990836577, 34.979216999850976 ], [ -80.187755991471676, 34.983650000321028 ], [ -80.189764991630398, 34.988788000105735 ], [ -80.189393990974764, 34.98935299978757 ], [ -80.187278991364309, 34.989052000470977 ], [ -80.187027991333252, 34.990031000019599 ], [ -80.187969990917011, 34.991383999985011 ], [ -80.185200991137492, 34.999502000117474 ], [ -80.175344990849439, 34.995638000254587 ], [ -80.171550991044469, 35.021481000432146 ], [ -80.16696899122266, 35.021076000431023 ], [ -80.158490991652087, 35.045193000339516 ], [ -80.163203991436248, 35.046375999641228 ], [ -80.162856991228281, 35.050345000104578 ], [ -80.081528990776434, 35.046770000007108 ], [ -80.015169991343924, 35.042755000340506 ], [ -80.012597990890626, 35.042791999733808 ], [ -80.010225991268015, 35.044590000239495 ], [ -80.005262991379041, 35.043861000259746 ], [ -80.006338991788425, 35.039696000266716 ], [ -80.00469699160405, 35.034713999632082 ], [ -80.008454990734549, 35.029838999717754 ], [ -80.008788991149189, 35.02566000031306 ], [ -80.019306990817924, 34.977696999765143 ], [ -80.021360991026654, 34.977535000238312 ], [ -80.020406991331143, 34.97371100047809 ], [ -80.021498991600296, 34.970516999835361 ], [ -80.021523991334817, 34.966359000123752 ], [ -80.018157991409467, 34.957693000147458 ], [ -80.016747990808739, 34.949500999880058 ], [ -80.016978991601277, 34.947788000245289 ], [ -80.020132990919308, 34.943919999852469 ], [ -80.020314990784044, 34.939609000235926 ], [ -80.021539991397361, 34.935945000049443 ], [ -80.019845991023047, 34.931615999879398 ], [ -80.020098990750583, 34.926829000111155 ], [ -80.015461990728667, 34.915496000109414 ], [ -80.016730991126479, 34.916037000445733 ], [ -80.02400399146677, 34.914697000253796 ], [ -80.027953991220215, 34.915060999971004 ], [ -80.02822399152447, 34.914509999843929 ], [ -80.02989199150862, 34.915541000242506 ], [ -80.03872599150877, 34.913700000124727 ] ] ] } },
{ "type": "Feature", "properties": { "county": "ANSON", "precinct": "PEAC", "enr_desc": "Peachland", "winner": "William (Boogie) Short", "winner_votes": 102, "winner_share": 81.6, "runner_up": "Charles Holley", "runner_up_votes": 23, "runner_up_share": 18.4, "contest_votes": 125, "margin_of_victory": 63.2, "is_tie": false, "results": [ { "candidate": "William (Boogie) Short", "votes": 102, "share": 81.6 }, { "candidate": "Charles Holley", "votes": 23, "share": 18.4 } ], "participated": true, "map_key": "ANSON_PEAC" }, "geometry": { "type": "Polygon", "coordinates": [ [ [ -80.226500991558026, 34.930465000110409 ], [ -80.27917699136195, 34.933711000070986 ], [ -80.287764991394397, 34.929848999773704 ], [ -80.291165991076682, 34.931873999720345 ], [ -80.292884991512494, 34.929911999846126 ], [ -80.300464991019041, 34.935723000364092 ], [ -80.303955991774771, 34.935471000482075 ], [ -80.307023991270555, 34.934103999689427 ], [ -80.293440991528641, 35.051986000013706 ], [ -80.270388991339885, 35.05270500030975 ], [ -80.215334990720038, 35.050761999886099 ], [ -80.21074299156507, 35.047438999871169 ], [ -80.20923299141937, 35.044344999898868 ], [ -80.207193990962182, 35.043624000465954 ], [ -80.208032990973578, 35.040361000504724 ], [ -80.211236991743533, 35.040173999656183 ], [ -80.215128990997485, 35.042078999768002 ], [ -80.219915991183271, 35.038957000056485 ], [ -80.219798990763223, 35.038034999855007 ], [ -80.218036991179758, 35.037400000337975 ], [ -80.217626990759186, 35.036495000141663 ], [ -80.22035699115267, 35.033812000403422 ], [ -80.22085699079318, 35.032045999917131 ], [ -80.227092991698726, 35.02767400010876 ], [ -80.227992991589645, 35.026137999843684 ], [ -80.230642991786382, 35.025759000116715 ], [ -80.223525991431742, 35.020709000352049 ], [ -80.219929990761727, 35.017019999927761 ], [ -80.227250991611413, 35.012724000407239 ], [ -80.236693991738846, 35.011873000260515 ], [ -80.238744991635158, 35.010836000390043 ], [ -80.235952991014116, 35.007356999642248 ], [ -80.232712991224346, 35.007065000264326 ], [ -80.229306991542131, 35.004658999863722 ], [ -80.231944990937308, 34.999687999963044 ], [ -80.231722991497591, 34.99660200010478 ], [ -80.214665990909381, 35.001691999962787 ], [ -80.213797990765187, 34.999892000388236 ], [ -80.216943990966442, 34.996930000514133 ], [ -80.213943991531082, 34.995018000015605 ], [ -80.208905991502377, 34.993851000032514 ], [ -80.205645991694894, 34.991269000259813 ], [ -80.207248990914039, 34.990277999986297 ], [ -80.20670299106763, 34.989295999720461 ], [ -80.207730991410315, 34.989565999699451 ], [ -80.207812991109876, 34.987444000010896 ], [ -80.208926991787422, 34.987558000141739 ], [ -80.209692991026671, 34.988954000173038 ], [ -80.209557991754011, 34.984962000117093 ], [ -80.212473990891922, 34.984797000430376 ], [ -80.211829991114101, 34.9839819999575 ], [ -80.214004991399875, 34.98242200006414 ], [ -80.215924991306167, 34.98321300037999 ], [ -80.215795990944827, 34.982175000259979 ], [ -80.217119991426486, 34.981964000330919 ], [ -80.215815991429295, 34.980947999909517 ], [ -80.218669991609161, 34.980907999837314 ], [ -80.219269990834576, 34.980497000341302 ], [ -80.218319990837628, 34.98026700051873 ], [ -80.218818991126625, 34.97905599979822 ], [ -80.219996991628392, 34.980084000018998 ], [ -80.220117991250177, 34.978897000030649 ], [ -80.221192990831611, 34.978969999905999 ], [ -80.219789991471131, 34.9771850001028 ], [ -80.220713990746205, 34.97733100052163 ], [ -80.22069799124823, 34.974554999655695 ], [ -80.221600991081331, 34.974982999837906 ], [ -80.222143991707526, 34.974104000266216 ], [ -80.221118991301424, 34.974009999938097 ], [ -80.221200991171486, 34.972730000319963 ], [ -80.222924991717562, 34.972021999665472 ], [ -80.223731991362698, 34.970210000109752 ], [ -80.226591991765901, 34.969130000278781 ], [ -80.22722899118574, 34.97034999993371 ], [ -80.228073991336743, 34.970259000304672 ], [ -80.227860991471374, 34.969554000210508 ], [ -80.230783991513889, 34.968172000087556 ], [ -80.232492991452474, 34.969277999700161 ], [ -80.235247991535502, 34.969322000310349 ], [ -80.240382991629446, 34.967241999643591 ], [ -80.243481991611759, 34.964983000276611 ], [ -80.245509991470328, 34.960836999849143 ], [ -80.241473991177003, 34.957197000011604 ], [ -80.240971991242063, 34.955869000014168 ], [ -80.238412991391854, 34.955595000104786 ], [ -80.237993991462588, 34.952778000036041 ], [ -80.236267990958254, 34.951266999646535 ], [ -80.235072991195111, 34.952320999902717 ], [ -80.232928991271265, 34.949000999641811 ], [ -80.230313991341873, 34.948406000283605 ], [ -80.227422991521081, 34.938706000032965 ], [ -80.227569991693102, 34.934181000234013 ], [ -80.226500991558026, 34.930465000110409 ] ] ] } },
{ "type": "Feature", "properties": { "county": "ANSON", "precinct": "POLK", "enr_desc": "Polkton", "winner": "William (Boogie) Short", "winner_votes": 58, "winner_share": 75.324675324675326, "runner_up": "Charles Holley", "runner_up_votes": 19, "runner_up_share": 24.675324675324674, "contest_votes": 77, "margin_of_victory": 50.649350649350652, "is_tie": false, "results": [ { "candidate": "William (Boogie) Short", "votes": 58, "share": 75.32467532467533 }, { "candidate": "Charles Holley", "votes": 19, "share": 24.675324675324674 } ], "participated": true, "map_key": "ANSON_POLK" }, "geometry": { "type": "Polygon", "coordinates": [ [ [ -80.207193990962182, 35.043624000465954 ], [ -80.209507991010227, 35.049935000278765 ], [ -80.207867990759226, 35.049571000324896 ], [ -80.204673991333053, 35.046967000103692 ], [ -80.202757990777187, 35.046697000269404 ], [ -80.202182991197006, 35.047555000456761 ], [ -80.203825990944821, 35.049498000520472 ], [ -80.202635991127309, 35.052476999758014 ], [ -80.198740990934652, 35.053019999940346 ], [ -80.19573799179166, 35.057230999648105 ], [ -80.190771991235877, 35.057117000048692 ], [ -80.189632991640195, 35.057731999961121 ], [ -80.190424991575625, 35.059146999836152 ], [ -80.193456990846101, 35.060064999977101 ], [ -80.195771990756953, 35.058102999962585 ], [ -80.196638991203741, 35.058267999792449 ], [ -80.200599991782482, 35.063819999772186 ], [ -80.199455991287849, 35.065503000025849 ], [ -80.197109991760854, 35.066079999680994 ], [ -80.193513990826105, 35.065013999759572 ], [ -80.193709991216906, 35.063025999686324 ], [ -80.192757991680068, 35.061659000120841 ], [ -80.188503991420404, 35.060374000071974 ], [ -80.183677990753807, 35.056491000317088 ], [ -80.163203991436248, 35.046375999641228 ], [ -80.158490991652087, 35.045193000339516 ], [ -80.16696899122266, 35.021076000431023 ], [ -80.171550991044469, 35.021481000432146 ], [ -80.175344990849439, 34.995638000254587 ], [ -80.185200991137492, 34.999502000117474 ], [ -80.187969990917011, 34.991383999985011 ], [ -80.187027991333252, 34.990031000019599 ], [ -80.187278991364309, 34.989052000470977 ], [ -80.189393990974764, 34.98935299978757 ], [ -80.189764991630398, 34.988788000105735 ], [ -80.187755991471676, 34.983650000321028 ], [ -80.188200990836577, 34.979216999850976 ], [ -80.190642991579864, 34.971881999920754 ], [ -80.188610991684456, 34.966923000383943 ], [ -80.181423990735922, 34.969414999987613 ], [ -80.178454991355366, 34.971841999890657 ], [ -80.17536699117133, 34.962361999857194 ], [ -80.175687991727486, 34.952353999850594 ], [ -80.170124991478119, 34.945592000435646 ], [ -80.169504991581022, 34.942278000460448 ], [ -80.173863991012141, 34.935812999933461 ], [ -80.174973991123494, 34.930373999964459 ], [ -80.175928990914457, 34.929257999981665 ], [ -80.184639990899825, 34.926821000478931 ], [ -80.193311990859598, 34.928860999747599 ], [ -80.195707991225319, 34.928377000486662 ], [ -80.226500991558026, 34.930465000110409 ], [ -80.227569991693102, 34.934181000234013 ], [ -80.227422991521081, 34.938706000032965 ], [ -80.230313991341873, 34.948406000283605 ], [ -80.232928991271265, 34.949000999641811 ], [ -80.235072991195111, 34.952320999902717 ], [ -80.236267990958254, 34.951266999646535 ], [ -80.237993991462588, 34.952778000036041 ], [ -80.238412991391854, 34.955595000104786 ], [ -80.240971991242063, 34.955869000014168 ], [ -80.241473991177003, 34.957197000011604 ], [ -80.245509991470328, 34.960836999849143 ], [ -80.243481991611759, 34.964983000276611 ], [ -80.240382991629446, 34.967241999643591 ], [ -80.235247991535502, 34.969322000310349 ], [ -80.232492991452474, 34.969277999700161 ], [ -80.230783991513889, 34.968172000087556 ], [ -80.227860991471374, 34.969554000210508 ], [ -80.228073991336743, 34.970259000304672 ], [ -80.22722899118574, 34.97034999993371 ], [ -80.226591991765901, 34.969130000278781 ], [ -80.223731991362698, 34.970210000109752 ], [ -80.222924991717562, 34.972021999665472 ], [ -80.221200991171486, 34.972730000319963 ], [ -80.221118991301424, 34.974009999938097 ], [ -80.222143991707526, 34.974104000266216 ], [ -80.221600991081331, 34.974982999837906 ], [ -80.22069799124823, 34.974554999655695 ], [ -80.220713990746205, 34.97733100052163 ], [ -80.219789991471131, 34.9771850001028 ], [ -80.221192990831611, 34.978969999905999 ], [ -80.220117991250177, 34.978897000030649 ], [ -80.219996991628392, 34.980084000018998 ], [ -80.218818991126625, 34.97905599979822 ], [ -80.218319990837628, 34.98026700051873 ], [ -80.219269990834576, 34.980497000341302 ], [ -80.218669991609161, 34.980907999837314 ], [ -80.215815991429295, 34.980947999909517 ], [ -80.217119991426486, 34.981964000330919 ], [ -80.215795990944827, 34.982175000259979 ], [ -80.215924991306167, 34.98321300037999 ], [ -80.214004991399875, 34.98242200006414 ], [ -80.211829991114101, 34.9839819999575 ], [ -80.212473990891922, 34.984797000430376 ], [ -80.209557991754011, 34.984962000117093 ], [ -80.209692991026671, 34.988954000173038 ], [ -80.208926991787422, 34.987558000141739 ], [ -80.207812991109876, 34.987444000010896 ], [ -80.207730991410315, 34.989565999699451 ], [ -80.20670299106763, 34.989295999720461 ], [ -80.207248990914039, 34.990277999986297 ], [ -80.205645991694894, 34.991269000259813 ], [ -80.208905991502377, 34.993851000032514 ], [ -80.213943991531082, 34.995018000015605 ], [ -80.216943990966442, 34.996930000514133 ], [ -80.213797990765187, 34.999892000388236 ], [ -80.214665990909381, 35.001691999962787 ], [ -80.231722991497591, 34.99660200010478 ], [ -80.231944990937308, 34.999687999963044 ], [ -80.229306991542131, 35.004658999863722 ], [ -80.232712991224346, 35.007065000264326 ], [ -80.235952991014116, 35.007356999642248 ], [ -80.238744991635158, 35.010836000390043 ], [ -80.236693991738846, 35.011873000260515 ], [ -80.227250991611413, 35.012724000407239 ], [ -80.219929990761727, 35.017019999927761 ], [ -80.223525991431742, 35.020709000352049 ], [ -80.230642991786382, 35.025759000116715 ], [ -80.227992991589645, 35.026137999843684 ], [ -80.227092991698726, 35.02767400010876 ], [ -80.22085699079318, 35.032045999917131 ], [ -80.22035699115267, 35.033812000403422 ], [ -80.217626990759186, 35.036495000141663 ], [ -80.218036991179758, 35.037400000337975 ], [ -80.219798990763223, 35.038034999855007 ], [ -80.219915991183271, 35.038957000056485 ], [ -80.215128990997485, 35.042078999768002 ], [ -80.211236991743533, 35.040173999656183 ], [ -80.208032990973578, 35.040361000504724 ], [ -80.207193990962182, 35.043624000465954 ] ] ] } },
{ "type": "Feature", "properties": { "county": "ANSON", "precinct": "WS", "enr_desc": "White Store", "winner": "William (Boogie) Short", "winner_votes": 20, "winner_share": 60.606060606060609, "runner_up": "Charles Holley", "runner_up_votes": 13, "runner_up_share": 39.393939393939391, "contest_votes": 33, "margin_of_victory": 21.212121212121218, "is_tie": false, "results": [ { "candidate": "William (Boogie) Short", "votes": 20, "share": 60.60606060606061 }, { "candidate": "Charles Holley", "votes": 13, "share": 39.39393939393939 } ], "participated": true, "map_key": "ANSON_WS" }, "geometry": { "type": "Polygon", "coordinates": [ [ [ -80.307023991270555, 34.934103999689427 ], [ -80.303955991774771, 34.935471000482075 ], [ -80.300464991019041, 34.935723000364092 ], [ -80.292884991512494, 34.929911999846126 ], [ -80.291165991076682, 34.931873999720345 ], [ -80.287764991394397, 34.929848999773704 ], [ -80.27917699136195, 34.933711000070986 ], [ -80.226500991558026, 34.930465000110409 ], [ -80.195707991225319, 34.928377000486662 ], [ -80.193311990859598, 34.928860999747599 ], [ -80.184639990899825, 34.926821000478931 ], [ -80.175928990914457, 34.929257999981665 ], [ -80.174973991123494, 34.930373999964459 ], [ -80.181251990796255, 34.864939000377696 ], [ -80.183489991579748, 34.86260999987563 ], [ -80.184458991675484, 34.860091000077873 ], [ -80.183218991740716, 34.856543000319036 ], [ -80.182364990752191, 34.847492999847603 ], [ -80.183072990757339, 34.845137000292965 ], [ -80.185279991553941, 34.842520000155403 ], [ -80.189213990901976, 34.811832000198933 ], [ -80.320827990929615, 34.813906000419735 ], [ -80.307023991270555, 34.934103999689427 ] ] ] } }
]
}
