{
"type": "FeatureCollection",
"name": "avery_county_clerk_of_superior_court_rep",
"crs": { "type": "name", "properties": { "name": "urn:ogc:def:crs:OGC:1.3:CRS84" } },
"features": [
{ "type": "Feature", "properties": { "county": "AVERY", "precinct": "1", "enr_desc": "Altamont", "winner": "Teresa I. Benfield", "winner_votes": 157, "winner_share": 83.510638297872347, "runner_up": "Linda Webb", "runner_up_votes": 31, "runner_up_share": 16.48936170212766, "contest_votes": 188, "margin_of_victory": 67.021276595744695, "is_tie": false, "results": [ { "candidate": "Teresa I. Benfield", "votes": 157, "share": 83.51063829787235 }, { "candidate": "Linda Webb", "votes": 31, "share": 16.48936170212766 } ], "participated": true, "map_key": "AVERY_1" }, "geometry": { "type": "Polygon", "coordinates": [ [ [ -81.976730991123361, 35.993897999825144 ], [ -81.971651991655804, 35.994807000135488 ], [ -81.965266991676515, 36.001763000651671 ], [ -81.958885991401687, 35.999443999908493 ], [ -81.954372991604657, 36.003669000314893 ], [ -81.950588991007081, 36.003761000577555 ], [ -81.950648990960588, 36.005397000011783 ], [ -81.947773990606976, 36.005234000157046 ], [ -81.947944990941892, 36.007849000341118 ], [ -81.951289991655258, 36.011428000067568 ], [ -81.957901990915175, 36.014495000256922 ], [ -81.951853991705363, 36.020783000485444 ], [ -81.948706991084606, 36.02655499989698 ], [ -81.9485949912889, 36.029515000114721 ], [ -81.947564990949786, 36.029227999794081 ], [ -81.94808199099316, 36.032351000275824 ], [ -81.950217991645573, 36.03685600013543 ], [ -81.95281399094273, 36.038985000302041 ], [ -81.956080990933643, 36.039512000626246 ], [ -81.952539991312051, 36.042466000048357 ], [ -81.948250991317124, 36.050964000423427 ], [ -81.937631990972577, 36.054858000189945 ], [ -81.931983991187323, 36.055175000233724 ], [ -81.928750991047295, 36.053171000580718 ], [ -81.921851990642068, 36.052704999849851 ], [ -81.92127799079725, 36.051757000060988 ], [ -81.923175991433624, 36.040206000166037 ], [ -81.924808991629376, 36.037898000447569 ], [ -81.924456990652075, 36.031975000000926 ], [ -81.925123991643929, 36.028025999817103 ], [ -81.918223991588803, 36.02402700026245 ], [ -81.914690991591272, 36.029580999948926 ], [ -81.913207991618748, 36.03060700015093 ], [ -81.913303991127179, 36.027964000429321 ], [ -81.909179990898465, 36.026729999781175 ], [ -81.908547990633792, 36.016632000131082 ], [ -81.906615990746729, 36.008855000430664 ], [ -81.903746991633355, 36.002911000187233 ], [ -81.899870990778282, 35.999909000288206 ], [ -81.957607991047624, 35.946776999866337 ], [ -81.960256990959678, 35.949710000588915 ], [ -81.960474990782984, 35.956224000167303 ], [ -81.959768991553332, 35.958538000013448 ], [ -81.970358990799994, 35.964072000460142 ], [ -81.976959990687362, 35.964419000608814 ], [ -81.976959990983133, 35.973531999816217 ], [ -81.97859899085671, 35.976098000033211 ], [ -81.9765449906334, 35.984771000497581 ], [ -81.977516991407114, 35.984345000245099 ], [ -81.979348991652842, 35.990405999795172 ], [ -81.976730991123361, 35.993897999825144 ] ] ] } },
{ "type": "Feature", "properties": { "county": "AVERY", "precinct": "2", "enr_desc": "Banner Elk", "winner": "Teresa I. Benfield", "winner_votes": 224, "winner_share": 82.35294117647058, "runner_up": "Linda Webb", "runner_up_votes": 48, "runner_up_share": 17.647058823529413, "contest_votes": 272, "margin_of_victory": 64.70588235294116, "is_tie": false, "results": [ { "candidate": "Teresa I. Benfield", "votes": 224, "share": 82.35294117647058 }, { "candidate": "Linda Webb", "votes": 48, "share": 17.647058823529413 } ], "participated": true, "map_key": "AVERY_2" }, "geometry": { "type": "Polygon", "coordinates": [ [ [ -81.909413990912981, 36.114144999873766 ], [ -81.905860991467819, 36.120432000066366 ], [ -81.906214991083914, 36.122950999930438 ], [ -81.905589991394748, 36.12405499998814 ], [ -81.909643990819646, 36.12517699990488 ], [ -81.910758991292454, 36.123304999764898 ], [ -81.910476990860914, 36.120038999839529 ], [ -81.911316991367229, 36.117978999870452 ], [ -81.915982991605119, 36.122438000389572 ], [ -81.910844990611352, 36.124797000242872 ], [ -81.906500990968837, 36.132793999931373 ], [ -81.906416991238956, 36.139239000073495 ], [ -81.907139991435557, 36.141951000433849 ], [ -81.910972990819616, 36.146217000489045 ], [ -81.91360799077178, 36.14765800036119 ], [ -81.923325991169932, 36.162600999944523 ], [ -81.921986991460443, 36.163643000653451 ], [ -81.924977991339276, 36.170299000455103 ], [ -81.927273990599389, 36.170646000197642 ], [ -81.930529991422532, 36.175007999874929 ], [ -81.926012991074501, 36.178123999825971 ], [ -81.9259019914264, 36.179576000000118 ], [ -81.925023991562426, 36.179257000433481 ], [ -81.924092990904441, 36.180115000489288 ], [ -81.925150991688042, 36.180280000375724 ], [ -81.924771990788585, 36.183327999992336 ], [ -81.928688991413722, 36.187242000638399 ], [ -81.928045991158825, 36.188853999834883 ], [ -81.928898991408346, 36.192385000262625 ], [ -81.923759991390398, 36.196910000283644 ], [ -81.918551991289419, 36.203716999924261 ], [ -81.916229991664721, 36.208652000143331 ], [ -81.91545499113775, 36.212964000207919 ], [ -81.916381991652102, 36.218149999941204 ], [ -81.917495990847769, 36.219941000224871 ], [ -81.919939991289525, 36.223356999926551 ], [ -81.927278991295537, 36.228677000360435 ], [ -81.928410990770985, 36.230005999796404 ], [ -81.928175991489951, 36.231426000585614 ], [ -81.924914990593692, 36.237246000387884 ], [ -81.908343991344537, 36.233491000318395 ], [ -81.911237990807592, 36.229502000017376 ], [ -81.9102909909397, 36.226742999833746 ], [ -81.907447990941037, 36.223740000057759 ], [ -81.907593991571545, 36.219853000583015 ], [ -81.906762991393151, 36.218256000410115 ], [ -81.909007990797292, 36.216392000383223 ], [ -81.904340991413406, 36.210692000455893 ], [ -81.902845991182858, 36.207028000514178 ], [ -81.88832399109512, 36.19660700030316 ], [ -81.885382991673694, 36.189450999931438 ], [ -81.856780991031883, 36.193680000379523 ], [ -81.837253991124541, 36.1728960000193 ], [ -81.835356991122197, 36.170349000562766 ], [ -81.835646990772375, 36.168496000383577 ], [ -81.829376991669221, 36.169011000216955 ], [ -81.828748991379626, 36.165498999983271 ], [ -81.826879991473774, 36.164047000479052 ], [ -81.824344991107182, 36.156651000144429 ], [ -81.824344990943089, 36.153634000474824 ], [ -81.814885990921439, 36.122671000502208 ], [ -81.828148991486884, 36.122782000544703 ], [ -81.838810991483655, 36.118243999769611 ], [ -81.843417990657301, 36.12289800019942 ], [ -81.844822991075105, 36.125355000521303 ], [ -81.864208991158876, 36.11668199998622 ], [ -81.87355999069139, 36.11497499990147 ], [ -81.882255990620052, 36.113526000172648 ], [ -81.88645999164217, 36.114487999932699 ], [ -81.88752799076488, 36.118225000288341 ], [ -81.885494991675088, 36.122006000223969 ], [ -81.883183991623383, 36.124221000198609 ], [ -81.883104991507736, 36.126758000248806 ], [ -81.886349991640074, 36.129516000075725 ], [ -81.889512990888846, 36.128260000047035 ], [ -81.892709991614026, 36.125589000354466 ], [ -81.894397990655619, 36.120062000095245 ], [ -81.909413990912981, 36.114144999873766 ] ] ] } },
{ "type": "Feature", "properties": { "county": "AVERY", "precinct": "3", "enr_desc": "Beech Mountain", "winner": "Teresa I. Benfield", "winner_votes": 60, "winner_share": 83.333333333333343, "runner_up": "Linda Webb", "runner_up_votes": 12, "runner_up_share": 16.666666666666664, "contest_votes": 72, "margin_of_victory": 66.666666666666686, "is_tie": false, "results": [ { "candidate": "Teresa I. Benfield", "votes": 60, "share": 83.33333333333334 }, { "candidate": "Linda Webb", "votes": 12, "share": 16.666666666666664 } ], "participated": true, "map_key": "AVERY_3" }, "geometry": { "type": "Polygon", "coordinates": [ [ [ -81.947860991366028, 36.192132000295445 ], [ -81.949391991241527, 36.192722000407493 ], [ -81.949912991270324, 36.195701000069448 ], [ -81.953499991129334, 36.196714999833986 ], [ -81.957870991022929, 36.196747999903202 ], [ -81.957929990717233, 36.204320000367233 ], [ -81.958698991448372, 36.207002999856854 ], [ -81.967933991493794, 36.211780000009036 ], [ -81.970703990970563, 36.212310000499713 ], [ -81.95965099062029, 36.228571999818556 ], [ -81.939007991396792, 36.256033000184317 ], [ -81.918118990730719, 36.287128999997421 ], [ -81.917503990662354, 36.285423000387752 ], [ -81.912830991416499, 36.281470999931301 ], [ -81.910123991696949, 36.280678000633316 ], [ -81.907572991124951, 36.278553000005246 ], [ -81.906157991666959, 36.278530000609656 ], [ -81.901828991118052, 36.281220000138624 ], [ -81.900071991504291, 36.280731999947193 ], [ -81.895356991538151, 36.272115999986084 ], [ -81.895478991256851, 36.269470000485072 ], [ -81.893488990805963, 36.264531000304551 ], [ -81.894310990901175, 36.263195000395875 ], [ -81.897059991315047, 36.262010000489397 ], [ -81.895508991211145, 36.260350000509462 ], [ -81.895856990785418, 36.258250000179913 ], [ -81.897931990654641, 36.257522000397188 ], [ -81.896077991255169, 36.256429999927782 ], [ -81.896674990818454, 36.255080000492676 ], [ -81.897833991573336, 36.254110000018891 ], [ -81.900036991010538, 36.254011000330735 ], [ -81.900946990706259, 36.252165999942434 ], [ -81.90220399082078, 36.254301999812867 ], [ -81.903942991013679, 36.251427000173472 ], [ -81.903389991600349, 36.249370000148772 ], [ -81.89988899070967, 36.248600000254015 ], [ -81.897025991474223, 36.242738000400067 ], [ -81.902236991611204, 36.239175000202181 ], [ -81.907606990603057, 36.238754000620979 ], [ -81.908343991344537, 36.233491000318395 ], [ -81.924914990593692, 36.237246000387884 ], [ -81.928175991489951, 36.231426000585614 ], [ -81.928410990770985, 36.230005999796404 ], [ -81.927278991295537, 36.228677000360435 ], [ -81.919939991289525, 36.223356999926551 ], [ -81.917495990847769, 36.219941000224871 ], [ -81.916381991652102, 36.218149999941204 ], [ -81.91545499113775, 36.212964000207919 ], [ -81.916229991664721, 36.208652000143331 ], [ -81.918551991289419, 36.203716999924261 ], [ -81.923759991390398, 36.196910000283644 ], [ -81.928898991408346, 36.192385000262625 ], [ -81.931139991028502, 36.191265000173033 ], [ -81.93150799078775, 36.193475000081975 ], [ -81.937480990625247, 36.189235000670706 ], [ -81.938465990877503, 36.190451999832028 ], [ -81.943872990866467, 36.190716999964863 ], [ -81.947860991366028, 36.192132000295445 ] ] ] } },
{ "type": "Feature", "properties": { "county": "AVERY", "precinct": "4", "enr_desc": "Careys Flat", "winner": "Teresa I. Benfield", "winner_votes": 11, "winner_share": 73.333333333333329, "runner_up": "Linda Webb", "runner_up_votes": 4, "runner_up_share": 26.666666666666668, "contest_votes": 15, "margin_of_victory": 46.666666666666657, "is_tie": false, "results": [ { "candidate": "Teresa I. Benfield", "votes": 11, "share": 73.33333333333333 }, { "candidate": "Linda Webb", "votes": 4, "share": 26.666666666666668 } ], "participated": true, "map_key": "AVERY_4" }, "geometry": { "type": "Polygon", "coordinates": [ [ [ -81.870030990896936, 35.97630600012365 ], [ -81.86184899073541, 35.991152000019653 ], [ -81.863112990892972, 35.992808000226184 ], [ -81.870522991446251, 35.995357000450987 ], [ -81.874370991595441, 36.000273999766549 ], [ -81.864729991677549, 36.007687000490094 ], [ -81.860957991356301, 36.011592000626372 ], [ -81.860243991046246, 36.013689999791794 ], [ -81.861353991559511, 36.017024000218846 ], [ -81.865410991010251, 36.023442999857622 ], [ -81.871803991534762, 36.02999000064851 ], [ -81.869905991061259, 36.031479999958634 ], [ -81.867088990846895, 36.037463000352083 ], [ -81.864208991369566, 36.040059999854435 ], [ -81.863212991052478, 36.043075000373612 ], [ -81.863306991313905, 36.046026000137388 ], [ -81.857551990870434, 36.05058800033126 ], [ -81.853078991341548, 36.051874000206695 ], [ -81.852202991235316, 36.055701000228581 ], [ -81.849171991189621, 36.057279000187251 ], [ -81.849757991399315, 36.059930000057527 ], [ -81.847406990906975, 36.064172000630542 ], [ -81.844846991013313, 36.066909999901434 ], [ -81.841203991359279, 36.068749000160032 ], [ -81.837673990622065, 36.071878000629439 ], [ -81.834323991445686, 36.076844000137733 ], [ -81.833373991272495, 36.0809629999763 ], [ -81.829783990989952, 36.084511999910511 ], [ -81.827517991632661, 36.088112999957985 ], [ -81.825017991016139, 36.089459000035447 ], [ -81.822009990958918, 36.089205000377127 ], [ -81.819854991004249, 36.090789000120253 ], [ -81.815312990601498, 36.090801000164738 ], [ -81.813076991681299, 36.093224999808882 ], [ -81.812996991227848, 36.094554000510087 ], [ -81.811246990610698, 36.095762000108174 ], [ -81.811983990607487, 36.098327000415765 ], [ -81.810506991389573, 36.099892000219775 ], [ -81.807572990588866, 36.10052799995276 ], [ -81.803340991019169, 36.098716999858965 ], [ -81.799299990789635, 36.095841000550337 ], [ -81.797794990677616, 36.097887000132005 ], [ -81.794527990660498, 36.098868000152088 ], [ -81.789502990654157, 36.098929000231252 ], [ -81.784861990944293, 36.096900000350068 ], [ -81.779112991310441, 36.099972000119948 ], [ -81.774120991279787, 36.098648000299235 ], [ -81.769716990856594, 36.094606999784851 ], [ -81.766192991186671, 36.093287999903509 ], [ -81.76297399059635, 36.090573999907676 ], [ -81.760802991227692, 36.089829999891776 ], [ -81.760711990942696, 36.08794900016877 ], [ -81.758029991087341, 36.08252999975258 ], [ -81.758516991701683, 36.077164000161012 ], [ -81.755370991039754, 36.076010999762325 ], [ -81.754282991111381, 36.073070000641614 ], [ -81.752257991604608, 36.072044000629845 ], [ -81.749726990923619, 36.072815000104043 ], [ -81.747007991431261, 36.072128000025003 ], [ -81.745219990820303, 36.072945999943265 ], [ -81.741113991329712, 36.07189100025699 ], [ -81.739939991651809, 36.070861999761966 ], [ -81.738725991644742, 36.070903000602549 ], [ -81.73875299167733, 36.069904000158061 ], [ -81.735672990893818, 36.067583999756415 ], [ -81.807161990622063, 35.961955000082078 ], [ -81.8125129906811, 35.963977000394976 ], [ -81.814877991051873, 35.966719000352938 ], [ -81.817613991424921, 35.968423000593155 ], [ -81.832647990977662, 35.967237999997366 ], [ -81.835731990627764, 35.971736000173294 ], [ -81.840744991569181, 35.971991000484593 ], [ -81.844535990756015, 35.974975999990768 ], [ -81.8495079915606, 35.973586000582799 ], [ -81.851921991355297, 35.974834000453043 ], [ -81.870030990896936, 35.97630600012365 ] ] ] } },
{ "type": "Feature", "properties": { "county": "AVERY", "precinct": "5", "enr_desc": "Cranberry", "winner": "Teresa I. Benfield", "winner_votes": 49, "winner_share": 90.740740740740748, "runner_up": "Linda Webb", "runner_up_votes": 5, "runner_up_share": 9.2592592592592595, "contest_votes": 54, "margin_of_victory": 81.481481481481495, "is_tie": false, "results": [ { "candidate": "Teresa I. Benfield", "votes": 49, "share": 90.74074074074075 }, { "candidate": "Linda Webb", "votes": 5, "share": 9.25925925925926 } ], "participated": true, "map_key": "AVERY_5" }, "geometry": { "type": "Polygon", "coordinates": [ [ [ -81.910972990819616, 36.146217000489045 ], [ -81.907139991435557, 36.141951000433849 ], [ -81.906416991238956, 36.139239000073495 ], [ -81.906500990968837, 36.132793999931373 ], [ -81.910844990611352, 36.124797000242872 ], [ -81.915982991605119, 36.122438000389572 ], [ -81.918089991404685, 36.125443999893164 ], [ -81.920573990621293, 36.126242000167764 ], [ -81.922431990989793, 36.128517000292028 ], [ -81.926745990816997, 36.130072000027759 ], [ -81.931064990928135, 36.133343000498606 ], [ -81.933013991584957, 36.130280999992848 ], [ -81.934872991657372, 36.129539000223168 ], [ -81.935916991515469, 36.130252999863835 ], [ -81.93796299130824, 36.134883999799072 ], [ -81.949891991063907, 36.137386999900251 ], [ -81.949548991147097, 36.121763000053726 ], [ -81.953924991610208, 36.12072200040248 ], [ -81.956971991575287, 36.114451000011094 ], [ -81.958044990792246, 36.11388000012964 ], [ -81.98358699065372, 36.113916000147725 ], [ -81.9853729912776, 36.114586999852051 ], [ -81.987164990700762, 36.119404000488373 ], [ -82.005123990774578, 36.135062000505798 ], [ -82.019446991256046, 36.141003999858292 ], [ -82.016571991277289, 36.145135999770801 ], [ -82.013041991680126, 36.143861000160612 ], [ -82.011579991438936, 36.140030000284895 ], [ -82.002109991292727, 36.142344000184586 ], [ -81.990880990627033, 36.142125999785122 ], [ -81.985978991481431, 36.142858000587701 ], [ -81.978779991079335, 36.144742000223978 ], [ -81.968705991029012, 36.155144000111655 ], [ -81.956371990750981, 36.156764000290629 ], [ -81.950403990652546, 36.153225999893017 ], [ -81.943470991353223, 36.152685000530674 ], [ -81.942323991620441, 36.151873000014817 ], [ -81.939885991534368, 36.146382999889525 ], [ -81.938642991534707, 36.145223000373427 ], [ -81.934865990750254, 36.143946999839123 ], [ -81.922175991507672, 36.143426000651594 ], [ -81.921746990739891, 36.144467000174075 ], [ -81.918881990861991, 36.143612000122509 ], [ -81.914728990742546, 36.144254999983701 ], [ -81.910972990819616, 36.146217000489045 ] ] ] } },
{ "type": "Feature", "properties": { "county": "AVERY", "precinct": "6", "enr_desc": "Elk Park", "winner": "Teresa I. Benfield", "winner_votes": 77, "winner_share": 71.296296296296291, "runner_up": "Linda Webb", "runner_up_votes": 31, "runner_up_share": 28.703703703703702, "contest_votes": 108, "margin_of_victory": 42.592592592592588, "is_tie": false, "results": [ { "candidate": "Teresa I. Benfield", "votes": 77, "share": 71.29629629629629 }, { "candidate": "Linda Webb", "votes": 31, "share": 28.703703703703702 } ], "participated": true, "map_key": "AVERY_6" }, "geometry": { "type": "Polygon", "coordinates": [ [ [ -82.016571991277289, 36.145135999770801 ], [ -81.970703990970563, 36.212310000499713 ], [ -81.967933991493794, 36.211780000009036 ], [ -81.958698991448372, 36.207002999856854 ], [ -81.957929990717233, 36.204320000367233 ], [ -81.957870991022929, 36.196747999903202 ], [ -81.953499991129334, 36.196714999833986 ], [ -81.949912991270324, 36.195701000069448 ], [ -81.949391991241527, 36.192722000407493 ], [ -81.947860991366028, 36.192132000295445 ], [ -81.954174990668449, 36.18467900066301 ], [ -81.96001599131759, 36.164605000177879 ], [ -81.956491991119094, 36.160499000396491 ], [ -81.956371990750981, 36.156764000290629 ], [ -81.968705991029012, 36.155144000111655 ], [ -81.978779991079335, 36.144742000223978 ], [ -81.985978991481431, 36.142858000587701 ], [ -81.990880990627033, 36.142125999785122 ], [ -82.002109991292727, 36.142344000184586 ], [ -82.011579991438936, 36.140030000284895 ], [ -82.013041991680126, 36.143861000160612 ], [ -82.016571991277289, 36.145135999770801 ] ] ] } },
{ "type": "Feature", "properties": { "county": "AVERY", "precinct": "7", "enr_desc": "Frank", "winner": "Teresa I. Benfield", "winner_votes": 43, "winner_share": 78.181818181818187, "runner_up": "Linda Webb", "runner_up_votes": 12, "runner_up_share": 21.818181818181817, "contest_votes": 55, "margin_of_victory": 56.363636363636374, "is_tie": false, "results": [ { "candidate": "Teresa I. Benfield", "votes": 43, "share": 78.18181818181819 }, { "candidate": "Linda Webb", "votes": 12, "share": 21.818181818181817 } ], "participated": true, "map_key": "AVERY_7" }, "geometry": { "type": "Polygon", "coordinates": [ [ [ -81.989971990661829, 36.054268999982867 ], [ -82.005737991555236, 36.054451999916317 ], [ -82.008605991450608, 36.062596999873598 ], [ -82.015717990972448, 36.068895000255445 ], [ -82.020326990678939, 36.076876000155785 ], [ -82.024118991172543, 36.080615000230026 ], [ -82.024504991468703, 36.083862000631612 ], [ -82.021908991151946, 36.087650000274749 ], [ -82.023921991676787, 36.091792999905117 ], [ -82.024228991121248, 36.095568000479318 ], [ -82.024052991251025, 36.096145000533177 ], [ -82.016446991084123, 36.092654000584453 ], [ -82.010790991161642, 36.088973000245367 ], [ -81.995781990718768, 36.083552000241532 ], [ -81.995632991327255, 36.079114000082079 ], [ -81.993432990598137, 36.077131999797864 ], [ -81.994144991598731, 36.074251999776493 ], [ -81.993481991561083, 36.071012000203154 ], [ -81.994720991221755, 36.066886000446765 ], [ -81.990788991594258, 36.06308799979098 ], [ -81.991719990837041, 36.058845000263922 ], [ -81.989971990661829, 36.054268999982867 ] ] ] } },
{ "type": "Feature", "properties": { "county": "AVERY", "precinct": "8", "enr_desc": "Heaton", "winner": "Teresa I. Benfield", "winner_votes": 52, "winner_share": 81.25, "runner_up": "Linda Webb", "runner_up_votes": 12, "runner_up_share": 18.75, "contest_votes": 64, "margin_of_victory": 62.5, "is_tie": false, "results": [ { "candidate": "Teresa I. Benfield", "votes": 52, "share": 81.25 }, { "candidate": "Linda Webb", "votes": 12, "share": 18.75 } ], "participated": true, "map_key": "AVERY_8" }, "geometry": { "type": "Polygon", "coordinates": [ [ [ -81.910972990819616, 36.146217000489045 ], [ -81.914728990742546, 36.144254999983701 ], [ -81.918881990861991, 36.143612000122509 ], [ -81.921746990739891, 36.144467000174075 ], [ -81.922175991507672, 36.143426000651594 ], [ -81.934865990750254, 36.143946999839123 ], [ -81.938642991534707, 36.145223000373427 ], [ -81.939885991534368, 36.146382999889525 ], [ -81.942323991620441, 36.151873000014817 ], [ -81.943470991353223, 36.152685000530674 ], [ -81.950403990652546, 36.153225999893017 ], [ -81.956371990750981, 36.156764000290629 ], [ -81.956491991119094, 36.160499000396491 ], [ -81.96001599131759, 36.164605000177879 ], [ -81.954174990668449, 36.18467900066301 ], [ -81.947860991366028, 36.192132000295445 ], [ -81.943872990866467, 36.190716999964863 ], [ -81.938465990877503, 36.190451999832028 ], [ -81.937480990625247, 36.189235000670706 ], [ -81.93150799078775, 36.193475000081975 ], [ -81.931139991028502, 36.191265000173033 ], [ -81.928898991408346, 36.192385000262625 ], [ -81.928045991158825, 36.188853999834883 ], [ -81.928688991413722, 36.187242000638399 ], [ -81.924771990788585, 36.183327999992336 ], [ -81.925150991688042, 36.180280000375724 ], [ -81.924092990904441, 36.180115000489288 ], [ -81.925023991562426, 36.179257000433481 ], [ -81.9259019914264, 36.179576000000118 ], [ -81.926012991074501, 36.178123999825971 ], [ -81.930529991422532, 36.175007999874929 ], [ -81.927273990599389, 36.170646000197642 ], [ -81.924977991339276, 36.170299000455103 ], [ -81.921986991460443, 36.163643000653451 ], [ -81.923325991169932, 36.162600999944523 ], [ -81.91360799077178, 36.14765800036119 ], [ -81.910972990819616, 36.146217000489045 ] ] ] } },
{ "type": "Feature", "properties": { "county": "AVERY", "precinct": "9", "enr_desc": "Hughes", "winner": "Teresa I. Benfield", "winner_votes": 54, "winner_share": 79.411764705882348, "runner_up": "Linda Webb", "runner_up_votes": 14, "runner_up_share": 20.588235294117645, "contest_votes": 68, "margin_of_victory": 58.823529411764703, "is_tie": false, "results": [ { "candidate": "Teresa I. Benfield", "votes": 54, "share": 79.41176470588235 }, { "candidate": "Linda Webb", "votes": 14, "share": 20.588235294117645 } ], "participated": true, "map_key": "AVERY_9" }, "geometry": { "type": "Polygon", "coordinates": [ [ [ -81.956080990933643, 36.039512000626246 ], [ -81.961078991433553, 36.040196999824389 ], [ -81.965980991073508, 36.042582000606814 ], [ -81.970725991245345, 36.043613000290797 ], [ -81.977318991455562, 36.042233000648956 ], [ -81.973677991631945, 36.049475000374684 ], [ -81.980613990772042, 36.052611999780609 ], [ -81.989971990661829, 36.054268999982867 ], [ -81.991719990837041, 36.058845000263922 ], [ -81.990788991594258, 36.06308799979098 ], [ -81.994720991221755, 36.066886000446765 ], [ -81.993481991561083, 36.071012000203154 ], [ -81.994144991598731, 36.074251999776493 ], [ -81.993432990598137, 36.077131999797864 ], [ -81.995632991327255, 36.079114000082079 ], [ -81.987783991640228, 36.079097000182692 ], [ -81.986285990628787, 36.080232000077814 ], [ -81.982754991568797, 36.075037000366819 ], [ -81.98411199147796, 36.071306000494559 ], [ -81.982754991297639, 36.069988999898534 ], [ -81.982560991019, 36.067544000099552 ], [ -81.981513991078359, 36.065852000664187 ], [ -81.979963990944583, 36.066070000653156 ], [ -81.979025990805226, 36.067388000018646 ], [ -81.96771499144495, 36.068391000238854 ], [ -81.966002991095365, 36.069343000402739 ], [ -81.95955699098235, 36.069039000270806 ], [ -81.957484990887949, 36.069559000592001 ], [ -81.956405991101278, 36.070994999956994 ], [ -81.955075991347428, 36.070484000471865 ], [ -81.955380991194801, 36.069690000480193 ], [ -81.954268991570132, 36.068773000586766 ], [ -81.950457990751318, 36.069150000548262 ], [ -81.951742990834731, 36.067534000458068 ], [ -81.95184899156375, 36.065837000643391 ], [ -81.949634991114991, 36.063158000110441 ], [ -81.942492991337119, 36.062918999792132 ], [ -81.941799990855984, 36.062116000015344 ], [ -81.942471991387151, 36.062121000301573 ], [ -81.942439991256734, 36.059752000500396 ], [ -81.937631990972577, 36.054858000189945 ], [ -81.948250991317124, 36.050964000423427 ], [ -81.952539991312051, 36.042466000048357 ], [ -81.956080990933643, 36.039512000626246 ] ] ] } },
{ "type": "Feature", "properties": { "county": "AVERY", "precinct": "10", "enr_desc": "Ingalls", "winner": "Teresa I. Benfield", "winner_votes": 117, "winner_share": 83.571428571428569, "runner_up": "Linda Webb", "runner_up_votes": 23, "runner_up_share": 16.428571428571427, "contest_votes": 140, "margin_of_victory": 67.142857142857139, "is_tie": false, "results": [ { "candidate": "Teresa I. Benfield", "votes": 117, "share": 83.57142857142857 }, { "candidate": "Linda Webb", "votes": 23, "share": 16.428571428571427 } ], "participated": true, "map_key": "AVERY_10" }, "geometry": { "type": "Polygon", "coordinates": [ [ [ -82.05913299168202, 35.988554000638771 ], [ -82.053479990659355, 35.988089000474538 ], [ -82.04302599089641, 35.99129899977752 ], [ -82.03728399085611, 35.990759000165284 ], [ -82.035285991061286, 35.991433000535217 ], [ -82.027838991111935, 35.991280999892076 ], [ -82.023181991214003, 35.988112999847942 ], [ -82.020496990774049, 35.987228999989952 ], [ -82.017293991475825, 35.98735000049961 ], [ -82.017511991669494, 35.988959000360261 ], [ -82.01427999078426, 35.989744000050784 ], [ -82.018168990889464, 35.991004999978756 ], [ -82.010088991163556, 35.99334300042738 ], [ -82.007318991503695, 35.991239000266603 ], [ -82.00664899074475, 35.991850000636134 ], [ -82.005709991079328, 35.993995000290873 ], [ -82.006231991478487, 36.001656000091558 ], [ -82.003963991224637, 36.00167800036229 ], [ -81.99942399142985, 36.00921900058821 ], [ -81.995994990867231, 36.008928000009803 ], [ -81.990290991292483, 36.008948000112269 ], [ -81.988816991253799, 36.006836999943658 ], [ -81.988816991589744, 36.009498000203152 ], [ -81.984848991352195, 36.006285999963907 ], [ -81.972093991500458, 36.006516000346231 ], [ -81.972093991060078, 36.003900000355209 ], [ -81.977251991606963, 35.997337999848398 ], [ -81.976730991123361, 35.993897999825144 ], [ -81.979348991652842, 35.990405999795172 ], [ -81.977516991407114, 35.984345000245099 ], [ -81.9765449906334, 35.984771000497581 ], [ -81.97859899085671, 35.976098000033211 ], [ -81.976959990983133, 35.973531999816217 ], [ -81.976959990687362, 35.964419000608814 ], [ -81.970358990799994, 35.964072000460142 ], [ -81.959768991553332, 35.958538000013448 ], [ -81.960474990782984, 35.956224000167303 ], [ -81.960256990959678, 35.949710000588915 ], [ -81.957607991047624, 35.946776999866337 ], [ -81.962986991243937, 35.941782999871556 ], [ -81.963350990638702, 35.939578999795003 ], [ -81.960200990872593, 35.93608399993051 ], [ -81.954697991616655, 35.932326000369763 ], [ -81.954426991112598, 35.926759000525692 ], [ -81.95680499091597, 35.925351000172633 ], [ -81.960296991459018, 35.921278000050926 ], [ -81.964844990635171, 35.92078200059332 ], [ -81.965640991464397, 35.919369000461991 ], [ -81.968045991394348, 35.918643000322767 ], [ -81.972057991140105, 35.914937000639497 ], [ -81.976658991392242, 35.915094999814933 ], [ -81.978171991476714, 35.914445999813857 ], [ -81.979407991083519, 35.912472999804329 ], [ -81.981953991368258, 35.911361000511867 ], [ -82.03410399165881, 35.942056999950879 ], [ -82.048324991080165, 35.963843000002221 ], [ -82.05913299168202, 35.988554000638771 ] ] ] } },
{ "type": "Feature", "properties": { "county": "AVERY", "precinct": "11", "enr_desc": "Linville", "winner": "Teresa I. Benfield", "winner_votes": 54, "winner_share": 78.260869565217391, "runner_up": "Linda Webb", "runner_up_votes": 15, "runner_up_share": 21.739130434782609, "contest_votes": 69, "margin_of_victory": 56.521739130434781, "is_tie": false, "results": [ { "candidate": "Teresa I. Benfield", "votes": 54, "share": 78.26086956521739 }, { "candidate": "Linda Webb", "votes": 15, "share": 21.73913043478261 } ], "participated": true, "map_key": "AVERY_11" }, "geometry": { "type": "Polygon", "coordinates": [ [ [ -81.863306991313905, 36.046026000137388 ], [ -81.879230990931433, 36.04846900010191 ], [ -81.886346991607624, 36.051296000433453 ], [ -81.89174499136152, 36.054418999918788 ], [ -81.892425991383064, 36.065230000504805 ], [ -81.893614991096101, 36.067875999921135 ], [ -81.891421990788103, 36.073290000221398 ], [ -81.887611991522959, 36.079140000013489 ], [ -81.887224990590013, 36.085348999898592 ], [ -81.886022991569689, 36.085950000101718 ], [ -81.885649991615537, 36.088694999869396 ], [ -81.881195990650568, 36.095509000201851 ], [ -81.88185999071905, 36.098991000474811 ], [ -81.88073999140758, 36.098991000395827 ], [ -81.880440991535608, 36.100960999773051 ], [ -81.879381991285854, 36.100944000581741 ], [ -81.878286991262172, 36.104863000383105 ], [ -81.877055990873984, 36.104778999802285 ], [ -81.87355999069139, 36.11497499990147 ], [ -81.864208991158876, 36.11668199998622 ], [ -81.844822991075105, 36.125355000521303 ], [ -81.843417990657301, 36.12289800019942 ], [ -81.838810991483655, 36.118243999769611 ], [ -81.828148991486884, 36.122782000544703 ], [ -81.814885990921439, 36.122671000502208 ], [ -81.811521991555651, 36.11145900036319 ], [ -81.80736199164464, 36.111177999914297 ], [ -81.797003990777014, 36.107195000562363 ], [ -81.792208991353576, 36.103171999956544 ], [ -81.785721990934988, 36.1004560004775 ], [ -81.781716990828201, 36.101208000189246 ], [ -81.779112991310441, 36.099972000119948 ], [ -81.784861990944293, 36.096900000350068 ], [ -81.789502990654157, 36.098929000231252 ], [ -81.794527990660498, 36.098868000152088 ], [ -81.797794990677616, 36.097887000132005 ], [ -81.799299990789635, 36.095841000550337 ], [ -81.803340991019169, 36.098716999858965 ], [ -81.807572990588866, 36.10052799995276 ], [ -81.810506991389573, 36.099892000219775 ], [ -81.811983990607487, 36.098327000415765 ], [ -81.811246990610698, 36.095762000108174 ], [ -81.812996991227848, 36.094554000510087 ], [ -81.813076991681299, 36.093224999808882 ], [ -81.815312990601498, 36.090801000164738 ], [ -81.819854991004249, 36.090789000120253 ], [ -81.822009990958918, 36.089205000377127 ], [ -81.825017991016139, 36.089459000035447 ], [ -81.827517991632661, 36.088112999957985 ], [ -81.829783990989952, 36.084511999910511 ], [ -81.833373991272495, 36.0809629999763 ], [ -81.834323991445686, 36.076844000137733 ], [ -81.837673990622065, 36.071878000629439 ], [ -81.841203991359279, 36.068749000160032 ], [ -81.844846991013313, 36.066909999901434 ], [ -81.847406990906975, 36.064172000630542 ], [ -81.849757991399315, 36.059930000057527 ], [ -81.849171991189621, 36.057279000187251 ], [ -81.852202991235316, 36.055701000228581 ], [ -81.853078991341548, 36.051874000206695 ], [ -81.857551990870434, 36.05058800033126 ], [ -81.863306991313905, 36.046026000137388 ] ] ] } },
{ "type": "Feature", "properties": { "county": "AVERY", "precinct": "12", "enr_desc": "Minneapolis", "winner": "Teresa I. Benfield", "winner_votes": 43, "winner_share": 82.692307692307693, "runner_up": "Linda Webb", "runner_up_votes": 9, "runner_up_share": 17.307692307692307, "contest_votes": 52, "margin_of_victory": 65.384615384615387, "is_tie": false, "results": [ { "candidate": "Teresa I. Benfield", "votes": 43, "share": 82.6923076923077 }, { "candidate": "Linda Webb", "votes": 9, "share": 17.307692307692307 } ], "participated": true, "map_key": "AVERY_12" }, "geometry": { "type": "Polygon", "coordinates": [ [ [ -81.973309990598651, 36.094458000147029 ], [ -81.986285990628787, 36.080232000077814 ], [ -81.987783991640228, 36.079097000182692 ], [ -81.995632991327255, 36.079114000082079 ], [ -81.995781990718768, 36.083552000241532 ], [ -82.010790991161642, 36.088973000245367 ], [ -82.016446991084123, 36.092654000584453 ], [ -82.024052991251025, 36.096145000533177 ], [ -82.024228991121248, 36.095568000479318 ], [ -82.026537991611505, 36.100192000225341 ], [ -82.027862991077043, 36.100642000032316 ], [ -82.028681991413933, 36.104667000142797 ], [ -82.027582991129208, 36.106590000427339 ], [ -82.030361991587952, 36.114758000031699 ], [ -82.033838990911462, 36.120475000131684 ], [ -82.029050991201402, 36.124667000393714 ], [ -82.026769991405274, 36.128968000237414 ], [ -82.026900990884258, 36.130154000125493 ], [ -82.019446991256046, 36.141003999858292 ], [ -82.005123990774578, 36.135062000505798 ], [ -81.987164990700762, 36.119404000488373 ], [ -81.9853729912776, 36.114586999852051 ], [ -81.98358699065372, 36.113916000147725 ], [ -81.980959990964706, 36.10950400010406 ], [ -81.969885991216643, 36.104375999909564 ], [ -81.970781991658853, 36.103323000588858 ], [ -81.969233990872695, 36.100561000010927 ], [ -81.972249990966745, 36.097141000153037 ], [ -81.973309990598651, 36.094458000147029 ] ] ] } },
{ "type": "Feature", "properties": { "county": "AVERY", "precinct": "13", "enr_desc": "Montezuma", "winner": "Teresa I. Benfield", "winner_votes": 70, "winner_share": 82.35294117647058, "runner_up": "Linda Webb", "runner_up_votes": 15, "runner_up_share": 17.647058823529413, "contest_votes": 85, "margin_of_victory": 64.70588235294116, "is_tie": false, "results": [ { "candidate": "Teresa I. Benfield", "votes": 70, "share": 82.35294117647058 }, { "candidate": "Linda Webb", "votes": 15, "share": 17.647058823529413 } ], "participated": true, "map_key": "AVERY_13" }, "geometry": { "type": "Polygon", "coordinates": [ [ [ -81.89174499136152, 36.054418999918788 ], [ -81.901420990675419, 36.053658999803723 ], [ -81.912908990941773, 36.054913999860915 ], [ -81.912917991018901, 36.061938999996919 ], [ -81.914698991340757, 36.061940000405301 ], [ -81.914716990636535, 36.066923999773543 ], [ -81.912308991327194, 36.066928000191929 ], [ -81.912524991233809, 36.070529000606811 ], [ -81.910829991546322, 36.070522000384521 ], [ -81.910829991507995, 36.072495000308727 ], [ -81.909108991492687, 36.07249500045959 ], [ -81.909102991367064, 36.074076000141432 ], [ -81.914102991573131, 36.07436899977143 ], [ -81.917902990633024, 36.077100000346675 ], [ -81.914943991126364, 36.080349000337485 ], [ -81.915835991414838, 36.084279000639128 ], [ -81.914503991367468, 36.086704999847626 ], [ -81.915798991275139, 36.090448999978015 ], [ -81.913317990935369, 36.095110000084965 ], [ -81.909572991000104, 36.100248000124466 ], [ -81.902665990684099, 36.103088000103646 ], [ -81.906057990641045, 36.102863000101749 ], [ -81.905277991144089, 36.104769000349009 ], [ -81.907896990630448, 36.108084000057666 ], [ -81.908661990664768, 36.111513000113348 ], [ -81.910002990648309, 36.113471000568055 ], [ -81.909413990912981, 36.114144999873766 ], [ -81.894397990655619, 36.120062000095245 ], [ -81.892709991614026, 36.125589000354466 ], [ -81.889512990888846, 36.128260000047035 ], [ -81.886349991640074, 36.129516000075725 ], [ -81.883104991507736, 36.126758000248806 ], [ -81.883183991623383, 36.124221000198609 ], [ -81.885494991675088, 36.122006000223969 ], [ -81.88752799076488, 36.118225000288341 ], [ -81.88645999164217, 36.114487999932699 ], [ -81.882255990620052, 36.113526000172648 ], [ -81.87355999069139, 36.11497499990147 ], [ -81.877055990873984, 36.104778999802285 ], [ -81.878286991262172, 36.104863000383105 ], [ -81.879381991285854, 36.100944000581741 ], [ -81.880440991535608, 36.100960999773051 ], [ -81.88073999140758, 36.098991000395827 ], [ -81.88185999071905, 36.098991000474811 ], [ -81.881195990650568, 36.095509000201851 ], [ -81.885649991615537, 36.088694999869396 ], [ -81.886022991569689, 36.085950000101718 ], [ -81.887224990590013, 36.085348999898592 ], [ -81.887611991522959, 36.079140000013489 ], [ -81.891421990788103, 36.073290000221398 ], [ -81.893614991096101, 36.067875999921135 ], [ -81.892425991383064, 36.065230000504805 ], [ -81.89174499136152, 36.054418999918788 ] ] ] } },
{ "type": "Feature", "properties": { "county": "AVERY", "precinct": "18", "enr_desc": "Pyatte", "winner": "Teresa I. Benfield", "winner_votes": 75, "winner_share": 83.333333333333343, "runner_up": "Linda Webb", "runner_up_votes": 15, "runner_up_share": 16.666666666666664, "contest_votes": 90, "margin_of_victory": 66.666666666666686, "is_tie": false, "results": [ { "candidate": "Teresa I. Benfield", "votes": 75, "share": 83.33333333333334 }, { "candidate": "Linda Webb", "votes": 15, "share": 16.666666666666664 } ], "participated": true, "map_key": "AVERY_18" }, "geometry": { "type": "Polygon", "coordinates": [ [ [ -81.976730991123361, 35.993897999825144 ], [ -81.977251991606963, 35.997337999848398 ], [ -81.972093991060078, 36.003900000355209 ], [ -81.972093991500458, 36.006516000346231 ], [ -81.984848991352195, 36.006285999963907 ], [ -81.988816991589744, 36.009498000203152 ], [ -81.988816991253799, 36.006836999943658 ], [ -81.990290991292483, 36.008948000112269 ], [ -81.995994990867231, 36.008928000009803 ], [ -81.99512499072371, 36.009621000178576 ], [ -81.995513991164643, 36.011518000583948 ], [ -81.993740991589149, 36.017950000403523 ], [ -81.989631990848352, 36.01750200008432 ], [ -81.989699991287338, 36.02121400024344 ], [ -81.987937991081708, 36.020261999803623 ], [ -81.987349991513454, 36.026922000502935 ], [ -81.977318991455562, 36.042233000648956 ], [ -81.970725991245345, 36.043613000290797 ], [ -81.965980991073508, 36.042582000606814 ], [ -81.961078991433553, 36.040196999824389 ], [ -81.956080990933643, 36.039512000626246 ], [ -81.95281399094273, 36.038985000302041 ], [ -81.950217991645573, 36.03685600013543 ], [ -81.94808199099316, 36.032351000275824 ], [ -81.947564990949786, 36.029227999794081 ], [ -81.9485949912889, 36.029515000114721 ], [ -81.948706991084606, 36.02655499989698 ], [ -81.951853991705363, 36.020783000485444 ], [ -81.957901990915175, 36.014495000256922 ], [ -81.951289991655258, 36.011428000067568 ], [ -81.947944990941892, 36.007849000341118 ], [ -81.947773990606976, 36.005234000157046 ], [ -81.950648990960588, 36.005397000011783 ], [ -81.950588991007081, 36.003761000577555 ], [ -81.954372991604657, 36.003669000314893 ], [ -81.958885991401687, 35.999443999908493 ], [ -81.965266991676515, 36.001763000651671 ], [ -81.971651991655804, 35.994807000135488 ], [ -81.976730991123361, 35.993897999825144 ] ] ] } },
{ "type": "Feature", "properties": { "county": "AVERY", "precinct": "14", "enr_desc": "Newland   1", "winner": "Teresa I. Benfield", "winner_votes": 103, "winner_share": 70.547945205479451, "runner_up": "Linda Webb", "runner_up_votes": 43, "runner_up_share": 29.452054794520549, "contest_votes": 146, "margin_of_victory": 41.095890410958901, "is_tie": false, "results": [ { "candidate": "Teresa I. Benfield", "votes": 103, "share": 70.54794520547945 }, { "candidate": "Linda Webb", "votes": 43, "share": 29.45205479452055 } ], "participated": true, "map_key": "AVERY_14" }, "geometry": { "type": "Polygon", "coordinates": [ [ [ -81.973309990598651, 36.094458000147029 ], [ -81.972249990966745, 36.097141000153037 ], [ -81.969233990872695, 36.100561000010927 ], [ -81.970781991658853, 36.103323000588858 ], [ -81.969885991216643, 36.104375999909564 ], [ -81.980959990964706, 36.10950400010406 ], [ -81.98358699065372, 36.113916000147725 ], [ -81.958044990792246, 36.11388000012964 ], [ -81.956971991575287, 36.114451000011094 ], [ -81.953924991610208, 36.12072200040248 ], [ -81.949548991147097, 36.121763000053726 ], [ -81.949891991063907, 36.137386999900251 ], [ -81.93796299130824, 36.134883999799072 ], [ -81.935916991515469, 36.130252999863835 ], [ -81.934872991657372, 36.129539000223168 ], [ -81.933013991584957, 36.130280999992848 ], [ -81.931064990928135, 36.133343000498606 ], [ -81.926745990816997, 36.130072000027759 ], [ -81.922431990989793, 36.128517000292028 ], [ -81.920573990621293, 36.126242000167764 ], [ -81.918089991404685, 36.125443999893164 ], [ -81.915982991605119, 36.122438000389572 ], [ -81.911316991367229, 36.117978999870452 ], [ -81.910476990860914, 36.120038999839529 ], [ -81.910758991292454, 36.123304999764898 ], [ -81.909643990819646, 36.12517699990488 ], [ -81.905589991394748, 36.12405499998814 ], [ -81.906214991083914, 36.122950999930438 ], [ -81.905860991467819, 36.120432000066366 ], [ -81.909413990912981, 36.114144999873766 ], [ -81.910002990648309, 36.113471000568055 ], [ -81.908661990664768, 36.111513000113348 ], [ -81.907896990630448, 36.108084000057666 ], [ -81.905277991144089, 36.104769000349009 ], [ -81.906057990641045, 36.102863000101749 ], [ -81.902665990684099, 36.103088000103646 ], [ -81.909572991000104, 36.100248000124466 ], [ -81.913317990935369, 36.095110000084965 ], [ -81.915798991275139, 36.090448999978015 ], [ -81.914503991367468, 36.086704999847626 ], [ -81.915835991414838, 36.084279000639128 ], [ -81.914943991126364, 36.080349000337485 ], [ -81.917902990633024, 36.077100000346675 ], [ -81.921621990868942, 36.080314000525632 ], [ -81.921006990874758, 36.085155999898838 ], [ -81.924772990812428, 36.087258000237277 ], [ -81.930534990943244, 36.087977000484699 ], [ -81.932278991564885, 36.089287999778676 ], [ -81.934569991503409, 36.088108000262523 ], [ -81.935938990710909, 36.088309999852832 ], [ -81.940746991207746, 36.093013000393064 ], [ -81.940819991500646, 36.094489000249858 ], [ -81.946347990611102, 36.098206999781063 ], [ -81.950983990886968, 36.094635999828903 ], [ -81.952096991080879, 36.095853000647459 ], [ -81.95733499148939, 36.094719000556637 ], [ -81.961058991170546, 36.096380000349029 ], [ -81.96276799159898, 36.095757000172249 ], [ -81.9662649914507, 36.091458000135255 ], [ -81.973309990598651, 36.094458000147029 ] ] ] } },
{ "type": "Feature", "properties": { "county": "AVERY", "precinct": "15", "enr_desc": "Newland   2", "winner": "Teresa I. Benfield", "winner_votes": 85, "winner_share": 75.221238938053091, "runner_up": "Linda Webb", "runner_up_votes": 28, "runner_up_share": 24.778761061946902, "contest_votes": 113, "margin_of_victory": 50.442477876106189, "is_tie": false, "results": [ { "candidate": "Teresa I. Benfield", "votes": 85, "share": 75.22123893805309 }, { "candidate": "Linda Webb", "votes": 28, "share": 24.778761061946902 } ], "participated": true, "map_key": "AVERY_15" }, "geometry": { "type": "Polygon", "coordinates": [ [ [ -81.986285990628787, 36.080232000077814 ], [ -81.973309990598651, 36.094458000147029 ], [ -81.9662649914507, 36.091458000135255 ], [ -81.96276799159898, 36.095757000172249 ], [ -81.961058991170546, 36.096380000349029 ], [ -81.95733499148939, 36.094719000556637 ], [ -81.952096991080879, 36.095853000647459 ], [ -81.950983990886968, 36.094635999828903 ], [ -81.946347990611102, 36.098206999781063 ], [ -81.940819991500646, 36.094489000249858 ], [ -81.940746991207746, 36.093013000393064 ], [ -81.935938990710909, 36.088309999852832 ], [ -81.934569991503409, 36.088108000262523 ], [ -81.932278991564885, 36.089287999778676 ], [ -81.930534990943244, 36.087977000484699 ], [ -81.924772990812428, 36.087258000237277 ], [ -81.921006990874758, 36.085155999898838 ], [ -81.921621990868942, 36.080314000525632 ], [ -81.917902990633024, 36.077100000346675 ], [ -81.914102991573131, 36.07436899977143 ], [ -81.909102991367064, 36.074076000141432 ], [ -81.909108991492687, 36.07249500045959 ], [ -81.910829991507995, 36.072495000308727 ], [ -81.910829991546322, 36.070522000384521 ], [ -81.912524991233809, 36.070529000606811 ], [ -81.912308991327194, 36.066928000191929 ], [ -81.914716990636535, 36.066923999773543 ], [ -81.914698991340757, 36.061940000405301 ], [ -81.912917991018901, 36.061938999996919 ], [ -81.912908990941773, 36.054913999860915 ], [ -81.925229991274762, 36.054728000425584 ], [ -81.928750991047295, 36.053171000580718 ], [ -81.931983991187323, 36.055175000233724 ], [ -81.937631990972577, 36.054858000189945 ], [ -81.942439991256734, 36.059752000500396 ], [ -81.942471991387151, 36.062121000301573 ], [ -81.941799990855984, 36.062116000015344 ], [ -81.942492991337119, 36.062918999792132 ], [ -81.949634991114991, 36.063158000110441 ], [ -81.95184899156375, 36.065837000643391 ], [ -81.951742990834731, 36.067534000458068 ], [ -81.950457990751318, 36.069150000548262 ], [ -81.954268991570132, 36.068773000586766 ], [ -81.955380991194801, 36.069690000480193 ], [ -81.955075991347428, 36.070484000471865 ], [ -81.956405991101278, 36.070994999956994 ], [ -81.957484990887949, 36.069559000592001 ], [ -81.95955699098235, 36.069039000270806 ], [ -81.966002991095365, 36.069343000402739 ], [ -81.96771499144495, 36.068391000238854 ], [ -81.979025990805226, 36.067388000018646 ], [ -81.979963990944583, 36.066070000653156 ], [ -81.981513991078359, 36.065852000664187 ], [ -81.982560991019, 36.067544000099552 ], [ -81.982754991297639, 36.069988999898534 ], [ -81.98411199147796, 36.071306000494559 ], [ -81.982754991568797, 36.075037000366819 ], [ -81.986285990628787, 36.080232000077814 ] ] ] } },
{ "type": "Feature", "properties": { "county": "AVERY", "precinct": "16", "enr_desc": "Pineola", "winner": "Teresa I. Benfield", "winner_votes": 136, "winner_share": 72.727272727272734, "runner_up": "Linda Webb", "runner_up_votes": 51, "runner_up_share": 27.27272727272727, "contest_votes": 187, "margin_of_victory": 45.454545454545467, "is_tie": false, "results": [ { "candidate": "Teresa I. Benfield", "votes": 136, "share": 72.72727272727273 }, { "candidate": "Linda Webb", "votes": 51, "share": 27.27272727272727 } ], "participated": true, "map_key": "AVERY_16" }, "geometry": { "type": "Polygon", "coordinates": [ [ [ -81.899870990778282, 35.999909000288206 ], [ -81.903746991633355, 36.002911000187233 ], [ -81.906615990746729, 36.008855000430664 ], [ -81.908547990633792, 36.016632000131082 ], [ -81.909179990898465, 36.026729999781175 ], [ -81.913303991127179, 36.027964000429321 ], [ -81.913207991618748, 36.03060700015093 ], [ -81.914690991591272, 36.029580999948926 ], [ -81.918223991588803, 36.02402700026245 ], [ -81.925123991643929, 36.028025999817103 ], [ -81.924456990652075, 36.031975000000926 ], [ -81.924808991629376, 36.037898000447569 ], [ -81.923175991433624, 36.040206000166037 ], [ -81.92127799079725, 36.051757000060988 ], [ -81.921851990642068, 36.052704999849851 ], [ -81.928750991047295, 36.053171000580718 ], [ -81.925229991274762, 36.054728000425584 ], [ -81.912908990941773, 36.054913999860915 ], [ -81.901420990675419, 36.053658999803723 ], [ -81.89174499136152, 36.054418999918788 ], [ -81.886346991607624, 36.051296000433453 ], [ -81.879230990931433, 36.04846900010191 ], [ -81.863306991313905, 36.046026000137388 ], [ -81.863212991052478, 36.043075000373612 ], [ -81.864208991369566, 36.040059999854435 ], [ -81.867088990846895, 36.037463000352083 ], [ -81.869905991061259, 36.031479999958634 ], [ -81.871803991534762, 36.02999000064851 ], [ -81.865410991010251, 36.023442999857622 ], [ -81.861353991559511, 36.017024000218846 ], [ -81.860243991046246, 36.013689999791794 ], [ -81.860957991356301, 36.011592000626372 ], [ -81.864729991677549, 36.007687000490094 ], [ -81.874370991595441, 36.000273999766549 ], [ -81.870522991446251, 35.995357000450987 ], [ -81.863112990892972, 35.992808000226184 ], [ -81.86184899073541, 35.991152000019653 ], [ -81.870030990896936, 35.97630600012365 ], [ -81.873335991310114, 35.977649999865172 ], [ -81.873513991314965, 35.979318999819405 ], [ -81.877516990871626, 35.981159000444777 ], [ -81.877761990864954, 35.98904600004704 ], [ -81.878443991664739, 35.990239000618253 ], [ -81.880634990622696, 35.99127900022377 ], [ -81.881385991680986, 35.992932000499785 ], [ -81.899870990778282, 35.999909000288206 ] ] ] } },
{ "type": "Feature", "properties": { "county": "AVERY", "precinct": "17", "enr_desc": "Plumtree", "winner": "Teresa I. Benfield", "winner_votes": 106, "winner_share": 85.483870967741936, "runner_up": "Linda Webb", "runner_up_votes": 18, "runner_up_share": 14.516129032258066, "contest_votes": 124, "margin_of_victory": 70.967741935483872, "is_tie": false, "results": [ { "candidate": "Teresa I. Benfield", "votes": 106, "share": 85.48387096774194 }, { "candidate": "Linda Webb", "votes": 18, "share": 14.516129032258066 } ], "participated": true, "map_key": "AVERY_17" }, "geometry": { "type": "Polygon", "coordinates": [ [ [ -82.05913299168202, 35.988554000638771 ], [ -82.058072991261255, 35.995244000030098 ], [ -82.055112991155951, 35.999475999856386 ], [ -82.048852991646768, 36.001674000013786 ], [ -82.049716990757176, 36.004941000570248 ], [ -82.049134990999647, 36.008163000046629 ], [ -82.043023991103269, 36.006042000212723 ], [ -82.039174990778903, 36.007774000015765 ], [ -82.061569991359633, 36.051429000038098 ], [ -82.055162991317289, 36.050484000393467 ], [ -82.042102990979032, 36.045040000186283 ], [ -82.033712990632296, 36.047090999809598 ], [ -82.029011991451171, 36.046629000398731 ], [ -82.01342399061528, 36.053109000210874 ], [ -82.005737991555236, 36.054451999916317 ], [ -81.989971990661829, 36.054268999982867 ], [ -81.980613990772042, 36.052611999780609 ], [ -81.973677991631945, 36.049475000374684 ], [ -81.977318991455562, 36.042233000648956 ], [ -81.987349991513454, 36.026922000502935 ], [ -81.987937991081708, 36.020261999803623 ], [ -81.989699991287338, 36.02121400024344 ], [ -81.989631990848352, 36.01750200008432 ], [ -81.993740991589149, 36.017950000403523 ], [ -81.995513991164643, 36.011518000583948 ], [ -81.99512499072371, 36.009621000178576 ], [ -81.995994990867231, 36.008928000009803 ], [ -81.99942399142985, 36.00921900058821 ], [ -82.003963991224637, 36.00167800036229 ], [ -82.006231991478487, 36.001656000091558 ], [ -82.005709991079328, 35.993995000290873 ], [ -82.00664899074475, 35.991850000636134 ], [ -82.007318991503695, 35.991239000266603 ], [ -82.010088991163556, 35.99334300042738 ], [ -82.018168990889464, 35.991004999978756 ], [ -82.01427999078426, 35.989744000050784 ], [ -82.017511991669494, 35.988959000360261 ], [ -82.017293991475825, 35.98735000049961 ], [ -82.020496990774049, 35.987228999989952 ], [ -82.023181991214003, 35.988112999847942 ], [ -82.027838991111935, 35.991280999892076 ], [ -82.035285991061286, 35.991433000535217 ], [ -82.03728399085611, 35.990759000165284 ], [ -82.04302599089641, 35.99129899977752 ], [ -82.053479990659355, 35.988089000474538 ], [ -82.05913299168202, 35.988554000638771 ] ] ] } },
{ "type": "Feature", "properties": { "county": "AVERY", "precinct": "19", "enr_desc": "Roaring Creek", "winner": "Teresa I. Benfield", "winner_votes": 39, "winner_share": 73.584905660377359, "runner_up": "Linda Webb", "runner_up_votes": 14, "runner_up_share": 26.415094339622641, "contest_votes": 53, "margin_of_victory": 47.169811320754718, "is_tie": false, "results": [ { "candidate": "Teresa I. Benfield", "votes": 39, "share": 73.58490566037736 }, { "candidate": "Linda Webb", "votes": 14, "share": 26.41509433962264 } ], "participated": true, "map_key": "AVERY_19" }, "geometry": { "type": "Polygon", "coordinates": [ [ [ -82.061569991359633, 36.051429000038098 ], [ -82.068684990612709, 36.065270000656966 ], [ -82.071925991551723, 36.069672999762275 ], [ -82.069620990635485, 36.074226000095337 ], [ -82.069490990860047, 36.075950999982688 ], [ -82.071729991224387, 36.080398999907786 ], [ -82.076844991219161, 36.085072999845465 ], [ -82.077023990691302, 36.092670000430509 ], [ -82.075822991222708, 36.095728000390942 ], [ -82.08088699117846, 36.100290999828957 ], [ -82.080687990865883, 36.105600999867285 ], [ -82.078986991455764, 36.106940000509709 ], [ -82.071870991536599, 36.109045000645473 ], [ -82.066976991045365, 36.112252000416603 ], [ -82.061868990811391, 36.113062000346481 ], [ -82.056832990972012, 36.120366000155471 ], [ -82.056548990813639, 36.124136999941733 ], [ -82.054316991277801, 36.12662400038419 ], [ -82.044754990823748, 36.125555999822737 ], [ -82.041149990998335, 36.123714000185885 ], [ -82.038923990729401, 36.1215670000567 ], [ -82.033838990911462, 36.120475000131684 ], [ -82.030361991587952, 36.114758000031699 ], [ -82.027582991129208, 36.106590000427339 ], [ -82.028681991413933, 36.104667000142797 ], [ -82.027862991077043, 36.100642000032316 ], [ -82.026537991611505, 36.100192000225341 ], [ -82.024228991121248, 36.095568000479318 ], [ -82.023921991676787, 36.091792999905117 ], [ -82.021908991151946, 36.087650000274749 ], [ -82.024504991468703, 36.083862000631612 ], [ -82.024118991172543, 36.080615000230026 ], [ -82.020326990678939, 36.076876000155785 ], [ -82.015717990972448, 36.068895000255445 ], [ -82.008605991450608, 36.062596999873598 ], [ -82.005737991555236, 36.054451999916317 ], [ -82.01342399061528, 36.053109000210874 ], [ -82.029011991451171, 36.046629000398731 ], [ -82.033712990632296, 36.047090999809598 ], [ -82.042102990979032, 36.045040000186283 ], [ -82.055162991317289, 36.050484000393467 ], [ -82.061569991359633, 36.051429000038098 ] ] ] } }
]
}
