{
"type": "FeatureCollection",
"name": "beaufort_county_board_of_education_district_02_rep",
"crs": { "type": "name", "properties": { "name": "urn:ogc:def:crs:OGC:1.3:CRS84" } },
"features": [
{ "type": "Feature", "properties": { "county": null, "precinct": null, "enr_desc": "Beaver Dam", "winner": null, "winner_votes": null, "winner_share": null, "runner_up": null, "runner_up_votes": null, "runner_up_share": null, "contest_votes": null, "margin_of_victory": null, "is_tie": false, "results": null, "participated": false, "map_key": null }, "geometry": { "type": "Polygon", "coordinates": [ [ [ -77.017966991575932, 35.54390099984991 ], [ -77.025017991103368, 35.545124999630659 ], [ -77.022804991004293, 35.546734999421965 ], [ -77.022319990740471, 35.549101999623119 ], [ -77.018519990886247, 35.550897999447848 ], [ -77.01611499123841, 35.553121000189002 ], [ -77.016921991124519, 35.553486000070521 ], [ -77.009460991553354, 35.558396999770864 ], [ -77.005507991211388, 35.560110999457301 ], [ -77.001110991489384, 35.560524000178873 ], [ -77.001354991412924, 35.562997000291588 ], [ -77.003598991306802, 35.564198999581905 ], [ -77.00860899175899, 35.563843999476759 ], [ -77.013617990984073, 35.565010999571754 ], [ -77.014949991578646, 35.564620999426083 ], [ -77.018882991097371, 35.566979999823509 ], [ -77.019875991404859, 35.57125999987273 ], [ -77.019020990914143, 35.57234200003186 ], [ -77.019174991137618, 35.574808999711912 ], [ -77.017518991168956, 35.576623999603655 ], [ -77.016360990723058, 35.579923999573879 ], [ -77.012748991238553, 35.58179099990366 ], [ -77.010339990747738, 35.581943000083982 ], [ -77.006666991202735, 35.584435999713897 ], [ -77.001013990731167, 35.585948999889531 ], [ -76.99885799084538, 35.588128000184327 ], [ -76.993228990673671, 35.588501000083582 ], [ -76.989045990840637, 35.596622000062268 ], [ -76.964695991330643, 35.597038000163373 ], [ -76.964239991410679, 35.575764999624809 ], [ -76.950315991156032, 35.578339999715276 ], [ -76.924582991601241, 35.572841000147669 ], [ -76.916495991444123, 35.571905000126044 ], [ -76.906157990729341, 35.568193999650752 ], [ -76.906456991042248, 35.564535999709562 ], [ -76.902098991289037, 35.562995999762556 ], [ -76.896286991468955, 35.557129000190621 ], [ -76.89654599128329, 35.557005999719742 ], [ -76.903174991737203, 35.554036999842495 ], [ -76.910176991650019, 35.552998999655671 ], [ -76.929097991559075, 35.547828000172181 ], [ -76.931494990982401, 35.545998000176731 ], [ -76.937902990987126, 35.538305000104145 ], [ -76.948974991610228, 35.528659000158015 ], [ -76.962484991397574, 35.530785999924966 ], [ -76.976448991056884, 35.536589000273842 ], [ -76.984792990800557, 35.538150999767126 ], [ -77.017966991575932, 35.54390099984991 ] ] ] } },
{ "type": "Feature", "properties": { "county": null, "precinct": null, "enr_desc": "Belhaven", "winner": null, "winner_votes": null, "winner_share": null, "runner_up": null, "runner_up_votes": null, "runner_up_share": null, "contest_votes": null, "margin_of_victory": null, "is_tie": false, "results": null, "participated": false, "map_key": null }, "geometry": { "type": "Polygon", "coordinates": [ [ [ -76.663617991409836, 35.521713999780857 ], [ -76.642160991088986, 35.53510399991999 ], [ -76.638978991474119, 35.53801700019789 ], [ -76.636954991190208, 35.541497999483937 ], [ -76.637944991159998, 35.542652999822295 ], [ -76.647338991085732, 35.54624199963223 ], [ -76.654188991380565, 35.550507999726406 ], [ -76.65696899131747, 35.554911999644737 ], [ -76.660756991008554, 35.555981000044291 ], [ -76.661685991362006, 35.557831999941648 ], [ -76.660134991180968, 35.560795999497252 ], [ -76.657764990934183, 35.561774999457256 ], [ -76.655043991655731, 35.567068999826162 ], [ -76.655610991347842, 35.568208999905288 ], [ -76.654938991176621, 35.569501999461551 ], [ -76.651982991562974, 35.571615999414433 ], [ -76.6434299914538, 35.572601000270353 ], [ -76.641721991447781, 35.574470999690938 ], [ -76.641508991672723, 35.615063999618229 ], [ -76.646337991650071, 35.618258000159024 ], [ -76.643867991177913, 35.620107999580867 ], [ -76.640477990912885, 35.621616999681613 ], [ -76.635983991400536, 35.622245999474352 ], [ -76.629011990887591, 35.62606899960943 ], [ -76.624501991464797, 35.6261599999658 ], [ -76.612658991537643, 35.633301000081893 ], [ -76.61188099104335, 35.635422999670737 ], [ -76.60722599153226, 35.636060999960279 ], [ -76.605194991614454, 35.637083999537843 ], [ -76.603161990730342, 35.638650999973592 ], [ -76.604181990978418, 35.63893699965665 ], [ -76.604766991177101, 35.643122999915803 ], [ -76.606627991130452, 35.645493999943682 ], [ -76.605903990796449, 35.646328999764378 ], [ -76.60051999126722, 35.635653999397448 ], [ -76.593519991141548, 35.628072000101852 ], [ -76.59157899093627, 35.624113999653112 ], [ -76.588190990640953, 35.620654000211616 ], [ -76.57860299086866, 35.614313000202742 ], [ -76.578796991456898, 35.612682999383303 ], [ -76.577568991182503, 35.611243000241686 ], [ -76.575751991587978, 35.611865000200574 ], [ -76.575377991365386, 35.610899999517436 ], [ -76.574081991202746, 35.611136999772292 ], [ -76.573727991258238, 35.609805999839843 ], [ -76.574285991510806, 35.609392999437325 ], [ -76.573047990823753, 35.607994000253832 ], [ -76.572349990780069, 35.608385999576122 ], [ -76.570563990653611, 35.605757999910203 ], [ -76.567723990742508, 35.604962999800385 ], [ -76.565845991369244, 35.603426000188378 ], [ -76.56432699079221, 35.603658999939789 ], [ -76.563929991392925, 35.601080000100694 ], [ -76.559893991313089, 35.601069000146701 ], [ -76.560193991080865, 35.60002900008201 ], [ -76.556715991038217, 35.600818999858134 ], [ -76.554871990896075, 35.600225999470112 ], [ -76.554635991295996, 35.597969000243921 ], [ -76.553238991518427, 35.597106999775527 ], [ -76.550622991596484, 35.596636999547719 ], [ -76.549707991117202, 35.5978689995924 ], [ -76.546350990902752, 35.597615000025286 ], [ -76.54570799173429, 35.59877199986547 ], [ -76.544448991272972, 35.5983669995356 ], [ -76.542632991691818, 35.599236999848841 ], [ -76.534086990899013, 35.595398999650506 ], [ -76.532521990710023, 35.593297999917105 ], [ -76.532777991071484, 35.592527999779179 ], [ -76.53444499148469, 35.589527999779463 ], [ -76.539547991551842, 35.585908999692286 ], [ -76.538602990966069, 35.584596000121657 ], [ -76.539010991452955, 35.582937000148483 ], [ -76.53204099113502, 35.580900999485351 ], [ -76.530444991455667, 35.582199999698247 ], [ -76.527743991699538, 35.581575000222053 ], [ -76.525395991641048, 35.583434999763277 ], [ -76.525767990694717, 35.58472999984545 ], [ -76.525052991333609, 35.585314999476516 ], [ -76.519107991087793, 35.584834999780099 ], [ -76.51977899115802, 35.581053999513209 ], [ -76.518963990783078, 35.580203999722329 ], [ -76.519265991477923, 35.57908399986831 ], [ -76.516343991235857, 35.576909999477429 ], [ -76.513665991044277, 35.576152999372177 ], [ -76.510224991056745, 35.577508999762976 ], [ -76.508813991718313, 35.579754999730618 ], [ -76.506018990753162, 35.581013999393264 ], [ -76.501592991417809, 35.579722999441188 ], [ -76.500448990766017, 35.578935999542011 ], [ -76.502609991272607, 35.577005999603493 ], [ -76.502964991489534, 35.575613000120377 ], [ -76.500465990692604, 35.57078799951217 ], [ -76.497512990975963, 35.570600000089911 ], [ -76.493436990675505, 35.572731000134084 ], [ -76.491142990669204, 35.572632999761346 ], [ -76.48908099172742, 35.571316999526061 ], [ -76.486991990688821, 35.568500999681653 ], [ -76.482630991060418, 35.567321999556007 ], [ -76.481230991147413, 35.563782999979878 ], [ -76.47993299123759, 35.562851999677108 ], [ -76.470397991547671, 35.558781000262975 ], [ -76.467760991308211, 35.556503999413174 ], [ -76.467780991133807, 35.550928999604906 ], [ -76.478573990971185, 35.530996999710503 ], [ -76.48490299124569, 35.524383999503932 ], [ -76.491191990803756, 35.52085699995591 ], [ -76.500482991489235, 35.518900000089964 ], [ -76.524460990897794, 35.518700999887002 ], [ -76.562862991508538, 35.520029999759657 ], [ -76.573736990691671, 35.5224899997256 ], [ -76.586679991468799, 35.523253999754544 ], [ -76.592197991257947, 35.522423000013681 ], [ -76.599084991592989, 35.519960000261584 ], [ -76.60272599163028, 35.516290999583127 ], [ -76.604105991039063, 35.512385999510713 ], [ -76.626562991733635, 35.51265399998266 ], [ -76.629539991558218, 35.513170000063667 ], [ -76.634830991104735, 35.516301000036535 ], [ -76.638801991088101, 35.516771999894033 ], [ -76.641019990813462, 35.516147000080636 ], [ -76.652021991245917, 35.508356000042539 ], [ -76.656630991712831, 35.505954999454261 ], [ -76.662337991371885, 35.504348999929498 ], [ -76.667032990804756, 35.504060999975422 ], [ -76.668402991056098, 35.507408999521523 ], [ -76.667933991277124, 35.509292999888054 ], [ -76.6688109917459, 35.509805999487092 ], [ -76.669956990822712, 35.509224000273214 ], [ -76.670154990729472, 35.510596999799439 ], [ -76.666440991692525, 35.513592000132157 ], [ -76.666365991154819, 35.515828999814794 ], [ -76.667158991153912, 35.516889000023646 ], [ -76.669777991392721, 35.51688899994776 ], [ -76.663617991409836, 35.521713999780857 ] ] ] } },
{ "type": "Feature", "properties": { "county": "BEAUFORT", "precinct": "AUROR", "enr_desc": "Aurora", "winner": "Charles Hickman", "winner_votes": 90.0, "winner_share": 75.630252100840337, "runner_up": "Austin Garrison", "runner_up_votes": 29.0, "runner_up_share": 24.369747899159663, "contest_votes": 119.0, "margin_of_victory": 51.260504201680675, "is_tie": false, "results": [ { "candidate": "Charles Hickman", "votes": 90, "share": 75.63025210084034 }, { "candidate": "Austin Garrison", "votes": 29, "share": 24.369747899159663 } ], "participated": true, "map_key": "BEAUFORT_AUROR" }, "geometry": { "type": "Polygon", "coordinates": [ [ [ -76.840953991570402, 35.216472999808211 ], [ -76.842092991209299, 35.284330999988761 ], [ -76.844484991355984, 35.297390000079666 ], [ -76.851696991164928, 35.295912000270967 ], [ -76.854560991217312, 35.297010999919436 ], [ -76.858266990706952, 35.308672000114306 ], [ -76.857891991431799, 35.316236999427971 ], [ -76.855793990888642, 35.318706999859479 ], [ -76.857519991475371, 35.321169999666061 ], [ -76.857351991094248, 35.322839000168422 ], [ -76.858668991605839, 35.326324999633556 ], [ -76.858513991126372, 35.329368999882028 ], [ -76.860188991274669, 35.327721000286076 ], [ -76.865205991327272, 35.327762000267391 ], [ -76.864819991005859, 35.330302999975075 ], [ -76.86080399124198, 35.337657999897985 ], [ -76.860444991342703, 35.340274999879625 ], [ -76.852066991421864, 35.340796999704772 ], [ -76.849297991764232, 35.347079999504132 ], [ -76.84583799098472, 35.346733999596488 ], [ -76.842106991547425, 35.348355000038445 ], [ -76.840066990759638, 35.348046999849338 ], [ -76.836310990700028, 35.350116000117566 ], [ -76.835224991734663, 35.352993999985848 ], [ -76.832513991584676, 35.351916999470021 ], [ -76.830225991714542, 35.354999999816627 ], [ -76.827605991774547, 35.353294999530767 ], [ -76.824486991165571, 35.354607999874318 ], [ -76.820912991529568, 35.361147999727976 ], [ -76.81819399150109, 35.364036000199839 ], [ -76.818442991243856, 35.365450999729774 ], [ -76.817199990983227, 35.367334000044373 ], [ -76.816884991707866, 35.36975700019228 ], [ -76.818146991425763, 35.371680000228366 ], [ -76.818587991700838, 35.374688999484768 ], [ -76.816003991551753, 35.379581999819052 ], [ -76.817320991084898, 35.381347999595398 ], [ -76.818645991407223, 35.388436999530569 ], [ -76.818288990829856, 35.390721999450882 ], [ -76.822214991447453, 35.425656000075655 ], [ -76.777242991477777, 35.411899999661678 ], [ -76.749653990783145, 35.399389999767337 ], [ -76.745440991133492, 35.398321999515531 ], [ -76.624650990821891, 35.367582999803005 ], [ -76.590496991286315, 35.361857000052147 ], [ -76.604228990686764, 35.33822300001686 ], [ -76.612843990819059, 35.334822999482945 ], [ -76.617032991742889, 35.330870999638108 ], [ -76.617395990916506, 35.326832999874938 ], [ -76.616234991736022, 35.314678999596296 ], [ -76.619358991406529, 35.302284000157293 ], [ -76.614318990764318, 35.291568999923896 ], [ -76.614420990676663, 35.285409000137051 ], [ -76.612164991000739, 35.279408999779946 ], [ -76.614249991294201, 35.274784999535896 ], [ -76.61454599153258, 35.272467999895682 ], [ -76.613772991778674, 35.27094200001256 ], [ -76.61463899079331, 35.270428999517982 ], [ -76.6325609913102, 35.235323999530998 ], [ -76.840953991570402, 35.216472999808211 ] ] ] } },
{ "type": "Feature", "properties": { "county": "BEAUFORT", "precinct": "BLCK", "enr_desc": "Blounts Creek", "winner": "Charles Hickman", "winner_votes": 107.0, "winner_share": 79.259259259259267, "runner_up": "Austin Garrison", "runner_up_votes": 28.0, "runner_up_share": 20.74074074074074, "contest_votes": 135.0, "margin_of_victory": 58.518518518518526, "is_tie": false, "results": [ { "candidate": "Charles Hickman", "votes": 107, "share": 79.25925925925927 }, { "candidate": "Austin Garrison", "votes": 28, "share": 20.74074074074074 } ], "participated": true, "map_key": "BEAUFORT_BLCK" }, "geometry": { "type": "Polygon", "coordinates": [ [ [ -77.042066990885402, 35.343492000049046 ], [ -77.041738991356127, 35.349869999719871 ], [ -77.043273991331432, 35.382078999411149 ], [ -77.045564991146819, 35.392233999487289 ], [ -77.021905991171892, 35.391926999877128 ], [ -77.019535991592903, 35.389388999649121 ], [ -77.017142990775838, 35.390278999470873 ], [ -77.015654991396801, 35.391898999563352 ], [ -77.001976990820594, 35.38407700019448 ], [ -77.006442991409955, 35.406132000106567 ], [ -76.999306991605906, 35.40627199975156 ], [ -76.997945991068804, 35.403191999876007 ], [ -76.988478991725771, 35.407805999908334 ], [ -76.987331990834051, 35.412333999960516 ], [ -76.988247991754108, 35.413320999845801 ], [ -76.988345990663845, 35.415575000138716 ], [ -76.991687990775176, 35.41848099944427 ], [ -76.989489991260143, 35.420945999895743 ], [ -76.989396991364345, 35.422654999939041 ], [ -76.986752990774846, 35.423184000177997 ], [ -76.982872991715638, 35.422525999420706 ], [ -76.979086990668577, 35.424089000028737 ], [ -76.977145990705736, 35.4237769994334 ], [ -76.975027991609622, 35.425287999439405 ], [ -76.973938991541374, 35.428052999491683 ], [ -76.969559991157269, 35.430336000185925 ], [ -76.971272991724661, 35.43459999952438 ], [ -76.963883990998752, 35.441610999860345 ], [ -76.95623699115356, 35.466082000288438 ], [ -76.957765990697993, 35.469041999681288 ], [ -76.948641990748811, 35.46505199956011 ], [ -76.900069991600731, 35.449470000084617 ], [ -76.908699990730412, 35.435138999883364 ], [ -76.908106991317993, 35.431966999539384 ], [ -76.906447991629435, 35.430636999841596 ], [ -76.904694990662065, 35.431019000178928 ], [ -76.903383990691793, 35.430105999396453 ], [ -76.903402991121268, 35.425470999646215 ], [ -76.906603991459235, 35.42504999980455 ], [ -76.908706991391114, 35.420322999749743 ], [ -76.910938991273653, 35.420067000097745 ], [ -76.91387099163471, 35.416899999451246 ], [ -76.915326991223637, 35.416883000259794 ], [ -76.915203991178416, 35.415040000230043 ], [ -76.916595991191116, 35.413480999511663 ], [ -76.912834990772808, 35.409676999684422 ], [ -76.91135399104904, 35.402842000226059 ], [ -76.905259991254411, 35.401416999688195 ], [ -76.903588990768554, 35.399718999720527 ], [ -76.901503990907798, 35.395107999741811 ], [ -76.897094991016147, 35.391668999656204 ], [ -76.897774991324738, 35.387978999587993 ], [ -76.897531991305399, 35.382155999685416 ], [ -76.90838999088912, 35.370920000187013 ], [ -76.909621990847427, 35.354111000062453 ], [ -76.919961990940266, 35.327943000062426 ], [ -76.942592991033635, 35.288822999806236 ], [ -76.958886991695167, 35.301012999494056 ], [ -77.042066990885402, 35.343492000049046 ] ] ] } },
{ "type": "Feature", "properties": { "county": "BEAUFORT", "precinct": "EDWAR", "enr_desc": "Edward", "winner": "Charles Hickman", "winner_votes": 96.0, "winner_share": 88.888888888888886, "runner_up": "Austin Garrison", "runner_up_votes": 12.0, "runner_up_share": 11.111111111111111, "contest_votes": 108.0, "margin_of_victory": 77.777777777777771, "is_tie": false, "results": [ { "candidate": "Charles Hickman", "votes": 96, "share": 88.88888888888889 }, { "candidate": "Austin Garrison", "votes": 12, "share": 11.11111111111111 } ], "participated": true, "map_key": "BEAUFORT_EDWAR" }, "geometry": { "type": "Polygon", "coordinates": [ [ [ -76.840953991570402, 35.216472999808211 ], [ -76.845504991401086, 35.216059000031656 ], [ -76.942592991033635, 35.288822999806236 ], [ -76.919961990940266, 35.327943000062426 ], [ -76.909621990847427, 35.354111000062453 ], [ -76.90838999088912, 35.370920000187013 ], [ -76.897531991305399, 35.382155999685416 ], [ -76.897774991324738, 35.387978999587993 ], [ -76.897094991016147, 35.391668999656204 ], [ -76.901503990907798, 35.395107999741811 ], [ -76.903588990768554, 35.399718999720527 ], [ -76.905259991254411, 35.401416999688195 ], [ -76.91135399104904, 35.402842000226059 ], [ -76.912834990772808, 35.409676999684422 ], [ -76.916595991191116, 35.413480999511663 ], [ -76.915203991178416, 35.415040000230043 ], [ -76.915326991223637, 35.416883000259794 ], [ -76.91387099163471, 35.416899999451246 ], [ -76.910938991273653, 35.420067000097745 ], [ -76.908706991391114, 35.420322999749743 ], [ -76.906603991459235, 35.42504999980455 ], [ -76.903402991121268, 35.425470999646215 ], [ -76.903383990691793, 35.430105999396453 ], [ -76.904694990662065, 35.431019000178928 ], [ -76.906447991629435, 35.430636999841596 ], [ -76.908106991317993, 35.431966999539384 ], [ -76.908699990730412, 35.435138999883364 ], [ -76.900069991600731, 35.449470000084617 ], [ -76.822214991447453, 35.425656000075655 ], [ -76.818288990829856, 35.390721999450882 ], [ -76.818645991407223, 35.388436999530569 ], [ -76.817320991084898, 35.381347999595398 ], [ -76.816003991551753, 35.379581999819052 ], [ -76.818587991700838, 35.374688999484768 ], [ -76.818146991425763, 35.371680000228366 ], [ -76.816884991707866, 35.36975700019228 ], [ -76.817199990983227, 35.367334000044373 ], [ -76.818442991243856, 35.365450999729774 ], [ -76.81819399150109, 35.364036000199839 ], [ -76.820912991529568, 35.361147999727976 ], [ -76.824486991165571, 35.354607999874318 ], [ -76.827605991774547, 35.353294999530767 ], [ -76.830225991714542, 35.354999999816627 ], [ -76.832513991584676, 35.351916999470021 ], [ -76.835224991734663, 35.352993999985848 ], [ -76.836310990700028, 35.350116000117566 ], [ -76.840066990759638, 35.348046999849338 ], [ -76.842106991547425, 35.348355000038445 ], [ -76.84583799098472, 35.346733999596488 ], [ -76.849297991764232, 35.347079999504132 ], [ -76.852066991421864, 35.340796999704772 ], [ -76.860444991342703, 35.340274999879625 ], [ -76.86080399124198, 35.337657999897985 ], [ -76.864819991005859, 35.330302999975075 ], [ -76.865205991327272, 35.327762000267391 ], [ -76.860188991274669, 35.327721000286076 ], [ -76.858513991126372, 35.329368999882028 ], [ -76.858668991605839, 35.326324999633556 ], [ -76.857351991094248, 35.322839000168422 ], [ -76.857519991475371, 35.321169999666061 ], [ -76.855793990888642, 35.318706999859479 ], [ -76.857891991431799, 35.316236999427971 ], [ -76.858266990706952, 35.308672000114306 ], [ -76.854560991217312, 35.297010999919436 ], [ -76.851696991164928, 35.295912000270967 ], [ -76.844484991355984, 35.297390000079666 ], [ -76.842092991209299, 35.284330999988761 ], [ -76.840953991570402, 35.216472999808211 ] ] ] } },
{ "type": "Feature", "properties": { "county": "BEAUFORT", "precinct": "CHOCO", "enr_desc": "Chocowinity", "winner": "Charles Hickman", "winner_votes": 17.0, "winner_share": 94.444444444444443, "runner_up": "Austin Garrison", "runner_up_votes": 1.0, "runner_up_share": 5.5555555555555554, "contest_votes": 18.0, "margin_of_victory": 88.888888888888886, "is_tie": false, "results": [ { "candidate": "Charles Hickman", "votes": 17, "share": 94.44444444444444 }, { "candidate": "Austin Garrison", "votes": 1, "share": 5.555555555555555 } ], "participated": true, "map_key": "BEAUFORT_CHOCO" }, "geometry": { "type": "Polygon", "coordinates": [ [ [ -77.042066990885402, 35.343492000049046 ], [ -77.190527991329446, 35.419200000061885 ], [ -77.189231991120138, 35.423241999790484 ], [ -77.189188991449939, 35.426186000141939 ], [ -77.18966599077055, 35.429585999746635 ], [ -77.191176990807421, 35.43215299948919 ], [ -77.191229991743896, 35.435025999951016 ], [ -77.189913990853086, 35.436498000003972 ], [ -77.181367991037803, 35.440690999611249 ], [ -77.179970990660877, 35.444152000136093 ], [ -77.180182990977116, 35.445467000040281 ], [ -77.181638990832312, 35.445766999423057 ], [ -77.182253991398582, 35.448172999915151 ], [ -77.180798991676582, 35.455103999473174 ], [ -77.175969990709532, 35.456953999742474 ], [ -77.173840991537418, 35.456595999880875 ], [ -77.173817991094879, 35.484965999989726 ], [ -77.167066991014323, 35.496923000202777 ], [ -77.169592991744736, 35.498952999509143 ], [ -77.173599990665878, 35.499183000306665 ], [ -77.176542991745407, 35.501339000092088 ], [ -77.178169991251849, 35.507680000210961 ], [ -77.177934990740951, 35.513724000207645 ], [ -77.176099991190029, 35.517777999637701 ], [ -77.176209991738219, 35.519099999770219 ], [ -77.127089990815961, 35.554080999607699 ], [ -77.122142991063185, 35.552675999851445 ], [ -77.119761991415444, 35.551157000180055 ], [ -77.113177990949296, 35.549738000219435 ], [ -77.108192991584943, 35.550537999840678 ], [ -77.105723991060117, 35.549961999915965 ], [ -77.10046699153753, 35.551493999570098 ], [ -77.093514991046504, 35.550858000006855 ], [ -77.086326991123187, 35.551754999442082 ], [ -77.084642991441072, 35.552601000168487 ], [ -77.079812991061644, 35.54883299953007 ], [ -77.0620659908882, 35.54208699990668 ], [ -77.05415599074054, 35.538593000146093 ], [ -77.045027991606887, 35.53138299952974 ], [ -77.034437991631307, 35.523651999720165 ], [ -77.019665990935977, 35.510982999496093 ], [ -77.009958991243337, 35.50016300001235 ], [ -77.008260990922906, 35.499164000024315 ], [ -77.015100991084196, 35.496644000045869 ], [ -77.021588991150836, 35.495291999807606 ], [ -77.026256990827861, 35.495107000220997 ], [ -77.030980991746858, 35.496002999614021 ], [ -77.041994991173979, 35.503248000113118 ], [ -77.055095991162275, 35.509794999609795 ], [ -77.06298899128781, 35.509023000293048 ], [ -77.067883990889612, 35.506842999460829 ], [ -77.071828991224095, 35.50704399999691 ], [ -77.073723990906657, 35.505911999466257 ], [ -77.075773991054177, 35.506152999793876 ], [ -77.078129991568048, 35.503674999758601 ], [ -77.079957990935313, 35.503322999771079 ], [ -77.080734991252299, 35.501868999789295 ], [ -77.077039991094409, 35.498989999726284 ], [ -77.072616990889301, 35.48706900008257 ], [ -77.068329991287527, 35.470118000237584 ], [ -77.064760990763503, 35.465542999638998 ], [ -77.061831990966539, 35.463189999637422 ], [ -77.060851991722018, 35.459475999662757 ], [ -77.056904990893798, 35.452838000143331 ], [ -77.053582990880912, 35.443038999905582 ], [ -77.024796991652423, 35.423017000249345 ], [ -77.015029991510872, 35.408619000200211 ], [ -77.01017499139914, 35.406000999735319 ], [ -77.006442991409955, 35.406132000106567 ], [ -77.001976990820594, 35.38407700019448 ], [ -77.015654991396801, 35.391898999563352 ], [ -77.017142990775838, 35.390278999470873 ], [ -77.019535991592903, 35.389388999649121 ], [ -77.021905991171892, 35.391926999877128 ], [ -77.045564991146819, 35.392233999487289 ], [ -77.043273991331432, 35.382078999411149 ], [ -77.041738991356127, 35.349869999719871 ], [ -77.042066990885402, 35.343492000049046 ] ] ] } },
{ "type": "Feature", "properties": { "county": "BEAUFORT", "precinct": "GILEA", "enr_desc": "Gilead", "winner": "Charles Hickman", "winner_votes": 81.0, "winner_share": 82.653061224489804, "runner_up": "Austin Garrison", "runner_up_votes": 17.0, "runner_up_share": 17.346938775510203, "contest_votes": 98.0, "margin_of_victory": 65.306122448979607, "is_tie": false, "results": [ { "candidate": "Charles Hickman", "votes": 81, "share": 82.6530612244898 }, { "candidate": "Austin Garrison", "votes": 17, "share": 17.346938775510203 } ], "participated": true, "map_key": "BEAUFORT_GILEA" }, "geometry": { "type": "Polygon", "coordinates": [ [ [ -76.962681990664819, 35.471536000232788 ], [ -76.957765990697993, 35.469041999681288 ], [ -76.95623699115356, 35.466082000288438 ], [ -76.963883990998752, 35.441610999860345 ], [ -76.971272991724661, 35.43459999952438 ], [ -76.969559991157269, 35.430336000185925 ], [ -76.973938991541374, 35.428052999491683 ], [ -76.975027991609622, 35.425287999439405 ], [ -76.977145990705736, 35.4237769994334 ], [ -76.979086990668577, 35.424089000028737 ], [ -76.982872991715638, 35.422525999420706 ], [ -76.986752990774846, 35.423184000177997 ], [ -76.989396991364345, 35.422654999939041 ], [ -76.989489991260143, 35.420945999895743 ], [ -76.991687990775176, 35.41848099944427 ], [ -76.988345990663845, 35.415575000138716 ], [ -76.988247991754108, 35.413320999845801 ], [ -76.987331990834051, 35.412333999960516 ], [ -76.988478991725771, 35.407805999908334 ], [ -76.997945991068804, 35.403191999876007 ], [ -76.999306991605906, 35.40627199975156 ], [ -77.006442991409955, 35.406132000106567 ], [ -77.01017499139914, 35.406000999735319 ], [ -77.015029991510872, 35.408619000200211 ], [ -77.024796991652423, 35.423017000249345 ], [ -77.053582990880912, 35.443038999905582 ], [ -77.056904990893798, 35.452838000143331 ], [ -77.060851991722018, 35.459475999662757 ], [ -77.061831990966539, 35.463189999637422 ], [ -77.064760990763503, 35.465542999638998 ], [ -77.068329991287527, 35.470118000237584 ], [ -77.072616990889301, 35.48706900008257 ], [ -77.077039991094409, 35.498989999726284 ], [ -77.080734991252299, 35.501868999789295 ], [ -77.079957990935313, 35.503322999771079 ], [ -77.078129991568048, 35.503674999758601 ], [ -77.075773991054177, 35.506152999793876 ], [ -77.073723990906657, 35.505911999466257 ], [ -77.071828991224095, 35.50704399999691 ], [ -77.067883990889612, 35.506842999460829 ], [ -77.06298899128781, 35.509023000293048 ], [ -77.055095991162275, 35.509794999609795 ], [ -77.041994991173979, 35.503248000113118 ], [ -77.030980991746858, 35.496002999614021 ], [ -77.026256990827861, 35.495107000220997 ], [ -77.021588991150836, 35.495291999807606 ], [ -77.015100991084196, 35.496644000045869 ], [ -77.008260990922906, 35.499164000024315 ], [ -76.962681990664819, 35.471536000232788 ] ] ] } },
{ "type": "Feature", "properties": { "county": null, "precinct": null, "enr_desc": "Hunters Bridge", "winner": null, "winner_votes": null, "winner_share": null, "runner_up": null, "runner_up_votes": null, "runner_up_share": null, "contest_votes": null, "margin_of_victory": null, "is_tie": false, "results": null, "participated": false, "map_key": null }, "geometry": { "type": "Polygon", "coordinates": [ [ [ -76.671871991403933, 35.527987999414947 ], [ -76.680666991458594, 35.519904999404304 ], [ -76.686654990855345, 35.523755000192068 ], [ -76.687658991343895, 35.509267999754599 ], [ -76.705094991259571, 35.511440999697406 ], [ -76.711137991194335, 35.515815999444634 ], [ -76.716696991402856, 35.526004000109118 ], [ -76.721017990846377, 35.53058599980934 ], [ -76.725691990918065, 35.533842999952121 ], [ -76.732958991733611, 35.531714999993085 ], [ -76.729346991653728, 35.526160999800716 ], [ -76.72475499161429, 35.521995999814941 ], [ -76.723762990781623, 35.519762999673333 ], [ -76.724015991440353, 35.518149999775723 ], [ -76.720644990824951, 35.511804999879708 ], [ -76.713112990890622, 35.502120999419255 ], [ -76.718979990918797, 35.501091000125406 ], [ -76.719315990824327, 35.497983000037806 ], [ -76.720785990733617, 35.495854999488941 ], [ -76.720203990728777, 35.494017999631112 ], [ -76.721436991613686, 35.490494999554805 ], [ -76.72687299107632, 35.492481999511462 ], [ -76.732575991701268, 35.491398000005752 ], [ -76.743835991160722, 35.496793999935285 ], [ -76.745378990736853, 35.495529999771662 ], [ -76.754400990764324, 35.502862999982518 ], [ -76.757955990844366, 35.499788999919367 ], [ -76.762587990756472, 35.503407999829335 ], [ -76.765264991626026, 35.503930999847711 ], [ -76.775714991442754, 35.510490999481036 ], [ -76.789143990981827, 35.515825999776709 ], [ -76.790599991018766, 35.514994999823237 ], [ -76.797013990770282, 35.518671999424669 ], [ -76.798497990937165, 35.520399999813108 ], [ -76.799815991445158, 35.524719000196718 ], [ -76.816006991717899, 35.521622999442137 ], [ -76.823371990809534, 35.521184999792084 ], [ -76.872530990758122, 35.525793999952057 ], [ -76.88426099093202, 35.524540999787298 ], [ -76.894830990857699, 35.532561000152874 ], [ -76.89378899085834, 35.535559999927536 ], [ -76.890806991454454, 35.538126999766227 ], [ -76.887888991741676, 35.553852000065099 ], [ -76.89654599128329, 35.557005999719742 ], [ -76.896286991468955, 35.557129000190621 ], [ -76.841104990724602, 35.583117999802631 ], [ -76.830458990834742, 35.588993999767183 ], [ -76.823872991606081, 35.595415999586066 ], [ -76.738526990918075, 35.603683000200128 ], [ -76.732729991372636, 35.602932999965468 ], [ -76.730423991435757, 35.600112999936464 ], [ -76.731429991665451, 35.598089999654228 ], [ -76.730202991498231, 35.597061999530368 ], [ -76.718034990730956, 35.587253999938156 ], [ -76.705500990736496, 35.579701999984941 ], [ -76.700584991437779, 35.57765999945574 ], [ -76.698734991420636, 35.573110999774428 ], [ -76.69284399118969, 35.570089999778411 ], [ -76.696680991014929, 35.567280000131795 ], [ -76.698887990715974, 35.561252999765813 ], [ -76.704064990924209, 35.551722999646437 ], [ -76.704618991026521, 35.544940000236664 ], [ -76.708613991118099, 35.540864999473442 ], [ -76.700970991601906, 35.537610000217583 ], [ -76.686787991267636, 35.538254000199167 ], [ -76.680569991464338, 35.535003999554881 ], [ -76.671871991403933, 35.527987999414947 ] ] ] } },
{ "type": "Feature", "properties": { "county": null, "precinct": null, "enr_desc": "North Creek", "winner": null, "winner_votes": null, "winner_share": null, "runner_up": null, "runner_up_votes": null, "runner_up_share": null, "contest_votes": null, "margin_of_victory": null, "is_tie": false, "results": null, "participated": false, "map_key": null }, "geometry": { "type": "Polygon", "coordinates": [ [ [ -76.590496991286315, 35.361857000052147 ], [ -76.624650990821891, 35.367582999803005 ], [ -76.745440991133492, 35.398321999515531 ], [ -76.741139991592846, 35.427847000236 ], [ -76.739716990890997, 35.429390999920699 ], [ -76.739557991294546, 35.43140899951787 ], [ -76.747088990888813, 35.43222199991591 ], [ -76.747239991258795, 35.452454999669847 ], [ -76.743750991760393, 35.455867999486237 ], [ -76.740058991719508, 35.455640999774424 ], [ -76.735130990904935, 35.459876999549117 ], [ -76.729005990808417, 35.467288000176829 ], [ -76.718635990732096, 35.470974999959822 ], [ -76.722647991177297, 35.475538999920943 ], [ -76.724681991388508, 35.48476599951767 ], [ -76.723039991229783, 35.485482999623898 ], [ -76.721764990719322, 35.48758800008715 ], [ -76.721436991613686, 35.490494999554805 ], [ -76.720203990728777, 35.494017999631112 ], [ -76.720785990733617, 35.495854999488941 ], [ -76.719315990824327, 35.497983000037806 ], [ -76.718979990918797, 35.501091000125406 ], [ -76.713112990890622, 35.502120999419255 ], [ -76.720644990824951, 35.511804999879708 ], [ -76.724015991440353, 35.518149999775723 ], [ -76.723762990781623, 35.519762999673333 ], [ -76.72475499161429, 35.521995999814941 ], [ -76.729346991653728, 35.526160999800716 ], [ -76.732958991733611, 35.531714999993085 ], [ -76.725691990918065, 35.533842999952121 ], [ -76.721017990846377, 35.53058599980934 ], [ -76.716696991402856, 35.526004000109118 ], [ -76.711137991194335, 35.515815999444634 ], [ -76.705094991259571, 35.511440999697406 ], [ -76.687658991343895, 35.509267999754599 ], [ -76.686654990855345, 35.523755000192068 ], [ -76.680666991458594, 35.519904999404304 ], [ -76.671871991403933, 35.527987999414947 ], [ -76.663617991409836, 35.521713999780857 ], [ -76.669777991392721, 35.51688899994776 ], [ -76.667158991153912, 35.516889000023646 ], [ -76.666365991154819, 35.515828999814794 ], [ -76.666440991692525, 35.513592000132157 ], [ -76.670154990729472, 35.510596999799439 ], [ -76.669956990822712, 35.509224000273214 ], [ -76.6688109917459, 35.509805999487092 ], [ -76.667933991277124, 35.509292999888054 ], [ -76.668402991056098, 35.507408999521523 ], [ -76.667032990804756, 35.504060999975422 ], [ -76.662337991371885, 35.504348999929498 ], [ -76.656630991712831, 35.505954999454261 ], [ -76.652021991245917, 35.508356000042539 ], [ -76.641019990813462, 35.516147000080636 ], [ -76.638801991088101, 35.516771999894033 ], [ -76.634830991104735, 35.516301000036535 ], [ -76.629539991558218, 35.513170000063667 ], [ -76.626562991733635, 35.51265399998266 ], [ -76.604105991039063, 35.512385999510713 ], [ -76.60410599119021, 35.505225000094377 ], [ -76.602887991388315, 35.500175000243274 ], [ -76.601163990914785, 35.49766399979093 ], [ -76.596112991323295, 35.493492999821754 ], [ -76.583189991171849, 35.488907000216919 ], [ -76.579457991470349, 35.485200999703707 ], [ -76.581566991100274, 35.473568999768062 ], [ -76.581556991313391, 35.466797999963205 ], [ -76.585076991173509, 35.457358999953215 ], [ -76.585186990925422, 35.452804000161677 ], [ -76.584041991107824, 35.449142000097247 ], [ -76.575481991186351, 35.436646000065899 ], [ -76.566615991343937, 35.428953000249898 ], [ -76.562984991249479, 35.424382999779858 ], [ -76.560306991159678, 35.417038000120414 ], [ -76.559819991429535, 35.407632999705008 ], [ -76.558562991676553, 35.403661999866507 ], [ -76.538935991369272, 35.380381999631219 ], [ -76.52213099073758, 35.353622999532043 ], [ -76.590496991286315, 35.361857000052147 ] ] ] } },
{ "type": "Feature", "properties": { "county": null, "precinct": null, "enr_desc": "Old Ford", "winner": null, "winner_votes": null, "winner_share": null, "runner_up": null, "runner_up_votes": null, "runner_up_share": null, "contest_votes": null, "margin_of_victory": null, "is_tie": false, "results": null, "participated": false, "map_key": null }, "geometry": { "type": "Polygon", "coordinates": [ [ [ -77.055889991510767, 35.68963300009775 ], [ -77.034645991371207, 35.678951999610504 ], [ -77.008545990910577, 35.668886999729452 ], [ -76.985841991702159, 35.65884799978037 ], [ -76.947740991690651, 35.675690999903907 ], [ -76.989045990840637, 35.596622000062268 ], [ -76.993228990673671, 35.588501000083582 ], [ -76.99885799084538, 35.588128000184327 ], [ -77.001013990731167, 35.585948999889531 ], [ -77.006666991202735, 35.584435999713897 ], [ -77.010339990747738, 35.581943000083982 ], [ -77.012748991238553, 35.58179099990366 ], [ -77.016360990723058, 35.579923999573879 ], [ -77.017518991168956, 35.576623999603655 ], [ -77.018328990944411, 35.577673999925238 ], [ -77.025680991218692, 35.5762460000877 ], [ -77.036774991600325, 35.576236999634808 ], [ -77.03648099167161, 35.576867999871986 ], [ -77.042434990691916, 35.583204000020309 ], [ -77.046786991463108, 35.584264999953405 ], [ -77.051064991329227, 35.587297999727596 ], [ -77.054662991633691, 35.586528999717139 ], [ -77.059740990674271, 35.588771000141243 ], [ -77.062820991287026, 35.588220999967689 ], [ -77.064771991433034, 35.586253999542379 ], [ -77.067320991642191, 35.585883999586997 ], [ -77.067456991306315, 35.586962999708469 ], [ -77.077277990795452, 35.5900559994814 ], [ -77.083940991561477, 35.595852999552754 ], [ -77.084997991329899, 35.597257000043975 ], [ -77.088257991576754, 35.607503999880493 ], [ -77.103429991444699, 35.624560999752021 ], [ -77.110418991493205, 35.630066999628013 ], [ -77.108023990807837, 35.631057000177456 ], [ -77.106382991710518, 35.632964000297839 ], [ -77.103959990823256, 35.633310999511608 ], [ -77.101007991331386, 35.636058999991221 ], [ -77.09329499103228, 35.635698000015879 ], [ -77.090192991106449, 35.638923999512741 ], [ -77.088113991348806, 35.642610999954535 ], [ -77.087805991089439, 35.645160999690376 ], [ -77.088803990897404, 35.649122000117238 ], [ -77.093873991509113, 35.6526579995788 ], [ -77.096021990852805, 35.656228999689979 ], [ -77.096231991503146, 35.657986999913575 ], [ -77.097369990885426, 35.658558000188222 ], [ -77.097160991211254, 35.659585999815242 ], [ -77.099990991186914, 35.663589999658228 ], [ -77.096760990658197, 35.666854000099107 ], [ -77.096324991592624, 35.669265999630781 ], [ -77.089923991423461, 35.674224000046472 ], [ -77.082826991710718, 35.67640699972543 ], [ -77.079663991445955, 35.678384999422846 ], [ -77.077163990659841, 35.672408999498586 ], [ -77.062418991325274, 35.678221000256251 ], [ -77.060220990674438, 35.684009999483813 ], [ -77.056327990980833, 35.687120000099121 ], [ -77.055889991510767, 35.68963300009775 ] ] ] } },
{ "type": "Feature", "properties": { "county": null, "precinct": null, "enr_desc": "Pantego", "winner": null, "winner_votes": null, "winner_share": null, "runner_up": null, "runner_up_votes": null, "runner_up_share": null, "contest_votes": null, "margin_of_victory": null, "is_tie": false, "results": null, "participated": false, "map_key": null }, "geometry": { "type": "Polygon", "coordinates": [ [ [ -76.663617991409836, 35.521713999780857 ], [ -76.671871991403933, 35.527987999414947 ], [ -76.680569991464338, 35.535003999554881 ], [ -76.686787991267636, 35.538254000199167 ], [ -76.700970991601906, 35.537610000217583 ], [ -76.708613991118099, 35.540864999473442 ], [ -76.704618991026521, 35.544940000236664 ], [ -76.704064990924209, 35.551722999646437 ], [ -76.698887990715974, 35.561252999765813 ], [ -76.696680991014929, 35.567280000131795 ], [ -76.69284399118969, 35.570089999778411 ], [ -76.698734991420636, 35.573110999774428 ], [ -76.700584991437779, 35.57765999945574 ], [ -76.705500990736496, 35.579701999984941 ], [ -76.718034990730956, 35.587253999938156 ], [ -76.730202991498231, 35.597061999530368 ], [ -76.731429991665451, 35.598089999654228 ], [ -76.730423991435757, 35.600112999936464 ], [ -76.732729991372636, 35.602932999965468 ], [ -76.738526990918075, 35.603683000200128 ], [ -76.823872991606081, 35.595415999586066 ], [ -76.81563199166672, 35.615012999632583 ], [ -76.809020991543022, 35.626075999897331 ], [ -76.798930991073036, 35.627144000140071 ], [ -76.769276991379897, 35.678454999401119 ], [ -76.754902991115557, 35.705507000019779 ], [ -76.637512990934155, 35.70521499947548 ], [ -76.625126991121448, 35.693695999664946 ], [ -76.623846991404832, 35.690149999945241 ], [ -76.619675990707719, 35.688174999993805 ], [ -76.601774991064588, 35.669764999951411 ], [ -76.60047299162126, 35.66685099995528 ], [ -76.600307990742408, 35.66396299957627 ], [ -76.606135990871707, 35.647698999407808 ], [ -76.605903990796449, 35.646328999764378 ], [ -76.606627991130452, 35.645493999943682 ], [ -76.604766991177101, 35.643122999915803 ], [ -76.604181990978418, 35.63893699965665 ], [ -76.603161990730342, 35.638650999973592 ], [ -76.605194991614454, 35.637083999537843 ], [ -76.60722599153226, 35.636060999960279 ], [ -76.61188099104335, 35.635422999670737 ], [ -76.612658991537643, 35.633301000081893 ], [ -76.624501991464797, 35.6261599999658 ], [ -76.629011990887591, 35.62606899960943 ], [ -76.635983991400536, 35.622245999474352 ], [ -76.640477990912885, 35.621616999681613 ], [ -76.643867991177913, 35.620107999580867 ], [ -76.646337991650071, 35.618258000159024 ], [ -76.641508991672723, 35.615063999618229 ], [ -76.641721991447781, 35.574470999690938 ], [ -76.6434299914538, 35.572601000270353 ], [ -76.651982991562974, 35.571615999414433 ], [ -76.654938991176621, 35.569501999461551 ], [ -76.655610991347842, 35.568208999905288 ], [ -76.655043991655731, 35.567068999826162 ], [ -76.657764990934183, 35.561774999457256 ], [ -76.660134991180968, 35.560795999497252 ], [ -76.661685991362006, 35.557831999941648 ], [ -76.660756991008554, 35.555981000044291 ], [ -76.65696899131747, 35.554911999644737 ], [ -76.654188991380565, 35.550507999726406 ], [ -76.647338991085732, 35.54624199963223 ], [ -76.637944991159998, 35.542652999822295 ], [ -76.636954991190208, 35.541497999483937 ], [ -76.638978991474119, 35.53801700019789 ], [ -76.642160991088986, 35.53510399991999 ], [ -76.663617991409836, 35.521713999780857 ] ] ] } },
{ "type": "Feature", "properties": { "county": null, "precinct": null, "enr_desc": "Pinetown", "winner": null, "winner_votes": null, "winner_share": null, "runner_up": null, "runner_up_votes": null, "runner_up_share": null, "contest_votes": null, "margin_of_victory": null, "is_tie": false, "results": null, "participated": false, "map_key": null }, "geometry": { "type": "Polygon", "coordinates": [ [ [ -76.896286991468955, 35.557129000190621 ], [ -76.902098991289037, 35.562995999762556 ], [ -76.906456991042248, 35.564535999709562 ], [ -76.906157990729341, 35.568193999650752 ], [ -76.916495991444123, 35.571905000126044 ], [ -76.924582991601241, 35.572841000147669 ], [ -76.950315991156032, 35.578339999715276 ], [ -76.964239991410679, 35.575764999624809 ], [ -76.964695991330643, 35.597038000163373 ], [ -76.989045990840637, 35.596622000062268 ], [ -76.947740991690651, 35.675690999903907 ], [ -76.847263990975577, 35.71998199970789 ], [ -76.844619990628516, 35.705719000107344 ], [ -76.754902991115557, 35.705507000019779 ], [ -76.769276991379897, 35.678454999401119 ], [ -76.798930991073036, 35.627144000140071 ], [ -76.809020991543022, 35.626075999897331 ], [ -76.81563199166672, 35.615012999632583 ], [ -76.823872991606081, 35.595415999586066 ], [ -76.830458990834742, 35.588993999767183 ], [ -76.841104990724602, 35.583117999802631 ], [ -76.896286991468955, 35.557129000190621 ] ] ] } },
{ "type": "Feature", "properties": { "county": null, "precinct": null, "enr_desc": "P S Jones-Wash W3", "winner": null, "winner_votes": null, "winner_share": null, "runner_up": null, "runner_up_votes": null, "runner_up_share": null, "contest_votes": null, "margin_of_victory": null, "is_tie": false, "results": null, "participated": false, "map_key": null }, "geometry": { "type": "Polygon", "coordinates": [ [ [ -77.05201999154653, 35.546575999866043 ], [ -77.057774990743269, 35.549334000239831 ], [ -77.06067199075531, 35.559645999491167 ], [ -77.065629991701229, 35.572421999603819 ], [ -77.067320991642191, 35.585883999586997 ], [ -77.064771991433034, 35.586253999542379 ], [ -77.062820991287026, 35.588220999967689 ], [ -77.059740990674271, 35.588771000141243 ], [ -77.054662991633691, 35.586528999717139 ], [ -77.051064991329227, 35.587297999727596 ], [ -77.046786991463108, 35.584264999953405 ], [ -77.042434990691916, 35.583204000020309 ], [ -77.03648099167161, 35.576867999871986 ], [ -77.036774991600325, 35.576236999634808 ], [ -77.040090991648995, 35.569194000025639 ], [ -77.041670990737515, 35.561614999551047 ], [ -77.05201999154653, 35.546575999866043 ] ] ] } },
{ "type": "Feature", "properties": { "county": null, "precinct": null, "enr_desc": "River Road", "winner": null, "winner_votes": null, "winner_share": null, "runner_up": null, "runner_up_votes": null, "runner_up_share": null, "contest_votes": null, "margin_of_victory": null, "is_tie": false, "results": null, "participated": false, "map_key": null }, "geometry": { "type": "Polygon", "coordinates": [ [ [ -76.962681990664819, 35.471536000232788 ], [ -77.008260990922906, 35.499164000024315 ], [ -77.009958991243337, 35.50016300001235 ], [ -77.019665990935977, 35.510982999496093 ], [ -77.013860991152853, 35.516704999577939 ], [ -77.010573991588188, 35.518010000027317 ], [ -77.009726991587527, 35.519913000145486 ], [ -77.008609991161279, 35.519829000030199 ], [ -77.008796991431481, 35.521313999659732 ], [ -77.007750991537421, 35.521992999890848 ], [ -77.004354991604856, 35.522164000122054 ], [ -77.001253991184299, 35.523755999898228 ], [ -76.991501990703071, 35.525921999972887 ], [ -76.98809299089335, 35.520848999957302 ], [ -76.984062990698405, 35.520329000104958 ], [ -76.983940991095366, 35.518113000176605 ], [ -76.981253990952709, 35.515632999403024 ], [ -76.972134991317262, 35.513454000214104 ], [ -76.96954899067741, 35.514435999944688 ], [ -76.967919991361896, 35.513787999979307 ], [ -76.967460990686973, 35.512729000060588 ], [ -76.965845991677824, 35.513012000309864 ], [ -76.965973991334707, 35.510784000247995 ], [ -76.964415991337873, 35.512052999688066 ], [ -76.961471990692118, 35.50426399964946 ], [ -76.959508991178097, 35.502295999432 ], [ -76.959559991371123, 35.499694000129068 ], [ -76.957924991458924, 35.497034000272919 ], [ -76.957975991393994, 35.491885999514665 ], [ -76.954987990979717, 35.486358999749939 ], [ -76.95494599162528, 35.482043999857773 ], [ -76.962681990664819, 35.471536000232788 ] ] ] } },
{ "type": "Feature", "properties": { "county": null, "precinct": null, "enr_desc": "Surry-Bath", "winner": null, "winner_votes": null, "winner_share": null, "runner_up": null, "runner_up_votes": null, "runner_up_share": null, "contest_votes": null, "margin_of_victory": null, "is_tie": false, "results": null, "participated": false, "map_key": null }, "geometry": { "type": "Polygon", "coordinates": [ [ [ -76.745440991133492, 35.398321999515531 ], [ -76.749653990783145, 35.399389999767337 ], [ -76.777242991477777, 35.411899999661678 ], [ -76.822214991447453, 35.425656000075655 ], [ -76.900069991600731, 35.449470000084617 ], [ -76.89224899133383, 35.461931999708149 ], [ -76.893517991561211, 35.465893999654021 ], [ -76.892153991453611, 35.466608999771978 ], [ -76.890210991136215, 35.469431999559781 ], [ -76.884224991504567, 35.47271599974362 ], [ -76.880977990691207, 35.477043999766074 ], [ -76.875624991489701, 35.495428999509933 ], [ -76.875822990894889, 35.500163999567128 ], [ -76.872072991390453, 35.500164000225418 ], [ -76.872530990758122, 35.525793999952057 ], [ -76.823371990809534, 35.521184999792084 ], [ -76.816006991717899, 35.521622999442137 ], [ -76.799815991445158, 35.524719000196718 ], [ -76.798497990937165, 35.520399999813108 ], [ -76.797013990770282, 35.518671999424669 ], [ -76.790599991018766, 35.514994999823237 ], [ -76.789143990981827, 35.515825999776709 ], [ -76.775714991442754, 35.510490999481036 ], [ -76.765264991626026, 35.503930999847711 ], [ -76.762587990756472, 35.503407999829335 ], [ -76.757955990844366, 35.499788999919367 ], [ -76.754400990764324, 35.502862999982518 ], [ -76.745378990736853, 35.495529999771662 ], [ -76.743835991160722, 35.496793999935285 ], [ -76.732575991701268, 35.491398000005752 ], [ -76.72687299107632, 35.492481999511462 ], [ -76.721436991613686, 35.490494999554805 ], [ -76.721764990719322, 35.48758800008715 ], [ -76.723039991229783, 35.485482999623898 ], [ -76.724681991388508, 35.48476599951767 ], [ -76.722647991177297, 35.475538999920943 ], [ -76.718635990732096, 35.470974999959822 ], [ -76.729005990808417, 35.467288000176829 ], [ -76.735130990904935, 35.459876999549117 ], [ -76.740058991719508, 35.455640999774424 ], [ -76.743750991760393, 35.455867999486237 ], [ -76.747239991258795, 35.452454999669847 ], [ -76.747088990888813, 35.43222199991591 ], [ -76.739557991294546, 35.43140899951787 ], [ -76.739716990890997, 35.429390999920699 ], [ -76.741139991592846, 35.427847000236 ], [ -76.745440991133492, 35.398321999515531 ] ] ] } },
{ "type": "Feature", "properties": { "county": null, "precinct": null, "enr_desc": "Tranters Creek", "winner": null, "winner_votes": null, "winner_share": null, "runner_up": null, "runner_up_votes": null, "runner_up_share": null, "contest_votes": null, "margin_of_victory": null, "is_tie": false, "results": null, "participated": false, "map_key": null }, "geometry": { "type": "Polygon", "coordinates": [ [ [ -77.087434990901215, 35.564119000032242 ], [ -77.089451991642051, 35.566085000223637 ], [ -77.090691990728629, 35.569331999711665 ], [ -77.094731991446679, 35.565366999995426 ], [ -77.097150991186908, 35.564680000276852 ], [ -77.101635991531126, 35.566331000071692 ], [ -77.100517991716558, 35.567664000050364 ], [ -77.102346991730414, 35.568658000259695 ], [ -77.101721991527185, 35.570119000038673 ], [ -77.104106991242418, 35.569760999565538 ], [ -77.107320991184508, 35.571250000027632 ], [ -77.108823991507194, 35.569242000156677 ], [ -77.110452990655077, 35.569629999944844 ], [ -77.110085991145638, 35.570704999814147 ], [ -77.111882991663521, 35.574822000139577 ], [ -77.10959999110861, 35.575714000144934 ], [ -77.106970991296663, 35.579527000306555 ], [ -77.106675991702716, 35.581399999731453 ], [ -77.109896991740314, 35.583122999582066 ], [ -77.114274991170859, 35.58033999986872 ], [ -77.117207990722804, 35.581386999652814 ], [ -77.113825990939063, 35.587085999917306 ], [ -77.11373399161846, 35.588013999585648 ], [ -77.11476799098071, 35.588721999528751 ], [ -77.116262990852334, 35.588567999525971 ], [ -77.118196990645302, 35.586808000267204 ], [ -77.118046991132104, 35.583216999444765 ], [ -77.119578991685714, 35.584066999520395 ], [ -77.125506991600218, 35.58465900026718 ], [ -77.125413990845118, 35.586643999795506 ], [ -77.124844990710272, 35.586853000306455 ], [ -77.123981990899352, 35.58551899942497 ], [ -77.123299991668389, 35.586527999616131 ], [ -77.123200991065545, 35.588102999563283 ], [ -77.124054991478019, 35.589134999815563 ], [ -77.123110991287902, 35.591305000289296 ], [ -77.12381599156565, 35.591994999795368 ], [ -77.121854991719374, 35.592041999660111 ], [ -77.123732991566456, 35.593577000188851 ], [ -77.124643991355157, 35.596861999966173 ], [ -77.125872991535886, 35.596278999866961 ], [ -77.126955991138487, 35.59726300022033 ], [ -77.126995991182838, 35.594508000118786 ], [ -77.128499990700888, 35.593889999895019 ], [ -77.128926990701771, 35.594405999817056 ], [ -77.127856990814109, 35.594563000260514 ], [ -77.129201991662114, 35.59608300009851 ], [ -77.129987991213923, 35.595985999528914 ], [ -77.130080991135287, 35.594644999795996 ], [ -77.131734991726063, 35.596372000131929 ], [ -77.132866991672529, 35.59556300004779 ], [ -77.133318991624463, 35.596363999662309 ], [ -77.134655991610273, 35.596156999694294 ], [ -77.137044991471413, 35.598651000008132 ], [ -77.136086990874134, 35.599735999678188 ], [ -77.137714991163065, 35.600195999491305 ], [ -77.137065990944166, 35.601150999774333 ], [ -77.139208990987086, 35.601016999700029 ], [ -77.139001991639432, 35.602173999908679 ], [ -77.141764991616, 35.601031000093592 ], [ -77.140984990909089, 35.600487000145556 ], [ -77.142413991235813, 35.600046999726871 ], [ -77.143124991519954, 35.598814999971303 ], [ -77.144412991238525, 35.599382999668364 ], [ -77.143659991374548, 35.600095000311519 ], [ -77.144055991745304, 35.60161999960912 ], [ -77.146325991008297, 35.602493999545729 ], [ -77.149699991122105, 35.601663999891926 ], [ -77.150822991393611, 35.602598000270433 ], [ -77.148299991421197, 35.604610000038825 ], [ -77.148137991111057, 35.603813000297336 ], [ -77.14635699146254, 35.604215000067398 ], [ -77.147530991474042, 35.604649000009992 ], [ -77.147085991564211, 35.605225999605651 ], [ -77.142368991434495, 35.603749999858366 ], [ -77.140199991439289, 35.605668000304313 ], [ -77.141283991679103, 35.606617000280572 ], [ -77.142824991583382, 35.606101999530551 ], [ -77.143031991165984, 35.607328999583792 ], [ -77.145741991689889, 35.608829000263924 ], [ -77.144762991240512, 35.609437999449042 ], [ -77.143645990903792, 35.615098999779157 ], [ -77.144539990976924, 35.616095999512062 ], [ -77.14251999139411, 35.617688999989618 ], [ -77.142567991003233, 35.618686999538639 ], [ -77.143669991255024, 35.620551999878586 ], [ -77.148099991059894, 35.620234999790021 ], [ -77.150173991549991, 35.622249999825478 ], [ -77.150527991543242, 35.625190000252715 ], [ -77.15293899173669, 35.626735000101107 ], [ -77.15550299160148, 35.627345999644575 ], [ -77.156874991375489, 35.626455999741381 ], [ -77.159254990792761, 35.629742999616198 ], [ -77.161584991628473, 35.629124999863258 ], [ -77.162192991282282, 35.629832999529782 ], [ -77.161786991317342, 35.63219599962747 ], [ -77.162538991188455, 35.633202999697495 ], [ -77.164002991093113, 35.632759999773739 ], [ -77.164982991098015, 35.630946000002425 ], [ -77.167932990847291, 35.631045000124587 ], [ -77.170904990653284, 35.633865000032891 ], [ -77.174153991525529, 35.635591999615166 ], [ -77.172765990655293, 35.639099999999573 ], [ -77.173302991603293, 35.642060999963967 ], [ -77.172752990919363, 35.644163000275768 ], [ -77.173444991291234, 35.645467999659594 ], [ -77.173626991329414, 35.653407999721907 ], [ -77.174884990982605, 35.655986999875516 ], [ -77.174672991253431, 35.658718000057583 ], [ -77.18069099116012, 35.664946999626977 ], [ -77.180115991120033, 35.666609999895805 ], [ -77.178317990877616, 35.667487000278292 ], [ -77.177452991696583, 35.669365999911534 ], [ -77.175144990876987, 35.669782999506282 ], [ -77.172007991511933, 35.66897600019599 ], [ -77.168187991403343, 35.670219999511474 ], [ -77.16836399130159, 35.671319000124612 ], [ -77.166982990865108, 35.672305000265034 ], [ -77.168658991353112, 35.673139000092377 ], [ -77.169478990908985, 35.675446999868072 ], [ -77.172454991523693, 35.67744399995577 ], [ -77.171849991562411, 35.67824299979646 ], [ -77.17041499075313, 35.677865999540934 ], [ -77.16942599098941, 35.678550000220369 ], [ -77.1704979911013, 35.6806639998183 ], [ -77.169848991381556, 35.684339000075106 ], [ -77.172892991143712, 35.68703600016871 ], [ -77.175320990737632, 35.68730599976233 ], [ -77.177236991236796, 35.68420299963902 ], [ -77.179832991054354, 35.68517399951736 ], [ -77.181281990996979, 35.693177999426233 ], [ -77.184898990635858, 35.693560000133346 ], [ -77.187846991048048, 35.695352000312084 ], [ -77.188874991519228, 35.695134000255869 ], [ -77.18900199128511, 35.693978000098127 ], [ -77.190190991647228, 35.69333800030649 ], [ -77.19302599156785, 35.694195000035656 ], [ -77.195771990947776, 35.699779000264918 ], [ -77.193499991492857, 35.701520000186392 ], [ -77.193587990956757, 35.702864000223009 ], [ -77.194644991436576, 35.703626999930528 ], [ -77.193948990765406, 35.709235000191107 ], [ -77.191973990941165, 35.710466000209102 ], [ -77.188290991185326, 35.711141000220934 ], [ -77.187173991511116, 35.712251000138416 ], [ -77.187716991427919, 35.714646999509526 ], [ -77.184949990808477, 35.720477999943164 ], [ -77.184177991641803, 35.720465999619741 ], [ -77.182843991249669, 35.718534999809705 ], [ -77.18010099148816, 35.718835999599477 ], [ -77.179181991728839, 35.717877000108537 ], [ -77.176516991075871, 35.717665999476097 ], [ -77.173480991335964, 35.716037999707332 ], [ -77.170784991581044, 35.716463000088822 ], [ -77.170422991514428, 35.720595999686886 ], [ -77.172298991304245, 35.724885999547524 ], [ -77.174526991600871, 35.725861000148655 ], [ -77.173522991578935, 35.727935999833711 ], [ -77.175104991302135, 35.729666999922379 ], [ -77.173352991280765, 35.730630999811105 ], [ -77.174088990789514, 35.732621999752958 ], [ -77.171986991607511, 35.73623199982157 ], [ -77.168724990946572, 35.737878999698616 ], [ -77.165521991253868, 35.738176999499203 ], [ -77.163839990760508, 35.739473000302674 ], [ -77.112076991656451, 35.71601099986367 ], [ -77.066450991449045, 35.693703999955034 ], [ -77.055889991510767, 35.68963300009775 ], [ -77.056327990980833, 35.687120000099121 ], [ -77.060220990674438, 35.684009999483813 ], [ -77.062418991325274, 35.678221000256251 ], [ -77.077163990659841, 35.672408999498586 ], [ -77.079663991445955, 35.678384999422846 ], [ -77.082826991710718, 35.67640699972543 ], [ -77.089923991423461, 35.674224000046472 ], [ -77.096324991592624, 35.669265999630781 ], [ -77.096760990658197, 35.666854000099107 ], [ -77.099990991186914, 35.663589999658228 ], [ -77.097160991211254, 35.659585999815242 ], [ -77.097369990885426, 35.658558000188222 ], [ -77.096231991503146, 35.657986999913575 ], [ -77.096021990852805, 35.656228999689979 ], [ -77.093873991509113, 35.6526579995788 ], [ -77.088803990897404, 35.649122000117238 ], [ -77.087805991089439, 35.645160999690376 ], [ -77.088113991348806, 35.642610999954535 ], [ -77.090192991106449, 35.638923999512741 ], [ -77.09329499103228, 35.635698000015879 ], [ -77.101007991331386, 35.636058999991221 ], [ -77.103959990823256, 35.633310999511608 ], [ -77.106382991710518, 35.632964000297839 ], [ -77.108023990807837, 35.631057000177456 ], [ -77.110418991493205, 35.630066999628013 ], [ -77.103429991444699, 35.624560999752021 ], [ -77.088257991576754, 35.607503999880493 ], [ -77.084997991329899, 35.597257000043975 ], [ -77.083940991561477, 35.595852999552754 ], [ -77.077277990795452, 35.5900559994814 ], [ -77.067456991306315, 35.586962999708469 ], [ -77.067320991642191, 35.585883999586997 ], [ -77.071417990722608, 35.585512000150501 ], [ -77.074584991556378, 35.583478999456126 ], [ -77.07504899087634, 35.580890999812326 ], [ -77.073554990930802, 35.57853999963811 ], [ -77.075026991237252, 35.577253999907235 ], [ -77.076894991324593, 35.57672499982931 ], [ -77.080993991322629, 35.57900999999849 ], [ -77.082934991570269, 35.577134999543141 ], [ -77.081946991475675, 35.576184999624481 ], [ -77.082519991652021, 35.575386000268075 ], [ -77.082033991070034, 35.574973999901879 ], [ -77.083511991169999, 35.573940999728208 ], [ -77.085362990957165, 35.57573899991683 ], [ -77.08979399136318, 35.571149000077646 ], [ -77.086867991004439, 35.567683999839588 ], [ -77.087434990901215, 35.564119000032242 ] ] ] } },
{ "type": "Feature", "properties": { "county": null, "precinct": null, "enr_desc": "Washington Ward 1", "winner": null, "winner_votes": null, "winner_share": null, "runner_up": null, "runner_up_votes": null, "runner_up_share": null, "contest_votes": null, "margin_of_victory": null, "is_tie": false, "results": null, "participated": false, "map_key": null }, "geometry": { "type": "Polygon", "coordinates": [ [ [ -77.045027991606887, 35.53138299952974 ], [ -77.05415599074054, 35.538593000146093 ], [ -77.0620659908882, 35.54208699990668 ], [ -77.060868991089094, 35.544769000204511 ], [ -77.054418991192875, 35.540486999695133 ], [ -77.053709991244872, 35.541446999547333 ], [ -77.055099990691332, 35.542070999405091 ], [ -77.05201999154653, 35.546575999866043 ], [ -77.048550990873409, 35.545269999490117 ], [ -77.037074991306753, 35.547216999505999 ], [ -77.025017991103368, 35.545124999630659 ], [ -77.017966991575932, 35.54390099984991 ], [ -77.018629991667225, 35.543050999444219 ], [ -77.017221991189714, 35.542537999678032 ], [ -77.017594991424019, 35.541848999884287 ], [ -77.020439991502926, 35.542979999575024 ], [ -77.020715991363431, 35.541985000129415 ], [ -77.025407990866441, 35.537925999976878 ], [ -77.023565991353621, 35.536787000217437 ], [ -77.023695991286459, 35.536154000187338 ], [ -77.025339991221983, 35.536129000186328 ], [ -77.027507991433765, 35.540019999550026 ], [ -77.026965990776034, 35.542137999400992 ], [ -77.023969990866391, 35.544699000291942 ], [ -77.025535991090194, 35.544990000199569 ], [ -77.028560990738427, 35.543720000248101 ], [ -77.029021991569735, 35.540780999755746 ], [ -77.032621990770139, 35.539470000047814 ], [ -77.034441991396292, 35.539889999522138 ], [ -77.035088991404436, 35.537919999915168 ], [ -77.045027991606887, 35.53138299952974 ] ] ] } },
{ "type": "Feature", "properties": { "county": null, "precinct": null, "enr_desc": "Washington Ward 2", "winner": null, "winner_votes": null, "winner_share": null, "runner_up": null, "runner_up_votes": null, "runner_up_share": null, "contest_votes": null, "margin_of_victory": null, "is_tie": false, "results": null, "participated": false, "map_key": null }, "geometry": { "type": "Polygon", "coordinates": [ [ [ -77.0620659908882, 35.54208699990668 ], [ -77.079812991061644, 35.54883299953007 ], [ -77.084642991441072, 35.552601000168487 ], [ -77.08810499147927, 35.553769999723002 ], [ -77.088964991476956, 35.554880999714008 ], [ -77.087482990924073, 35.558501999942671 ], [ -77.089232991568593, 35.558577999515293 ], [ -77.089691990862917, 35.560468999983705 ], [ -77.088967990680388, 35.561577000278973 ], [ -77.086580991626633, 35.56259300004902 ], [ -77.087434990901215, 35.564119000032242 ], [ -77.086867991004439, 35.567683999839588 ], [ -77.08979399136318, 35.571149000077646 ], [ -77.085362990957165, 35.57573899991683 ], [ -77.083511991169999, 35.573940999728208 ], [ -77.082033991070034, 35.574973999901879 ], [ -77.082519991652021, 35.575386000268075 ], [ -77.081946991475675, 35.576184999624481 ], [ -77.082934991570269, 35.577134999543141 ], [ -77.080993991322629, 35.57900999999849 ], [ -77.076894991324593, 35.57672499982931 ], [ -77.075026991237252, 35.577253999907235 ], [ -77.073554990930802, 35.57853999963811 ], [ -77.07504899087634, 35.580890999812326 ], [ -77.074584991556378, 35.583478999456126 ], [ -77.071417990722608, 35.585512000150501 ], [ -77.067320991642191, 35.585883999586997 ], [ -77.065629991701229, 35.572421999603819 ], [ -77.06067199075531, 35.559645999491167 ], [ -77.057774990743269, 35.549334000239831 ], [ -77.05201999154653, 35.546575999866043 ], [ -77.055099990691332, 35.542070999405091 ], [ -77.053709991244872, 35.541446999547333 ], [ -77.054418991192875, 35.540486999695133 ], [ -77.060868991089094, 35.544769000204511 ], [ -77.0620659908882, 35.54208699990668 ] ] ] } },
{ "type": "Feature", "properties": { "county": null, "precinct": null, "enr_desc": "Washington Ward 4", "winner": null, "winner_votes": null, "winner_share": null, "runner_up": null, "runner_up_votes": null, "runner_up_share": null, "contest_votes": null, "margin_of_victory": null, "is_tie": false, "results": null, "participated": false, "map_key": null }, "geometry": { "type": "Polygon", "coordinates": [ [ [ -77.05201999154653, 35.546575999866043 ], [ -77.041670990737515, 35.561614999551047 ], [ -77.040090991648995, 35.569194000025639 ], [ -77.036774991600325, 35.576236999634808 ], [ -77.025680991218692, 35.5762460000877 ], [ -77.018328990944411, 35.577673999925238 ], [ -77.017518991168956, 35.576623999603655 ], [ -77.019174991137618, 35.574808999711912 ], [ -77.019020990914143, 35.57234200003186 ], [ -77.019875991404859, 35.57125999987273 ], [ -77.018882991097371, 35.566979999823509 ], [ -77.014949991578646, 35.564620999426083 ], [ -77.013617990984073, 35.565010999571754 ], [ -77.00860899175899, 35.563843999476759 ], [ -77.003598991306802, 35.564198999581905 ], [ -77.001354991412924, 35.562997000291588 ], [ -77.001110991489384, 35.560524000178873 ], [ -77.005507991211388, 35.560110999457301 ], [ -77.009460991553354, 35.558396999770864 ], [ -77.016921991124519, 35.553486000070521 ], [ -77.01611499123841, 35.553121000189002 ], [ -77.018519990886247, 35.550897999447848 ], [ -77.022319990740471, 35.549101999623119 ], [ -77.022804991004293, 35.546734999421965 ], [ -77.025017991103368, 35.545124999630659 ], [ -77.037074991306753, 35.547216999505999 ], [ -77.048550990873409, 35.545269999490117 ], [ -77.05201999154653, 35.546575999866043 ] ] ] } },
{ "type": "Feature", "properties": { "county": null, "precinct": null, "enr_desc": "Washington Park", "winner": null, "winner_votes": null, "winner_share": null, "runner_up": null, "runner_up_votes": null, "runner_up_share": null, "contest_votes": null, "margin_of_victory": null, "is_tie": false, "results": null, "participated": false, "map_key": null }, "geometry": { "type": "Polygon", "coordinates": [ [ [ -77.019665990935977, 35.510982999496093 ], [ -77.034437991631307, 35.523651999720165 ], [ -77.045027991606887, 35.53138299952974 ], [ -77.035088991404436, 35.537919999915168 ], [ -77.034441991396292, 35.539889999522138 ], [ -77.032621990770139, 35.539470000047814 ], [ -77.029021991569735, 35.540780999755746 ], [ -77.028560990738427, 35.543720000248101 ], [ -77.025535991090194, 35.544990000199569 ], [ -77.023969990866391, 35.544699000291942 ], [ -77.026965990776034, 35.542137999400992 ], [ -77.027507991433765, 35.540019999550026 ], [ -77.025339991221983, 35.536129000186328 ], [ -77.023695991286459, 35.536154000187338 ], [ -77.023565991353621, 35.536787000217437 ], [ -77.025407990866441, 35.537925999976878 ], [ -77.020715991363431, 35.541985000129415 ], [ -77.020439991502926, 35.542979999575024 ], [ -77.017594991424019, 35.541848999884287 ], [ -77.017221991189714, 35.542537999678032 ], [ -77.018629991667225, 35.543050999444219 ], [ -77.017966991575932, 35.54390099984991 ], [ -76.984792990800557, 35.538150999767126 ], [ -76.988109990854397, 35.534667999954237 ], [ -76.988535990870616, 35.53004899994211 ], [ -76.991501990703071, 35.525921999972887 ], [ -77.001253991184299, 35.523755999898228 ], [ -77.004354991604856, 35.522164000122054 ], [ -77.007750991537421, 35.521992999890848 ], [ -77.008796991431481, 35.521313999659732 ], [ -77.008609991161279, 35.519829000030199 ], [ -77.009726991587527, 35.519913000145486 ], [ -77.010573991588188, 35.518010000027317 ], [ -77.013860991152853, 35.516704999577939 ], [ -77.019665990935977, 35.510982999496093 ] ] ] } },
{ "type": "Feature", "properties": { "county": null, "precinct": null, "enr_desc": "Woodards Pond", "winner": null, "winner_votes": null, "winner_share": null, "runner_up": null, "runner_up_votes": null, "runner_up_share": null, "contest_votes": null, "margin_of_victory": null, "is_tie": false, "results": null, "participated": false, "map_key": null }, "geometry": { "type": "Polygon", "coordinates": [ [ [ -76.900069991600731, 35.449470000084617 ], [ -76.948641990748811, 35.46505199956011 ], [ -76.957765990697993, 35.469041999681288 ], [ -76.962681990664819, 35.471536000232788 ], [ -76.95494599162528, 35.482043999857773 ], [ -76.954987990979717, 35.486358999749939 ], [ -76.957975991393994, 35.491885999514665 ], [ -76.957924991458924, 35.497034000272919 ], [ -76.959559991371123, 35.499694000129068 ], [ -76.959508991178097, 35.502295999432 ], [ -76.961471990692118, 35.50426399964946 ], [ -76.964415991337873, 35.512052999688066 ], [ -76.965973991334707, 35.510784000247995 ], [ -76.965845991677824, 35.513012000309864 ], [ -76.967460990686973, 35.512729000060588 ], [ -76.967919991361896, 35.513787999979307 ], [ -76.96954899067741, 35.514435999944688 ], [ -76.972134991317262, 35.513454000214104 ], [ -76.981253990952709, 35.515632999403024 ], [ -76.983940991095366, 35.518113000176605 ], [ -76.984062990698405, 35.520329000104958 ], [ -76.98809299089335, 35.520848999957302 ], [ -76.991501990703071, 35.525921999972887 ], [ -76.988535990870616, 35.53004899994211 ], [ -76.988109990854397, 35.534667999954237 ], [ -76.984792990800557, 35.538150999767126 ], [ -76.976448991056884, 35.536589000273842 ], [ -76.962484991397574, 35.530785999924966 ], [ -76.948974991610228, 35.528659000158015 ], [ -76.937902990987126, 35.538305000104145 ], [ -76.931494990982401, 35.545998000176731 ], [ -76.929097991559075, 35.547828000172181 ], [ -76.910176991650019, 35.552998999655671 ], [ -76.903174991737203, 35.554036999842495 ], [ -76.89654599128329, 35.557005999719742 ], [ -76.887888991741676, 35.553852000065099 ], [ -76.890806991454454, 35.538126999766227 ], [ -76.89378899085834, 35.535559999927536 ], [ -76.894830990857699, 35.532561000152874 ], [ -76.88426099093202, 35.524540999787298 ], [ -76.872530990758122, 35.525793999952057 ], [ -76.872072991390453, 35.500164000225418 ], [ -76.875822990894889, 35.500163999567128 ], [ -76.875624991489701, 35.495428999509933 ], [ -76.880977990691207, 35.477043999766074 ], [ -76.884224991504567, 35.47271599974362 ], [ -76.890210991136215, 35.469431999559781 ], [ -76.892153991453611, 35.466608999771978 ], [ -76.893517991561211, 35.465893999654021 ], [ -76.89224899133383, 35.461931999708149 ], [ -76.900069991600731, 35.449470000084617 ] ] ] } }
]
}
