{
"type": "FeatureCollection",
"name": "bertie_county_sheriff_dem",
"crs": { "type": "name", "properties": { "name": "urn:ogc:def:crs:OGC:1.3:CRS84" } },
"features": [
{ "type": "Feature", "properties": { "county": "BERTIE", "precinct": "C1", "enr_desc": "Colerain 1", "winner": "Tyrone M. Ruffin", "winner_votes": 48, "winner_share": 76.19047619047619, "runner_up": "Allen White", "runner_up_votes": 15, "runner_up_share": 23.809523809523807, "contest_votes": 63, "margin_of_victory": 52.38095238095238, "is_tie": false, "results": [ { "candidate": "Tyrone M. Ruffin", "votes": 48, "share": 76.19047619047619 }, { "candidate": "Allen White", "votes": 15, "share": 23.809523809523807 } ], "participated": true, "map_key": "BERTIE_C1" }, "geometry": { "type": "Polygon", "coordinates": [ [ [ -76.856660990702593, 36.243168999525096 ], [ -76.706583990890437, 36.243795999756216 ], [ -76.71219099160362, 36.236623999654185 ], [ -76.716012990971819, 36.22903499987838 ], [ -76.718865990905996, 36.226155999817408 ], [ -76.727772991328266, 36.221059000195837 ], [ -76.731086991244567, 36.217020000119895 ], [ -76.732974990839921, 36.212601999858144 ], [ -76.732667990605876, 36.197541999607971 ], [ -76.736126991034936, 36.186466999913527 ], [ -76.736917991219372, 36.171191000193076 ], [ -76.737271990992966, 36.158602999645552 ], [ -76.736259991567351, 36.147821000146685 ], [ -76.765145991132329, 36.147784999655428 ], [ -76.768165991478554, 36.149435000239151 ], [ -76.768615991414109, 36.151083000187995 ], [ -76.770873990942036, 36.153511000041483 ], [ -76.774402991345184, 36.153213999816671 ], [ -76.777644991249531, 36.155094000269727 ], [ -76.780272990701818, 36.152797999648463 ], [ -76.788716990861758, 36.139568999776962 ], [ -76.802382990596641, 36.137945000193824 ], [ -76.805689991014646, 36.139712999633268 ], [ -76.828081991340525, 36.142304999955556 ], [ -76.835195991483459, 36.14159399960613 ], [ -76.842263991631881, 36.136637000255703 ], [ -76.844628991439507, 36.136018000270873 ], [ -76.856396990983114, 36.134810999402809 ], [ -76.86384399113426, 36.135834999511417 ], [ -76.86571499145127, 36.137080999578593 ], [ -76.860739991589313, 36.143132000046052 ], [ -76.856937990914034, 36.146198000050852 ], [ -76.863467991549399, 36.166178999929784 ], [ -76.865801991430374, 36.181810000144125 ], [ -76.861467991092042, 36.185905999548609 ], [ -76.85825299157996, 36.187122999903593 ], [ -76.848403990802609, 36.195540999863539 ], [ -76.846301990694414, 36.199830999516436 ], [ -76.845053991428088, 36.205337999452055 ], [ -76.858289991009613, 36.206162999416975 ], [ -76.857781991657177, 36.208359999485687 ], [ -76.854892990979621, 36.212663000125147 ], [ -76.851526991424848, 36.21470699955394 ], [ -76.851171991577942, 36.218001000238516 ], [ -76.849814991158127, 36.221159999463666 ], [ -76.848196991088855, 36.222717999701061 ], [ -76.83322499154319, 36.2249849998515 ], [ -76.828929991007456, 36.229174999598371 ], [ -76.830004990593636, 36.230708999594505 ], [ -76.833536990924316, 36.23146399991807 ], [ -76.839489991065278, 36.23838899994891 ], [ -76.844165990982177, 36.238878999736862 ], [ -76.844862990947263, 36.241480000134544 ], [ -76.847059990765871, 36.242113999850069 ], [ -76.851422990663735, 36.239719000254588 ], [ -76.856354991339686, 36.24096399998443 ], [ -76.856972991372828, 36.241692999545762 ], [ -76.856660990702593, 36.243168999525096 ] ] ] } },
{ "type": "Feature", "properties": { "county": "BERTIE", "precinct": "C2", "enr_desc": "Colerain 2", "winner": "Tyrone M. Ruffin", "winner_votes": 83, "winner_share": 97.647058823529406, "runner_up": "Allen White", "runner_up_votes": 2, "runner_up_share": 2.3529411764705883, "contest_votes": 85, "margin_of_victory": 95.294117647058812, "is_tie": false, "results": [ { "candidate": "Tyrone M. Ruffin", "votes": 83, "share": 97.6470588235294 }, { "candidate": "Allen White", "votes": 2, "share": 2.3529411764705883 } ], "participated": true, "map_key": "BERTIE_C2" }, "geometry": { "type": "Polygon", "coordinates": [ [ [ -76.919945990712534, 36.145249999647142 ], [ -76.919194991030935, 36.151433999404716 ], [ -76.932204991381397, 36.167366000043017 ], [ -76.937630991686291, 36.171231999861618 ], [ -76.951350991161831, 36.17209899975331 ], [ -76.954380990877908, 36.176163000079555 ], [ -76.954639991248726, 36.177617000085661 ], [ -76.957483990604572, 36.17924499996839 ], [ -76.955855990724331, 36.194213999495659 ], [ -76.950831990765607, 36.200790999745294 ], [ -76.953925990816032, 36.200422000126302 ], [ -76.954801991410108, 36.20110799968581 ], [ -76.95488699135322, 36.204931000094042 ], [ -76.958023991620237, 36.20989800003855 ], [ -76.966276991242424, 36.218960999792252 ], [ -76.968225991037201, 36.218982999867372 ], [ -76.968082991536434, 36.221116000195352 ], [ -76.971053991653619, 36.223726999647546 ], [ -76.968851991620383, 36.224964999581275 ], [ -76.968364991262447, 36.226834000048214 ], [ -76.965147991484784, 36.231032999856232 ], [ -76.962366991040668, 36.239191999550762 ], [ -76.943825991257597, 36.24138700019428 ], [ -76.928225990633095, 36.240131999600528 ], [ -76.903382991142905, 36.242985999570976 ], [ -76.856660990702593, 36.243168999525096 ], [ -76.856972991372828, 36.241692999545762 ], [ -76.856354991339686, 36.24096399998443 ], [ -76.851422990663735, 36.239719000254588 ], [ -76.847059990765871, 36.242113999850069 ], [ -76.844862990947263, 36.241480000134544 ], [ -76.844165990982177, 36.238878999736862 ], [ -76.839489991065278, 36.23838899994891 ], [ -76.833536990924316, 36.23146399991807 ], [ -76.830004990593636, 36.230708999594505 ], [ -76.828929991007456, 36.229174999598371 ], [ -76.83322499154319, 36.2249849998515 ], [ -76.848196991088855, 36.222717999701061 ], [ -76.849814991158127, 36.221159999463666 ], [ -76.851171991577942, 36.218001000238516 ], [ -76.851526991424848, 36.21470699955394 ], [ -76.854892990979621, 36.212663000125147 ], [ -76.857781991657177, 36.208359999485687 ], [ -76.858289991009613, 36.206162999416975 ], [ -76.845053991428088, 36.205337999452055 ], [ -76.846301990694414, 36.199830999516436 ], [ -76.848403990802609, 36.195540999863539 ], [ -76.85825299157996, 36.187122999903593 ], [ -76.861467991092042, 36.185905999548609 ], [ -76.865801991430374, 36.181810000144125 ], [ -76.863467991549399, 36.166178999929784 ], [ -76.856937990914034, 36.146198000050852 ], [ -76.860739991589313, 36.143132000046052 ], [ -76.86571499145127, 36.137080999578593 ], [ -76.873488991191124, 36.126435999469763 ], [ -76.875432990617824, 36.120470999466988 ], [ -76.877646991405769, 36.109508999614263 ], [ -76.875807991396769, 36.100151999623286 ], [ -76.875352991546919, 36.093048000272923 ], [ -76.877016991131782, 36.08638899996604 ], [ -76.886203990788971, 36.08575700016133 ], [ -76.885238991610578, 36.089174999596082 ], [ -76.887591991328009, 36.092516999436292 ], [ -76.885193991010908, 36.093661000087359 ], [ -76.884232991073702, 36.096865999764248 ], [ -76.890462990838827, 36.103941999470202 ], [ -76.891870991117031, 36.11005499973065 ], [ -76.892772991639433, 36.111107999529409 ], [ -76.891416991351321, 36.114930000250936 ], [ -76.892176991074066, 36.117746000146539 ], [ -76.891104990634119, 36.118913000267199 ], [ -76.890564991360961, 36.121684999922749 ], [ -76.894135991418366, 36.124701999557011 ], [ -76.896405991206876, 36.124898000005238 ], [ -76.9019119913076, 36.127431000256422 ], [ -76.902609990853932, 36.128009999671065 ], [ -76.901860991635445, 36.12936999989617 ], [ -76.902021990847928, 36.13363499959199 ], [ -76.906599991380006, 36.137128000055299 ], [ -76.915521991152403, 36.139530999955483 ], [ -76.918999991383913, 36.142598000083382 ], [ -76.919945990712534, 36.145249999647142 ] ] ] } },
{ "type": "Feature", "properties": { "county": "BERTIE", "precinct": "IW", "enr_desc": "Indian Woods", "winner": "Tyrone M. Ruffin", "winner_votes": 41, "winner_share": 89.130434782608688, "runner_up": "Allen White", "runner_up_votes": 5, "runner_up_share": 10.869565217391305, "contest_votes": 46, "margin_of_victory": 78.260869565217376, "is_tie": false, "results": [ { "candidate": "Tyrone M. Ruffin", "votes": 41, "share": 89.13043478260869 }, { "candidate": "Allen White", "votes": 5, "share": 10.869565217391305 } ], "participated": true, "map_key": "BERTIE_IW" }, "geometry": { "type": "Polygon", "coordinates": [ [ [ -77.02751899097224, 35.914512999831459 ], [ -77.02759099077231, 35.918103999488793 ], [ -77.030761991394613, 35.917003999706814 ], [ -77.031865991414961, 35.918460999638505 ], [ -77.028109991527486, 35.925790000236304 ], [ -77.027693991076902, 35.929974000163824 ], [ -77.035645991591366, 35.929462000011334 ], [ -77.038757991625261, 35.930791999783267 ], [ -77.042881991305194, 35.942277999566478 ], [ -77.04403299104672, 35.943448000094435 ], [ -77.055123991493801, 35.944839999828552 ], [ -77.05584199161062, 35.944403999716783 ], [ -77.056035990653839, 35.941272000206844 ], [ -77.058523990913031, 35.939136999406863 ], [ -77.060935991045895, 35.938567000131734 ], [ -77.064211991354938, 35.939643000245361 ], [ -77.068875991643893, 35.943491000214209 ], [ -77.070773991351189, 35.943756000092293 ], [ -77.073072991131426, 35.944633000124377 ], [ -77.077604991373121, 35.944334000306732 ], [ -77.079405991157358, 35.943098000098317 ], [ -77.086527991556281, 35.943073999694789 ], [ -77.088667991228988, 35.944172000137101 ], [ -77.099928990646262, 35.94604599981011 ], [ -77.105110991277698, 35.949683999686236 ], [ -77.107815991671671, 35.953001999547901 ], [ -77.109760990672029, 35.957166999471148 ], [ -77.113394991337259, 35.960118000229983 ], [ -77.124680991465269, 35.963822999561096 ], [ -77.124680990995145, 35.967611000224146 ], [ -77.125516991469269, 35.96888399976654 ], [ -77.131736990656123, 35.973556000158425 ], [ -77.132579990647685, 35.976737999691153 ], [ -77.135028991074293, 35.978386999424153 ], [ -77.134548990700722, 35.980058000149675 ], [ -77.126860991228071, 35.980971000166086 ], [ -77.126633990639718, 35.983420000143809 ], [ -77.127870990826068, 35.985686999475519 ], [ -77.127785990855799, 35.987540999685031 ], [ -77.12685599150393, 35.987563000055147 ], [ -77.125671990868881, 35.989508000088492 ], [ -77.120852991307245, 35.98989599944484 ], [ -77.119163991667136, 35.991659000153739 ], [ -77.110065991135983, 35.991869999672922 ], [ -77.108826990819139, 35.993221000129218 ], [ -77.111138990817267, 35.996943000115465 ], [ -77.123477991437753, 36.002088999840019 ], [ -77.132473990961941, 36.004827000220914 ], [ -77.135870991073858, 36.002945000033606 ], [ -77.13837099155522, 36.003674000176929 ], [ -77.138844991050121, 36.004747999794134 ], [ -77.137569991224311, 36.006369000092683 ], [ -77.138482991207468, 36.00988699970587 ], [ -77.135233991065974, 36.010178999783733 ], [ -77.13374099110213, 36.011754000168622 ], [ -77.13575899100509, 36.015103999714242 ], [ -77.13395599121985, 36.017161000217222 ], [ -77.124984991121934, 36.021600999693526 ], [ -77.1184359913007, 36.020314000315203 ], [ -77.113898991163126, 36.021106999711073 ], [ -77.111634990672698, 36.02060499988216 ], [ -77.10479099134858, 36.021111999784218 ], [ -77.10186699090022, 36.034084999631595 ], [ -77.064036991192523, 36.015106000006739 ], [ -77.055836991084064, 36.01502099944711 ], [ -77.052305991690972, 36.014035999973444 ], [ -77.045948991260929, 36.009840000242335 ], [ -77.045624990615352, 36.008247999479195 ], [ -77.046433990771959, 36.007645000004523 ], [ -77.04306999106997, 36.00385200020083 ], [ -77.037877991636762, 36.003541999594354 ], [ -77.03640099140604, 36.002567999533603 ], [ -77.034412990831171, 36.003352999503406 ], [ -77.030796991571236, 36.00654499944195 ], [ -77.025212991129536, 36.007890000015195 ], [ -77.022901991366155, 36.009515000249515 ], [ -77.019182990638953, 36.009947999985123 ], [ -77.016817991196987, 36.007292000093251 ], [ -77.014592990799272, 36.006397999554963 ], [ -77.014198991378152, 36.004474999426613 ], [ -77.009101991683153, 36.001428999899787 ], [ -77.006369990865934, 36.001243999697842 ], [ -77.000254991711046, 36.004216999670369 ], [ -76.996476991379424, 36.004581999705593 ], [ -76.995095991458328, 36.00346099988846 ], [ -76.9957419907755, 36.000713000296699 ], [ -76.992615991539523, 35.996675999630639 ], [ -76.994998991471917, 35.989706999765239 ], [ -76.99847399169181, 35.987295999972972 ], [ -77.006369990662947, 35.983979000042773 ], [ -77.013148990719429, 35.977062999556658 ], [ -77.013151991452304, 35.972072000173107 ], [ -77.007046990889464, 35.960532999727491 ], [ -77.001446990763952, 35.956639000198571 ], [ -76.999675990611706, 35.954519000049565 ], [ -76.990584990712478, 35.953915999608448 ], [ -76.984980991081514, 35.952292999917496 ], [ -76.981570991651779, 35.947349999678437 ], [ -76.976839990775758, 35.945015999928735 ], [ -76.965493991593604, 35.941997999720286 ], [ -76.961794991217062, 35.942146999881302 ], [ -76.969334991530317, 35.940086999595209 ], [ -76.97100299139025, 35.937121000229887 ], [ -76.976347990987776, 35.934743999522361 ], [ -76.988486991470964, 35.933173999862731 ], [ -76.995909991275781, 35.931018999915636 ], [ -77.00596199137749, 35.9245690002397 ], [ -77.006366990888097, 35.925096999856876 ], [ -77.015544991467948, 35.921328999844263 ], [ -77.022913990931642, 35.916403999510237 ], [ -77.02751899097224, 35.914512999831459 ] ] ] } },
{ "type": "Feature", "properties": { "county": "BERTIE", "precinct": "M1", "enr_desc": "Mitchells 1", "winner": "Tyrone M. Ruffin", "winner_votes": 45, "winner_share": 95.744680851063833, "runner_up": "Allen White", "runner_up_votes": 2, "runner_up_share": 4.2553191489361701, "contest_votes": 47, "margin_of_victory": 91.489361702127667, "is_tie": false, "results": [ { "candidate": "Tyrone M. Ruffin", "votes": 45, "share": 95.74468085106383 }, { "candidate": "Allen White", "votes": 2, "share": 4.25531914893617 } ], "participated": true, "map_key": "BERTIE_M1" }, "geometry": { "type": "Polygon", "coordinates": [ [ [ -76.967335990625457, 36.110628000023482 ], [ -76.965756991577493, 36.113100000252011 ], [ -76.965781991470678, 36.115218999535443 ], [ -76.970959990919894, 36.120718999913692 ], [ -76.982580991022701, 36.123236999879751 ], [ -76.985736990641755, 36.121516999973935 ], [ -76.985933991505021, 36.120669999777149 ], [ -76.990728991561625, 36.118814000048154 ], [ -76.995931990832048, 36.120261999801983 ], [ -77.000123991644088, 36.120181000082297 ], [ -77.004414990774706, 36.121865999513169 ], [ -77.004885991242176, 36.124078999614277 ], [ -77.009661991619936, 36.13147299958257 ], [ -77.011227991155238, 36.130505000238692 ], [ -77.013264991379984, 36.13131299991575 ], [ -77.022851991211937, 36.138465000064649 ], [ -77.034326990944393, 36.137650999529988 ], [ -77.039436991255855, 36.141363000047583 ], [ -77.045220991380205, 36.141462999965739 ], [ -77.044715991471833, 36.140258999665058 ], [ -77.052744991536258, 36.13432899961947 ], [ -77.058029990622117, 36.139373999518689 ], [ -77.06195399121961, 36.140746999984451 ], [ -77.063924991022091, 36.142578999512949 ], [ -77.06311199158948, 36.146362000137756 ], [ -77.068493991180546, 36.15462899968395 ], [ -77.068571991230627, 36.159214000203342 ], [ -77.06560499061024, 36.160798999881543 ], [ -77.0643619915637, 36.159142999438089 ], [ -77.053116991446757, 36.160068999738577 ], [ -77.044308990706355, 36.168671999407238 ], [ -77.04320799065674, 36.171396000129661 ], [ -77.045408990948772, 36.181788999739268 ], [ -77.052661991126698, 36.189149999951482 ], [ -77.049117990941753, 36.190049000053577 ], [ -77.041570991588273, 36.195039999721466 ], [ -77.035695991266877, 36.196432000020216 ], [ -77.040284991479766, 36.203823999700667 ], [ -77.046540991411391, 36.206699999697264 ], [ -77.054049991122156, 36.223224999909533 ], [ -77.066997991537804, 36.240418999522397 ], [ -77.008383991571037, 36.239112999623345 ], [ -76.985737991397713, 36.242107000122424 ], [ -76.971398990647515, 36.238129999405302 ], [ -76.962366991040668, 36.239191999550762 ], [ -76.965147991484784, 36.231032999856232 ], [ -76.968364991262447, 36.226834000048214 ], [ -76.968851991620383, 36.224964999581275 ], [ -76.971053991653619, 36.223726999647546 ], [ -76.968082991536434, 36.221116000195352 ], [ -76.968225991037201, 36.218982999867372 ], [ -76.966276991242424, 36.218960999792252 ], [ -76.958023991620237, 36.20989800003855 ], [ -76.95488699135322, 36.204931000094042 ], [ -76.954801991410108, 36.20110799968581 ], [ -76.953925990816032, 36.200422000126302 ], [ -76.950831990765607, 36.200790999745294 ], [ -76.955855990724331, 36.194213999495659 ], [ -76.957483990604572, 36.17924499996839 ], [ -76.954639991248726, 36.177617000085661 ], [ -76.954380990877908, 36.176163000079555 ], [ -76.951350991161831, 36.17209899975331 ], [ -76.937630991686291, 36.171231999861618 ], [ -76.932204991381397, 36.167366000043017 ], [ -76.919194991030935, 36.151433999404716 ], [ -76.919945990712534, 36.145249999647142 ], [ -76.925828991194408, 36.144658999505502 ], [ -76.925745990625472, 36.135387999610522 ], [ -76.919181991525647, 36.137355999949037 ], [ -76.916989991197809, 36.129693000080984 ], [ -76.927364991345314, 36.120676999641695 ], [ -76.930772991695079, 36.119273999449327 ], [ -76.935711991469361, 36.120744000172607 ], [ -76.936810990855662, 36.120133000093894 ], [ -76.937801991055096, 36.120599000176881 ], [ -76.940061990782226, 36.119827999427287 ], [ -76.947160990818091, 36.119658999731705 ], [ -76.952358991014819, 36.121847999881069 ], [ -76.957823991598971, 36.117318999652056 ], [ -76.959126991552992, 36.112254999772347 ], [ -76.960705991510125, 36.11060600019988 ], [ -76.962228991013532, 36.109667999614103 ], [ -76.965303991558983, 36.109529000236421 ], [ -76.967335990625457, 36.110628000023482 ] ] ] } },
{ "type": "Feature", "properties": { "county": "BERTIE", "precinct": "M2", "enr_desc": "Mitchells 2", "winner": "Tyrone M. Ruffin", "winner_votes": 105, "winner_share": 92.920353982300881, "runner_up": "Allen White", "runner_up_votes": 8, "runner_up_share": 7.0796460176991154, "contest_votes": 113, "margin_of_victory": 85.840707964601762, "is_tie": false, "results": [ { "candidate": "Tyrone M. Ruffin", "votes": 105, "share": 92.92035398230088 }, { "candidate": "Allen White", "votes": 8, "share": 7.079646017699115 } ], "participated": true, "map_key": "BERTIE_M2" }, "geometry": { "type": "Polygon", "coordinates": [ [ [ -77.105319990795891, 36.181203999767163 ], [ -77.096239991322406, 36.183410999805027 ], [ -77.134077991677216, 36.210179999750537 ], [ -77.132442990694017, 36.211740999859721 ], [ -77.130664990594127, 36.217069999956543 ], [ -77.12686699121339, 36.222322000033472 ], [ -77.124967990748615, 36.223554999715937 ], [ -77.131545991455127, 36.226949999793696 ], [ -77.116119991338977, 36.236360999986388 ], [ -77.117739991342617, 36.24146900002782 ], [ -77.066997991537804, 36.240418999522397 ], [ -77.054049991122156, 36.223224999909533 ], [ -77.046540991411391, 36.206699999697264 ], [ -77.040284991479766, 36.203823999700667 ], [ -77.035695991266877, 36.196432000020216 ], [ -77.041570991588273, 36.195039999721466 ], [ -77.049117990941753, 36.190049000053577 ], [ -77.052661991126698, 36.189149999951482 ], [ -77.045408990948772, 36.181788999739268 ], [ -77.04320799065674, 36.171396000129661 ], [ -77.044308990706355, 36.168671999407238 ], [ -77.053116991446757, 36.160068999738577 ], [ -77.0643619915637, 36.159142999438089 ], [ -77.06560499061024, 36.160798999881543 ], [ -77.068571991230627, 36.159214000203342 ], [ -77.068493991180546, 36.15462899968395 ], [ -77.06311199158948, 36.146362000137756 ], [ -77.063924991022091, 36.142578999512949 ], [ -77.06775099097726, 36.143308000231571 ], [ -77.073365991060101, 36.14972299982059 ], [ -77.073288990692632, 36.156659999486102 ], [ -77.075638991127903, 36.160602000171053 ], [ -77.075863991303464, 36.166726000258862 ], [ -77.0789169909783, 36.170823999836401 ], [ -77.078563991400145, 36.173838999717887 ], [ -77.079628991609525, 36.175492999522618 ], [ -77.084106991308971, 36.179261000056243 ], [ -77.089039990727272, 36.179437000008193 ], [ -77.093212991622906, 36.177965000085635 ], [ -77.105319990795891, 36.181203999767163 ] ] ] } },
{ "type": "Feature", "properties": { "county": "BERTIE", "precinct": "MH", "enr_desc": "Merry Hill", "winner": "Tyrone M. Ruffin", "winner_votes": 61, "winner_share": 84.722222222222214, "runner_up": "Allen White", "runner_up_votes": 11, "runner_up_share": 15.277777777777779, "contest_votes": 72, "margin_of_victory": 69.444444444444429, "is_tie": false, "results": [ { "candidate": "Tyrone M. Ruffin", "votes": 61, "share": 84.72222222222221 }, { "candidate": "Allen White", "votes": 11, "share": 15.277777777777779 } ], "participated": true, "map_key": "BERTIE_MH" }, "geometry": { "type": "Polygon", "coordinates": [ [ [ -76.814341990887229, 35.885741999457579 ], [ -76.813695991001282, 35.888114999904801 ], [ -76.816330991003369, 35.889598999410545 ], [ -76.816162991188392, 35.890606999692693 ], [ -76.814980991518908, 35.891201999436703 ], [ -76.812898991280605, 35.89060699982965 ], [ -76.808959991508587, 35.892988000198187 ], [ -76.807778990855482, 35.895024999634529 ], [ -76.805414990785536, 35.896193000229566 ], [ -76.803276990895625, 35.898572999566369 ], [ -76.802769991106047, 35.897772000186862 ], [ -76.803839991044981, 35.895963999744133 ], [ -76.803051990939736, 35.895047999761594 ], [ -76.800320990971329, 35.897199999394346 ], [ -76.800181991205378, 35.898732999826144 ], [ -76.802801991071789, 35.902402000000926 ], [ -76.811381991358772, 35.911367999841488 ], [ -76.813165991048962, 35.912477999514486 ], [ -76.816225991001218, 35.912022999967071 ], [ -76.818841991252228, 35.912639000288124 ], [ -76.819647991315719, 35.916381999522699 ], [ -76.825611991617919, 35.916540000015225 ], [ -76.829064990685225, 35.917435999740171 ], [ -76.829873991384929, 35.91926700024672 ], [ -76.826203991469939, 35.922392000009253 ], [ -76.833429991089929, 35.925778999411193 ], [ -76.835820990898796, 35.929003999991401 ], [ -76.837933990908923, 35.929205000168103 ], [ -76.841204991370304, 35.926890999610379 ], [ -76.845116991677202, 35.927894999431452 ], [ -76.846734990817268, 35.931563999417911 ], [ -76.851286990735844, 35.934327999472309 ], [ -76.851270990700471, 35.937349000158434 ], [ -76.849496991112531, 35.938174000123574 ], [ -76.846370990932428, 35.946329999939685 ], [ -76.846750991091895, 35.958383999746808 ], [ -76.84016499137347, 35.968589999921996 ], [ -76.840305991030462, 35.972264999647216 ], [ -76.83785999073929, 35.975717000114095 ], [ -76.836316990890495, 35.983828000099109 ], [ -76.851826991018427, 35.984526000249694 ], [ -76.860422991183938, 35.993540999457281 ], [ -76.855010990708351, 35.997581999685643 ], [ -76.855447990632413, 36.000949999606995 ], [ -76.854751990748653, 36.002392999420742 ], [ -76.846150991028821, 36.007646999900921 ], [ -76.84351299120118, 36.016665999524449 ], [ -76.833220991273876, 36.017608999977519 ], [ -76.828386990708935, 36.019196999789187 ], [ -76.828360991260482, 36.020448999610984 ], [ -76.824390991462465, 36.024418999457794 ], [ -76.819358991014127, 36.031547999883429 ], [ -76.811914991555156, 36.036450999682657 ], [ -76.808700991583521, 36.04011099986721 ], [ -76.785572991309095, 36.03920000020716 ], [ -76.78543799128208, 36.036600999472164 ], [ -76.78322699142943, 36.030498999728152 ], [ -76.778191990754806, 36.027788000066884 ], [ -76.770116991479057, 36.034052000226332 ], [ -76.768087990684876, 36.034416999801486 ], [ -76.767072991323133, 36.033729999479384 ], [ -76.764534991077483, 36.035056999620124 ], [ -76.763632991012358, 36.034964999535646 ], [ -76.763661991258402, 36.033453999477096 ], [ -76.762055991192369, 36.03333900019598 ], [ -76.761434990827425, 36.034277999401425 ], [ -76.758982991261334, 36.035101000197109 ], [ -76.759293991587384, 36.033314999820405 ], [ -76.757855991439797, 36.033474999707394 ], [ -76.757771990664793, 36.032422000191715 ], [ -76.754082990897757, 36.029191999580554 ], [ -76.753237990999068, 36.027496999892769 ], [ -76.750984990833956, 36.02619099941252 ], [ -76.750788991051607, 36.024383999392306 ], [ -76.750055991434607, 36.0243369996873 ], [ -76.749984991364101, 36.026076000039176 ], [ -76.748267990767673, 36.027218999668129 ], [ -76.746858991665363, 36.026509999528045 ], [ -76.74849199083647, 36.024449000100127 ], [ -76.745250991510488, 36.024473999927167 ], [ -76.745308991050393, 36.026260000192693 ], [ -76.742517991243602, 36.025300000000932 ], [ -76.741585991279507, 36.022941999680917 ], [ -76.739893990654096, 36.022713999599084 ], [ -76.740539990700427, 36.020011999697076 ], [ -76.738848991535164, 36.01925699958116 ], [ -76.736481991460479, 36.019417999895431 ], [ -76.734846990698301, 36.01820599985804 ], [ -76.735465990989326, 36.016694000013828 ], [ -76.7373539912886, 36.016579000288942 ], [ -76.737972991350816, 36.015548999395762 ], [ -76.735801991164337, 36.013099999461438 ], [ -76.734111991121864, 36.015024000013469 ], [ -76.73309799078045, 36.015023999558458 ], [ -76.73233599076174, 36.013811000002868 ], [ -76.734025990999015, 36.011498000088785 ], [ -76.728840990632847, 36.010400999781709 ], [ -76.731177991095194, 36.008706000070788 ], [ -76.730133991053776, 36.005844999826103 ], [ -76.727679990688003, 36.007051999867848 ], [ -76.723747990632432, 36.007418999491563 ], [ -76.723789991449138, 36.005588999977633 ], [ -76.724994990704531, 36.003791000000817 ], [ -76.723535990806567, 36.00310999950004 ], [ -76.7214189916278, 36.004807000024293 ], [ -76.72162699079152, 36.008156999647596 ], [ -76.71924299081941, 36.00806000008641 ], [ -76.718416990996474, 36.007016999423627 ], [ -76.71911699102958, 36.004574999389042 ], [ -76.714927990641357, 36.005921999805409 ], [ -76.713822991451735, 36.005430999653022 ], [ -76.713813991560201, 36.003729999608204 ], [ -76.710814991611983, 36.00358400003342 ], [ -76.702433991675534, 36.008907000064163 ], [ -76.678452991133312, 36.027905000161425 ], [ -76.638380991537176, 36.000167000089483 ], [ -76.617609991257353, 35.98426699939121 ], [ -76.606213991419438, 35.978051000027783 ], [ -76.624417991253893, 35.975684999716314 ], [ -76.64730999094499, 35.969162999399636 ], [ -76.670063991602234, 35.960336999678724 ], [ -76.687507990824813, 35.95066699939504 ], [ -76.692494990694982, 35.94377899975597 ], [ -76.694533991065825, 35.933966999659127 ], [ -76.698975991116114, 35.927878999869073 ], [ -76.699923991627585, 35.924545999525705 ], [ -76.701831990947809, 35.922782999758908 ], [ -76.710664991490162, 35.922949000056221 ], [ -76.719988991176706, 35.917259000230757 ], [ -76.723198991093795, 35.91204600000701 ], [ -76.723615991041783, 35.906167999809881 ], [ -76.728263991443413, 35.897956999414802 ], [ -76.731066991465099, 35.88842499982227 ], [ -76.734930991711892, 35.883316999769171 ], [ -76.736983990912449, 35.878785999693832 ], [ -76.745410991248917, 35.870828999508696 ], [ -76.751121991275028, 35.867541999931007 ], [ -76.756035991200406, 35.865874999964184 ], [ -76.772624991421537, 35.862562999769601 ], [ -76.780984991650996, 35.863870999942336 ], [ -76.796056991600864, 35.873341999971913 ], [ -76.801315991706062, 35.880038999962494 ], [ -76.804233991584809, 35.882523000130057 ], [ -76.808187991004985, 35.884448999972754 ], [ -76.814341990887229, 35.885741999457579 ] ] ] } },
{ "type": "Feature", "properties": { "county": "BERTIE", "precinct": "RX", "enr_desc": "Roxobel", "winner": "Tyrone M. Ruffin", "winner_votes": 97, "winner_share": 90.654205607476641, "runner_up": "Allen White", "runner_up_votes": 10, "runner_up_share": 9.3457943925233646, "contest_votes": 107, "margin_of_victory": 81.308411214953281, "is_tie": false, "results": [ { "candidate": "Tyrone M. Ruffin", "votes": 97, "share": 90.65420560747664 }, { "candidate": "Allen White", "votes": 10, "share": 9.345794392523365 } ], "participated": true, "map_key": "BERTIE_RX" }, "geometry": { "type": "Polygon", "coordinates": [ [ [ -77.252317991241966, 36.121741999643568 ], [ -77.254620990708602, 36.122810999596382 ], [ -77.254890990822631, 36.12485699969131 ], [ -77.250993991276388, 36.131087000166133 ], [ -77.250813990842701, 36.134571999651975 ], [ -77.252829990583876, 36.136302000029254 ], [ -77.264549990827589, 36.139053999761238 ], [ -77.266142990681203, 36.14099900015546 ], [ -77.265915991218293, 36.145690999451745 ], [ -77.267278991035852, 36.150541999697175 ], [ -77.263004990882649, 36.157217999466852 ], [ -77.263077991656345, 36.158681999678819 ], [ -77.264468990713667, 36.159330999465958 ], [ -77.274289990632042, 36.156934999834839 ], [ -77.27650299113408, 36.15737399951761 ], [ -77.278554991047869, 36.159428000258039 ], [ -77.281400990771019, 36.165558000203923 ], [ -77.283393990957293, 36.167457000164596 ], [ -77.287621991157636, 36.169277000275358 ], [ -77.291518991480473, 36.168341999542136 ], [ -77.293742991336757, 36.169311999613335 ], [ -77.293226991433812, 36.170581000306136 ], [ -77.294797990877385, 36.170679999694109 ], [ -77.295658991370217, 36.172199999999258 ], [ -77.298313990739601, 36.172323999729002 ], [ -77.297860991440572, 36.17343899997654 ], [ -77.295553990620533, 36.174345000046145 ], [ -77.298125991422424, 36.180246000176481 ], [ -77.29971699086552, 36.181408999474023 ], [ -77.298895991317934, 36.186052000183317 ], [ -77.295106990847884, 36.188422000265753 ], [ -77.294895990684324, 36.190610000241527 ], [ -77.295867991643775, 36.193123000107327 ], [ -77.29326699096471, 36.197083999855323 ], [ -77.297367991499058, 36.202333999935092 ], [ -77.298502990622609, 36.206476999871704 ], [ -77.297905990576567, 36.208105000023409 ], [ -77.292452991491942, 36.210651000046852 ], [ -77.290651990600509, 36.212919000308382 ], [ -77.287826991397225, 36.211383000067933 ], [ -77.283941991016832, 36.212859999640187 ], [ -77.278445991540991, 36.213088000197047 ], [ -77.2756519907891, 36.214463000258668 ], [ -77.270027990734448, 36.213241000081432 ], [ -77.264063991513552, 36.217183000282361 ], [ -77.257937991250131, 36.217505000140662 ], [ -77.254357991249677, 36.218591999799422 ], [ -77.248970990624258, 36.218374999555451 ], [ -77.244132990699185, 36.215138000289471 ], [ -77.2356809912703, 36.213973999912788 ], [ -77.228564991619564, 36.214410999527992 ], [ -77.228798991399088, 36.21738699970232 ], [ -77.20846799146193, 36.246578000232212 ], [ -77.183143990971871, 36.242824999716326 ], [ -77.117739991342617, 36.24146900002782 ], [ -77.116119991338977, 36.236360999986388 ], [ -77.131545991455127, 36.226949999793696 ], [ -77.124967990748615, 36.223554999715937 ], [ -77.12686699121339, 36.222322000033472 ], [ -77.130664990594127, 36.217069999956543 ], [ -77.132442990694017, 36.211740999859721 ], [ -77.134077991677216, 36.210179999750537 ], [ -77.096239991322406, 36.183410999805027 ], [ -77.105319990795891, 36.181203999767163 ], [ -77.114014991041827, 36.177007000219895 ], [ -77.118937991636827, 36.177003000259845 ], [ -77.124533990638312, 36.173983000181629 ], [ -77.125801991109455, 36.171132999931324 ], [ -77.124485991383835, 36.170370000205423 ], [ -77.127056990937632, 36.167483000117109 ], [ -77.145135990630919, 36.156856999979063 ], [ -77.154938991025517, 36.151044999468226 ], [ -77.158373991326442, 36.14763399995644 ], [ -77.16414299135279, 36.144704000003003 ], [ -77.166356990750472, 36.141104000040777 ], [ -77.169645990693127, 36.128464999727022 ], [ -77.171379990766241, 36.126547999933479 ], [ -77.174407991004003, 36.127586999676765 ], [ -77.183094991089547, 36.12514999999911 ], [ -77.18255599146714, 36.123715000189961 ], [ -77.190405991292749, 36.123462000222595 ], [ -77.197966991434313, 36.127960999709195 ], [ -77.200585991267559, 36.131286999604512 ], [ -77.204374991394161, 36.139850999500482 ], [ -77.21054899109987, 36.143884999947701 ], [ -77.252317991241966, 36.121741999643568 ] ] ] } },
{ "type": "Feature", "properties": { "county": "BERTIE", "precinct": "SN", "enr_desc": "Snakebite", "winner": "Tyrone M. Ruffin", "winner_votes": 64, "winner_share": 95.522388059701484, "runner_up": "Allen White", "runner_up_votes": 3, "runner_up_share": 4.4776119402985071, "contest_votes": 67, "margin_of_victory": 91.044776119402982, "is_tie": false, "results": [ { "candidate": "Tyrone M. Ruffin", "votes": 64, "share": 95.52238805970148 }, { "candidate": "Allen White", "votes": 3, "share": 4.477611940298507 } ], "participated": true, "map_key": "BERTIE_SN" }, "geometry": { "type": "Polygon", "coordinates": [ [ [ -77.019182990638953, 36.009947999985123 ], [ -77.022901991366155, 36.009515000249515 ], [ -77.025212991129536, 36.007890000015195 ], [ -77.030796991571236, 36.00654499944195 ], [ -77.034412990831171, 36.003352999503406 ], [ -77.03640099140604, 36.002567999533603 ], [ -77.037877991636762, 36.003541999594354 ], [ -77.04306999106997, 36.00385200020083 ], [ -77.046433990771959, 36.007645000004523 ], [ -77.045624990615352, 36.008247999479195 ], [ -77.045948991260929, 36.009840000242335 ], [ -77.052305991690972, 36.014035999973444 ], [ -77.055836991084064, 36.01502099944711 ], [ -77.064036991192523, 36.015106000006739 ], [ -77.10186699090022, 36.034084999631595 ], [ -77.113014990914422, 36.04033299972896 ], [ -77.106738991710728, 36.049376999485169 ], [ -77.108711990610757, 36.050089999433936 ], [ -77.110568991311823, 36.056118000312964 ], [ -77.112631990778397, 36.058062999940525 ], [ -77.115290991493936, 36.059055999993312 ], [ -77.115879991706791, 36.060614999635852 ], [ -77.118781991103504, 36.063037999892174 ], [ -77.118985991439388, 36.064246999884837 ], [ -77.123107991409114, 36.065835000261458 ], [ -77.119889991394459, 36.067781999420276 ], [ -77.117880991057604, 36.072706999417441 ], [ -77.120636990782344, 36.075731000101399 ], [ -77.122175990769833, 36.079240000125004 ], [ -77.122444991076321, 36.084586000119103 ], [ -77.115371991014825, 36.09223500019587 ], [ -77.115458991322299, 36.095302000292712 ], [ -77.117178991394923, 36.0986989998163 ], [ -77.130565990917006, 36.098909999453923 ], [ -77.127332991228357, 36.101737999556164 ], [ -77.124165990991798, 36.10742299985538 ], [ -77.126324991604207, 36.109284000007221 ], [ -77.122082990968011, 36.113063999687554 ], [ -77.120268990770455, 36.111842999906024 ], [ -77.118223991278228, 36.111816999987113 ], [ -77.11544699094037, 36.113214000112599 ], [ -77.112683991410123, 36.115979999434266 ], [ -77.118697991616216, 36.12263299980021 ], [ -77.121313990840534, 36.123900000237839 ], [ -77.126851991466964, 36.12324499953484 ], [ -77.13092699062409, 36.124679999968883 ], [ -77.13244499063471, 36.129041000085422 ], [ -77.130238990877274, 36.135928999683735 ], [ -77.134336991580014, 36.147547999563024 ], [ -77.139995991541497, 36.151364999773058 ], [ -77.140547991642507, 36.153531000144845 ], [ -77.145135990630919, 36.156856999979063 ], [ -77.127056990937632, 36.167483000117109 ], [ -77.124485991383835, 36.170370000205423 ], [ -77.125801991109455, 36.171132999931324 ], [ -77.124533990638312, 36.173983000181629 ], [ -77.118937991636827, 36.177003000259845 ], [ -77.114014991041827, 36.177007000219895 ], [ -77.105319990795891, 36.181203999767163 ], [ -77.093212991622906, 36.177965000085635 ], [ -77.089039990727272, 36.179437000008193 ], [ -77.084106991308971, 36.179261000056243 ], [ -77.079628991609525, 36.175492999522618 ], [ -77.078563991400145, 36.173838999717887 ], [ -77.0789169909783, 36.170823999836401 ], [ -77.075863991303464, 36.166726000258862 ], [ -77.075638991127903, 36.160602000171053 ], [ -77.073288990692632, 36.156659999486102 ], [ -77.073365991060101, 36.14972299982059 ], [ -77.06775099097726, 36.143308000231571 ], [ -77.063924991022091, 36.142578999512949 ], [ -77.06195399121961, 36.140746999984451 ], [ -77.058029990622117, 36.139373999518689 ], [ -77.052744991536258, 36.13432899961947 ], [ -77.044715991471833, 36.140258999665058 ], [ -77.045220991380205, 36.141462999965739 ], [ -77.039436991255855, 36.141363000047583 ], [ -77.034326990944393, 36.137650999529988 ], [ -77.022851991211937, 36.138465000064649 ], [ -77.013264991379984, 36.13131299991575 ], [ -77.011227991155238, 36.130505000238692 ], [ -77.009661991619936, 36.13147299958257 ], [ -77.004885991242176, 36.124078999614277 ], [ -77.004414990774706, 36.121865999513169 ], [ -77.000123991644088, 36.120181000082297 ], [ -76.995931990832048, 36.120261999801983 ], [ -76.990728991561625, 36.118814000048154 ], [ -76.985933991505021, 36.120669999777149 ], [ -76.985736990641755, 36.121516999973935 ], [ -76.982580991022701, 36.123236999879751 ], [ -76.970959990919894, 36.120718999913692 ], [ -76.965781991470678, 36.115218999535443 ], [ -76.965756991577493, 36.113100000252011 ], [ -76.967335990625457, 36.110628000023482 ], [ -76.968858991594558, 36.109871999599022 ], [ -76.968913990632743, 36.108016999742297 ], [ -76.967134990893996, 36.102775999903358 ], [ -76.96349499141499, 36.098747999843262 ], [ -76.96540899120761, 36.089842999839171 ], [ -76.965209991273653, 36.085723000039557 ], [ -76.967210991487946, 36.083203999998581 ], [ -76.966081991486007, 36.079999999489516 ], [ -76.967235991070837, 36.07622199955555 ], [ -76.969068991597098, 36.076037999581452 ], [ -76.973895991015524, 36.078396999718869 ], [ -76.975964990969814, 36.077731000189594 ], [ -76.97729099099044, 36.075427999724049 ], [ -76.981523990934576, 36.072535000132746 ], [ -76.981105991711587, 36.070471999475693 ], [ -76.983106991404256, 36.068112999910255 ], [ -76.984599991372647, 36.067540000202442 ], [ -76.986461991064076, 36.06886699987551 ], [ -76.988547991665911, 36.06808799941841 ], [ -76.989541991612285, 36.070519999895808 ], [ -76.991030990771932, 36.070559000061444 ], [ -76.995117991503164, 36.06854199968874 ], [ -76.995621991129354, 36.06451299991015 ], [ -76.991560991132587, 36.06236300023734 ], [ -76.991134991080699, 36.058518000258154 ], [ -76.988838991017559, 36.052094000280633 ], [ -76.999465990902152, 36.047592000242716 ], [ -77.0025789908739, 36.045427999674089 ], [ -77.002598990788755, 36.04424199974536 ], [ -77.004543990771921, 36.042161999507826 ], [ -77.0124909906921, 36.039960999823634 ], [ -77.014489991642989, 36.038031999651359 ], [ -77.015467990828029, 36.035681999837749 ], [ -77.017415990792969, 36.036553999960638 ], [ -77.018788991582966, 36.03617399989173 ], [ -77.024297991356505, 36.019723999940773 ], [ -77.020052990678934, 36.016769999399493 ], [ -77.020363991281982, 36.013565999679997 ], [ -77.018984990949178, 36.011185000080282 ], [ -77.019182990638953, 36.009947999985123 ] ] ] } },
{ "type": "Feature", "properties": { "county": "BERTIE", "precinct": "W1", "enr_desc": "Windsor 1", "winner": "Tyrone M. Ruffin", "winner_votes": 236, "winner_share": 80.821917808219183, "runner_up": "Allen White", "runner_up_votes": 56, "runner_up_share": 19.17808219178082, "contest_votes": 292, "margin_of_victory": 61.643835616438366, "is_tie": false, "results": [ { "candidate": "Tyrone M. Ruffin", "votes": 236, "share": 80.82191780821918 }, { "candidate": "Allen White", "votes": 56, "share": 19.17808219178082 } ], "participated": true, "map_key": "BERTIE_W1" }, "geometry": { "type": "Polygon", "coordinates": [ [ [ -77.02751899097224, 35.914512999831459 ], [ -77.022913990931642, 35.916403999510237 ], [ -77.015544991467948, 35.921328999844263 ], [ -77.006366990888097, 35.925096999856876 ], [ -77.00596199137749, 35.9245690002397 ], [ -76.995909991275781, 35.931018999915636 ], [ -76.988486991470964, 35.933173999862731 ], [ -76.976347990987776, 35.934743999522361 ], [ -76.97100299139025, 35.937121000229887 ], [ -76.969334991530317, 35.940086999595209 ], [ -76.961794991217062, 35.942146999881302 ], [ -76.965493991593604, 35.941997999720286 ], [ -76.976839990775758, 35.945015999928735 ], [ -76.981570991651779, 35.947349999678437 ], [ -76.984980991081514, 35.952292999917496 ], [ -76.990584990712478, 35.953915999608448 ], [ -76.999675990611706, 35.954519000049565 ], [ -77.001446990763952, 35.956639000198571 ], [ -77.007046990889464, 35.960532999727491 ], [ -77.013151991452304, 35.972072000173107 ], [ -77.013148990719429, 35.977062999556658 ], [ -77.006369990662947, 35.983979000042773 ], [ -76.99847399169181, 35.987295999972972 ], [ -76.994998991471917, 35.989706999765239 ], [ -76.992615991539523, 35.996675999630639 ], [ -76.9957419907755, 36.000713000296699 ], [ -76.995095991458328, 36.00346099988846 ], [ -76.996476991379424, 36.004581999705593 ], [ -77.000254991711046, 36.004216999670369 ], [ -77.006369990865934, 36.001243999697842 ], [ -77.009101991683153, 36.001428999899787 ], [ -77.014198991378152, 36.004474999426613 ], [ -77.014592990799272, 36.006397999554963 ], [ -77.016817991196987, 36.007292000093251 ], [ -77.019182990638953, 36.009947999985123 ], [ -77.018984990949178, 36.011185000080282 ], [ -77.020363991281982, 36.013565999679997 ], [ -77.020052990678934, 36.016769999399493 ], [ -77.024297991356505, 36.019723999940773 ], [ -77.018788991582966, 36.03617399989173 ], [ -77.017415990792969, 36.036553999960638 ], [ -77.015467990828029, 36.035681999837749 ], [ -77.014489991642989, 36.038031999651359 ], [ -77.0124909906921, 36.039960999823634 ], [ -77.004543990771921, 36.042161999507826 ], [ -77.002598990788755, 36.04424199974536 ], [ -77.0025789908739, 36.045427999674089 ], [ -76.999465990902152, 36.047592000242716 ], [ -76.988838991017559, 36.052094000280633 ], [ -76.991134991080699, 36.058518000258154 ], [ -76.991560991132587, 36.06236300023734 ], [ -76.995621991129354, 36.06451299991015 ], [ -76.995117991503164, 36.06854199968874 ], [ -76.991030990771932, 36.070559000061444 ], [ -76.989541991612285, 36.070519999895808 ], [ -76.990689990787885, 36.066828000241891 ], [ -76.990012991036735, 36.066233000237133 ], [ -76.990095991456229, 36.064515999639525 ], [ -76.984887991252052, 36.062830000139947 ], [ -76.983471991442798, 36.061633000201439 ], [ -76.977386991146346, 36.061907999713625 ], [ -76.972646991467016, 36.060903999830117 ], [ -76.964924991109584, 36.070320999738477 ], [ -76.951159991192569, 36.065099999733206 ], [ -76.954370991061509, 36.051340999890037 ], [ -76.946986991324337, 36.050292999797449 ], [ -76.946056991378583, 36.047021999912594 ], [ -76.947411991617798, 36.043155999448196 ], [ -76.949485990816015, 36.041505999993419 ], [ -76.951220991254928, 36.037371999890865 ], [ -76.953845990679724, 36.034606999692564 ], [ -76.951411991428643, 36.032470000177362 ], [ -76.951834991064018, 36.027132999761697 ], [ -76.951132990590821, 36.025066000236485 ], [ -76.948931990662501, 36.026264000292869 ], [ -76.946244990778141, 36.029540999806898 ], [ -76.946435991336443, 36.03212999984224 ], [ -76.947474991455792, 36.033687999820188 ], [ -76.944620991434647, 36.035178000036375 ], [ -76.942838991016302, 36.037171999981204 ], [ -76.936553991163507, 36.038225000006676 ], [ -76.934580990681241, 36.039278999500112 ], [ -76.931818991559027, 36.041614000257333 ], [ -76.929647991356418, 36.044909999921586 ], [ -76.926659991125277, 36.046191999801259 ], [ -76.925531991310081, 36.048709999854935 ], [ -76.918117990838411, 36.053104000206986 ], [ -76.917130991477478, 36.055873999596898 ], [ -76.921555990856291, 36.059353999567797 ], [ -76.917974991571953, 36.062077999600447 ], [ -76.916592990856586, 36.064389999575056 ], [ -76.91309699165393, 36.065145000232413 ], [ -76.911207991610752, 36.063588000078447 ], [ -76.908358990969433, 36.064022000225002 ], [ -76.909007991355807, 36.062167999782652 ], [ -76.907655991524749, 36.060611000166091 ], [ -76.903426991662656, 36.059878000185854 ], [ -76.897056990836418, 36.056647999411986 ], [ -76.89364399083, 36.06010400022695 ], [ -76.890682991680507, 36.061613999442791 ], [ -76.892146990797357, 36.064475999941735 ], [ -76.891920991078649, 36.066123999799267 ], [ -76.888592991040099, 36.067220999790891 ], [ -76.882159990779726, 36.07484199980199 ], [ -76.876243991131645, 36.074397999541418 ], [ -76.870803991427621, 36.076686999419252 ], [ -76.869077991090833, 36.073326999568373 ], [ -76.865891991145375, 36.061425999774364 ], [ -76.863776990687413, 36.056502000244002 ], [ -76.860090991098772, 36.039462999404371 ], [ -76.84351299120118, 36.016665999524449 ], [ -76.846150991028821, 36.007646999900921 ], [ -76.854751990748653, 36.002392999420742 ], [ -76.855447990632413, 36.000949999606995 ], [ -76.855010990708351, 35.997581999685643 ], [ -76.860422991183938, 35.993540999457281 ], [ -76.851826991018427, 35.984526000249694 ], [ -76.836316990890495, 35.983828000099109 ], [ -76.83785999073929, 35.975717000114095 ], [ -76.840305991030462, 35.972264999647216 ], [ -76.84016499137347, 35.968589999921996 ], [ -76.846750991091895, 35.958383999746808 ], [ -76.846370990932428, 35.946329999939685 ], [ -76.849496991112531, 35.938174000123574 ], [ -76.851270990700471, 35.937349000158434 ], [ -76.851286990735844, 35.934327999472309 ], [ -76.846734990817268, 35.931563999417911 ], [ -76.845116991677202, 35.927894999431452 ], [ -76.841204991370304, 35.926890999610379 ], [ -76.837933990908923, 35.929205000168103 ], [ -76.835820990898796, 35.929003999991401 ], [ -76.833429991089929, 35.925778999411193 ], [ -76.826203991469939, 35.922392000009253 ], [ -76.829873991384929, 35.91926700024672 ], [ -76.829064990685225, 35.917435999740171 ], [ -76.825611991617919, 35.916540000015225 ], [ -76.819647991315719, 35.916381999522699 ], [ -76.818841991252228, 35.912639000288124 ], [ -76.816225991001218, 35.912022999967071 ], [ -76.813165991048962, 35.912477999514486 ], [ -76.811381991358772, 35.911367999841488 ], [ -76.802801991071789, 35.902402000000926 ], [ -76.800181991205378, 35.898732999826144 ], [ -76.800320990971329, 35.897199999394346 ], [ -76.803051990939736, 35.895047999761594 ], [ -76.803839991044981, 35.895963999744133 ], [ -76.802769991106047, 35.897772000186862 ], [ -76.803276990895625, 35.898572999566369 ], [ -76.805414990785536, 35.896193000229566 ], [ -76.807778990855482, 35.895024999634529 ], [ -76.808959991508587, 35.892988000198187 ], [ -76.812898991280605, 35.89060699982965 ], [ -76.814980991518908, 35.891201999436703 ], [ -76.816162991188392, 35.890606999692693 ], [ -76.816330991003369, 35.889598999410545 ], [ -76.813695991001282, 35.888114999904801 ], [ -76.814341990887229, 35.885741999457579 ], [ -76.824187990794059, 35.886974999755424 ], [ -76.83018899066488, 35.885865999986606 ], [ -76.834824991539733, 35.882909999489691 ], [ -76.83631399136604, 35.880120999919619 ], [ -76.836853990781762, 35.876100000261403 ], [ -76.832257990795014, 35.861566999587318 ], [ -76.832089990748003, 35.854549999710834 ], [ -76.833135991511455, 35.852166999546306 ], [ -76.837843991171468, 35.846461999395665 ], [ -76.849255990642718, 35.836651000161716 ], [ -76.860086991056249, 35.825004999915066 ], [ -76.863267991577942, 35.823460999797945 ], [ -76.872101990692499, 35.815938000267067 ], [ -76.877562991318982, 35.81273799948076 ], [ -76.882570991225947, 35.811866000040318 ], [ -76.89524999106581, 35.813122000085372 ], [ -76.897260991003776, 35.813902999434895 ], [ -76.897800990912344, 35.815034999980924 ], [ -76.892650990999257, 35.818393999516346 ], [ -76.899845991479609, 35.820411000137824 ], [ -76.904077991526336, 35.824280999835466 ], [ -76.903251991097591, 35.825594999613273 ], [ -76.896203991344535, 35.827905000088307 ], [ -76.893893990907358, 35.830711999619098 ], [ -76.89424299076029, 35.832349999562432 ], [ -76.895700990834001, 35.833654999872998 ], [ -76.901627991358254, 35.835229000002933 ], [ -76.90349399095966, 35.837435999962238 ], [ -76.90193799068021, 35.84444699951159 ], [ -76.897249991658057, 35.849580999479976 ], [ -76.897658991457007, 35.85198699971626 ], [ -76.900075991343769, 35.855814000158894 ], [ -76.90013599071824, 35.857883999645416 ], [ -76.894021991667159, 35.861936999433283 ], [ -76.893208991102597, 35.864514000092903 ], [ -76.902066991709361, 35.868217999846465 ], [ -76.903354990913655, 35.870030999764552 ], [ -76.904253991320161, 35.876253000269365 ], [ -76.91130099167323, 35.881715999561706 ], [ -76.916342991315048, 35.893383000138471 ], [ -76.91921799093484, 35.89615099970954 ], [ -76.925542991672245, 35.899233999465707 ], [ -76.937785990859737, 35.901393000034062 ], [ -76.940936991727668, 35.901093999414854 ], [ -76.947205991271034, 35.897136999840562 ], [ -76.947175991124141, 35.893681999803214 ], [ -76.957050991343166, 35.88693799958552 ], [ -76.957746991257665, 35.884261999511736 ], [ -76.958908991321209, 35.88335399992328 ], [ -76.961879991434685, 35.882379999741985 ], [ -76.967651991141423, 35.882475999583498 ], [ -76.969990991267181, 35.881651999419169 ], [ -76.979532991644774, 35.875507999587491 ], [ -76.97958899111994, 35.873238000048467 ], [ -76.980666991585935, 35.872619999813509 ], [ -76.983987991109387, 35.87641400006963 ], [ -76.987323990811277, 35.876500999989666 ], [ -76.988102990839892, 35.875202000169068 ], [ -76.987948991180261, 35.870336999731741 ], [ -76.991692991387524, 35.865087999588184 ], [ -76.994755990880336, 35.863539000020261 ], [ -76.998019991119378, 35.863337000286876 ], [ -77.005249990746307, 35.858433000272484 ], [ -77.006690990918514, 35.858905000149463 ], [ -77.008825991525356, 35.861498999446589 ], [ -77.012179991040725, 35.86244900004472 ], [ -77.016538990914711, 35.862455999792907 ], [ -77.028787990948004, 35.857792999895786 ], [ -77.031902990969328, 35.85729899997434 ], [ -77.035612991075993, 35.85750199968755 ], [ -77.044052990995027, 35.861466000203457 ], [ -77.044615991108273, 35.862873999569274 ], [ -77.040961991675545, 35.865889999472607 ], [ -77.040455991432381, 35.868953000117543 ], [ -77.04509899141533, 35.873442000279866 ], [ -77.045331991626668, 35.875173000035524 ], [ -77.039689991492253, 35.874602999860635 ], [ -77.037990991568705, 35.876655000141824 ], [ -77.031005991612986, 35.881179999626724 ], [ -77.031251991591191, 35.882367999466062 ], [ -77.035654991191294, 35.885478000132345 ], [ -77.037493990926379, 35.89062599998946 ], [ -77.029300991692722, 35.89311699992286 ], [ -77.024538990867526, 35.890257000147585 ], [ -77.022125991364661, 35.890920999519253 ], [ -77.024693991280955, 35.893553999765182 ], [ -77.02550499105017, 35.895710000196487 ], [ -77.024125991402443, 35.899078999860627 ], [ -77.025253991414431, 35.902775999526988 ], [ -77.026244991267617, 35.904038999546103 ], [ -77.029849990663394, 35.904450000095679 ], [ -77.030612990827109, 35.905357999970356 ], [ -77.026613991604137, 35.909834999613963 ], [ -77.02751899097224, 35.914512999831459 ] ] ] } },
{ "type": "Feature", "properties": { "county": "BERTIE", "precinct": "W2", "enr_desc": "Windsor 2", "winner": "Tyrone M. Ruffin", "winner_votes": 50, "winner_share": 55.555555555555557, "runner_up": "Allen White", "runner_up_votes": 40, "runner_up_share": 44.444444444444443, "contest_votes": 90, "margin_of_victory": 11.111111111111114, "is_tie": false, "results": [ { "candidate": "Tyrone M. Ruffin", "votes": 50, "share": 55.55555555555556 }, { "candidate": "Allen White", "votes": 40, "share": 44.44444444444444 } ], "participated": true, "map_key": "BERTIE_W2" }, "geometry": { "type": "Polygon", "coordinates": [ [ [ -76.989541991612285, 36.070519999895808 ], [ -76.988547991665911, 36.06808799941841 ], [ -76.986461991064076, 36.06886699987551 ], [ -76.984599991372647, 36.067540000202442 ], [ -76.983106991404256, 36.068112999910255 ], [ -76.981105991711587, 36.070471999475693 ], [ -76.981523990934576, 36.072535000132746 ], [ -76.97729099099044, 36.075427999724049 ], [ -76.975964990969814, 36.077731000189594 ], [ -76.973895991015524, 36.078396999718869 ], [ -76.969068991597098, 36.076037999581452 ], [ -76.967235991070837, 36.07622199955555 ], [ -76.966081991486007, 36.079999999489516 ], [ -76.967210991487946, 36.083203999998581 ], [ -76.965209991273653, 36.085723000039557 ], [ -76.96540899120761, 36.089842999839171 ], [ -76.96349499141499, 36.098747999843262 ], [ -76.967134990893996, 36.102775999903358 ], [ -76.968913990632743, 36.108016999742297 ], [ -76.968858991594558, 36.109871999599022 ], [ -76.967335990625457, 36.110628000023482 ], [ -76.965303991558983, 36.109529000236421 ], [ -76.962228991013532, 36.109667999614103 ], [ -76.960705991510125, 36.11060600019988 ], [ -76.959126991552992, 36.112254999772347 ], [ -76.957823991598971, 36.117318999652056 ], [ -76.952358991014819, 36.121847999881069 ], [ -76.947160990818091, 36.119658999731705 ], [ -76.940061990782226, 36.119827999427287 ], [ -76.937801991055096, 36.120599000176881 ], [ -76.936810990855662, 36.120133000093894 ], [ -76.935711991469361, 36.120744000172607 ], [ -76.930772991695079, 36.119273999449327 ], [ -76.927364991345314, 36.120676999641695 ], [ -76.916989991197809, 36.129693000080984 ], [ -76.919181991525647, 36.137355999949037 ], [ -76.925745990625472, 36.135387999610522 ], [ -76.925828991194408, 36.144658999505502 ], [ -76.919945990712534, 36.145249999647142 ], [ -76.918999991383913, 36.142598000083382 ], [ -76.915521991152403, 36.139530999955483 ], [ -76.906599991380006, 36.137128000055299 ], [ -76.902021990847928, 36.13363499959199 ], [ -76.901860991635445, 36.12936999989617 ], [ -76.902609990853932, 36.128009999671065 ], [ -76.9019119913076, 36.127431000256422 ], [ -76.896405991206876, 36.124898000005238 ], [ -76.894135991418366, 36.124701999557011 ], [ -76.890564991360961, 36.121684999922749 ], [ -76.891104990634119, 36.118913000267199 ], [ -76.892176991074066, 36.117746000146539 ], [ -76.891416991351321, 36.114930000250936 ], [ -76.892772991639433, 36.111107999529409 ], [ -76.891870991117031, 36.11005499973065 ], [ -76.890462990838827, 36.103941999470202 ], [ -76.884232991073702, 36.096865999764248 ], [ -76.885193991010908, 36.093661000087359 ], [ -76.887591991328009, 36.092516999436292 ], [ -76.885238991610578, 36.089174999596082 ], [ -76.886203990788971, 36.08575700016133 ], [ -76.877016991131782, 36.08638899996604 ], [ -76.874010991218569, 36.079465999583945 ], [ -76.870803991427621, 36.076686999419252 ], [ -76.876243991131645, 36.074397999541418 ], [ -76.882159990779726, 36.07484199980199 ], [ -76.888592991040099, 36.067220999790891 ], [ -76.891920991078649, 36.066123999799267 ], [ -76.892146990797357, 36.064475999941735 ], [ -76.890682991680507, 36.061613999442791 ], [ -76.89364399083, 36.06010400022695 ], [ -76.897056990836418, 36.056647999411986 ], [ -76.903426991662656, 36.059878000185854 ], [ -76.907655991524749, 36.060611000166091 ], [ -76.909007991355807, 36.062167999782652 ], [ -76.908358990969433, 36.064022000225002 ], [ -76.911207991610752, 36.063588000078447 ], [ -76.91309699165393, 36.065145000232413 ], [ -76.916592990856586, 36.064389999575056 ], [ -76.917974991571953, 36.062077999600447 ], [ -76.921555990856291, 36.059353999567797 ], [ -76.917130991477478, 36.055873999596898 ], [ -76.918117990838411, 36.053104000206986 ], [ -76.925531991310081, 36.048709999854935 ], [ -76.926659991125277, 36.046191999801259 ], [ -76.929647991356418, 36.044909999921586 ], [ -76.931818991559027, 36.041614000257333 ], [ -76.934580990681241, 36.039278999500112 ], [ -76.936553991163507, 36.038225000006676 ], [ -76.942838991016302, 36.037171999981204 ], [ -76.944620991434647, 36.035178000036375 ], [ -76.947474991455792, 36.033687999820188 ], [ -76.946435991336443, 36.03212999984224 ], [ -76.946244990778141, 36.029540999806898 ], [ -76.948931990662501, 36.026264000292869 ], [ -76.951132990590821, 36.025066000236485 ], [ -76.951834991064018, 36.027132999761697 ], [ -76.951411991428643, 36.032470000177362 ], [ -76.953845990679724, 36.034606999692564 ], [ -76.951220991254928, 36.037371999890865 ], [ -76.949485990816015, 36.041505999993419 ], [ -76.947411991617798, 36.043155999448196 ], [ -76.946056991378583, 36.047021999912594 ], [ -76.946986991324337, 36.050292999797449 ], [ -76.954370991061509, 36.051340999890037 ], [ -76.951159991192569, 36.065099999733206 ], [ -76.964924991109584, 36.070320999738477 ], [ -76.972646991467016, 36.060903999830117 ], [ -76.977386991146346, 36.061907999713625 ], [ -76.983471991442798, 36.061633000201439 ], [ -76.984887991252052, 36.062830000139947 ], [ -76.990095991456229, 36.064515999639525 ], [ -76.990012991036735, 36.066233000237133 ], [ -76.990689990787885, 36.066828000241891 ], [ -76.989541991612285, 36.070519999895808 ] ] ] } },
{ "type": "Feature", "properties": { "county": "BERTIE", "precinct": "WD", "enr_desc": "Woodville", "winner": "Tyrone M. Ruffin", "winner_votes": 55, "winner_share": 96.491228070175438, "runner_up": "Allen White", "runner_up_votes": 2, "runner_up_share": 3.5087719298245612, "contest_votes": 57, "margin_of_victory": 92.982456140350877, "is_tie": false, "results": [ { "candidate": "Tyrone M. Ruffin", "votes": 55, "share": 96.49122807017544 }, { "candidate": "Allen White", "votes": 2, "share": 3.508771929824561 } ], "participated": true, "map_key": "BERTIE_WD" }, "geometry": { "type": "Polygon", "coordinates": [ [ [ -77.070773991351189, 35.943756000092293 ], [ -77.071066990689232, 35.94231099973149 ], [ -77.066593991600968, 35.938657000299933 ], [ -77.067270990665889, 35.936653000035122 ], [ -77.073493991484867, 35.934511999496962 ], [ -77.081165990792158, 35.937480000275521 ], [ -77.081095990870253, 35.933832000305749 ], [ -77.082365990888405, 35.931644999692374 ], [ -77.085006990838124, 35.93133399965339 ], [ -77.086671990752535, 35.932384000001363 ], [ -77.08879699158048, 35.928962999565506 ], [ -77.092072991058401, 35.928373999673077 ], [ -77.091978991662373, 35.925718000093397 ], [ -77.093661991515503, 35.924815000244934 ], [ -77.098504991226648, 35.928986000219304 ], [ -77.101171991235134, 35.932577999706012 ], [ -77.102921991242098, 35.933341000078812 ], [ -77.106442990740177, 35.932404999878749 ], [ -77.110643991085894, 35.927543000273133 ], [ -77.115006991354846, 35.929241999987802 ], [ -77.117260991530102, 35.928636999555849 ], [ -77.119873990827173, 35.926151000075727 ], [ -77.123780991212072, 35.926138000100849 ], [ -77.126533990726372, 35.928918999785253 ], [ -77.128192991049332, 35.937125999832553 ], [ -77.130875990974559, 35.940755999882477 ], [ -77.132680991278207, 35.940448999935747 ], [ -77.137806991143563, 35.935501999888018 ], [ -77.14129299088458, 35.933918999656939 ], [ -77.146054991071424, 35.936136999543869 ], [ -77.153084991577472, 35.936208999867311 ], [ -77.162830991346894, 35.937666000107662 ], [ -77.166259990930229, 35.936401000307946 ], [ -77.170025990758646, 35.930080999758509 ], [ -77.172067991585578, 35.92914999963326 ], [ -77.177824991215928, 35.92904099954481 ], [ -77.186392991205892, 35.931091999716429 ], [ -77.197530991374833, 35.938148999922291 ], [ -77.202281991261415, 35.947417999458978 ], [ -77.201937991551333, 35.949816999559246 ], [ -77.200567991683357, 35.950961000094573 ], [ -77.195951991683884, 35.948997000202979 ], [ -77.194214991019464, 35.949716999427551 ], [ -77.195137991423948, 35.951716999795593 ], [ -77.199279990669098, 35.955338999845139 ], [ -77.198981991283475, 35.957146999622118 ], [ -77.194935991681035, 35.957665999766363 ], [ -77.18916899107424, 35.956632000148346 ], [ -77.188514991157433, 35.957500999714625 ], [ -77.189187990817587, 35.958424000098915 ], [ -77.195365990963921, 35.960257000272826 ], [ -77.197556991607073, 35.961893000228216 ], [ -77.197588990934534, 35.962784999529987 ], [ -77.19669099126908, 35.963091999974552 ], [ -77.192976990618433, 35.960611999641181 ], [ -77.190827990851204, 35.960840000243039 ], [ -77.195266990785939, 35.964135000038041 ], [ -77.196341991436114, 35.966266000007273 ], [ -77.195741991482919, 35.968759999614555 ], [ -77.192519991243373, 35.970689999771416 ], [ -77.1902679908967, 35.973677999551271 ], [ -77.19428399144428, 35.976557999641322 ], [ -77.196416991595939, 35.981892999970967 ], [ -77.195851991061176, 35.983584999700369 ], [ -77.192305991097683, 35.98515700009299 ], [ -77.19494199094602, 35.988549000208025 ], [ -77.196063991052029, 35.992369000180524 ], [ -77.197475991489938, 35.993094999858862 ], [ -77.204607990704218, 35.9935450000958 ], [ -77.211218991583792, 35.990641999758552 ], [ -77.212403990686056, 35.990893999784525 ], [ -77.213327991047009, 35.992532999645206 ], [ -77.212667990803411, 35.995102000020793 ], [ -77.20883999115722, 35.999367000031697 ], [ -77.205955991577511, 36.004821000095035 ], [ -77.206524991127537, 36.007130999513755 ], [ -77.21109899077058, 36.009874000061586 ], [ -77.216412990886042, 36.01487400025858 ], [ -77.219633991141848, 36.01539099985596 ], [ -77.226374990778595, 36.014853999542119 ], [ -77.230514990917854, 36.015577000148106 ], [ -77.242083991498859, 36.021689999736139 ], [ -77.254287991700508, 36.02529400005713 ], [ -77.264619991241489, 36.030501999923452 ], [ -77.274469990763833, 36.033696999530306 ], [ -77.292789991031512, 36.04508499985478 ], [ -77.316860991005754, 36.054495999969888 ], [ -77.321901990776638, 36.057314999607229 ], [ -77.327387990768059, 36.069004999856205 ], [ -77.327621990860621, 36.076240999566792 ], [ -77.319989990763929, 36.078653999443731 ], [ -77.315946990794203, 36.086696000283382 ], [ -77.313224991317995, 36.089166999649244 ], [ -77.293124991177379, 36.09122799971567 ], [ -77.282187990638718, 36.097284000016394 ], [ -77.268936991482846, 36.100005000044717 ], [ -77.250627990920378, 36.098775999821058 ], [ -77.242785991060629, 36.097182999440733 ], [ -77.230582991270509, 36.104339999892076 ], [ -77.230365990825362, 36.107551999571456 ], [ -77.232631991335992, 36.110237999497905 ], [ -77.234812991103809, 36.111137999544304 ], [ -77.244324990689435, 36.112107999671373 ], [ -77.250418990716724, 36.114186000028035 ], [ -77.251769990853305, 36.11565100015715 ], [ -77.250719991068408, 36.117694999839486 ], [ -77.240344990900184, 36.118770999499766 ], [ -77.239651991250454, 36.119798000038664 ], [ -77.240029991226947, 36.120688000236328 ], [ -77.241775990818866, 36.121376999663504 ], [ -77.252317991241966, 36.121741999643568 ], [ -77.21054899109987, 36.143884999947701 ], [ -77.204374991394161, 36.139850999500482 ], [ -77.200585991267559, 36.131286999604512 ], [ -77.197966991434313, 36.127960999709195 ], [ -77.190405991292749, 36.123462000222595 ], [ -77.18255599146714, 36.123715000189961 ], [ -77.183094991089547, 36.12514999999911 ], [ -77.174407991004003, 36.127586999676765 ], [ -77.171379990766241, 36.126547999933479 ], [ -77.169645990693127, 36.128464999727022 ], [ -77.166356990750472, 36.141104000040777 ], [ -77.16414299135279, 36.144704000003003 ], [ -77.158373991326442, 36.14763399995644 ], [ -77.154938991025517, 36.151044999468226 ], [ -77.145135990630919, 36.156856999979063 ], [ -77.140547991642507, 36.153531000144845 ], [ -77.139995991541497, 36.151364999773058 ], [ -77.134336991580014, 36.147547999563024 ], [ -77.130238990877274, 36.135928999683735 ], [ -77.13244499063471, 36.129041000085422 ], [ -77.13092699062409, 36.124679999968883 ], [ -77.126851991466964, 36.12324499953484 ], [ -77.121313990840534, 36.123900000237839 ], [ -77.118697991616216, 36.12263299980021 ], [ -77.112683991410123, 36.115979999434266 ], [ -77.11544699094037, 36.113214000112599 ], [ -77.118223991278228, 36.111816999987113 ], [ -77.120268990770455, 36.111842999906024 ], [ -77.122082990968011, 36.113063999687554 ], [ -77.126324991604207, 36.109284000007221 ], [ -77.124165990991798, 36.10742299985538 ], [ -77.127332991228357, 36.101737999556164 ], [ -77.130565990917006, 36.098909999453923 ], [ -77.117178991394923, 36.0986989998163 ], [ -77.115458991322299, 36.095302000292712 ], [ -77.115371991014825, 36.09223500019587 ], [ -77.122444991076321, 36.084586000119103 ], [ -77.122175990769833, 36.079240000125004 ], [ -77.120636990782344, 36.075731000101399 ], [ -77.117880991057604, 36.072706999417441 ], [ -77.119889991394459, 36.067781999420276 ], [ -77.123107991409114, 36.065835000261458 ], [ -77.118985991439388, 36.064246999884837 ], [ -77.118781991103504, 36.063037999892174 ], [ -77.115879991706791, 36.060614999635852 ], [ -77.115290991493936, 36.059055999993312 ], [ -77.112631990778397, 36.058062999940525 ], [ -77.110568991311823, 36.056118000312964 ], [ -77.108711990610757, 36.050089999433936 ], [ -77.106738991710728, 36.049376999485169 ], [ -77.113014990914422, 36.04033299972896 ], [ -77.10186699090022, 36.034084999631595 ], [ -77.10479099134858, 36.021111999784218 ], [ -77.111634990672698, 36.02060499988216 ], [ -77.113898991163126, 36.021106999711073 ], [ -77.1184359913007, 36.020314000315203 ], [ -77.124984991121934, 36.021600999693526 ], [ -77.13395599121985, 36.017161000217222 ], [ -77.13575899100509, 36.015103999714242 ], [ -77.13374099110213, 36.011754000168622 ], [ -77.135233991065974, 36.010178999783733 ], [ -77.138482991207468, 36.00988699970587 ], [ -77.137569991224311, 36.006369000092683 ], [ -77.138844991050121, 36.004747999794134 ], [ -77.13837099155522, 36.003674000176929 ], [ -77.135870991073858, 36.002945000033606 ], [ -77.132473990961941, 36.004827000220914 ], [ -77.123477991437753, 36.002088999840019 ], [ -77.111138990817267, 35.996943000115465 ], [ -77.108826990819139, 35.993221000129218 ], [ -77.110065991135983, 35.991869999672922 ], [ -77.119163991667136, 35.991659000153739 ], [ -77.120852991307245, 35.98989599944484 ], [ -77.125671990868881, 35.989508000088492 ], [ -77.12685599150393, 35.987563000055147 ], [ -77.127785990855799, 35.987540999685031 ], [ -77.127870990826068, 35.985686999475519 ], [ -77.126633990639718, 35.983420000143809 ], [ -77.126860991228071, 35.980971000166086 ], [ -77.134548990700722, 35.980058000149675 ], [ -77.135028991074293, 35.978386999424153 ], [ -77.132579990647685, 35.976737999691153 ], [ -77.131736990656123, 35.973556000158425 ], [ -77.125516991469269, 35.96888399976654 ], [ -77.124680990995145, 35.967611000224146 ], [ -77.124680991465269, 35.963822999561096 ], [ -77.113394991337259, 35.960118000229983 ], [ -77.109760990672029, 35.957166999471148 ], [ -77.107815991671671, 35.953001999547901 ], [ -77.105110991277698, 35.949683999686236 ], [ -77.099928990646262, 35.94604599981011 ], [ -77.088667991228988, 35.944172000137101 ], [ -77.086527991556281, 35.943073999694789 ], [ -77.079405991157358, 35.943098000098317 ], [ -77.077604991373121, 35.944334000306732 ], [ -77.073072991131426, 35.944633000124377 ], [ -77.070773991351189, 35.943756000092293 ] ] ] } },
{ "type": "Feature", "properties": { "county": "BERTIE", "precinct": "WH", "enr_desc": "Whites", "winner": "Tyrone M. Ruffin", "winner_votes": 76, "winner_share": 68.468468468468473, "runner_up": "Allen White", "runner_up_votes": 35, "runner_up_share": 31.531531531531531, "contest_votes": 111, "margin_of_victory": 36.936936936936945, "is_tie": false, "results": [ { "candidate": "Tyrone M. Ruffin", "votes": 76, "share": 68.46846846846847 }, { "candidate": "Allen White", "votes": 35, "share": 31.53153153153153 } ], "participated": true, "map_key": "BERTIE_WH" }, "geometry": { "type": "Polygon", "coordinates": [ [ [ -76.84351299120118, 36.016665999524449 ], [ -76.860090991098772, 36.039462999404371 ], [ -76.863776990687413, 36.056502000244002 ], [ -76.865891991145375, 36.061425999774364 ], [ -76.869077991090833, 36.073326999568373 ], [ -76.870803991427621, 36.076686999419252 ], [ -76.874010991218569, 36.079465999583945 ], [ -76.877016991131782, 36.08638899996604 ], [ -76.875352991546919, 36.093048000272923 ], [ -76.875807991396769, 36.100151999623286 ], [ -76.877646991405769, 36.109508999614263 ], [ -76.875432990617824, 36.120470999466988 ], [ -76.873488991191124, 36.126435999469763 ], [ -76.86571499145127, 36.137080999578593 ], [ -76.86384399113426, 36.135834999511417 ], [ -76.856396990983114, 36.134810999402809 ], [ -76.844628991439507, 36.136018000270873 ], [ -76.842263991631881, 36.136637000255703 ], [ -76.835195991483459, 36.14159399960613 ], [ -76.828081991340525, 36.142304999955556 ], [ -76.805689991014646, 36.139712999633268 ], [ -76.802382990596641, 36.137945000193824 ], [ -76.788716990861758, 36.139568999776962 ], [ -76.780272990701818, 36.152797999648463 ], [ -76.777644991249531, 36.155094000269727 ], [ -76.774402991345184, 36.153213999816671 ], [ -76.770873990942036, 36.153511000041483 ], [ -76.768615991414109, 36.151083000187995 ], [ -76.768165991478554, 36.149435000239151 ], [ -76.765145991132329, 36.147784999655428 ], [ -76.736259991567351, 36.147821000146685 ], [ -76.733566991501405, 36.137819999466011 ], [ -76.731052990826129, 36.132502999992262 ], [ -76.710539990817864, 36.098678000059877 ], [ -76.709506991286943, 36.092645999718165 ], [ -76.710191991003867, 36.075343999972716 ], [ -76.707468991500463, 36.065630999889407 ], [ -76.704656991681688, 36.060530999877052 ], [ -76.688807991078392, 36.038164999830293 ], [ -76.682534990658979, 36.030946999497985 ], [ -76.678452991133312, 36.027905000161425 ], [ -76.702433991675534, 36.008907000064163 ], [ -76.710814991611983, 36.00358400003342 ], [ -76.713813991560201, 36.003729999608204 ], [ -76.713822991451735, 36.005430999653022 ], [ -76.714927990641357, 36.005921999805409 ], [ -76.71911699102958, 36.004574999389042 ], [ -76.718416990996474, 36.007016999423627 ], [ -76.71924299081941, 36.00806000008641 ], [ -76.72162699079152, 36.008156999647596 ], [ -76.7214189916278, 36.004807000024293 ], [ -76.723535990806567, 36.00310999950004 ], [ -76.724994990704531, 36.003791000000817 ], [ -76.723789991449138, 36.005588999977633 ], [ -76.723747990632432, 36.007418999491563 ], [ -76.727679990688003, 36.007051999867848 ], [ -76.730133991053776, 36.005844999826103 ], [ -76.731177991095194, 36.008706000070788 ], [ -76.728840990632847, 36.010400999781709 ], [ -76.734025990999015, 36.011498000088785 ], [ -76.73233599076174, 36.013811000002868 ], [ -76.73309799078045, 36.015023999558458 ], [ -76.734111991121864, 36.015024000013469 ], [ -76.735801991164337, 36.013099999461438 ], [ -76.737972991350816, 36.015548999395762 ], [ -76.7373539912886, 36.016579000288942 ], [ -76.735465990989326, 36.016694000013828 ], [ -76.734846990698301, 36.01820599985804 ], [ -76.736481991460479, 36.019417999895431 ], [ -76.738848991535164, 36.01925699958116 ], [ -76.740539990700427, 36.020011999697076 ], [ -76.739893990654096, 36.022713999599084 ], [ -76.741585991279507, 36.022941999680917 ], [ -76.742517991243602, 36.025300000000932 ], [ -76.745308991050393, 36.026260000192693 ], [ -76.745250991510488, 36.024473999927167 ], [ -76.74849199083647, 36.024449000100127 ], [ -76.746858991665363, 36.026509999528045 ], [ -76.748267990767673, 36.027218999668129 ], [ -76.749984991364101, 36.026076000039176 ], [ -76.750055991434607, 36.0243369996873 ], [ -76.750788991051607, 36.024383999392306 ], [ -76.750984990833956, 36.02619099941252 ], [ -76.753237990999068, 36.027496999892769 ], [ -76.754082990897757, 36.029191999580554 ], [ -76.757771990664793, 36.032422000191715 ], [ -76.757855991439797, 36.033474999707394 ], [ -76.759293991587384, 36.033314999820405 ], [ -76.758982991261334, 36.035101000197109 ], [ -76.761434990827425, 36.034277999401425 ], [ -76.762055991192369, 36.03333900019598 ], [ -76.763661991258402, 36.033453999477096 ], [ -76.763632991012358, 36.034964999535646 ], [ -76.764534991077483, 36.035056999620124 ], [ -76.767072991323133, 36.033729999479384 ], [ -76.768087990684876, 36.034416999801486 ], [ -76.770116991479057, 36.034052000226332 ], [ -76.778191990754806, 36.027788000066884 ], [ -76.78322699142943, 36.030498999728152 ], [ -76.78543799128208, 36.036600999472164 ], [ -76.785572991309095, 36.03920000020716 ], [ -76.808700991583521, 36.04011099986721 ], [ -76.811914991555156, 36.036450999682657 ], [ -76.819358991014127, 36.031547999883429 ], [ -76.824390991462465, 36.024418999457794 ], [ -76.828360991260482, 36.020448999610984 ], [ -76.828386990708935, 36.019196999789187 ], [ -76.833220991273876, 36.017608999977519 ], [ -76.84351299120118, 36.016665999524449 ] ] ] } }
]
}
