{
"type": "FeatureCollection",
"name": "bladen_county_sheriff_rep",
"crs": { "type": "name", "properties": { "name": "urn:ogc:def:crs:OGC:1.3:CRS84" } },
"features": [
{ "type": "Feature", "properties": { "county": "BLADEN", "precinct": "P10", "enr_desc": "Abbotts", "winner": "Jim McVicker", "winner_votes": 63, "winner_share": 60.0, "runner_up": "Carl Yonge", "runner_up_votes": 42, "runner_up_share": 40.0, "contest_votes": 105, "margin_of_victory": 20.0, "is_tie": false, "results": [ { "candidate": "Jim McVicker", "votes": 63, "share": 60.0 }, { "candidate": "Carl Yonge", "votes": 42, "share": 40.0 } ], "participated": true, "map_key": "BLADEN_P10" }, "geometry": { "type": "Polygon", "coordinates": [ [ [ -78.760466991213491, 34.464969999682182 ], [ -78.766586990824848, 34.53158499988124 ], [ -78.765674991160381, 34.536551000190144 ], [ -78.738108991327579, 34.545653999645708 ], [ -78.710036990854661, 34.552476000069134 ], [ -78.669861991078278, 34.558315000200096 ], [ -78.66181399106857, 34.558703000389713 ], [ -78.691265991019236, 34.468510999683318 ], [ -78.760466991213491, 34.464969999682182 ] ] ] } },
{ "type": "Feature", "properties": { "county": "BLADEN", "precinct": "P15", "enr_desc": "Bethel", "winner": "Jim McVicker", "winner_votes": 394, "winner_share": 82.773109243697476, "runner_up": "Carl Yonge", "runner_up_votes": 82, "runner_up_share": 17.22689075630252, "contest_votes": 476, "margin_of_victory": 65.546218487394952, "is_tie": false, "results": [ { "candidate": "Jim McVicker", "votes": 394, "share": 82.77310924369748 }, { "candidate": "Carl Yonge", "votes": 82, "share": 17.22689075630252 } ], "participated": true, "map_key": "BLADEN_P15" }, "geometry": { "type": "Polygon", "coordinates": [ [ [ -78.721264991732298, 34.61143100007348 ], [ -78.727136991398879, 34.611009999559336 ], [ -78.729684991433004, 34.611833000271616 ], [ -78.732314991418775, 34.610549999589388 ], [ -78.734751991446231, 34.611351000063458 ], [ -78.739070990918052, 34.610661999747379 ], [ -78.745482990803453, 34.611480000249976 ], [ -78.758820991156242, 34.608993000189471 ], [ -78.760267991385561, 34.610141000350573 ], [ -78.763186991497676, 34.610076999698975 ], [ -78.772805990895463, 34.612541000229321 ], [ -78.777930991329242, 34.609701999533542 ], [ -78.781364991764761, 34.609862999611572 ], [ -78.789035991771968, 34.611465000381443 ], [ -78.793743991144467, 34.613366000090565 ], [ -78.797426991614287, 34.616662000006507 ], [ -78.804569991351983, 34.619554999773392 ], [ -78.823399991210763, 34.612847000314048 ], [ -78.831785991484111, 34.611920999657016 ], [ -78.834686990839018, 34.614805000384308 ], [ -78.834333991321159, 34.616781999709168 ], [ -78.833097991118322, 34.61806199966928 ], [ -78.833237991119461, 34.61945099970221 ], [ -78.83455299118377, 34.620747999715704 ], [ -78.832177991147674, 34.62557900043354 ], [ -78.829846990926626, 34.625820000216407 ], [ -78.830587991802091, 34.627901999747486 ], [ -78.82838599104339, 34.629697999606456 ], [ -78.829720990832001, 34.630730999863147 ], [ -78.829479991460943, 34.633352000115273 ], [ -78.829024991124825, 34.634234000282831 ], [ -78.827257990826581, 34.634724999976932 ], [ -78.827604991823478, 34.637080000078718 ], [ -78.825466991300843, 34.637041000010441 ], [ -78.826364991529118, 34.638818000160882 ], [ -78.823429991724879, 34.642740000402654 ], [ -78.81850099118391, 34.641706999957933 ], [ -78.819307991267621, 34.642622999891472 ], [ -78.819094991519293, 34.643645000010068 ], [ -78.821766991843731, 34.643964000201457 ], [ -78.821772990908798, 34.6456949998597 ], [ -78.819804991672697, 34.645572999577574 ], [ -78.818097991192573, 34.650841999827811 ], [ -78.816103990853364, 34.650725000403099 ], [ -78.813602990946279, 34.651741000154118 ], [ -78.813742991482897, 34.653211999766228 ], [ -78.815383990839919, 34.65470300010643 ], [ -78.817675990857808, 34.654374000282637 ], [ -78.818417990802047, 34.655032000317362 ], [ -78.819725991319487, 34.659468000431147 ], [ -78.819255991721889, 34.662478999762222 ], [ -78.818110990957365, 34.664319999892705 ], [ -78.814775991602332, 34.665918000086073 ], [ -78.813725991298654, 34.66784799963181 ], [ -78.809503991208061, 34.668171999776639 ], [ -78.809209991140378, 34.670509000316699 ], [ -78.81031699130385, 34.673034999701891 ], [ -78.806396991449375, 34.675139999854963 ], [ -78.803459991481091, 34.67422200034963 ], [ -78.795145991037543, 34.674929999752798 ], [ -78.785833991441706, 34.678476999664802 ], [ -78.78222399160893, 34.677806999597131 ], [ -78.783005991329702, 34.680467999887888 ], [ -78.779372991442713, 34.685183000341688 ], [ -78.777764991017889, 34.686007000249809 ], [ -78.776044991549412, 34.688959999868381 ], [ -78.774991991487127, 34.688546999647642 ], [ -78.768005991682273, 34.692299999803673 ], [ -78.766757991339361, 34.693878999638279 ], [ -78.759797991796901, 34.696486000368807 ], [ -78.756017990973064, 34.698712000064219 ], [ -78.754511991319561, 34.700777000313984 ], [ -78.74971199167544, 34.701986999586651 ], [ -78.745270991413761, 34.705515999947316 ], [ -78.73576999168337, 34.710922000163208 ], [ -78.73542199149945, 34.712975000090715 ], [ -78.740231990810358, 34.715478999839988 ], [ -78.733218990842758, 34.712634000038882 ], [ -78.727122991381194, 34.713181000148268 ], [ -78.713328991343857, 34.710008000199196 ], [ -78.711009991379797, 34.70792199999736 ], [ -78.709176990756276, 34.703387999673225 ], [ -78.705432990924763, 34.700967999882643 ], [ -78.699710991279886, 34.698435000418044 ], [ -78.689027991107977, 34.697399000400935 ], [ -78.685097991265806, 34.69460000033969 ], [ -78.683064990971317, 34.691478000030344 ], [ -78.685311991081477, 34.685569999992687 ], [ -78.683649991478219, 34.681978999880094 ], [ -78.678166991166279, 34.681355999979814 ], [ -78.676882990946666, 34.680409000291689 ], [ -78.674147991391607, 34.676246999900719 ], [ -78.670689991241559, 34.674095999870332 ], [ -78.663285991488934, 34.666644999813713 ], [ -78.657574991585236, 34.663163000323266 ], [ -78.655142991728781, 34.66030999982069 ], [ -78.655653991580294, 34.660095000317504 ], [ -78.656443991222829, 34.661736999534718 ], [ -78.665623991111104, 34.660805000001773 ], [ -78.674545991075092, 34.658234999967931 ], [ -78.680119991013385, 34.654740999675219 ], [ -78.681033991572079, 34.651741999528589 ], [ -78.682668991110361, 34.649612999825429 ], [ -78.686395991786213, 34.646927999621532 ], [ -78.687848991680809, 34.644393999972166 ], [ -78.707336990967661, 34.623203999667709 ], [ -78.712656991837605, 34.61913999959873 ], [ -78.716587990967554, 34.617354000407765 ], [ -78.718414991797559, 34.61501800011667 ], [ -78.719659991607259, 34.611148999839152 ], [ -78.721264991732298, 34.61143100007348 ] ] ] } },
{ "type": "Feature", "properties": { "county": "BLADEN", "precinct": "P201", "enr_desc": "Bladenboro  1", "winner": "Jim McVicker", "winner_votes": 209, "winner_share": 73.851590106007066, "runner_up": "Carl Yonge", "runner_up_votes": 74, "runner_up_share": 26.148409893992934, "contest_votes": 283, "margin_of_victory": 47.703180212014132, "is_tie": false, "results": [ { "candidate": "Jim McVicker", "votes": 209, "share": 73.85159010600707 }, { "candidate": "Carl Yonge", "votes": 74, "share": 26.148409893992934 } ], "participated": true, "map_key": "BLADEN_P201" }, "geometry": { "type": "Polygon", "coordinates": [ [ [ -78.760466991213491, 34.464969999682182 ], [ -78.825860991426538, 34.461732000133047 ], [ -78.830352991268001, 34.462577999953169 ], [ -78.837635991539614, 34.467561000031552 ], [ -78.844712991813282, 34.468882000188074 ], [ -78.849252991322189, 34.47193200035457 ], [ -78.849873990811176, 34.473618999724202 ], [ -78.858062991573604, 34.474411000371312 ], [ -78.860318990871107, 34.483175999834302 ], [ -78.863364990996956, 34.484746999723662 ], [ -78.868960990926567, 34.484778000288763 ], [ -78.869357990802683, 34.487143000190009 ], [ -78.86687199150532, 34.490405000274897 ], [ -78.86658399131808, 34.492926999584895 ], [ -78.863546990951605, 34.497951999573615 ], [ -78.861847991716616, 34.498008000403999 ], [ -78.857446990916472, 34.501295999777383 ], [ -78.849369991338051, 34.502610999966691 ], [ -78.848608991560397, 34.50223899998867 ], [ -78.849831991032005, 34.501349000071983 ], [ -78.849424990929663, 34.499957999761492 ], [ -78.84633799122669, 34.499813000138474 ], [ -78.846412991455367, 34.504131000203209 ], [ -78.844451991700723, 34.50794399956289 ], [ -78.846338991033321, 34.510575000405169 ], [ -78.851265991009214, 34.51215599983081 ], [ -78.851033991069855, 34.512793999816907 ], [ -78.849632991416456, 34.512452999936478 ], [ -78.850336991635885, 34.513770999568635 ], [ -78.853841991436383, 34.513852999957045 ], [ -78.85730099178285, 34.515665999993061 ], [ -78.857174990868813, 34.516511999860441 ], [ -78.85507099184656, 34.517268999887889 ], [ -78.853902991547002, 34.518771999851303 ], [ -78.855436991615449, 34.520817999755344 ], [ -78.856592991401442, 34.524728000023231 ], [ -78.85464699099542, 34.525337999891185 ], [ -78.854690991566997, 34.526733000286036 ], [ -78.852987990926266, 34.527761999779017 ], [ -78.855517990784193, 34.530562000272077 ], [ -78.855718990990241, 34.533984000004516 ], [ -78.860054991012618, 34.537367000270521 ], [ -78.861217990846129, 34.544853999696613 ], [ -78.861051991633218, 34.545383999638595 ], [ -78.86008899148365, 34.544930999749035 ], [ -78.860588990804203, 34.54633199958635 ], [ -78.859946990931405, 34.547730000166233 ], [ -78.859038991768259, 34.54741899969919 ], [ -78.858270991466426, 34.54558599975752 ], [ -78.857553991193484, 34.547040000066829 ], [ -78.858496991645211, 34.54902299979608 ], [ -78.860482991394335, 34.550083000174389 ], [ -78.860802990798405, 34.552542999851454 ], [ -78.859871991138348, 34.555270999827762 ], [ -78.858034991059924, 34.556938000327179 ], [ -78.859388990795253, 34.557715000264118 ], [ -78.858671990858355, 34.558067000186007 ], [ -78.859316991051784, 34.55866300005907 ], [ -78.860858991642445, 34.558582999625443 ], [ -78.862691991228019, 34.559975000284034 ], [ -78.8627079908902, 34.561990000216937 ], [ -78.861349990953727, 34.563716999849611 ], [ -78.859747991783195, 34.562488000034833 ], [ -78.857040991546526, 34.563108000407219 ], [ -78.8569479909021, 34.568860000362541 ], [ -78.854861990826791, 34.5738480001488 ], [ -78.848071991397575, 34.571601000079106 ], [ -78.845061991676218, 34.56869599987391 ], [ -78.842207990780281, 34.561348999785402 ], [ -78.839322991251933, 34.558363999768801 ], [ -78.833703991049092, 34.55473499966709 ], [ -78.800505991655982, 34.542770000320957 ], [ -78.796469990770305, 34.542493999882453 ], [ -78.792178991258382, 34.541140000345408 ], [ -78.766586990824848, 34.53158499988124 ], [ -78.760466991213491, 34.464969999682182 ] ] ] } },
{ "type": "Feature", "properties": { "county": "BLADEN", "precinct": "P202", "enr_desc": "Bladenboro  2", "winner": "Jim McVicker", "winner_votes": 207, "winner_share": 65.714285714285708, "runner_up": "Carl Yonge", "runner_up_votes": 108, "runner_up_share": 34.285714285714285, "contest_votes": 315, "margin_of_victory": 31.428571428571423, "is_tie": false, "results": [ { "candidate": "Jim McVicker", "votes": 207, "share": 65.71428571428571 }, { "candidate": "Carl Yonge", "votes": 108, "share": 34.285714285714285 } ], "participated": true, "map_key": "BLADEN_P202" }, "geometry": { "type": "Polygon", "coordinates": [ [ [ -78.766586990824848, 34.53158499988124 ], [ -78.792178991258382, 34.541140000345408 ], [ -78.796469990770305, 34.542493999882453 ], [ -78.800505991655982, 34.542770000320957 ], [ -78.833703991049092, 34.55473499966709 ], [ -78.839322991251933, 34.558363999768801 ], [ -78.842207990780281, 34.561348999785402 ], [ -78.845061991676218, 34.56869599987391 ], [ -78.848071991397575, 34.571601000079106 ], [ -78.854861990826791, 34.5738480001488 ], [ -78.852764991656031, 34.575794999861152 ], [ -78.85079099156205, 34.575202000110117 ], [ -78.847953991848613, 34.575684999786503 ], [ -78.843523991602652, 34.57859099980714 ], [ -78.842905991226004, 34.580474999644018 ], [ -78.843855991650358, 34.581760999827793 ], [ -78.842540991311125, 34.583655000144631 ], [ -78.842486991318637, 34.585685000089164 ], [ -78.843503991111419, 34.58669299987649 ], [ -78.843384991145683, 34.587670999759808 ], [ -78.842142990813556, 34.589256000293084 ], [ -78.840062991805752, 34.589324000278367 ], [ -78.838095990926874, 34.590603999538132 ], [ -78.838464991634439, 34.591696000367406 ], [ -78.836044991079262, 34.59341600037596 ], [ -78.836831990993005, 34.594200999768383 ], [ -78.834986991773917, 34.596876000346761 ], [ -78.836201991215646, 34.597799000053605 ], [ -78.83771699140253, 34.596920000038558 ], [ -78.84124599117834, 34.597223000156788 ], [ -78.838839991446008, 34.598914000280352 ], [ -78.837178991226878, 34.598435999979245 ], [ -78.833995990983738, 34.601594000010493 ], [ -78.831489990772127, 34.608828000371794 ], [ -78.831785991484111, 34.611920999657016 ], [ -78.823399991210763, 34.612847000314048 ], [ -78.804569991351983, 34.619554999773392 ], [ -78.797426991614287, 34.616662000006507 ], [ -78.793743991144467, 34.613366000090565 ], [ -78.789035991771968, 34.611465000381443 ], [ -78.781364991764761, 34.609862999611572 ], [ -78.777930991329242, 34.609701999533542 ], [ -78.772805990895463, 34.612541000229321 ], [ -78.763186991497676, 34.610076999698975 ], [ -78.760267991385561, 34.610141000350573 ], [ -78.758820991156242, 34.608993000189471 ], [ -78.745482990803453, 34.611480000249976 ], [ -78.739070990918052, 34.610661999747379 ], [ -78.734751991446231, 34.611351000063458 ], [ -78.732314991418775, 34.610549999589388 ], [ -78.729684991433004, 34.611833000271616 ], [ -78.727136991398879, 34.611009999559336 ], [ -78.721264991732298, 34.61143100007348 ], [ -78.721133991472527, 34.604781000021774 ], [ -78.719436991319924, 34.604441000060675 ], [ -78.718217991565751, 34.60302200035521 ], [ -78.718077991644762, 34.60001899984168 ], [ -78.716302991478102, 34.597126000276567 ], [ -78.716690991113936, 34.595266000025561 ], [ -78.714275991634167, 34.592485000050644 ], [ -78.714812991166824, 34.589573999704797 ], [ -78.709814991555589, 34.57309400023275 ], [ -78.710643990995521, 34.554940000112843 ], [ -78.710036990854661, 34.552476000069134 ], [ -78.738108991327579, 34.545653999645708 ], [ -78.765674991160381, 34.536551000190144 ], [ -78.766586990824848, 34.53158499988124 ] ] ] } },
{ "type": "Feature", "properties": { "county": "BLADEN", "precinct": "P25", "enr_desc": "Brown Marsh", "winner": "Jim McVicker", "winner_votes": 86, "winner_share": 89.583333333333343, "runner_up": "Carl Yonge", "runner_up_votes": 10, "runner_up_share": 10.416666666666668, "contest_votes": 96, "margin_of_victory": 79.166666666666671, "is_tie": false, "results": [ { "candidate": "Jim McVicker", "votes": 86, "share": 89.58333333333334 }, { "candidate": "Carl Yonge", "votes": 10, "share": 10.416666666666668 } ], "participated": true, "map_key": "BLADEN_P25" }, "geometry": { "type": "Polygon", "coordinates": [ [ [ -78.648372991115508, 34.460868999832591 ], [ -78.659281991219032, 34.453589999876598 ], [ -78.656367991096928, 34.459170999531061 ], [ -78.656446990882017, 34.460338000195456 ], [ -78.664264991550937, 34.462731999710371 ], [ -78.666384991337722, 34.464651999788941 ], [ -78.667587991569007, 34.469644999555541 ], [ -78.691265991019236, 34.468510999683318 ], [ -78.66181399106857, 34.558703000389713 ], [ -78.641716991676475, 34.555904999822801 ], [ -78.642015991793215, 34.552776999914315 ], [ -78.630643991082721, 34.548479999952491 ], [ -78.624761991826162, 34.547711999762548 ], [ -78.618026991835677, 34.543795000054615 ], [ -78.6031109918287, 34.54848000007523 ], [ -78.55727299137709, 34.52009699965005 ], [ -78.570999991536809, 34.497562999638923 ], [ -78.573511991719002, 34.496055000046354 ], [ -78.577717991498389, 34.491446000282913 ], [ -78.584406991041419, 34.48823499956189 ], [ -78.588723990803402, 34.48467700004641 ], [ -78.589764990830915, 34.482164999778263 ], [ -78.589376991089367, 34.480837999951049 ], [ -78.592222991213376, 34.479257999964716 ], [ -78.594266991365231, 34.4762350001591 ], [ -78.596533990917266, 34.474837999994293 ], [ -78.602669991733706, 34.475706999802121 ], [ -78.606816991256622, 34.474102999793665 ], [ -78.613203990807463, 34.475015999671889 ], [ -78.618956990776141, 34.477486999566949 ], [ -78.621914990874203, 34.477553999575498 ], [ -78.629071991274245, 34.474659999533458 ], [ -78.632722991384099, 34.471577999571679 ], [ -78.636675991280981, 34.471213999680224 ], [ -78.64087999124925, 34.469246000399053 ], [ -78.644750991380945, 34.466637000111653 ], [ -78.648372991115508, 34.460868999832591 ] ] ] } },
{ "type": "Feature", "properties": { "county": "BLADEN", "precinct": "P30", "enr_desc": "Carvers Creek", "winner": "Jim McVicker", "winner_votes": 34, "winner_share": 97.142857142857139, "runner_up": "Carl Yonge", "runner_up_votes": 1, "runner_up_share": 2.8571428571428572, "contest_votes": 35, "margin_of_victory": 94.285714285714278, "is_tie": false, "results": [ { "candidate": "Jim McVicker", "votes": 34, "share": 97.14285714285714 }, { "candidate": "Carl Yonge", "votes": 1, "share": 2.857142857142857 } ], "participated": true, "map_key": "BLADEN_P30" }, "geometry": { "type": "Polygon", "coordinates": [ [ [ -78.25608499173623, 34.399468999846114 ], [ -78.334568991589194, 34.367535999726776 ], [ -78.365701991143155, 34.372802999636825 ], [ -78.396914991455333, 34.370747000338838 ], [ -78.420100991379712, 34.378107999509929 ], [ -78.445319991391415, 34.377400000311269 ], [ -78.500676990924219, 34.39981199990374 ], [ -78.494224991267984, 34.429289999726855 ], [ -78.494266991461444, 34.429851999700283 ], [ -78.50051999105888, 34.431932999806307 ], [ -78.477400991652885, 34.491789999873184 ], [ -78.436534991767175, 34.516755000276305 ], [ -78.434607991415533, 34.514071000348345 ], [ -78.416580991703825, 34.502881999528284 ], [ -78.414043991581707, 34.498088999701977 ], [ -78.410176991516067, 34.495256000231677 ], [ -78.409652991352573, 34.493851000012924 ], [ -78.412841990900972, 34.483824000300913 ], [ -78.412510991205522, 34.481471999948504 ], [ -78.406630991074621, 34.480291999935915 ], [ -78.403242991592194, 34.477160999617631 ], [ -78.400740991437686, 34.475937000381407 ], [ -78.367351991269985, 34.473977999859095 ], [ -78.364985991689153, 34.471617999665469 ], [ -78.363496991416767, 34.467475000069193 ], [ -78.361257991651982, 34.465094999749951 ], [ -78.359282991540866, 34.464437999947599 ], [ -78.350929990961276, 34.464586000209202 ], [ -78.3526059912097, 34.458601000064185 ], [ -78.350506991428162, 34.454687000024627 ], [ -78.347057991862471, 34.451399999977802 ], [ -78.346316991813282, 34.449002999743129 ], [ -78.347654991045815, 34.446904000307086 ], [ -78.351281990816474, 34.444306999579879 ], [ -78.351673990999018, 34.442899999909038 ], [ -78.350996991738171, 34.441973999896284 ], [ -78.349195990957227, 34.441821999896277 ], [ -78.344268991296644, 34.445193999977562 ], [ -78.343226991818369, 34.445401000378666 ], [ -78.342331991650084, 34.444576999547252 ], [ -78.342258990858937, 34.438935000333636 ], [ -78.340034991578037, 34.435200999602422 ], [ -78.335721991555559, 34.432903999811941 ], [ -78.337180991111993, 34.428552999878477 ], [ -78.328599990780575, 34.425967000064716 ], [ -78.327745991657409, 34.424976999744445 ], [ -78.327238990792523, 34.419217999977398 ], [ -78.327899990899397, 34.416361000295169 ], [ -78.326823990843536, 34.414613999880494 ], [ -78.320408990991282, 34.412234999739944 ], [ -78.313582990783672, 34.411344000211933 ], [ -78.307922990987947, 34.408765999572381 ], [ -78.298404991030907, 34.409245999916557 ], [ -78.296305991265669, 34.408337000156571 ], [ -78.292619991791, 34.403619000071195 ], [ -78.290351991652315, 34.401953999874848 ], [ -78.288677991377611, 34.401865000035244 ], [ -78.283017991568741, 34.404896999926265 ], [ -78.278233990893895, 34.403643999978641 ], [ -78.273838991390207, 34.40449200025742 ], [ -78.271971990893533, 34.403310999506743 ], [ -78.272205991501366, 34.399989999983362 ], [ -78.269315991079679, 34.397061999938373 ], [ -78.262005991755103, 34.397749999611705 ], [ -78.258734991563031, 34.400342000390118 ], [ -78.256589990914719, 34.400188999594064 ], [ -78.25608499173623, 34.399468999846114 ] ] ] } },
{ "type": "Feature", "properties": { "county": "BLADEN", "precinct": "P35", "enr_desc": "Central", "winner": "Jim McVicker", "winner_votes": 35, "winner_share": 70.0, "runner_up": "Carl Yonge", "runner_up_votes": 15, "runner_up_share": 30.0, "contest_votes": 50, "margin_of_victory": 40.0, "is_tie": false, "results": [ { "candidate": "Jim McVicker", "votes": 35, "share": 70.0 }, { "candidate": "Carl Yonge", "votes": 15, "share": 30.0 } ], "participated": true, "map_key": "BLADEN_P35" }, "geometry": { "type": "Polygon", "coordinates": [ [ [ -78.55874399104934, 34.625169999710849 ], [ -78.560900991098336, 34.62712699983846 ], [ -78.563797991234054, 34.627942000285309 ], [ -78.569902991571723, 34.625553000103125 ], [ -78.573932990829221, 34.6254940002732 ], [ -78.575766990814316, 34.626804999727547 ], [ -78.579274991233959, 34.627464000248004 ], [ -78.588816991097687, 34.631692999864363 ], [ -78.591853991806516, 34.63175200026992 ], [ -78.598941991675346, 34.629610000305775 ], [ -78.602794991630759, 34.632533999699319 ], [ -78.619448991425827, 34.647669000291977 ], [ -78.632275991031605, 34.651694000368174 ], [ -78.637210991530438, 34.651592000019768 ], [ -78.640314991201109, 34.652360999750591 ], [ -78.642683991421634, 34.656003999876866 ], [ -78.644662991499061, 34.656224000188523 ], [ -78.650311991574867, 34.653585000251283 ], [ -78.653139991827473, 34.653137999600325 ], [ -78.655118991834087, 34.654788999859989 ], [ -78.655142991728781, 34.66030999982069 ], [ -78.657574991585236, 34.663163000323266 ], [ -78.663285991488934, 34.666644999813713 ], [ -78.670689991241559, 34.674095999870332 ], [ -78.674147991391607, 34.676246999900719 ], [ -78.676882990946666, 34.680409000291689 ], [ -78.678166991166279, 34.681355999979814 ], [ -78.683649991478219, 34.681978999880094 ], [ -78.685311991081477, 34.685569999992687 ], [ -78.683064990971317, 34.691478000030344 ], [ -78.685097991265806, 34.69460000033969 ], [ -78.689027991107977, 34.697399000400935 ], [ -78.68881299154647, 34.70236300027279 ], [ -78.686707991041871, 34.705537000043769 ], [ -78.676708991790449, 34.713760000084989 ], [ -78.674010990856956, 34.719482999753559 ], [ -78.658814990776122, 34.731692000254277 ], [ -78.656104990757569, 34.739970000104258 ], [ -78.653130991132883, 34.73981000007408 ], [ -78.643410991755431, 34.736670999856223 ], [ -78.638164991734769, 34.733293000030315 ], [ -78.632563991202943, 34.731914999783413 ], [ -78.627639991230197, 34.733258999609284 ], [ -78.620232991158545, 34.733961000319255 ], [ -78.608544991160869, 34.729642999819355 ], [ -78.601152991541895, 34.728730000091836 ], [ -78.602433991572966, 34.725910999888654 ], [ -78.602958991077742, 34.721858999651701 ], [ -78.60209899093303, 34.719340999868784 ], [ -78.602457991087022, 34.715930000033019 ], [ -78.600099991161287, 34.711786999802747 ], [ -78.600344991839648, 34.709374999617971 ], [ -78.599543991116434, 34.707689999691326 ], [ -78.600207991614738, 34.705880999601568 ], [ -78.599403991291155, 34.704461999523012 ], [ -78.59693499169525, 34.701670000303054 ], [ -78.593912991605279, 34.701051999798501 ], [ -78.589948990861217, 34.698007999632544 ], [ -78.587924991145329, 34.694940999533905 ], [ -78.585374991573474, 34.694071999714552 ], [ -78.583045990967634, 34.691667999543093 ], [ -78.582602991423272, 34.689538999967027 ], [ -78.579276991403987, 34.687891999606393 ], [ -78.576143991039885, 34.68944899985064 ], [ -78.574009990962381, 34.689426000148266 ], [ -78.572014990962856, 34.688190000334075 ], [ -78.571100991570134, 34.689723999925903 ], [ -78.567331990946471, 34.690181999735486 ], [ -78.564615991542325, 34.687662999529621 ], [ -78.564255990830489, 34.684824999839144 ], [ -78.56322999081533, 34.684618999860305 ], [ -78.562398991312108, 34.683084999929449 ], [ -78.56292599167314, 34.681025000333584 ], [ -78.565973991255788, 34.679261999772478 ], [ -78.565867991684755, 34.673087999865402 ], [ -78.567702991652709, 34.672578999944037 ], [ -78.567896990835379, 34.670501999995928 ], [ -78.566776991166179, 34.669624000149064 ], [ -78.569574991041506, 34.66777000007248 ], [ -78.569519991358703, 34.666167999838137 ], [ -78.571486991786415, 34.665297999613571 ], [ -78.570931991570987, 34.661864000064284 ], [ -78.573037991576385, 34.661566000281915 ], [ -78.57079399086696, 34.659483000100664 ], [ -78.570876991410671, 34.658681999826513 ], [ -78.56902099157162, 34.658430000200632 ], [ -78.569491991040437, 34.657124999602765 ], [ -78.568438991285703, 34.656026000115887 ], [ -78.56608399118528, 34.657331000302904 ], [ -78.565058991598335, 34.657446000006743 ], [ -78.564116991383742, 34.656187000102342 ], [ -78.563562991289317, 34.657125000127742 ], [ -78.561789991327416, 34.65707900026981 ], [ -78.561789991124769, 34.656254999580788 ], [ -78.560321991481132, 34.655546000136212 ], [ -78.560514991243082, 34.653418000071795 ], [ -78.55907499141648, 34.653233999853427 ], [ -78.559462991621984, 34.65179300041963 ], [ -78.556080991328329, 34.649321999969558 ], [ -78.556440991499429, 34.646529999661489 ], [ -78.558104991526193, 34.645314999877115 ], [ -78.557468991805251, 34.644443999663423 ], [ -78.557884991101815, 34.642977999908489 ], [ -78.559491991648258, 34.641833000019297 ], [ -78.558909991226543, 34.640162000272255 ], [ -78.559519991457805, 34.639657999768566 ], [ -78.560322991337927, 34.64080299954815 ], [ -78.56134799166027, 34.640231000022972 ], [ -78.561097991532307, 34.637529000105339 ], [ -78.559297991745467, 34.637507000279285 ], [ -78.559269991635603, 34.636430999955294 ], [ -78.557885990839651, 34.635423000088743 ], [ -78.557719991051854, 34.632676000389878 ], [ -78.556832991168136, 34.631463000329511 ], [ -78.557636991307973, 34.63079899977609 ], [ -78.558937991198576, 34.631646000239563 ], [ -78.5585229916082, 34.629563000034054 ], [ -78.559907991361342, 34.631073999912203 ], [ -78.561457991227556, 34.630478999599582 ], [ -78.556802991810997, 34.625169999987307 ], [ -78.55874399104934, 34.625169999710849 ] ] ] } },
{ "type": "Feature", "properties": { "county": "BLADEN", "precinct": "P40", "enr_desc": "Colly", "winner": "Jim McVicker", "winner_votes": 273, "winner_share": 88.63636363636364, "runner_up": "Carl Yonge", "runner_up_votes": 35, "runner_up_share": 11.363636363636363, "contest_votes": 308, "margin_of_victory": 77.27272727272728, "is_tie": false, "results": [ { "candidate": "Jim McVicker", "votes": 273, "share": 88.63636363636364 }, { "candidate": "Carl Yonge", "votes": 35, "share": 11.363636363636363 } ], "participated": true, "map_key": "BLADEN_P40" }, "geometry": { "type": "Polygon", "coordinates": [ [ [ -78.373932991058894, 34.561435999615455 ], [ -78.436230991459226, 34.548818999970891 ], [ -78.445455990792922, 34.553707000103081 ], [ -78.453411990783266, 34.554002999847782 ], [ -78.45360599109469, 34.555314999888161 ], [ -78.450247991340348, 34.558254000029329 ], [ -78.44982399161546, 34.559763000104233 ], [ -78.450810990983442, 34.560897000033414 ], [ -78.460200991782202, 34.560752999663372 ], [ -78.468446991094666, 34.56511299970304 ], [ -78.474535991237502, 34.566719999608807 ], [ -78.47904299141058, 34.565717000392489 ], [ -78.482715991083907, 34.562265000404132 ], [ -78.48737299112338, 34.562892999542832 ], [ -78.488889991319141, 34.564570999953951 ], [ -78.487781991654984, 34.569817000040032 ], [ -78.490303991190203, 34.572120000287477 ], [ -78.493335991023812, 34.573471000129459 ], [ -78.497165991850906, 34.573760999932382 ], [ -78.498750991636484, 34.574930000061386 ], [ -78.496519990903195, 34.579954999702366 ], [ -78.497205991716768, 34.58242699979521 ], [ -78.503873991424086, 34.580942000156881 ], [ -78.511623990833314, 34.581645999896658 ], [ -78.52033299169679, 34.581264000305218 ], [ -78.521080991729363, 34.58184999993837 ], [ -78.521503991347629, 34.585042000157237 ], [ -78.523734991472864, 34.587712999999795 ], [ -78.52330799104972, 34.590402999710335 ], [ -78.523965991474412, 34.596005000098408 ], [ -78.523475991762652, 34.597723000215836 ], [ -78.517613991689274, 34.598909000318763 ], [ -78.518170991622611, 34.60055599962552 ], [ -78.523125991176471, 34.60447500011513 ], [ -78.520435991011524, 34.612155000321543 ], [ -78.523505990941885, 34.612364999900848 ], [ -78.527820991092128, 34.609982999571351 ], [ -78.52950199165987, 34.603368999538141 ], [ -78.532013991117793, 34.601975000117477 ], [ -78.534584991573155, 34.601150000160956 ], [ -78.542249990857798, 34.600942999518459 ], [ -78.5441099912901, 34.606535999759586 ], [ -78.546052991554248, 34.608572999524696 ], [ -78.548821991006406, 34.609271000038426 ], [ -78.550578991058003, 34.610739000223944 ], [ -78.549989991536904, 34.612669000032241 ], [ -78.545281991515594, 34.61630300040936 ], [ -78.54536399083949, 34.620660999814518 ], [ -78.546388990818983, 34.622896000163394 ], [ -78.548912991171846, 34.624377999597229 ], [ -78.557682991614499, 34.624436999823416 ], [ -78.55874399104934, 34.625169999710849 ], [ -78.556802991810997, 34.625169999987307 ], [ -78.561457991227556, 34.630478999599582 ], [ -78.559907991361342, 34.631073999912203 ], [ -78.5585229916082, 34.629563000034054 ], [ -78.558937991198576, 34.631646000239563 ], [ -78.557636991307973, 34.63079899977609 ], [ -78.556832991168136, 34.631463000329511 ], [ -78.557719991051854, 34.632676000389878 ], [ -78.557885990839651, 34.635423000088743 ], [ -78.559269991635603, 34.636430999955294 ], [ -78.559297991745467, 34.637507000279285 ], [ -78.561097991532307, 34.637529000105339 ], [ -78.56134799166027, 34.640231000022972 ], [ -78.560322991337927, 34.64080299954815 ], [ -78.559519991457805, 34.639657999768566 ], [ -78.558909991226543, 34.640162000272255 ], [ -78.559491991648258, 34.641833000019297 ], [ -78.557884991101815, 34.642977999908489 ], [ -78.557468991805251, 34.644443999663423 ], [ -78.558104991526193, 34.645314999877115 ], [ -78.556440991499429, 34.646529999661489 ], [ -78.556080991328329, 34.649321999969558 ], [ -78.559462991621984, 34.65179300041963 ], [ -78.55907499141648, 34.653233999853427 ], [ -78.560514991243082, 34.653418000071795 ], [ -78.560321991481132, 34.655546000136212 ], [ -78.561789991124769, 34.656254999580788 ], [ -78.561789991327416, 34.65707900026981 ], [ -78.563562991289317, 34.657125000127742 ], [ -78.564116991383742, 34.656187000102342 ], [ -78.565058991598335, 34.657446000006743 ], [ -78.56608399118528, 34.657331000302904 ], [ -78.568438991285703, 34.656026000115887 ], [ -78.569491991040437, 34.657124999602765 ], [ -78.56902099157162, 34.658430000200632 ], [ -78.570876991410671, 34.658681999826513 ], [ -78.57079399086696, 34.659483000100664 ], [ -78.573037991576385, 34.661566000281915 ], [ -78.570931991570987, 34.661864000064284 ], [ -78.571486991786415, 34.665297999613571 ], [ -78.569519991358703, 34.666167999838137 ], [ -78.569574991041506, 34.66777000007248 ], [ -78.566776991166179, 34.669624000149064 ], [ -78.567896990835379, 34.670501999995928 ], [ -78.567702991652709, 34.672578999944037 ], [ -78.565867991684755, 34.673087999865402 ], [ -78.565973991255788, 34.679261999772478 ], [ -78.56292599167314, 34.681025000333584 ], [ -78.562398991312108, 34.683084999929449 ], [ -78.56322999081533, 34.684618999860305 ], [ -78.564255990830489, 34.684824999839144 ], [ -78.564615991542325, 34.687662999529621 ], [ -78.567331990946471, 34.690181999735486 ], [ -78.571100991570134, 34.689723999925903 ], [ -78.572014990962856, 34.688190000334075 ], [ -78.574009990962381, 34.689426000148266 ], [ -78.576143991039885, 34.68944899985064 ], [ -78.579276991403987, 34.687891999606393 ], [ -78.582602991423272, 34.689538999967027 ], [ -78.583045990967634, 34.691667999543093 ], [ -78.585374991573474, 34.694071999714552 ], [ -78.587924991145329, 34.694940999533905 ], [ -78.589948990861217, 34.698007999632544 ], [ -78.593912991605279, 34.701051999798501 ], [ -78.59693499169525, 34.701670000303054 ], [ -78.599403991291155, 34.704461999523012 ], [ -78.600207991614738, 34.705880999601568 ], [ -78.599543991116434, 34.707689999691326 ], [ -78.600344991839648, 34.709374999617971 ], [ -78.600099991161287, 34.711786999802747 ], [ -78.602457991087022, 34.715930000033019 ], [ -78.60209899093303, 34.719340999868784 ], [ -78.602958991077742, 34.721858999651701 ], [ -78.602433991572966, 34.725910999888654 ], [ -78.601152991541895, 34.728730000091836 ], [ -78.594856991662084, 34.728427000254477 ], [ -78.579587991173966, 34.729979999936958 ], [ -78.567274991371136, 34.733008000301758 ], [ -78.563508990975976, 34.735126000058315 ], [ -78.561046990764098, 34.737722000058618 ], [ -78.558891991574896, 34.742103000195826 ], [ -78.555128991528719, 34.753393999978535 ], [ -78.549773991290536, 34.765160000006198 ], [ -78.545719990944207, 34.772648999690276 ], [ -78.538305991487192, 34.783640000371413 ], [ -78.526225991582663, 34.776140999562919 ], [ -78.511859991225037, 34.76555499995937 ], [ -78.508260991183988, 34.764788000171812 ], [ -78.506315990872935, 34.76564599987136 ], [ -78.476935991436832, 34.728870999674953 ], [ -78.472250991164429, 34.727141000146347 ], [ -78.467737990984105, 34.719817999852204 ], [ -78.464562991511983, 34.71653399955764 ], [ -78.457409991676045, 34.711529999799758 ], [ -78.452685990940438, 34.706113000144306 ], [ -78.45187399076093, 34.702564000121804 ], [ -78.453010991615216, 34.700806000053589 ], [ -78.455872991679186, 34.699265000269918 ], [ -78.457181991618313, 34.696620999988006 ], [ -78.45241399115362, 34.69409800020707 ], [ -78.445292990830552, 34.691811999521839 ], [ -78.422028990787908, 34.686894999592084 ], [ -78.418783991394747, 34.687233000148382 ], [ -78.416088990897293, 34.681968999580214 ], [ -78.415546991662794, 34.67885900011526 ], [ -78.417984991697296, 34.668523999739527 ], [ -78.416664991774852, 34.664616999714355 ], [ -78.411031991486112, 34.659998000118129 ], [ -78.409336990882281, 34.657246999684169 ], [ -78.414321991605121, 34.653203999863614 ], [ -78.419443991443146, 34.643457000261293 ], [ -78.426596991472493, 34.6343869996753 ], [ -78.431085991106329, 34.62624599990842 ], [ -78.446929991645902, 34.610063000012559 ], [ -78.445881991356387, 34.610109999564671 ], [ -78.444754991710838, 34.607644000195002 ], [ -78.443555991293948, 34.608897999764295 ], [ -78.44338299099509, 34.60753599978154 ], [ -78.43916499168094, 34.605836000129308 ], [ -78.438626991118142, 34.604369000034161 ], [ -78.429856991205469, 34.59861599953598 ], [ -78.427107991310066, 34.594725999734386 ], [ -78.426914991519283, 34.59238599968532 ], [ -78.424446990880639, 34.59034900031201 ], [ -78.421402991504152, 34.589953000266924 ], [ -78.414686991394689, 34.586998999954297 ], [ -78.408103991620919, 34.587337999519505 ], [ -78.405666991046587, 34.586046000223476 ], [ -78.39901199093768, 34.584499999733858 ], [ -78.395107991440113, 34.58196100030316 ], [ -78.390238991307129, 34.581117999881357 ], [ -78.387867991746944, 34.581781999606349 ], [ -78.386831991128474, 34.580677000282506 ], [ -78.383783991752622, 34.579670000370363 ], [ -78.383640991196799, 34.575346999661463 ], [ -78.380820990811131, 34.572088000024536 ], [ -78.380801990947958, 34.570839999598249 ], [ -78.378651991269891, 34.56820800035495 ], [ -78.377133991725145, 34.564168999573667 ], [ -78.373932991058894, 34.561435999615455 ] ] ] } },
{ "type": "Feature", "properties": { "county": "BLADEN", "precinct": "P45", "enr_desc": "Cypress Creek", "winner": "Jim McVicker", "winner_votes": 47, "winner_share": 92.156862745098039, "runner_up": "Carl Yonge", "runner_up_votes": 4, "runner_up_share": 7.8431372549019605, "contest_votes": 51, "margin_of_victory": 84.313725490196077, "is_tie": false, "results": [ { "candidate": "Jim McVicker", "votes": 47, "share": 92.15686274509804 }, { "candidate": "Carl Yonge", "votes": 4, "share": 7.8431372549019605 } ], "participated": true, "map_key": "BLADEN_P45" }, "geometry": { "type": "Polygon", "coordinates": [ [ [ -78.538305991487192, 34.783640000371413 ], [ -78.542144991574133, 34.785794999545651 ], [ -78.5529289912796, 34.778236000249827 ], [ -78.555123991527154, 34.777699999835768 ], [ -78.556671990741279, 34.778431000104675 ], [ -78.55732199104537, 34.780111999904321 ], [ -78.556688991585688, 34.782740000221359 ], [ -78.545511991023545, 34.800624999734822 ], [ -78.542078990789136, 34.804628999646972 ], [ -78.537681991530107, 34.808563999860162 ], [ -78.521590991384031, 34.819288999936241 ], [ -78.509682990752779, 34.832071999845994 ], [ -78.493399991122985, 34.847082000022631 ], [ -78.492151991405564, 34.846567000101579 ], [ -78.493006991193766, 34.844540000208909 ], [ -78.493800991206371, 34.844591000042108 ], [ -78.493542990849463, 34.843065000097909 ], [ -78.492074991573645, 34.843503999542762 ], [ -78.489551991791572, 34.842812999650114 ], [ -78.49074099143057, 34.842022000382769 ], [ -78.490811991153606, 34.840988000044241 ], [ -78.48833799132845, 34.839537000400405 ], [ -78.488915991338075, 34.837702999907783 ], [ -78.486907990956269, 34.835673999845405 ], [ -78.485302990780355, 34.835005999708656 ], [ -78.484513991660009, 34.836360999672863 ], [ -78.482212991068465, 34.83679600008098 ], [ -78.479482990912729, 34.834939000220309 ], [ -78.478337991447233, 34.835129999748759 ], [ -78.477900991406415, 34.833991999778796 ], [ -78.475003991786352, 34.832296999549527 ], [ -78.474258991122682, 34.833056000216047 ], [ -78.472647990930625, 34.83197600007977 ], [ -78.472459991274661, 34.830980000036249 ], [ -78.471367990847142, 34.831345000327531 ], [ -78.471061991581408, 34.830408000336206 ], [ -78.469461991695852, 34.83035499996523 ], [ -78.464981990881995, 34.826637000135307 ], [ -78.467330990955162, 34.823273999600289 ], [ -78.465424991729336, 34.820845999646558 ], [ -78.464479991353201, 34.820710999669387 ], [ -78.462959991283753, 34.822466000254764 ], [ -78.462063991015512, 34.822407999855741 ], [ -78.461853991310562, 34.82107200005332 ], [ -78.460704991364324, 34.822191000270415 ], [ -78.459787991466683, 34.821899000312897 ], [ -78.458821990954704, 34.819773000011743 ], [ -78.459639991558149, 34.819008999542667 ], [ -78.458234991694582, 34.8168320001067 ], [ -78.460102991580214, 34.814277000239656 ], [ -78.459566991397196, 34.812919000239305 ], [ -78.452715991611754, 34.812618999904565 ], [ -78.451943991292779, 34.814050999693585 ], [ -78.448835991468201, 34.812647999823184 ], [ -78.448776991781571, 34.811531999959136 ], [ -78.448036991685456, 34.811793999905603 ], [ -78.447753991797654, 34.810835000161745 ], [ -78.449401991199792, 34.809205000155607 ], [ -78.449439991609637, 34.807835000061047 ], [ -78.448194991320435, 34.806593000058598 ], [ -78.446562991085756, 34.806470999767079 ], [ -78.444818991505414, 34.802623000232195 ], [ -78.443782991767876, 34.803309999842099 ], [ -78.443738990773298, 34.802448000204876 ], [ -78.44217499173611, 34.802335999647006 ], [ -78.442453990972297, 34.801607999850475 ], [ -78.441007991349736, 34.800473999589308 ], [ -78.442633991537761, 34.798839999810916 ], [ -78.444826991710329, 34.798668999988884 ], [ -78.444763990993636, 34.797652000377028 ], [ -78.44305199097262, 34.795847000353177 ], [ -78.442022991555532, 34.795739000187559 ], [ -78.441926990992854, 34.794575999691794 ], [ -78.440612991399462, 34.795402000280717 ], [ -78.440435990847448, 34.793643000198252 ], [ -78.439453991475375, 34.794191999520848 ], [ -78.437345991445639, 34.792265999846087 ], [ -78.439186991827455, 34.791118000093519 ], [ -78.437879991751529, 34.787709000133646 ], [ -78.438692991799215, 34.785680000091517 ], [ -78.436939991035359, 34.784169000163928 ], [ -78.429821991046296, 34.782191999839846 ], [ -78.428414991036249, 34.780433000308122 ], [ -78.430018991300557, 34.778608999827156 ], [ -78.430286990921147, 34.776527000176245 ], [ -78.428367991312129, 34.774911999776336 ], [ -78.426872991331763, 34.775483000268707 ], [ -78.425742990822883, 34.774420000305234 ], [ -78.425879991033639, 34.773511000342495 ], [ -78.423666990792725, 34.773000000159271 ], [ -78.423170991498722, 34.770808999903423 ], [ -78.424549991702534, 34.769987999878325 ], [ -78.420918990998928, 34.76792899996147 ], [ -78.420385991099508, 34.765876000115995 ], [ -78.418761991176794, 34.766381999640636 ], [ -78.418323991524844, 34.765425999746654 ], [ -78.41465399086367, 34.766541999673969 ], [ -78.411563991012073, 34.76490699956549 ], [ -78.41039299077066, 34.765689000214543 ], [ -78.409136991830636, 34.761522999542336 ], [ -78.406465991546369, 34.760541000013141 ], [ -78.405849990891596, 34.759549999739448 ], [ -78.407243991362662, 34.759216000287509 ], [ -78.406699991489987, 34.758412000235133 ], [ -78.407638991588428, 34.758403000016479 ], [ -78.407590991275228, 34.757610999934386 ], [ -78.405542991547904, 34.756268999571276 ], [ -78.40352599146027, 34.757124000038651 ], [ -78.402779990789753, 34.756191999551206 ], [ -78.403741990914526, 34.754643999785245 ], [ -78.400266991035011, 34.753024000289493 ], [ -78.400554991751534, 34.751369000328204 ], [ -78.399114991069297, 34.751355000050161 ], [ -78.399491991426217, 34.75064200024741 ], [ -78.398525990904773, 34.750022999822676 ], [ -78.397680991567483, 34.750472999780371 ], [ -78.398259991453529, 34.75102999965236 ], [ -78.395152990980009, 34.751088000104275 ], [ -78.390971991415611, 34.749851000224808 ], [ -78.390791991151033, 34.74892900033155 ], [ -78.391897991441681, 34.748159999757085 ], [ -78.390898990826628, 34.747680000312045 ], [ -78.390981991161624, 34.746695000036908 ], [ -78.390112990985884, 34.746708000114317 ], [ -78.390588991031166, 34.745776000313803 ], [ -78.390025991721402, 34.744848000027318 ], [ -78.393064990789526, 34.744054999639566 ], [ -78.391977990999848, 34.741264999766578 ], [ -78.39591899140558, 34.739257000102178 ], [ -78.39794999131108, 34.735696999933779 ], [ -78.413826990934552, 34.695674999751837 ], [ -78.418783991394747, 34.687233000148382 ], [ -78.422028990787908, 34.686894999592084 ], [ -78.445292990830552, 34.691811999521839 ], [ -78.45241399115362, 34.69409800020707 ], [ -78.457181991618313, 34.696620999988006 ], [ -78.455872991679186, 34.699265000269918 ], [ -78.453010991615216, 34.700806000053589 ], [ -78.45187399076093, 34.702564000121804 ], [ -78.452685990940438, 34.706113000144306 ], [ -78.457409991676045, 34.711529999799758 ], [ -78.464562991511983, 34.71653399955764 ], [ -78.467737990984105, 34.719817999852204 ], [ -78.472250991164429, 34.727141000146347 ], [ -78.476935991436832, 34.728870999674953 ], [ -78.506315990872935, 34.76564599987136 ], [ -78.508260991183988, 34.764788000171812 ], [ -78.511859991225037, 34.76555499995937 ], [ -78.526225991582663, 34.776140999562919 ], [ -78.538305991487192, 34.783640000371413 ] ] ] } },
{ "type": "Feature", "properties": { "county": "BLADEN", "precinct": "P501", "enr_desc": "Elizabethtown  1", "winner": "Jim McVicker", "winner_votes": 248, "winner_share": 86.111111111111114, "runner_up": "Carl Yonge", "runner_up_votes": 40, "runner_up_share": 13.888888888888889, "contest_votes": 288, "margin_of_victory": 72.222222222222229, "is_tie": false, "results": [ { "candidate": "Jim McVicker", "votes": 248, "share": 86.11111111111111 }, { "candidate": "Carl Yonge", "votes": 40, "share": 13.88888888888889 } ], "participated": true, "map_key": "BLADEN_P501" }, "geometry": { "type": "Polygon", "coordinates": [ [ [ -78.66181399106857, 34.558703000389713 ], [ -78.669861991078278, 34.558315000200096 ], [ -78.710036990854661, 34.552476000069134 ], [ -78.710643990995521, 34.554940000112843 ], [ -78.709814991555589, 34.57309400023275 ], [ -78.714812991166824, 34.589573999704797 ], [ -78.714275991634167, 34.592485000050644 ], [ -78.716690991113936, 34.595266000025561 ], [ -78.716302991478102, 34.597126000276567 ], [ -78.718077991644762, 34.60001899984168 ], [ -78.718217991565751, 34.60302200035521 ], [ -78.719436991319924, 34.604441000060675 ], [ -78.721133991472527, 34.604781000021774 ], [ -78.721264991732298, 34.61143100007348 ], [ -78.719659991607259, 34.611148999839152 ], [ -78.718414991797559, 34.61501800011667 ], [ -78.716587990967554, 34.617354000407765 ], [ -78.712656991837605, 34.61913999959873 ], [ -78.707336990967661, 34.623203999667709 ], [ -78.687848991680809, 34.644393999972166 ], [ -78.686395991786213, 34.646927999621532 ], [ -78.682668991110361, 34.649612999825429 ], [ -78.681033991572079, 34.651741999528589 ], [ -78.680119991013385, 34.654740999675219 ], [ -78.674545991075092, 34.658234999967931 ], [ -78.665623991111104, 34.660805000001773 ], [ -78.656443991222829, 34.661736999534718 ], [ -78.655653991580294, 34.660095000317504 ], [ -78.655142991728781, 34.66030999982069 ], [ -78.655118991834087, 34.654788999859989 ], [ -78.653139991827473, 34.653137999600325 ], [ -78.650311991574867, 34.653585000251283 ], [ -78.644662991499061, 34.656224000188523 ], [ -78.642683991421634, 34.656003999876866 ], [ -78.640314991201109, 34.652360999750591 ], [ -78.637210991530438, 34.651592000019768 ], [ -78.632275991031605, 34.651694000368174 ], [ -78.619448991425827, 34.647669000291977 ], [ -78.602794991630759, 34.632533999699319 ], [ -78.605747990765295, 34.628888000037783 ], [ -78.607862991054063, 34.623990000007133 ], [ -78.610994991011552, 34.620215999776015 ], [ -78.616365991669298, 34.607468999937247 ], [ -78.619204990771209, 34.596223999796401 ], [ -78.640501991032338, 34.56165100018309 ], [ -78.641716991676475, 34.555904999822801 ], [ -78.66181399106857, 34.558703000389713 ] ] ] } },
{ "type": "Feature", "properties": { "county": "BLADEN", "precinct": "P502", "enr_desc": "Elizabethtown  2", "winner": "Jim McVicker", "winner_votes": 145, "winner_share": 82.857142857142861, "runner_up": "Carl Yonge", "runner_up_votes": 30, "runner_up_share": 17.142857142857142, "contest_votes": 175, "margin_of_victory": 65.714285714285722, "is_tie": false, "results": [ { "candidate": "Jim McVicker", "votes": 145, "share": 82.85714285714286 }, { "candidate": "Carl Yonge", "votes": 30, "share": 17.142857142857142 } ], "participated": true, "map_key": "BLADEN_P502" }, "geometry": { "type": "Polygon", "coordinates": [ [ [ -78.6031109918287, 34.54848000007523 ], [ -78.618026991835677, 34.543795000054615 ], [ -78.624761991826162, 34.547711999762548 ], [ -78.630643991082721, 34.548479999952491 ], [ -78.642015991793215, 34.552776999914315 ], [ -78.641716991676475, 34.555904999822801 ], [ -78.640501991032338, 34.56165100018309 ], [ -78.619204990771209, 34.596223999796401 ], [ -78.616365991669298, 34.607468999937247 ], [ -78.610994991011552, 34.620215999776015 ], [ -78.607862991054063, 34.623990000007133 ], [ -78.605747990765295, 34.628888000037783 ], [ -78.602794991630759, 34.632533999699319 ], [ -78.598941991675346, 34.629610000305775 ], [ -78.591853991806516, 34.63175200026992 ], [ -78.588816991097687, 34.631692999864363 ], [ -78.579274991233959, 34.627464000248004 ], [ -78.575766990814316, 34.626804999727547 ], [ -78.573932990829221, 34.6254940002732 ], [ -78.569902991571723, 34.625553000103125 ], [ -78.563797991234054, 34.627942000285309 ], [ -78.560900991098336, 34.62712699983846 ], [ -78.55874399104934, 34.625169999710849 ], [ -78.557682991614499, 34.624436999823416 ], [ -78.548912991171846, 34.624377999597229 ], [ -78.546388990818983, 34.622896000163394 ], [ -78.54536399083949, 34.620660999814518 ], [ -78.545281991515594, 34.61630300040936 ], [ -78.549989991536904, 34.612669000032241 ], [ -78.550578991058003, 34.610739000223944 ], [ -78.548821991006406, 34.609271000038426 ], [ -78.546052991554248, 34.608572999524696 ], [ -78.5441099912901, 34.606535999759586 ], [ -78.542249990857798, 34.600942999518459 ], [ -78.534584991573155, 34.601150000160956 ], [ -78.532013991117793, 34.601975000117477 ], [ -78.52950199165987, 34.603368999538141 ], [ -78.527820991092128, 34.609982999571351 ], [ -78.523505990941885, 34.612364999900848 ], [ -78.520435991011524, 34.612155000321543 ], [ -78.523125991176471, 34.60447500011513 ], [ -78.518170991622611, 34.60055599962552 ], [ -78.517613991689274, 34.598909000318763 ], [ -78.523475991762652, 34.597723000215836 ], [ -78.523965991474412, 34.596005000098408 ], [ -78.52330799104972, 34.590402999710335 ], [ -78.523734991472864, 34.587712999999795 ], [ -78.521503991347629, 34.585042000157237 ], [ -78.521080991729363, 34.58184999993837 ], [ -78.52033299169679, 34.581264000305218 ], [ -78.511623990833314, 34.581645999896658 ], [ -78.503873991424086, 34.580942000156881 ], [ -78.497205991716768, 34.58242699979521 ], [ -78.496519990903195, 34.579954999702366 ], [ -78.498750991636484, 34.574930000061386 ], [ -78.497165991850906, 34.573760999932382 ], [ -78.493335991023812, 34.573471000129459 ], [ -78.495036991058612, 34.571901000070085 ], [ -78.49545099178107, 34.569978000290639 ], [ -78.49672399151288, 34.57066400041041 ], [ -78.497857991603468, 34.569885000163545 ], [ -78.499214991148094, 34.570273999928467 ], [ -78.49805099138328, 34.568649000387687 ], [ -78.498160991679597, 34.567870000270609 ], [ -78.499728991305275, 34.567891000188666 ], [ -78.499072991757643, 34.566313000005067 ], [ -78.500824991088791, 34.565918999773416 ], [ -78.502567990773272, 34.567018000387925 ], [ -78.505278991067101, 34.567200999959617 ], [ -78.507023991694865, 34.565303999655065 ], [ -78.505642991357035, 34.563358999650362 ], [ -78.507550990995824, 34.564481999729836 ], [ -78.511093991167527, 34.562354000304197 ], [ -78.514746991165723, 34.563043000393478 ], [ -78.516158990885614, 34.561922000361051 ], [ -78.517901991306417, 34.562746000290161 ], [ -78.519313991673073, 34.561625000305973 ], [ -78.519534991584678, 34.562381000181524 ], [ -78.520641991172397, 34.562496000296171 ], [ -78.522247991308731, 34.560299000260571 ], [ -78.523436991064173, 34.560939999762425 ], [ -78.524292991508347, 34.563916000045374 ], [ -78.526562991662644, 34.563229999874622 ], [ -78.529079990800355, 34.564695000370897 ], [ -78.530020991360445, 34.563620000138677 ], [ -78.532289991150364, 34.563345000166485 ], [ -78.533036991377315, 34.564878999924559 ], [ -78.535610991611136, 34.564307999877187 ], [ -78.537547991469211, 34.564902999633695 ], [ -78.540286991379304, 34.567467999917582 ], [ -78.541531991436813, 34.569825999814121 ], [ -78.543883990963195, 34.568086999924695 ], [ -78.545654990915367, 34.569162999666005 ], [ -78.6031109918287, 34.54848000007523 ] ] ] } },
{ "type": "Feature", "properties": { "county": "BLADEN", "precinct": "P55", "enr_desc": "Frenches Creek", "winner": "Jim McVicker", "winner_votes": 36, "winner_share": 76.59574468085107, "runner_up": "Carl Yonge", "runner_up_votes": 11, "runner_up_share": 23.404255319148938, "contest_votes": 47, "margin_of_victory": 53.191489361702132, "is_tie": false, "results": [ { "candidate": "Jim McVicker", "votes": 36, "share": 76.59574468085107 }, { "candidate": "Carl Yonge", "votes": 11, "share": 23.404255319148938 } ], "participated": true, "map_key": "BLADEN_P55" }, "geometry": { "type": "Polygon", "coordinates": [ [ [ -78.25608499173623, 34.399468999846114 ], [ -78.256589990914719, 34.400188999594064 ], [ -78.258734991563031, 34.400342000390118 ], [ -78.262005991755103, 34.397749999611705 ], [ -78.269315991079679, 34.397061999938373 ], [ -78.272205991501366, 34.399989999983362 ], [ -78.271971990893533, 34.403310999506743 ], [ -78.273838991390207, 34.40449200025742 ], [ -78.278233990893895, 34.403643999978641 ], [ -78.283017991568741, 34.404896999926265 ], [ -78.288677991377611, 34.401865000035244 ], [ -78.290351991652315, 34.401953999874848 ], [ -78.292619991791, 34.403619000071195 ], [ -78.296305991265669, 34.408337000156571 ], [ -78.298404991030907, 34.409245999916557 ], [ -78.307922990987947, 34.408765999572381 ], [ -78.313582990783672, 34.411344000211933 ], [ -78.320408990991282, 34.412234999739944 ], [ -78.326823990843536, 34.414613999880494 ], [ -78.327899990899397, 34.416361000295169 ], [ -78.327238990792523, 34.419217999977398 ], [ -78.327745991657409, 34.424976999744445 ], [ -78.328599990780575, 34.425967000064716 ], [ -78.337180991111993, 34.428552999878477 ], [ -78.335721991555559, 34.432903999811941 ], [ -78.340034991578037, 34.435200999602422 ], [ -78.342258990858937, 34.438935000333636 ], [ -78.342331991650084, 34.444576999547252 ], [ -78.343226991818369, 34.445401000378666 ], [ -78.344268991296644, 34.445193999977562 ], [ -78.349195990957227, 34.441821999896277 ], [ -78.350996991738171, 34.441973999896284 ], [ -78.351673990999018, 34.442899999909038 ], [ -78.351281990816474, 34.444306999579879 ], [ -78.347654991045815, 34.446904000307086 ], [ -78.346316991813282, 34.449002999743129 ], [ -78.347057991862471, 34.451399999977802 ], [ -78.350506991428162, 34.454687000024627 ], [ -78.3526059912097, 34.458601000064185 ], [ -78.350929990961276, 34.464586000209202 ], [ -78.359282991540866, 34.464437999947599 ], [ -78.361257991651982, 34.465094999749951 ], [ -78.363496991416767, 34.467475000069193 ], [ -78.364985991689153, 34.471617999665469 ], [ -78.367351991269985, 34.473977999859095 ], [ -78.400740991437686, 34.475937000381407 ], [ -78.403242991592194, 34.477160999617631 ], [ -78.406630991074621, 34.480291999935915 ], [ -78.412510991205522, 34.481471999948504 ], [ -78.412841990900972, 34.483824000300913 ], [ -78.409652991352573, 34.493851000012924 ], [ -78.410176991516067, 34.495256000231677 ], [ -78.414043991581707, 34.498088999701977 ], [ -78.416580991703825, 34.502881999528284 ], [ -78.434607991415533, 34.514071000348345 ], [ -78.436534991767175, 34.516755000276305 ], [ -78.437145991618905, 34.522414000025314 ], [ -78.436714991084344, 34.529877000151536 ], [ -78.439848991152004, 34.534992999521663 ], [ -78.437133991254498, 34.5409339998386 ], [ -78.43584099162689, 34.547368999666915 ], [ -78.436230991459226, 34.548818999970891 ], [ -78.373932991058894, 34.561435999615455 ], [ -78.370251991322078, 34.559888999674222 ], [ -78.368902991483495, 34.557356999625547 ], [ -78.365854990847296, 34.556710000292007 ], [ -78.364977991587494, 34.555550999694987 ], [ -78.363396990941155, 34.555749999533788 ], [ -78.361941990868544, 34.554167999961955 ], [ -78.35618999147421, 34.550940000123234 ], [ -78.356553991661116, 34.54774199972136 ], [ -78.354880991486596, 34.54682500037157 ], [ -78.354487990894214, 34.545188000085865 ], [ -78.352740991425549, 34.543611999922305 ], [ -78.350768991273412, 34.54337600015814 ], [ -78.350576991673805, 34.542694999907347 ], [ -78.344241991212826, 34.540059999720938 ], [ -78.344095990931663, 34.539011000304782 ], [ -78.338969991121985, 34.535857999740337 ], [ -78.335271991166152, 34.535139000313642 ], [ -78.331540991198509, 34.53147000007516 ], [ -78.327444991183327, 34.530717999587253 ], [ -78.326972990915877, 34.529877999891319 ], [ -78.324643990991561, 34.529317000035796 ], [ -78.322698990789291, 34.527993999832375 ], [ -78.320417990837299, 34.524649999697054 ], [ -78.317201991707094, 34.523101000273861 ], [ -78.314772991683199, 34.522807999651 ], [ -78.312461991417848, 34.521121000010794 ], [ -78.308295991825347, 34.520877000340249 ], [ -78.305122991039383, 34.52164299967874 ], [ -78.303191991282276, 34.520960999685499 ], [ -78.301583991752793, 34.518854999507361 ], [ -78.295088991000767, 34.515945000091541 ], [ -78.292507991425168, 34.513103999770074 ], [ -78.29031199173788, 34.512257999784076 ], [ -78.289561991625632, 34.510619999917559 ], [ -78.283922991603703, 34.507547999911061 ], [ -78.28176799148568, 34.505174999847348 ], [ -78.279491991038114, 34.504864000261989 ], [ -78.274574991035053, 34.501941999970754 ], [ -78.272511990887125, 34.501639000043518 ], [ -78.269275991205191, 34.497893999574153 ], [ -78.267709991750522, 34.498019999858016 ], [ -78.268334991725609, 34.496586000378578 ], [ -78.265735990991487, 34.493365999803814 ], [ -78.265101990872481, 34.48982199988518 ], [ -78.265838991033121, 34.488860999618097 ], [ -78.263306991061185, 34.480180999944288 ], [ -78.245400991304464, 34.499850000121064 ], [ -78.243342991327253, 34.500779999823969 ], [ -78.238674991704428, 34.49790700006826 ], [ -78.239204991070594, 34.496698000389756 ], [ -78.237217991779787, 34.496259999934878 ], [ -78.237282991503903, 34.494071000123682 ], [ -78.235620991500952, 34.492528999738809 ], [ -78.232185991062863, 34.492542999734312 ], [ -78.227061991196294, 34.490699999704141 ], [ -78.223673991195994, 34.490567000196819 ], [ -78.224093990770868, 34.492873000072997 ], [ -78.222318991640762, 34.493182999926461 ], [ -78.220740990943199, 34.490932000152554 ], [ -78.218528990830677, 34.489675000000496 ], [ -78.217196991659819, 34.487356999992656 ], [ -78.215154991394712, 34.48737899967869 ], [ -78.212833991217849, 34.488760000184897 ], [ -78.211717991524765, 34.487847999744581 ], [ -78.212748991201536, 34.486623999775667 ], [ -78.212076991217899, 34.486063000013587 ], [ -78.209606991104593, 34.48760199998997 ], [ -78.207344991771421, 34.487701000073613 ], [ -78.207098991761811, 34.486962000140011 ], [ -78.20865599138061, 34.486501000255693 ], [ -78.207048991587357, 34.483520000311458 ], [ -78.205382991553563, 34.482586999884468 ], [ -78.206541991055857, 34.480492000146263 ], [ -78.203514991294455, 34.475990999777459 ], [ -78.191155990847321, 34.473412000290047 ], [ -78.18931499087266, 34.471703999593224 ], [ -78.189755991059059, 34.469260000011019 ], [ -78.187552991431048, 34.46910200037987 ], [ -78.185079991525484, 34.467807999567647 ], [ -78.182160991498549, 34.469840999718343 ], [ -78.180168991539915, 34.467421000112324 ], [ -78.180018991436995, 34.465786000189084 ], [ -78.17792899089369, 34.46622100021424 ], [ -78.176500991371157, 34.465356000330523 ], [ -78.25608499173623, 34.399468999846114 ] ] ] } },
{ "type": "Feature", "properties": { "county": "BLADEN", "precinct": "P60", "enr_desc": "Hollow", "winner": "Jim McVicker", "winner_votes": 130, "winner_share": 80.246913580246911, "runner_up": "Carl Yonge", "runner_up_votes": 32, "runner_up_share": 19.753086419753085, "contest_votes": 162, "margin_of_victory": 60.493827160493822, "is_tie": false, "results": [ { "candidate": "Jim McVicker", "votes": 130, "share": 80.24691358024691 }, { "candidate": "Carl Yonge", "votes": 32, "share": 19.753086419753085 } ], "participated": true, "map_key": "BLADEN_P60" }, "geometry": { "type": "Polygon", "coordinates": [ [ [ -78.826330991101031, 34.850693000417785 ], [ -78.824277991207325, 34.844615000406613 ], [ -78.82051799146997, 34.813270000012039 ], [ -78.814718990871995, 34.81103699987856 ], [ -78.812739990831574, 34.804155000313756 ], [ -78.803327990850789, 34.793547999956452 ], [ -78.80106499161127, 34.78828499992126 ], [ -78.798245991762954, 34.78467300041266 ], [ -78.799856991072332, 34.77780099993084 ], [ -78.798350991794166, 34.772319000018108 ], [ -78.795273990874108, 34.766584000289221 ], [ -78.795329991582264, 34.75816300035828 ], [ -78.791213991348982, 34.752190999696943 ], [ -78.789122991829984, 34.747437999584697 ], [ -78.785042991800211, 34.744113000103972 ], [ -78.774949990856527, 34.740955999627303 ], [ -78.771972991728603, 34.739217000336524 ], [ -78.76255699088054, 34.73127199989846 ], [ -78.751261990887983, 34.726725000188416 ], [ -78.746279991706771, 34.722487999540817 ], [ -78.742138991116548, 34.716604999576695 ], [ -78.740231990810358, 34.715478999839988 ], [ -78.73542199149945, 34.712975000090715 ], [ -78.73576999168337, 34.710922000163208 ], [ -78.745270991413761, 34.705515999947316 ], [ -78.74971199167544, 34.701986999586651 ], [ -78.754511991319561, 34.700777000313984 ], [ -78.756017990973064, 34.698712000064219 ], [ -78.759797991796901, 34.696486000368807 ], [ -78.766757991339361, 34.693878999638279 ], [ -78.768005991682273, 34.692299999803673 ], [ -78.774991991487127, 34.688546999647642 ], [ -78.776044991549412, 34.688959999868381 ], [ -78.777764991017889, 34.686007000249809 ], [ -78.779372991442713, 34.685183000341688 ], [ -78.783005991329702, 34.680467999887888 ], [ -78.78222399160893, 34.677806999597131 ], [ -78.785833991441706, 34.678476999664802 ], [ -78.795145991037543, 34.674929999752798 ], [ -78.803459991481091, 34.67422200034963 ], [ -78.806396991449375, 34.675139999854963 ], [ -78.807202991577839, 34.681388999697432 ], [ -78.805430990960332, 34.686603000161 ], [ -78.805751991392171, 34.689396999696456 ], [ -78.811937991735491, 34.694408000346826 ], [ -78.81755099121392, 34.704744000364187 ], [ -78.82045199114313, 34.706417999595132 ], [ -78.821628991306852, 34.709594999869502 ], [ -78.823467991343378, 34.709873999885708 ], [ -78.824027991256145, 34.711243999932321 ], [ -78.825408990881499, 34.710913000217218 ], [ -78.827576990759397, 34.713280000201429 ], [ -78.830347991118074, 34.713899999787706 ], [ -78.832791990975934, 34.715738999590528 ], [ -78.832815991413995, 34.717423999994431 ], [ -78.831896991653025, 34.718363000195211 ], [ -78.832374990911646, 34.719742000225793 ], [ -78.835827991128397, 34.717521999910495 ], [ -78.83781299159773, 34.71785900015108 ], [ -78.841702991699151, 34.722310000427079 ], [ -78.844455991242341, 34.724123999762348 ], [ -78.840818991466435, 34.727292000079004 ], [ -78.844886991321545, 34.727074000251655 ], [ -78.848789991591516, 34.732617999841104 ], [ -78.852601991524523, 34.733967999808975 ], [ -78.85424799099367, 34.735490000268442 ], [ -78.855707990972505, 34.741800000073475 ], [ -78.856063991487346, 34.747772000227876 ], [ -78.858514991513502, 34.751449999777279 ], [ -78.858351991528906, 34.753512000084179 ], [ -78.860525991341134, 34.754628000230497 ], [ -78.862197990835341, 34.756655000073252 ], [ -78.861981990918295, 34.759810999785003 ], [ -78.863016991054835, 34.76090899964202 ], [ -78.865295991301664, 34.767775000163674 ], [ -78.863674990811958, 34.769870000375079 ], [ -78.863807990762766, 34.770932000097012 ], [ -78.866101991774599, 34.773099000392534 ], [ -78.869163991555496, 34.773330000337516 ], [ -78.868659990909464, 34.775077000207062 ], [ -78.870781991678797, 34.776878999767739 ], [ -78.869995991467675, 34.778692000110276 ], [ -78.872903991700653, 34.78225100006663 ], [ -78.873464991733329, 34.784440000234866 ], [ -78.874751990885159, 34.784934000127407 ], [ -78.875747990879688, 34.78708399987184 ], [ -78.877124990810984, 34.788013999813799 ], [ -78.877881990821663, 34.790212000103551 ], [ -78.877587991311032, 34.792080000208124 ], [ -78.884765991012216, 34.802298000049191 ], [ -78.883912991078432, 34.804607000039866 ], [ -78.886698991374729, 34.809564000396989 ], [ -78.884474991425535, 34.810570999833431 ], [ -78.883338991160215, 34.81212099976532 ], [ -78.884236991663997, 34.812641000359569 ], [ -78.887136991119434, 34.810851999858372 ], [ -78.887914991095329, 34.811999999819086 ], [ -78.890625991596295, 34.81217200027065 ], [ -78.891330990820705, 34.81361700023767 ], [ -78.892835991184484, 34.814193999933202 ], [ -78.893432991168837, 34.81664499981283 ], [ -78.895893991265822, 34.820672999946353 ], [ -78.899793990771045, 34.824783999908824 ], [ -78.900742991802815, 34.829519999819617 ], [ -78.900320990820973, 34.832447999983629 ], [ -78.901711991291023, 34.833537000398529 ], [ -78.901997991430648, 34.835268000113615 ], [ -78.826330991101031, 34.850693000417785 ] ] ] } },
{ "type": "Feature", "properties": { "county": "BLADEN", "precinct": "P65", "enr_desc": "Lake Creek", "winner": "Jim McVicker", "winner_votes": 124, "winner_share": 84.93150684931507, "runner_up": "Carl Yonge", "runner_up_votes": 22, "runner_up_share": 15.068493150684931, "contest_votes": 146, "margin_of_victory": 69.863013698630141, "is_tie": false, "results": [ { "candidate": "Jim McVicker", "votes": 124, "share": 84.93150684931507 }, { "candidate": "Carl Yonge", "votes": 22, "share": 15.068493150684931 } ], "participated": true, "map_key": "BLADEN_P65" }, "geometry": { "type": "Polygon", "coordinates": [ [ [ -78.418783991394747, 34.687233000148382 ], [ -78.413826990934552, 34.695674999751837 ], [ -78.39794999131108, 34.735696999933779 ], [ -78.39591899140558, 34.739257000102178 ], [ -78.391977990999848, 34.741264999766578 ], [ -78.387584991635194, 34.738062999881116 ], [ -78.39034599094677, 34.736587999693441 ], [ -78.389893990948224, 34.735364000326562 ], [ -78.390987991297536, 34.73508899983792 ], [ -78.390769991523186, 34.733945000298917 ], [ -78.391591991580526, 34.732823999830266 ], [ -78.392886991476672, 34.732650000003552 ], [ -78.391910991596177, 34.729576999821639 ], [ -78.389541990823716, 34.729491000003947 ], [ -78.387091990823734, 34.728270000343365 ], [ -78.387094991449231, 34.72733799967309 ], [ -78.385751991664918, 34.727398000148519 ], [ -78.385831990933482, 34.726564000183316 ], [ -78.383547990887095, 34.726442000072154 ], [ -78.383327991487761, 34.724012999966774 ], [ -78.38262799085102, 34.723482000189797 ], [ -78.381177990885732, 34.724372999539121 ], [ -78.379493991400594, 34.723549000165448 ], [ -78.380328991139237, 34.722198000106268 ], [ -78.379540991152112, 34.720463999660304 ], [ -78.380626990759509, 34.720162999971492 ], [ -78.38232299094895, 34.71727900034346 ], [ -78.3809889909829, 34.717298999849817 ], [ -78.380015991766697, 34.716526000070928 ], [ -78.380272991342423, 34.71522199967486 ], [ -78.376210991547822, 34.712820000003781 ], [ -78.377822991122571, 34.712514000373936 ], [ -78.376374990942779, 34.711512000122703 ], [ -78.377397991157494, 34.709848000398821 ], [ -78.373903991459969, 34.708423999772734 ], [ -78.368492991627562, 34.704514999536599 ], [ -78.369138991243062, 34.70303899985965 ], [ -78.371706991826287, 34.702425000002727 ], [ -78.369336991441017, 34.700409000030866 ], [ -78.371148991675696, 34.700237999674677 ], [ -78.37375099102033, 34.70148000039265 ], [ -78.374418991802145, 34.700855999859179 ], [ -78.373404991460816, 34.699208000256625 ], [ -78.369134991457784, 34.696758000105277 ], [ -78.366640991330542, 34.693085000365045 ], [ -78.365227991533501, 34.693926000322641 ], [ -78.365598991366397, 34.695062999609256 ], [ -78.363693991212074, 34.694638999993622 ], [ -78.361876991424552, 34.695544000111106 ], [ -78.360580991711004, 34.693788000208372 ], [ -78.362741990899295, 34.693344999889682 ], [ -78.361916990978614, 34.691337000005994 ], [ -78.358137990931439, 34.692919999832959 ], [ -78.355176991031342, 34.690111999834173 ], [ -78.351545991579883, 34.692390000096466 ], [ -78.349492991509976, 34.692318999623723 ], [ -78.350318990887672, 34.689058000236493 ], [ -78.348780991768109, 34.688307999549863 ], [ -78.348710991467982, 34.690091000399178 ], [ -78.346968991289089, 34.690555000115772 ], [ -78.346836990865327, 34.688897999696479 ], [ -78.345830991217568, 34.688319000242267 ], [ -78.346235991511477, 34.684179999525838 ], [ -78.344378991320198, 34.683882999841906 ], [ -78.344992991663418, 34.682964000203917 ], [ -78.34755999092512, 34.682283999978637 ], [ -78.347130991290697, 34.680377999855352 ], [ -78.345020991483537, 34.680406999605232 ], [ -78.344540991208589, 34.67883500035105 ], [ -78.3422889914645, 34.679914000122594 ], [ -78.341122991308325, 34.679193000222043 ], [ -78.339927991727137, 34.676478999925706 ], [ -78.338388991596943, 34.675929000331067 ], [ -78.338519991726812, 34.674673999829871 ], [ -78.33464399127206, 34.674298999621982 ], [ -78.334130991016167, 34.67277300035996 ], [ -78.332963991220169, 34.673637999577913 ], [ -78.332625990877844, 34.672534999782648 ], [ -78.330789991831736, 34.672644999788744 ], [ -78.33078399156598, 34.67148299958405 ], [ -78.327580991210951, 34.670849999951599 ], [ -78.32780499128306, 34.669135000048001 ], [ -78.325990991342124, 34.669061000093976 ], [ -78.325621991687228, 34.669767000233449 ], [ -78.325084990815114, 34.669183000044761 ], [ -78.325370991828521, 34.667448999737886 ], [ -78.323746991779686, 34.666777999605358 ], [ -78.324512991633682, 34.666021000326737 ], [ -78.323547991001661, 34.665501000259283 ], [ -78.324627990869502, 34.664765999784223 ], [ -78.326080990933477, 34.665997000226376 ], [ -78.327218991778565, 34.664160000324856 ], [ -78.32552299111677, 34.663107999984703 ], [ -78.326165991235172, 34.658616999724437 ], [ -78.325483990789479, 34.657972000227446 ], [ -78.326575991407509, 34.65586800031862 ], [ -78.324843991054294, 34.655760999996716 ], [ -78.322659991447097, 34.654098999856174 ], [ -78.322956991589791, 34.652404999706619 ], [ -78.324075991712093, 34.651829999994938 ], [ -78.322909991607034, 34.651189000049015 ], [ -78.324665991539987, 34.649829999921593 ], [ -78.322085991696071, 34.648770000324873 ], [ -78.320890991532721, 34.650056000380452 ], [ -78.320740990892844, 34.648719000186439 ], [ -78.319519990990557, 34.64884599976606 ], [ -78.31802999085042, 34.646756999801063 ], [ -78.319003991373961, 34.645784000164319 ], [ -78.317777991515882, 34.646081000359203 ], [ -78.317032991646471, 34.645261999820455 ], [ -78.313930991581827, 34.644720000298896 ], [ -78.312736991555056, 34.643604999717084 ], [ -78.313736990914222, 34.64278200013274 ], [ -78.312678991465347, 34.642299000153798 ], [ -78.313413991825911, 34.641353999984915 ], [ -78.311423991549972, 34.641225999730757 ], [ -78.3126149908218, 34.638611999738977 ], [ -78.31558599121243, 34.637481999519018 ], [ -78.314682991232388, 34.636589999593433 ], [ -78.316936991386541, 34.635741000203041 ], [ -78.313989991469356, 34.63313299972161 ], [ -78.321182991522818, 34.631260000283632 ], [ -78.322762990926904, 34.629696999649049 ], [ -78.322110991684241, 34.628547000379839 ], [ -78.319506991472295, 34.627157000036831 ], [ -78.316754990805777, 34.628478999979244 ], [ -78.315645990841645, 34.627206000164257 ], [ -78.317096991143885, 34.626296999641212 ], [ -78.313115991767617, 34.625883000157678 ], [ -78.31343799160048, 34.62485700005746 ], [ -78.312663991764836, 34.62382899962752 ], [ -78.314256990917457, 34.621614000224888 ], [ -78.313187990912411, 34.621067000158696 ], [ -78.31444599179234, 34.619007999991624 ], [ -78.312837991065933, 34.616648000317817 ], [ -78.311192991626086, 34.61572999958323 ], [ -78.312944991286003, 34.614021000230409 ], [ -78.310991991571015, 34.61201099988152 ], [ -78.306875991629724, 34.613435999730996 ], [ -78.305755991610553, 34.610800999673515 ], [ -78.304560991747252, 34.610952999811886 ], [ -78.304562991430814, 34.609508000239209 ], [ -78.306419990955249, 34.608468999881424 ], [ -78.304059991795228, 34.60717899981838 ], [ -78.304836990851712, 34.605605999902693 ], [ -78.303513990910673, 34.603890999819029 ], [ -78.305409991336489, 34.603599999636643 ], [ -78.305285991348612, 34.602716999588154 ], [ -78.303925990838451, 34.601982000298726 ], [ -78.302781991611553, 34.602798999645799 ], [ -78.30343499090155, 34.600898000356651 ], [ -78.302902991039559, 34.600460000128543 ], [ -78.300810991599604, 34.601286000174369 ], [ -78.30013899171351, 34.600290999682457 ], [ -78.297914991314968, 34.599731999524899 ], [ -78.29417199162404, 34.601870999716553 ], [ -78.291091991497822, 34.600408000192814 ], [ -78.292650991734291, 34.597126000226901 ], [ -78.291502991287174, 34.596544000276452 ], [ -78.290646991198116, 34.597755000129474 ], [ -78.289026991624013, 34.598074999861694 ], [ -78.288903991778852, 34.595848000396764 ], [ -78.286968991807512, 34.593944999513035 ], [ -78.287125991443361, 34.593094999898909 ], [ -78.285905991152845, 34.593822999965347 ], [ -78.284658991244896, 34.591829000089035 ], [ -78.283743991766542, 34.592499000040242 ], [ -78.283761991248412, 34.591291999695905 ], [ -78.282846991551409, 34.591734000326859 ], [ -78.282398991063218, 34.590727000111876 ], [ -78.27984099163659, 34.591103000271794 ], [ -78.280399991540889, 34.589015999946106 ], [ -78.278296991170194, 34.588292000086177 ], [ -78.278073991360003, 34.586780999824938 ], [ -78.27665299173178, 34.586496999647871 ], [ -78.276701991034102, 34.584605000311868 ], [ -78.274857990998925, 34.584195000383623 ], [ -78.275196990827808, 34.581437000241444 ], [ -78.273825990889961, 34.581445999797623 ], [ -78.273494991751406, 34.582982999837874 ], [ -78.272798991195359, 34.581674999999343 ], [ -78.271792990852546, 34.582053000050706 ], [ -78.272120991131558, 34.58106399993865 ], [ -78.271257990832908, 34.58102900023141 ], [ -78.267606991738262, 34.583981000115557 ], [ -78.266251991752213, 34.583956000160818 ], [ -78.266015991793623, 34.581892000382361 ], [ -78.264779991638335, 34.580176999654931 ], [ -78.265091990913135, 34.579130999922512 ], [ -78.262690990796173, 34.578807999637313 ], [ -78.264010990870901, 34.576535000105103 ], [ -78.261438991708687, 34.575683000332958 ], [ -78.260672991476952, 34.574502999616151 ], [ -78.260692990913327, 34.572919000155572 ], [ -78.262237991468567, 34.571304999850959 ], [ -78.258753991209915, 34.569996999499615 ], [ -78.257731991245066, 34.56827899955757 ], [ -78.255617991397031, 34.567984000231519 ], [ -78.25539699122119, 34.568793999921589 ], [ -78.254692990843608, 34.568609000284589 ], [ -78.254053990905192, 34.566379000079209 ], [ -78.254415990963921, 34.563981999583135 ], [ -78.251727990818694, 34.562020999585236 ], [ -78.260438990790917, 34.55616200003908 ], [ -78.256867991692403, 34.555841999772433 ], [ -78.254486990834991, 34.553505000127949 ], [ -78.260749991111481, 34.545370999533091 ], [ -78.272605991228843, 34.537656000193955 ], [ -78.269974991716978, 34.535660000123571 ], [ -78.270313991478531, 34.532250000012276 ], [ -78.267508990984396, 34.530211999685299 ], [ -78.262954991773185, 34.528784999771297 ], [ -78.265631991843392, 34.526825000216981 ], [ -78.265176991341775, 34.525843999537074 ], [ -78.263081991728811, 34.524890999744663 ], [ -78.26453999148633, 34.522222000096626 ], [ -78.264338991596986, 34.519841999594057 ], [ -78.25719299099984, 34.519477999838024 ], [ -78.255285991002552, 34.520462999872535 ], [ -78.25412799104457, 34.520054999750428 ], [ -78.256503991101496, 34.517230999508435 ], [ -78.255797991449512, 34.51366099971019 ], [ -78.252540990924231, 34.513403999628324 ], [ -78.25123599105055, 34.510628000241375 ], [ -78.252501991318411, 34.510029000301323 ], [ -78.253018991254578, 34.511607999552503 ], [ -78.254296991186607, 34.511629999952227 ], [ -78.255361991840104, 34.508235999710926 ], [ -78.252089991803444, 34.5062149995358 ], [ -78.252375991362143, 34.504656999625126 ], [ -78.250843991674074, 34.504800999614012 ], [ -78.25063699153209, 34.503482000143649 ], [ -78.246240991421999, 34.501473999723828 ], [ -78.245400991304464, 34.499850000121064 ], [ -78.263306991061185, 34.480180999944288 ], [ -78.265838991033121, 34.488860999618097 ], [ -78.265101990872481, 34.48982199988518 ], [ -78.265735990991487, 34.493365999803814 ], [ -78.268334991725609, 34.496586000378578 ], [ -78.267709991750522, 34.498019999858016 ], [ -78.269275991205191, 34.497893999574153 ], [ -78.272511990887125, 34.501639000043518 ], [ -78.274574991035053, 34.501941999970754 ], [ -78.279491991038114, 34.504864000261989 ], [ -78.28176799148568, 34.505174999847348 ], [ -78.283922991603703, 34.507547999911061 ], [ -78.289561991625632, 34.510619999917559 ], [ -78.29031199173788, 34.512257999784076 ], [ -78.292507991425168, 34.513103999770074 ], [ -78.295088991000767, 34.515945000091541 ], [ -78.301583991752793, 34.518854999507361 ], [ -78.303191991282276, 34.520960999685499 ], [ -78.305122991039383, 34.52164299967874 ], [ -78.308295991825347, 34.520877000340249 ], [ -78.312461991417848, 34.521121000010794 ], [ -78.314772991683199, 34.522807999651 ], [ -78.317201991707094, 34.523101000273861 ], [ -78.320417990837299, 34.524649999697054 ], [ -78.322698990789291, 34.527993999832375 ], [ -78.324643990991561, 34.529317000035796 ], [ -78.326972990915877, 34.529877999891319 ], [ -78.327444991183327, 34.530717999587253 ], [ -78.331540991198509, 34.53147000007516 ], [ -78.335271991166152, 34.535139000313642 ], [ -78.338969991121985, 34.535857999740337 ], [ -78.344095990931663, 34.539011000304782 ], [ -78.344241991212826, 34.540059999720938 ], [ -78.350576991673805, 34.542694999907347 ], [ -78.350768991273412, 34.54337600015814 ], [ -78.352740991425549, 34.543611999922305 ], [ -78.354487990894214, 34.545188000085865 ], [ -78.354880991486596, 34.54682500037157 ], [ -78.356553991661116, 34.54774199972136 ], [ -78.35618999147421, 34.550940000123234 ], [ -78.361941990868544, 34.554167999961955 ], [ -78.363396990941155, 34.555749999533788 ], [ -78.364977991587494, 34.555550999694987 ], [ -78.365854990847296, 34.556710000292007 ], [ -78.368902991483495, 34.557356999625547 ], [ -78.370251991322078, 34.559888999674222 ], [ -78.373932991058894, 34.561435999615455 ], [ -78.377133991725145, 34.564168999573667 ], [ -78.378651991269891, 34.56820800035495 ], [ -78.380801990947958, 34.570839999598249 ], [ -78.380820990811131, 34.572088000024536 ], [ -78.383640991196799, 34.575346999661463 ], [ -78.383783991752622, 34.579670000370363 ], [ -78.386831991128474, 34.580677000282506 ], [ -78.387867991746944, 34.581781999606349 ], [ -78.390238991307129, 34.581117999881357 ], [ -78.395107991440113, 34.58196100030316 ], [ -78.39901199093768, 34.584499999733858 ], [ -78.405666991046587, 34.586046000223476 ], [ -78.408103991620919, 34.587337999519505 ], [ -78.414686991394689, 34.586998999954297 ], [ -78.421402991504152, 34.589953000266924 ], [ -78.424446990880639, 34.59034900031201 ], [ -78.426914991519283, 34.59238599968532 ], [ -78.427107991310066, 34.594725999734386 ], [ -78.429856991205469, 34.59861599953598 ], [ -78.438626991118142, 34.604369000034161 ], [ -78.43916499168094, 34.605836000129308 ], [ -78.44338299099509, 34.60753599978154 ], [ -78.443555991293948, 34.608897999764295 ], [ -78.444754991710838, 34.607644000195002 ], [ -78.445881991356387, 34.610109999564671 ], [ -78.446929991645902, 34.610063000012559 ], [ -78.431085991106329, 34.62624599990842 ], [ -78.426596991472493, 34.6343869996753 ], [ -78.419443991443146, 34.643457000261293 ], [ -78.414321991605121, 34.653203999863614 ], [ -78.409336990882281, 34.657246999684169 ], [ -78.411031991486112, 34.659998000118129 ], [ -78.416664991774852, 34.664616999714355 ], [ -78.417984991697296, 34.668523999739527 ], [ -78.415546991662794, 34.67885900011526 ], [ -78.416088990897293, 34.681968999580214 ], [ -78.418783991394747, 34.687233000148382 ] ] ] } },
{ "type": "Feature", "properties": { "county": "BLADEN", "precinct": "P70", "enr_desc": "Turnbull", "winner": "Jim McVicker", "winner_votes": 30, "winner_share": 88.235294117647058, "runner_up": "Carl Yonge", "runner_up_votes": 4, "runner_up_share": 11.76470588235294, "contest_votes": 34, "margin_of_victory": 76.470588235294116, "is_tie": false, "results": [ { "candidate": "Jim McVicker", "votes": 30, "share": 88.23529411764706 }, { "candidate": "Carl Yonge", "votes": 4, "share": 11.76470588235294 } ], "participated": true, "map_key": "BLADEN_P70" }, "geometry": { "type": "Polygon", "coordinates": [ [ [ -78.601152991541895, 34.728730000091836 ], [ -78.608544991160869, 34.729642999819355 ], [ -78.620232991158545, 34.733961000319255 ], [ -78.627639991230197, 34.733258999609284 ], [ -78.632563991202943, 34.731914999783413 ], [ -78.638164991734769, 34.733293000030315 ], [ -78.643410991755431, 34.736670999856223 ], [ -78.653130991132883, 34.73981000007408 ], [ -78.656104990757569, 34.739970000104258 ], [ -78.645379990926287, 34.766188999728556 ], [ -78.638217991182117, 34.794857000203805 ], [ -78.63645199127032, 34.836730999880196 ], [ -78.636659991374444, 34.84137400012677 ], [ -78.639256991759737, 34.850977000323347 ], [ -78.53363299093553, 34.8511290001859 ], [ -78.533595990902853, 34.850447999787868 ], [ -78.516122991202295, 34.845919000301087 ], [ -78.506287991396178, 34.852573000204131 ], [ -78.494704991700047, 34.856182000385672 ], [ -78.496201991144488, 34.854857999651934 ], [ -78.495251990744364, 34.854229000127823 ], [ -78.495427991749295, 34.852233000065702 ], [ -78.493166991550737, 34.850779999596796 ], [ -78.493527991558679, 34.849330000300462 ], [ -78.492065991624017, 34.849340000024817 ], [ -78.493399991122985, 34.847082000022631 ], [ -78.509682990752779, 34.832071999845994 ], [ -78.521590991384031, 34.819288999936241 ], [ -78.537681991530107, 34.808563999860162 ], [ -78.542078990789136, 34.804628999646972 ], [ -78.545511991023545, 34.800624999734822 ], [ -78.556688991585688, 34.782740000221359 ], [ -78.55732199104537, 34.780111999904321 ], [ -78.556671990741279, 34.778431000104675 ], [ -78.555123991527154, 34.777699999835768 ], [ -78.5529289912796, 34.778236000249827 ], [ -78.542144991574133, 34.785794999545651 ], [ -78.538305991487192, 34.783640000371413 ], [ -78.545719990944207, 34.772648999690276 ], [ -78.549773991290536, 34.765160000006198 ], [ -78.555128991528719, 34.753393999978535 ], [ -78.558891991574896, 34.742103000195826 ], [ -78.561046990764098, 34.737722000058618 ], [ -78.563508990975976, 34.735126000058315 ], [ -78.567274991371136, 34.733008000301758 ], [ -78.579587991173966, 34.729979999936958 ], [ -78.594856991662084, 34.728427000254477 ], [ -78.601152991541895, 34.728730000091836 ] ] ] } },
{ "type": "Feature", "properties": { "county": "BLADEN", "precinct": "P75", "enr_desc": "Whites Creek", "winner": "Jim McVicker", "winner_votes": 47, "winner_share": 75.806451612903231, "runner_up": "Carl Yonge", "runner_up_votes": 15, "runner_up_share": 24.193548387096776, "contest_votes": 62, "margin_of_victory": 51.612903225806456, "is_tie": false, "results": [ { "candidate": "Jim McVicker", "votes": 47, "share": 75.80645161290323 }, { "candidate": "Carl Yonge", "votes": 15, "share": 24.193548387096776 } ], "participated": true, "map_key": "BLADEN_P75" }, "geometry": { "type": "Polygon", "coordinates": [ [ [ -78.648372991115508, 34.460868999832591 ], [ -78.644750991380945, 34.466637000111653 ], [ -78.64087999124925, 34.469246000399053 ], [ -78.636675991280981, 34.471213999680224 ], [ -78.632722991384099, 34.471577999571679 ], [ -78.629071991274245, 34.474659999533458 ], [ -78.621914990874203, 34.477553999575498 ], [ -78.618956990776141, 34.477486999566949 ], [ -78.613203990807463, 34.475015999671889 ], [ -78.606816991256622, 34.474102999793665 ], [ -78.602669991733706, 34.475706999802121 ], [ -78.596533990917266, 34.474837999994293 ], [ -78.594266991365231, 34.4762350001591 ], [ -78.592222991213376, 34.479257999964716 ], [ -78.589376991089367, 34.480837999951049 ], [ -78.589764990830915, 34.482164999778263 ], [ -78.588723990803402, 34.48467700004641 ], [ -78.584406991041419, 34.48823499956189 ], [ -78.577717991498389, 34.491446000282913 ], [ -78.573511991719002, 34.496055000046354 ], [ -78.570999991536809, 34.497562999638923 ], [ -78.55727299137709, 34.52009699965005 ], [ -78.6031109918287, 34.54848000007523 ], [ -78.545654990915367, 34.569162999666005 ], [ -78.543883990963195, 34.568086999924695 ], [ -78.541531991436813, 34.569825999814121 ], [ -78.540286991379304, 34.567467999917582 ], [ -78.537547991469211, 34.564902999633695 ], [ -78.535610991611136, 34.564307999877187 ], [ -78.533036991377315, 34.564878999924559 ], [ -78.532289991150364, 34.563345000166485 ], [ -78.530020991360445, 34.563620000138677 ], [ -78.529079990800355, 34.564695000370897 ], [ -78.526562991662644, 34.563229999874622 ], [ -78.524292991508347, 34.563916000045374 ], [ -78.523436991064173, 34.560939999762425 ], [ -78.522247991308731, 34.560299000260571 ], [ -78.520641991172397, 34.562496000296171 ], [ -78.519534991584678, 34.562381000181524 ], [ -78.519313991673073, 34.561625000305973 ], [ -78.517901991306417, 34.562746000290161 ], [ -78.516158990885614, 34.561922000361051 ], [ -78.514746991165723, 34.563043000393478 ], [ -78.511093991167527, 34.562354000304197 ], [ -78.507550990995824, 34.564481999729836 ], [ -78.505642991357035, 34.563358999650362 ], [ -78.507023991694865, 34.565303999655065 ], [ -78.505278991067101, 34.567200999959617 ], [ -78.502567990773272, 34.567018000387925 ], [ -78.500824991088791, 34.565918999773416 ], [ -78.499072991757643, 34.566313000005067 ], [ -78.499728991305275, 34.567891000188666 ], [ -78.498160991679597, 34.567870000270609 ], [ -78.49805099138328, 34.568649000387687 ], [ -78.499214991148094, 34.570273999928467 ], [ -78.497857991603468, 34.569885000163545 ], [ -78.49672399151288, 34.57066400041041 ], [ -78.49545099178107, 34.569978000290639 ], [ -78.495036991058612, 34.571901000070085 ], [ -78.493335991023812, 34.573471000129459 ], [ -78.490303991190203, 34.572120000287477 ], [ -78.487781991654984, 34.569817000040032 ], [ -78.488889991319141, 34.564570999953951 ], [ -78.48737299112338, 34.562892999542832 ], [ -78.482715991083907, 34.562265000404132 ], [ -78.47904299141058, 34.565717000392489 ], [ -78.474535991237502, 34.566719999608807 ], [ -78.468446991094666, 34.56511299970304 ], [ -78.460200991782202, 34.560752999663372 ], [ -78.450810990983442, 34.560897000033414 ], [ -78.44982399161546, 34.559763000104233 ], [ -78.450247991340348, 34.558254000029329 ], [ -78.45360599109469, 34.555314999888161 ], [ -78.453411990783266, 34.554002999847782 ], [ -78.445455990792922, 34.553707000103081 ], [ -78.436230991459226, 34.548818999970891 ], [ -78.43584099162689, 34.547368999666915 ], [ -78.437133991254498, 34.5409339998386 ], [ -78.439848991152004, 34.534992999521663 ], [ -78.436714991084344, 34.529877000151536 ], [ -78.437145991618905, 34.522414000025314 ], [ -78.436534991767175, 34.516755000276305 ], [ -78.477400991652885, 34.491789999873184 ], [ -78.50051999105888, 34.431932999806307 ], [ -78.494266991461444, 34.429851999700283 ], [ -78.494224991267984, 34.429289999726855 ], [ -78.500676990924219, 34.39981199990374 ], [ -78.552712991202824, 34.420778000218128 ], [ -78.580355991746885, 34.428993000099197 ], [ -78.594011990912691, 34.431442999901691 ], [ -78.600359991683433, 34.438666999957803 ], [ -78.603769991079403, 34.441133999727775 ], [ -78.614127991693351, 34.445312999817972 ], [ -78.622577991426795, 34.450356000348521 ], [ -78.635350990902367, 34.454475000100935 ], [ -78.646823991389212, 34.46070700023126 ], [ -78.648372991115508, 34.460868999832591 ] ] ] } },
{ "type": "Feature", "properties": { "county": "BLADEN", "precinct": "P80", "enr_desc": "White Oak", "winner": "Jim McVicker", "winner_votes": 112, "winner_share": 62.569832402234638, "runner_up": "Carl Yonge", "runner_up_votes": 67, "runner_up_share": 37.430167597765362, "contest_votes": 179, "margin_of_victory": 25.139664804469277, "is_tie": false, "results": [ { "candidate": "Jim McVicker", "votes": 112, "share": 62.56983240223464 }, { "candidate": "Carl Yonge", "votes": 67, "share": 37.43016759776536 } ], "participated": true, "map_key": "BLADEN_P80" }, "geometry": { "type": "Polygon", "coordinates": [ [ [ -78.656104990757569, 34.739970000104258 ], [ -78.658814990776122, 34.731692000254277 ], [ -78.674010990856956, 34.719482999753559 ], [ -78.676708991790449, 34.713760000084989 ], [ -78.686707991041871, 34.705537000043769 ], [ -78.68881299154647, 34.70236300027279 ], [ -78.689027991107977, 34.697399000400935 ], [ -78.699710991279886, 34.698435000418044 ], [ -78.705432990924763, 34.700967999882643 ], [ -78.709176990756276, 34.703387999673225 ], [ -78.711009991379797, 34.70792199999736 ], [ -78.713328991343857, 34.710008000199196 ], [ -78.727122991381194, 34.713181000148268 ], [ -78.733218990842758, 34.712634000038882 ], [ -78.740231990810358, 34.715478999839988 ], [ -78.742138991116548, 34.716604999576695 ], [ -78.746279991706771, 34.722487999540817 ], [ -78.751261990887983, 34.726725000188416 ], [ -78.76255699088054, 34.73127199989846 ], [ -78.771972991728603, 34.739217000336524 ], [ -78.774949990856527, 34.740955999627303 ], [ -78.785042991800211, 34.744113000103972 ], [ -78.789122991829984, 34.747437999584697 ], [ -78.791213991348982, 34.752190999696943 ], [ -78.795329991582264, 34.75816300035828 ], [ -78.795273990874108, 34.766584000289221 ], [ -78.798350991794166, 34.772319000018108 ], [ -78.799856991072332, 34.77780099993084 ], [ -78.798245991762954, 34.78467300041266 ], [ -78.80106499161127, 34.78828499992126 ], [ -78.803327990850789, 34.793547999956452 ], [ -78.812739990831574, 34.804155000313756 ], [ -78.814718990871995, 34.81103699987856 ], [ -78.82051799146997, 34.813270000012039 ], [ -78.824277991207325, 34.844615000406613 ], [ -78.826330991101031, 34.850693000417785 ], [ -78.639256991759737, 34.850977000323347 ], [ -78.636659991374444, 34.84137400012677 ], [ -78.63645199127032, 34.836730999880196 ], [ -78.638217991182117, 34.794857000203805 ], [ -78.645379990926287, 34.766188999728556 ], [ -78.656104990757569, 34.739970000104258 ] ] ] } }
]
}
