{
"type": "FeatureCollection",
"name": "carteret_county_board_of_commissioners_district_06_rep",
"crs": { "type": "name", "properties": { "name": "urn:ogc:def:crs:OGC:1.3:CRS84" } },
"features": [
{ "type": "Feature", "properties": { "county": null, "precinct": null, "enr_desc": "Atlantic Beach", "winner": null, "winner_votes": null, "winner_share": null, "runner_up": null, "runner_up_votes": null, "runner_up_share": null, "contest_votes": null, "margin_of_victory": null, "is_tie": false, "results": null, "participated": false, "map_key": null }, "geometry": { "type": "Polygon", "coordinates": [ [ [ -76.692799991352629, 34.642950000191227 ], [ -76.729826991571613, 34.647210000109474 ], [ -76.742180991786981, 34.64765400028093 ], [ -76.782314990863554, 34.645794000085104 ], [ -76.782191991431816, 34.689528000121392 ], [ -76.781920990759801, 34.689539000066084 ], [ -76.781868991068563, 34.693923999664996 ], [ -76.78184399109675, 34.69656199970369 ], [ -76.781950991383184, 34.696563999920421 ], [ -76.782087991143598, 34.696554999895731 ], [ -76.782182991248561, 34.697920000261711 ], [ -76.784809991061408, 34.69783999993664 ], [ -76.784832991048503, 34.703549999613358 ], [ -76.781208991753445, 34.704106000264233 ], [ -76.781001991323777, 34.720000999611443 ], [ -76.729971990847773, 34.716068000158003 ], [ -76.721625990798017, 34.715313999509483 ], [ -76.714986990911456, 34.713688000263353 ], [ -76.708480991318368, 34.713579999959649 ], [ -76.700389991682414, 34.71404299981188 ], [ -76.692720990958222, 34.715554999619677 ], [ -76.691889991044221, 34.711595999855128 ], [ -76.687633991424462, 34.70717299958239 ], [ -76.675115991626868, 34.70021700001633 ], [ -76.671258991798311, 34.697190999712141 ], [ -76.669887991364888, 34.693899999766856 ], [ -76.669944991306139, 34.691146999943307 ], [ -76.692799991352629, 34.642950000191227 ] ] ] } },
{ "type": "Feature", "properties": { "county": "CARTERET", "precinct": "DASW", "enr_desc": "Davis/Stacy/Williston", "winner": "Chris Chadwick", "winner_votes": 156.0, "winner_share": 69.026548672566364, "runner_up": "Kane Gillikin", "runner_up_votes": 70.0, "runner_up_share": 30.973451327433626, "contest_votes": 226.0, "margin_of_victory": 38.053097345132741, "is_tie": false, "results": [ { "candidate": "Chris Chadwick", "votes": 156, "share": 69.02654867256636 }, { "candidate": "Kane Gillikin", "votes": 70, "share": 30.973451327433626 } ], "participated": true, "map_key": "CARTERET_DASW" }, "geometry": { "type": "Polygon", "coordinates": [ [ [ -76.532480990888047, 34.788612999474452 ], [ -76.532713991328521, 34.822663999443996 ], [ -76.53403999086089, 34.874643999937582 ], [ -76.530505991291065, 34.879182000103697 ], [ -76.529842991371794, 34.881578000095182 ], [ -76.526218990958768, 34.883020000254383 ], [ -76.520202991591148, 34.891638000091376 ], [ -76.528093991761864, 34.899123999698546 ], [ -76.536815991544998, 34.901858999473994 ], [ -76.538939990738626, 34.904115999720403 ], [ -76.538899991506312, 34.910933999741097 ], [ -76.542031990741862, 34.914327000244498 ], [ -76.546023991444969, 34.92120500025991 ], [ -76.548485991761609, 34.932706999929479 ], [ -76.552916990918078, 34.939196999852882 ], [ -76.559407991197304, 34.94486200014795 ], [ -76.57517199122131, 34.955661000033629 ], [ -76.580075990941552, 34.961745999951702 ], [ -76.583336991366039, 34.967767999540705 ], [ -76.586226991375113, 34.980339999556278 ], [ -76.610760991329883, 35.038367999447445 ], [ -76.364483991143004, 35.169136000136582 ], [ -76.371519991532566, 35.090202999954641 ], [ -76.372266991167265, 35.068381999970853 ], [ -76.374639991634822, 35.059031999830985 ], [ -76.382215991066801, 35.043036999911308 ], [ -76.388515991228559, 35.032517999571262 ], [ -76.408205991821575, 35.005673999502875 ], [ -76.419708990852655, 35.00016299942714 ], [ -76.417747991087396, 34.994722999967749 ], [ -76.419608990752863, 34.994656999819661 ], [ -76.41867399088099, 34.975653000195273 ], [ -76.4198819918212, 34.969418999652071 ], [ -76.421476990960812, 34.965712999696763 ], [ -76.450644991372641, 34.946955000074347 ], [ -76.452687991104042, 34.942844999893737 ], [ -76.45206599140937, 34.940179999488194 ], [ -76.449629991195451, 34.936260999377296 ], [ -76.442096990779618, 34.925329999831611 ], [ -76.439650991051352, 34.922986 ], [ -76.43496699174176, 34.923224999864033 ], [ -76.427907991487942, 34.919724999648594 ], [ -76.423609991764138, 34.919130999856982 ], [ -76.417895991231006, 34.916772000183606 ], [ -76.408586991115229, 34.900172999514112 ], [ -76.40486399096865, 34.896028999806028 ], [ -76.402875990844052, 34.895429999560825 ], [ -76.401253991147939, 34.893860999535512 ], [ -76.400561990790152, 34.890309999843744 ], [ -76.402730991729058, 34.88610399974327 ], [ -76.400906991215649, 34.880076999668923 ], [ -76.400619991110702, 34.876070999637214 ], [ -76.404751991417683, 34.855727000217655 ], [ -76.402449991799728, 34.850191000142615 ], [ -76.395907991572344, 34.840892999606893 ], [ -76.37463899146934, 34.823694999801354 ], [ -76.359933991392978, 34.810364999997304 ], [ -76.311894991639804, 34.77954100021249 ], [ -76.34187099132123, 34.750162999925941 ], [ -76.370717990924163, 34.720110999536224 ], [ -76.420016991004218, 34.748110999902508 ], [ -76.424927991735728, 34.749739000016966 ], [ -76.471557991377537, 34.753926999666319 ], [ -76.494257991287284, 34.754600000172523 ], [ -76.496533990866396, 34.769192000200022 ], [ -76.505029991052325, 34.770622000019088 ], [ -76.511330991622927, 34.770697999798024 ], [ -76.515609991168546, 34.772055999881069 ], [ -76.516031991448884, 34.77304900019989 ], [ -76.5147379918279, 34.775167999622226 ], [ -76.515147991501721, 34.776915000086284 ], [ -76.518572991563076, 34.777863000044434 ], [ -76.518960991084697, 34.779145000103121 ], [ -76.521542991677109, 34.777864000220674 ], [ -76.524925991771582, 34.778177999636512 ], [ -76.531157991755947, 34.785002999446235 ], [ -76.532480990888047, 34.788612999474452 ] ] ] } },
{ "type": "Feature", "properties": { "county": null, "precinct": null, "enr_desc": "Beaufort 1", "winner": null, "winner_votes": null, "winner_share": null, "runner_up": null, "runner_up_votes": null, "runner_up_share": null, "contest_votes": null, "margin_of_victory": null, "is_tie": false, "results": null, "participated": false, "map_key": null }, "geometry": { "type": "Polygon", "coordinates": [ [ [ -76.599665991563768, 34.705021000204432 ], [ -76.615027991201003, 34.69868999973518 ], [ -76.624649990831912, 34.696236000238812 ], [ -76.658494991017719, 34.69024200025121 ], [ -76.665485991305246, 34.689742999400671 ], [ -76.669944991306139, 34.691146999943307 ], [ -76.669887991364888, 34.693899999766856 ], [ -76.671258991798311, 34.697190999712141 ], [ -76.675115991626868, 34.70021700001633 ], [ -76.687633991424462, 34.70717299958239 ], [ -76.691889991044221, 34.711595999855128 ], [ -76.692720990958222, 34.715554999619677 ], [ -76.692720991757724, 34.717600000194416 ], [ -76.690795991041668, 34.721090000151314 ], [ -76.690880991533874, 34.730371999422843 ], [ -76.688729991764419, 34.731575999466273 ], [ -76.68653799112505, 34.734241000247749 ], [ -76.678955991615126, 34.735313999833423 ], [ -76.674147990919934, 34.733360000095452 ], [ -76.666831991186257, 34.725435999493641 ], [ -76.663944991185417, 34.724616999409371 ], [ -76.660897990829895, 34.72493300026234 ], [ -76.662021991181973, 34.721899999942551 ], [ -76.660810991529289, 34.721236000257555 ], [ -76.659865990991676, 34.722356999467763 ], [ -76.641982991287037, 34.71280499964449 ], [ -76.636232991023221, 34.71223499965712 ], [ -76.628011991423207, 34.709915999442124 ], [ -76.616768991120537, 34.709009999866559 ], [ -76.615880990811476, 34.708220999895403 ], [ -76.616624991258121, 34.707788000131139 ], [ -76.599665991563768, 34.705021000204432 ] ] ] } },
{ "type": "Feature", "properties": { "county": "CARTERET", "precinct": "ASCI", "enr_desc": "Atlantic/Sea Level/Cedar Island", "winner": "Chris Chadwick", "winner_votes": 173.0, "winner_share": 74.891774891774887, "runner_up": "Kane Gillikin", "runner_up_votes": 58.0, "runner_up_share": 25.108225108225106, "contest_votes": 231.0, "margin_of_victory": 49.78354978354978, "is_tie": false, "results": [ { "candidate": "Chris Chadwick", "votes": 173, "share": 74.89177489177489 }, { "candidate": "Kane Gillikin", "votes": 58, "share": 25.108225108225106 } ], "participated": true, "map_key": "CARTERET_ASCI" }, "geometry": { "type": "Polygon", "coordinates": [ [ [ -76.311894991639804, 34.77954100021249 ], [ -76.359933991392978, 34.810364999997304 ], [ -76.37463899146934, 34.823694999801354 ], [ -76.395907991572344, 34.840892999606893 ], [ -76.402449991799728, 34.850191000142615 ], [ -76.404751991417683, 34.855727000217655 ], [ -76.400619991110702, 34.876070999637214 ], [ -76.400906991215649, 34.880076999668923 ], [ -76.402730991729058, 34.88610399974327 ], [ -76.400561990790152, 34.890309999843744 ], [ -76.401253991147939, 34.893860999535512 ], [ -76.402875990844052, 34.895429999560825 ], [ -76.40486399096865, 34.896028999806028 ], [ -76.408586991115229, 34.900172999514112 ], [ -76.417895991231006, 34.916772000183606 ], [ -76.423609991764138, 34.919130999856982 ], [ -76.427907991487942, 34.919724999648594 ], [ -76.43496699174176, 34.923224999864033 ], [ -76.439650991051352, 34.922986 ], [ -76.442096990779618, 34.925329999831611 ], [ -76.449629991195451, 34.936260999377296 ], [ -76.45206599140937, 34.940179999488194 ], [ -76.452687991104042, 34.942844999893737 ], [ -76.450644991372641, 34.946955000074347 ], [ -76.421476990960812, 34.965712999696763 ], [ -76.4198819918212, 34.969418999652071 ], [ -76.41867399088099, 34.975653000195273 ], [ -76.419608990752863, 34.994656999819661 ], [ -76.417747991087396, 34.994722999967749 ], [ -76.419708990852655, 35.00016299942714 ], [ -76.408205991821575, 35.005673999502875 ], [ -76.388515991228559, 35.032517999571262 ], [ -76.382215991066801, 35.043036999911308 ], [ -76.374639991634822, 35.059031999830985 ], [ -76.372266991167265, 35.068381999970853 ], [ -76.371519991532566, 35.090202999954641 ], [ -76.364483991143004, 35.169136000136582 ], [ -76.304135990711458, 35.201453000234679 ], [ -76.089152991402841, 35.132469999804876 ], [ -76.065773990755744, 35.124936999596045 ], [ -76.060850991791938, 35.1201969999901 ], [ -76.019043990855877, 35.065391999867259 ], [ -76.016002991091426, 35.065318999588428 ], [ -76.006556991595701, 35.053868999665951 ], [ -76.006935991209076, 35.006030999677741 ], [ -76.024429991142526, 35.005363999822407 ], [ -76.03259599144819, 35.000169000229839 ], [ -76.124625991395476, 34.933080999470405 ], [ -76.219247991409631, 34.856421999433707 ], [ -76.24963199112814, 34.834631000211111 ], [ -76.280116991754383, 34.808630999948711 ], [ -76.311894991639804, 34.77954100021249 ] ] ] } },
{ "type": "Feature", "properties": { "county": null, "precinct": null, "enr_desc": "Broad Creek", "winner": null, "winner_votes": null, "winner_share": null, "runner_up": null, "runner_up_votes": null, "runner_up_share": null, "contest_votes": null, "margin_of_victory": null, "is_tie": false, "results": null, "participated": false, "map_key": null }, "geometry": { "type": "Polygon", "coordinates": [ [ [ -76.957774991389968, 34.739049999890646 ], [ -76.95383499167275, 34.739175999893462 ], [ -76.95263699150513, 34.737580000232455 ], [ -76.947501991151981, 34.736055999763643 ], [ -76.941079990914304, 34.735812999434359 ], [ -76.935690991632569, 34.739059000107126 ], [ -76.93118599091332, 34.755496999600389 ], [ -76.929447991428091, 34.754960999711997 ], [ -76.927932991558365, 34.752197000029604 ], [ -76.924112991141783, 34.750341999575141 ], [ -76.92007099179655, 34.749982999804935 ], [ -76.918796991156242, 34.751084999791452 ], [ -76.917796991515118, 34.749994999455993 ], [ -76.911617991063409, 34.75285099940686 ], [ -76.905078990986127, 34.757302999873247 ], [ -76.877451991268089, 34.767837999895747 ], [ -76.873058991336805, 34.768684000121404 ], [ -76.867195990987568, 34.767158999709189 ], [ -76.889002991770553, 34.733566999658976 ], [ -76.890585991580394, 34.72933500015791 ], [ -76.889212991063658, 34.729920000037602 ], [ -76.890299990828453, 34.726356000112794 ], [ -76.889496991369498, 34.719640999558592 ], [ -76.912321999802032, 34.716422999562461 ], [ -76.937237999968886, 34.714589999716083 ], [ -76.946978991588082, 34.724361000195529 ], [ -76.951899991380841, 34.726776999668843 ], [ -76.95486999144822, 34.730023999768115 ], [ -76.957444990844309, 34.731099999862074 ], [ -76.960832990943743, 34.736536999477124 ], [ -76.959506991575296, 34.739115000304281 ], [ -76.957774991389968, 34.739049999890646 ] ] ] } },
{ "type": "Feature", "properties": { "county": "CARTERET", "precinct": "BFT2", "enr_desc": "Beaufort 2", "winner": "Chris Chadwick", "winner_votes": 180.0, "winner_share": 74.074074074074076, "runner_up": "Kane Gillikin", "runner_up_votes": 63.0, "runner_up_share": 25.925925925925924, "contest_votes": 243.0, "margin_of_victory": 48.148148148148152, "is_tie": false, "results": [ { "candidate": "Chris Chadwick", "votes": 180, "share": 74.07407407407408 }, { "candidate": "Kane Gillikin", "votes": 63, "share": 25.925925925925924 } ], "participated": true, "map_key": "CARTERET_BFT2" }, "geometry": { "type": "Polygon", "coordinates": [ [ [ -76.678955991615126, 34.735313999833423 ], [ -76.675258991228745, 34.739297999968983 ], [ -76.674287991680629, 34.747781999911879 ], [ -76.671226990951041, 34.756568999983045 ], [ -76.661366991685327, 34.760233999880271 ], [ -76.660692991142028, 34.761862999635845 ], [ -76.658621991649156, 34.763319999800224 ], [ -76.657430991358311, 34.762794999743051 ], [ -76.652975991254095, 34.766603999679077 ], [ -76.652202990969172, 34.768510999451692 ], [ -76.650394991637555, 34.768045999949166 ], [ -76.646529991636442, 34.769399999646211 ], [ -76.646421991161944, 34.768444999888381 ], [ -76.642362991562109, 34.768977999709371 ], [ -76.640377990818337, 34.75969999991645 ], [ -76.618915991405871, 34.759185999549523 ], [ -76.603859990944173, 34.761712999518814 ], [ -76.599719990910543, 34.750161000154826 ], [ -76.59278999139876, 34.7187209995354 ], [ -76.592330991012304, 34.714256999397925 ], [ -76.593281990887093, 34.710793999914067 ], [ -76.595963990876797, 34.707320999769976 ], [ -76.599665991563768, 34.705021000204432 ], [ -76.616624991258121, 34.707788000131139 ], [ -76.615880990811476, 34.708220999895403 ], [ -76.616768991120537, 34.709009999866559 ], [ -76.628011991423207, 34.709915999442124 ], [ -76.636232991023221, 34.71223499965712 ], [ -76.641982991287037, 34.71280499964449 ], [ -76.659865990991676, 34.722356999467763 ], [ -76.660810991529289, 34.721236000257555 ], [ -76.662021991181973, 34.721899999942551 ], [ -76.660897990829895, 34.72493300026234 ], [ -76.663944991185417, 34.724616999409371 ], [ -76.666831991186257, 34.725435999493641 ], [ -76.674147990919934, 34.733360000095452 ], [ -76.678955991615126, 34.735313999833423 ] ] ] } },
{ "type": "Feature", "properties": { "county": "CARTERET", "precinct": "HAIS", "enr_desc": "Harkers Island", "winner": "Chris Chadwick", "winner_votes": 245.0, "winner_share": 68.82022471910112, "runner_up": "Kane Gillikin", "runner_up_votes": 111.0, "runner_up_share": 31.179775280898873, "contest_votes": 356.0, "margin_of_victory": 37.640449438202246, "is_tie": false, "results": [ { "candidate": "Chris Chadwick", "votes": 245, "share": 68.82022471910112 }, { "candidate": "Kane Gillikin", "votes": 111, "share": 31.179775280898873 } ], "participated": true, "map_key": "CARTERET_HAIS" }, "geometry": { "type": "Polygon", "coordinates": [ [ [ -76.692799991352629, 34.642950000191227 ], [ -76.669944991306139, 34.691146999943307 ], [ -76.665485991305246, 34.689742999400671 ], [ -76.658494991017719, 34.69024200025121 ], [ -76.624649990831912, 34.696236000238812 ], [ -76.615027991201003, 34.69868999973518 ], [ -76.599665991563768, 34.705021000204432 ], [ -76.595963990876797, 34.707320999769976 ], [ -76.593281990887093, 34.710793999914067 ], [ -76.592330991012304, 34.714256999397925 ], [ -76.59278999139876, 34.7187209995354 ], [ -76.551004991699372, 34.717247999793265 ], [ -76.522710991080999, 34.715392999731385 ], [ -76.521267991056249, 34.713140000125819 ], [ -76.519642991463584, 34.705881000231422 ], [ -76.520436991176737, 34.702351999820763 ], [ -76.524017991365, 34.700326999805782 ], [ -76.524963991452736, 34.694217999734079 ], [ -76.516680991025666, 34.685618999586715 ], [ -76.499643991086302, 34.671909000189494 ], [ -76.498894990953417, 34.672141999747708 ], [ -76.489981991283727, 34.666919000198469 ], [ -76.437382990893497, 34.64225300019384 ], [ -76.444195990845841, 34.633154999432861 ], [ -76.466337991680646, 34.59573799987475 ], [ -76.477459991509065, 34.566203999729836 ], [ -76.483182991574864, 34.556359999535822 ], [ -76.49199099082449, 34.546531999654889 ], [ -76.504212990951316, 34.539595999573244 ], [ -76.524377990861794, 34.532154999570658 ], [ -76.531643991373542, 34.531736000018384 ], [ -76.547873991528391, 34.532838999678795 ], [ -76.562508991760964, 34.536912000104309 ], [ -76.572065990946385, 34.542544000230208 ], [ -76.583719990926781, 34.552625000266822 ], [ -76.590744990856152, 34.563130000090972 ], [ -76.595484990902776, 34.57784300020419 ], [ -76.606809991597302, 34.591195999729287 ], [ -76.61234399077604, 34.60012800026405 ], [ -76.614721990794592, 34.618277999695813 ], [ -76.677226991680371, 34.634303999657547 ], [ -76.692799991352629, 34.642950000191227 ] ] ] } },
{ "type": "Feature", "properties": { "county": null, "precinct": null, "enr_desc": "Morehead 1", "winner": null, "winner_votes": null, "winner_share": null, "runner_up": null, "runner_up_votes": null, "runner_up_share": null, "contest_votes": null, "margin_of_victory": null, "is_tie": false, "results": null, "participated": false, "map_key": null }, "geometry": { "type": "Polygon", "coordinates": [ [ [ -76.729971990847773, 34.716068000158003 ], [ -76.728531991177903, 34.73156099999872 ], [ -76.729703991172144, 34.734147999967284 ], [ -76.731292990992443, 34.73765500007206 ], [ -76.730916991195684, 34.740648000034426 ], [ -76.728328991520939, 34.746340999991126 ], [ -76.727901991475917, 34.757224999861727 ], [ -76.7254329907759, 34.756737999930479 ], [ -76.722287991582363, 34.760305999953346 ], [ -76.72023599172833, 34.76833099995627 ], [ -76.713199991074049, 34.767341999577354 ], [ -76.69157299140727, 34.760876000216875 ], [ -76.683854991435311, 34.755776000197436 ], [ -76.674287991680629, 34.747781999911879 ], [ -76.675258991228745, 34.739297999968983 ], [ -76.678955991615126, 34.735313999833423 ], [ -76.68653799112505, 34.734241000247749 ], [ -76.688729991764419, 34.731575999466273 ], [ -76.690880991533874, 34.730371999422843 ], [ -76.690795991041668, 34.721090000151314 ], [ -76.692720991757724, 34.717600000194416 ], [ -76.692720990958222, 34.715554999619677 ], [ -76.700389991682414, 34.71404299981188 ], [ -76.708480991318368, 34.713579999959649 ], [ -76.714986990911456, 34.713688000263353 ], [ -76.721625990798017, 34.715313999509483 ], [ -76.729971990847773, 34.716068000158003 ] ] ] } },
{ "type": "Feature", "properties": { "county": null, "precinct": null, "enr_desc": "Morehead 4", "winner": null, "winner_votes": null, "winner_share": null, "runner_up": null, "runner_up_votes": null, "runner_up_share": null, "contest_votes": null, "margin_of_victory": null, "is_tie": false, "results": null, "participated": false, "map_key": null }, "geometry": { "type": "Polygon", "coordinates": [ [ [ -76.781001991323777, 34.720000999611443 ], [ -76.826141991555772, 34.721488000201532 ], [ -76.850110991443913, 34.723828999858007 ], [ -76.869205991727426, 34.72245900009073 ], [ -76.889496991369498, 34.719640999558592 ], [ -76.890299990828453, 34.726356000112794 ], [ -76.889212991063658, 34.729920000037602 ], [ -76.884684991230998, 34.731967000194167 ], [ -76.873043990917978, 34.734273999859738 ], [ -76.844212990931197, 34.734289999840371 ], [ -76.82993399131793, 34.730342000091134 ], [ -76.812313991444512, 34.734054000284694 ], [ -76.804514991106259, 34.734057999552185 ], [ -76.795376991610127, 34.735670000283477 ], [ -76.783654991558521, 34.732293999735617 ], [ -76.78443899139387, 34.730952000174504 ], [ -76.782216990996673, 34.730028000195361 ], [ -76.780598991645689, 34.726148999410356 ], [ -76.781001991323777, 34.720000999611443 ] ] ] } },
{ "type": "Feature", "properties": { "county": "CARTERET", "precinct": "MASM", "enr_desc": "Marshallberg/Smyrna", "winner": "Chris Chadwick", "winner_votes": 129.0, "winner_share": 68.253968253968253, "runner_up": "Kane Gillikin", "runner_up_votes": 60.0, "runner_up_share": 31.746031746031743, "contest_votes": 189.0, "margin_of_victory": 36.507936507936506, "is_tie": false, "results": [ { "candidate": "Chris Chadwick", "votes": 129, "share": 68.25396825396825 }, { "candidate": "Kane Gillikin", "votes": 60, "share": 31.746031746031743 } ], "participated": true, "map_key": "CARTERET_MASM" }, "geometry": { "type": "Polygon", "coordinates": [ [ [ -76.522710991080999, 34.715392999731385 ], [ -76.524532991272864, 34.729935999910296 ], [ -76.525377991565875, 34.731832999865524 ], [ -76.528516991289393, 34.734019000012594 ], [ -76.529491991166367, 34.737436999955285 ], [ -76.531745990787641, 34.739247000051911 ], [ -76.52996699157633, 34.741463999932932 ], [ -76.531548991130563, 34.740808000231894 ], [ -76.532611991732352, 34.762442000203215 ], [ -76.532480990888047, 34.788612999474452 ], [ -76.531157991755947, 34.785002999446235 ], [ -76.524925991771582, 34.778177999636512 ], [ -76.521542991677109, 34.777864000220674 ], [ -76.518960991084697, 34.779145000103121 ], [ -76.518572991563076, 34.777863000044434 ], [ -76.515147991501721, 34.776915000086284 ], [ -76.5147379918279, 34.775167999622226 ], [ -76.516031991448884, 34.77304900019989 ], [ -76.515609991168546, 34.772055999881069 ], [ -76.511330991622927, 34.770697999798024 ], [ -76.505029991052325, 34.770622000019088 ], [ -76.496533990866396, 34.769192000200022 ], [ -76.494257991287284, 34.754600000172523 ], [ -76.471557991377537, 34.753926999666319 ], [ -76.424927991735728, 34.749739000016966 ], [ -76.420016991004218, 34.748110999902508 ], [ -76.370717990924163, 34.720110999536224 ], [ -76.40803499172425, 34.677897999538857 ], [ -76.437382990893497, 34.64225300019384 ], [ -76.489981991283727, 34.666919000198469 ], [ -76.498894990953417, 34.672141999747708 ], [ -76.499643991086302, 34.671909000189494 ], [ -76.516680991025666, 34.685618999586715 ], [ -76.524963991452736, 34.694217999734079 ], [ -76.524017991365, 34.700326999805782 ], [ -76.520436991176737, 34.702351999820763 ], [ -76.519642991463584, 34.705881000231422 ], [ -76.521267991056249, 34.713140000125819 ], [ -76.522710991080999, 34.715392999731385 ] ] ] } },
{ "type": "Feature", "properties": { "county": null, "precinct": null, "enr_desc": "Mill Creek", "winner": null, "winner_votes": null, "winner_share": null, "runner_up": null, "runner_up_votes": null, "runner_up_share": null, "contest_votes": null, "margin_of_victory": null, "is_tie": false, "results": null, "participated": false, "map_key": null }, "geometry": { "type": "Polygon", "coordinates": [ [ [ -76.779545991462186, 34.753837000020475 ], [ -76.781894991785506, 34.752326000018357 ], [ -76.786011990809783, 34.752521000129192 ], [ -76.791748991731424, 34.755332000032581 ], [ -76.794062991140251, 34.758077000024244 ], [ -76.793841990801596, 34.760196999515017 ], [ -76.795406991798856, 34.762102999885037 ], [ -76.798845991328832, 34.761786999649814 ], [ -76.801331991739332, 34.762707999657948 ], [ -76.80269899085522, 34.764601999835449 ], [ -76.803001991060867, 34.766695000118972 ], [ -76.805315991587662, 34.766291999502187 ], [ -76.804702991328256, 34.763495000077491 ], [ -76.807384991536082, 34.761830999927767 ], [ -76.809755991502456, 34.763024000162076 ], [ -76.809346991236609, 34.765074999620275 ], [ -76.810238991340043, 34.765947999983503 ], [ -76.810067991125166, 34.76822399995774 ], [ -76.806837991789209, 34.769665999647479 ], [ -76.807286990972841, 34.770493999622985 ], [ -76.808742991512375, 34.770480000151096 ], [ -76.808761991263054, 34.771224999686993 ], [ -76.80659899140683, 34.771362999581996 ], [ -76.80610999129604, 34.772269000109581 ], [ -76.807081990980635, 34.773502999930592 ], [ -76.804764991206866, 34.774028999702288 ], [ -76.806484991787414, 34.777983000146875 ], [ -76.804718991222458, 34.779213000277295 ], [ -76.805436991420805, 34.781035000252238 ], [ -76.803812991555333, 34.780677000223278 ], [ -76.803482990848067, 34.781658000243176 ], [ -76.802182990968973, 34.781906999433836 ], [ -76.802491990935565, 34.782723999880758 ], [ -76.801623991746553, 34.782936999831101 ], [ -76.801360991397246, 34.784199999780625 ], [ -76.801997991111094, 34.786332999419251 ], [ -76.799180991370349, 34.787430000059032 ], [ -76.800862991479676, 34.788240999609719 ], [ -76.802050990779705, 34.790386000241028 ], [ -76.797290990756622, 34.800429999806177 ], [ -76.800807991331922, 34.806890999396593 ], [ -76.800272990986358, 34.807668999759507 ], [ -76.795660991147656, 34.799581999665421 ], [ -76.793571991330936, 34.800066999879562 ], [ -76.793980990940526, 34.79858399989984 ], [ -76.792759991503246, 34.799644000070955 ], [ -76.793076991633498, 34.798851999928182 ], [ -76.791424990957765, 34.799000999536588 ], [ -76.789181991532402, 34.801939999434275 ], [ -76.786892991682677, 34.802759000180494 ], [ -76.785828991435395, 34.80440199953685 ], [ -76.784057991267218, 34.803252999735562 ], [ -76.780130990811855, 34.803017999463577 ], [ -76.762697990972441, 34.801396999889178 ], [ -76.749108991654438, 34.80102699944598 ], [ -76.736592991078382, 34.803096999410428 ], [ -76.736342990755205, 34.799803999644851 ], [ -76.738555990928731, 34.795950999906331 ], [ -76.732670990894889, 34.794592999562269 ], [ -76.728626990950659, 34.795701999740736 ], [ -76.72643499178092, 34.793194999679692 ], [ -76.723270990853166, 34.793234999394599 ], [ -76.72278899169946, 34.792515999818086 ], [ -76.722271991173429, 34.789450000261844 ], [ -76.724128991277169, 34.784267999707453 ], [ -76.724174991226235, 34.780817999641521 ], [ -76.72023599172833, 34.76833099995627 ], [ -76.7289009911146, 34.768516999891858 ], [ -76.737430991812744, 34.766448000149524 ], [ -76.746994991361746, 34.76256399942919 ], [ -76.751391991586047, 34.761681999973995 ], [ -76.757140991130328, 34.757140999448993 ], [ -76.763745991050484, 34.754095999803667 ], [ -76.779545991462186, 34.753837000020475 ] ] ] } },
{ "type": "Feature", "properties": { "county": "CARTERET", "precinct": "MERR", "enr_desc": "Merrimon", "winner": "Chris Chadwick", "winner_votes": 78.0, "winner_share": 75.0, "runner_up": "Kane Gillikin", "runner_up_votes": 26.0, "runner_up_share": 25.0, "contest_votes": 104.0, "margin_of_victory": 50.0, "is_tie": false, "results": [ { "candidate": "Chris Chadwick", "votes": 78, "share": 75.0 }, { "candidate": "Kane Gillikin", "votes": 26, "share": 25.0 } ], "participated": true, "map_key": "CARTERET_MERR" }, "geometry": { "type": "Polygon", "coordinates": [ [ [ -76.662461991436047, 34.91225699984264 ], [ -76.652570991729746, 34.937594999565619 ], [ -76.685362991565526, 34.964240000214389 ], [ -76.711579990969, 34.981767999454483 ], [ -76.610760991329883, 35.038367999447445 ], [ -76.586226991375113, 34.980339999556278 ], [ -76.583336991366039, 34.967767999540705 ], [ -76.580075990941552, 34.961745999951702 ], [ -76.57517199122131, 34.955661000033629 ], [ -76.559407991197304, 34.94486200014795 ], [ -76.552916990918078, 34.939196999852882 ], [ -76.548485991761609, 34.932706999929479 ], [ -76.546023991444969, 34.92120500025991 ], [ -76.542031990741862, 34.914327000244498 ], [ -76.538899991506312, 34.910933999741097 ], [ -76.538939990738626, 34.904115999720403 ], [ -76.536815991544998, 34.901858999473994 ], [ -76.528093991761864, 34.899123999698546 ], [ -76.520202991591148, 34.891638000091376 ], [ -76.526218990958768, 34.883020000254383 ], [ -76.529842991371794, 34.881578000095182 ], [ -76.530505991291065, 34.879182000103697 ], [ -76.53403999086089, 34.874643999937582 ], [ -76.532713991328521, 34.822663999443996 ], [ -76.608381990763704, 34.821941999782254 ], [ -76.608621991492555, 34.850428999794936 ], [ -76.62483499076032, 34.847282999714523 ], [ -76.631100991372293, 34.847721999459871 ], [ -76.624721990760364, 34.890596999887201 ], [ -76.623264991580299, 34.893373999385254 ], [ -76.624062991122344, 34.89343399983531 ], [ -76.626379990923084, 34.896738999388511 ], [ -76.630231991627653, 34.89778400007544 ], [ -76.634019991567641, 34.897749000028 ], [ -76.635246991168756, 34.899872999927034 ], [ -76.660583990980726, 34.910328999715752 ], [ -76.662461991436047, 34.91225699984264 ] ] ] } },
{ "type": "Feature", "properties": { "county": null, "precinct": null, "enr_desc": "Morehead 2", "winner": null, "winner_votes": null, "winner_share": null, "runner_up": null, "runner_up_votes": null, "runner_up_share": null, "contest_votes": null, "margin_of_victory": null, "is_tie": false, "results": null, "participated": false, "map_key": null }, "geometry": { "type": "Polygon", "coordinates": [ [ [ -76.729971990847773, 34.716068000158003 ], [ -76.781001991323777, 34.720000999611443 ], [ -76.780598991645689, 34.726148999410356 ], [ -76.782216990996673, 34.730028000195361 ], [ -76.78443899139387, 34.730952000174504 ], [ -76.783654991558521, 34.732293999735617 ], [ -76.774808991659654, 34.729078000163341 ], [ -76.772898991256469, 34.730081999400163 ], [ -76.76139199183875, 34.725785999694935 ], [ -76.761692991539618, 34.727880999724704 ], [ -76.762531990788901, 34.727026999912745 ], [ -76.767429991281361, 34.729764000058921 ], [ -76.764636991609919, 34.731098999542759 ], [ -76.765402991439515, 34.732325999444285 ], [ -76.759028991632491, 34.732741999888887 ], [ -76.758788991517179, 34.734755999735455 ], [ -76.756222991511649, 34.735387000254256 ], [ -76.75719599118105, 34.737402000276631 ], [ -76.756242991191627, 34.737535999671557 ], [ -76.755248991451964, 34.735733999691007 ], [ -76.753389991544736, 34.736146999498402 ], [ -76.752510991748451, 34.733564999461279 ], [ -76.744925991837533, 34.734225999647023 ], [ -76.743655991517869, 34.733346999627386 ], [ -76.740643991604472, 34.734660999830076 ], [ -76.738799991815952, 34.733044999408321 ], [ -76.73759399128113, 34.736559000280053 ], [ -76.735550991650001, 34.735738999492078 ], [ -76.735719991136889, 34.735167000261477 ], [ -76.735226991801909, 34.735637999830224 ], [ -76.730033991104051, 34.734757999873239 ], [ -76.729703991172144, 34.734147999967284 ], [ -76.728531991177903, 34.73156099999872 ], [ -76.729971990847773, 34.716068000158003 ] ] ] } },
{ "type": "Feature", "properties": { "county": null, "precinct": null, "enr_desc": "Morehead 3", "winner": null, "winner_votes": null, "winner_share": null, "runner_up": null, "runner_up_votes": null, "runner_up_share": null, "contest_votes": null, "margin_of_victory": null, "is_tie": false, "results": null, "participated": false, "map_key": null }, "geometry": { "type": "Polygon", "coordinates": [ [ [ -76.783654991558521, 34.732293999735617 ], [ -76.795376991610127, 34.735670000283477 ], [ -76.792816990749571, 34.737446999988236 ], [ -76.792365990814801, 34.74104999997612 ], [ -76.789140991550767, 34.741313999861553 ], [ -76.789115991787, 34.742969999681009 ], [ -76.780149991683842, 34.748559999896131 ], [ -76.77911099150073, 34.750599000088975 ], [ -76.777306991530551, 34.751013999792349 ], [ -76.776306991650685, 34.753494000140556 ], [ -76.778354990871662, 34.753815999581533 ], [ -76.780684991789556, 34.752651999697754 ], [ -76.779545991462186, 34.753837000020475 ], [ -76.763745991050484, 34.754095999803667 ], [ -76.757140991130328, 34.757140999448993 ], [ -76.751391991586047, 34.761681999973995 ], [ -76.746994991361746, 34.76256399942919 ], [ -76.737430991812744, 34.766448000149524 ], [ -76.7289009911146, 34.768516999891858 ], [ -76.72023599172833, 34.76833099995627 ], [ -76.722287991582363, 34.760305999953346 ], [ -76.7254329907759, 34.756737999930479 ], [ -76.727901991475917, 34.757224999861727 ], [ -76.728328991520939, 34.746340999991126 ], [ -76.730916991195684, 34.740648000034426 ], [ -76.731292990992443, 34.73765500007206 ], [ -76.729703991172144, 34.734147999967284 ], [ -76.730033991104051, 34.734757999873239 ], [ -76.735226991801909, 34.735637999830224 ], [ -76.735719991136889, 34.735167000261477 ], [ -76.735550991650001, 34.735738999492078 ], [ -76.73759399128113, 34.736559000280053 ], [ -76.738799991815952, 34.733044999408321 ], [ -76.740643991604472, 34.734660999830076 ], [ -76.743655991517869, 34.733346999627386 ], [ -76.744925991837533, 34.734225999647023 ], [ -76.752510991748451, 34.733564999461279 ], [ -76.753389991544736, 34.736146999498402 ], [ -76.755248991451964, 34.735733999691007 ], [ -76.756242991191627, 34.737535999671557 ], [ -76.75719599118105, 34.737402000276631 ], [ -76.756222991511649, 34.735387000254256 ], [ -76.758788991517179, 34.734755999735455 ], [ -76.759028991632491, 34.732741999888887 ], [ -76.765402991439515, 34.732325999444285 ], [ -76.764636991609919, 34.731098999542759 ], [ -76.767429991281361, 34.729764000058921 ], [ -76.762531990788901, 34.727026999912745 ], [ -76.761692991539618, 34.727880999724704 ], [ -76.76139199183875, 34.725785999694935 ], [ -76.772898991256469, 34.730081999400163 ], [ -76.774808991659654, 34.729078000163341 ], [ -76.783654991558521, 34.732293999735617 ] ] ] } },
{ "type": "Feature", "properties": { "county": null, "precinct": null, "enr_desc": "Newport 1", "winner": null, "winner_votes": null, "winner_share": null, "runner_up": null, "runner_up_votes": null, "runner_up_share": null, "contest_votes": null, "margin_of_victory": null, "is_tie": false, "results": null, "participated": false, "map_key": null }, "geometry": { "type": "Polygon", "coordinates": [ [ [ -76.810238991340043, 34.765947999983503 ], [ -76.811331991214729, 34.763280999451482 ], [ -76.812320991763144, 34.762842999528488 ], [ -76.816296990826714, 34.764344999860207 ], [ -76.816874990794446, 34.766826999822335 ], [ -76.820703991274172, 34.764799999625524 ], [ -76.822679991415043, 34.766841999534627 ], [ -76.824706991196521, 34.766375999595496 ], [ -76.82926099157379, 34.767045999648644 ], [ -76.829431991337898, 34.769752999568055 ], [ -76.833359991724137, 34.766848999862788 ], [ -76.837102990919249, 34.768151999613117 ], [ -76.837052991006033, 34.770204999596572 ], [ -76.839503990922807, 34.771277000014585 ], [ -76.839858991469754, 34.772868999880544 ], [ -76.842446991773613, 34.773756999730423 ], [ -76.843775991105304, 34.776742999455067 ], [ -76.845414991520187, 34.776302999483626 ], [ -76.851308991009105, 34.778670999580129 ], [ -76.853549991127849, 34.778170000168174 ], [ -76.855496991232243, 34.779286999658027 ], [ -76.858236991013428, 34.779305000085699 ], [ -76.859662991184976, 34.780842000168164 ], [ -76.860256991221078, 34.776702999853299 ], [ -76.860873991521345, 34.777251999465079 ], [ -76.865119991543665, 34.770404999421913 ], [ -76.871461991430593, 34.77631200026898 ], [ -76.877121991589519, 34.791492000120257 ], [ -76.879934991599427, 34.812862999427821 ], [ -76.87629799134973, 34.822029999723696 ], [ -76.87606199168664, 34.824534999781335 ], [ -76.882305990892931, 34.836684999413549 ], [ -76.882351991639311, 34.842424999542523 ], [ -76.88320099160515, 34.844892999525449 ], [ -76.781281991530719, 34.846528000123435 ], [ -76.793693991678595, 34.821308000202144 ], [ -76.795526991191608, 34.819041000140324 ], [ -76.795638991562782, 34.815193999647327 ], [ -76.795499991042618, 34.814576000235391 ], [ -76.784615991758301, 34.815490000174442 ], [ -76.783395990864932, 34.811115999572259 ], [ -76.781951990972516, 34.811092999397125 ], [ -76.780130990811855, 34.803017999463577 ], [ -76.784057991267218, 34.803252999735562 ], [ -76.785828991435395, 34.80440199953685 ], [ -76.786892991682677, 34.802759000180494 ], [ -76.789181991532402, 34.801939999434275 ], [ -76.791424990957765, 34.799000999536588 ], [ -76.793076991633498, 34.798851999928182 ], [ -76.792759991503246, 34.799644000070955 ], [ -76.793980990940526, 34.79858399989984 ], [ -76.793571991330936, 34.800066999879562 ], [ -76.795660991147656, 34.799581999665421 ], [ -76.800272990986358, 34.807668999759507 ], [ -76.800807991331922, 34.806890999396593 ], [ -76.797290990756622, 34.800429999806177 ], [ -76.802050990779705, 34.790386000241028 ], [ -76.800862991479676, 34.788240999609719 ], [ -76.799180991370349, 34.787430000059032 ], [ -76.801997991111094, 34.786332999419251 ], [ -76.801360991397246, 34.784199999780625 ], [ -76.801623991746553, 34.782936999831101 ], [ -76.802491990935565, 34.782723999880758 ], [ -76.802182990968973, 34.781906999433836 ], [ -76.803482990848067, 34.781658000243176 ], [ -76.803812991555333, 34.780677000223278 ], [ -76.805436991420805, 34.781035000252238 ], [ -76.804718991222458, 34.779213000277295 ], [ -76.806484991787414, 34.777983000146875 ], [ -76.804764991206866, 34.774028999702288 ], [ -76.807081990980635, 34.773502999930592 ], [ -76.80610999129604, 34.772269000109581 ], [ -76.80659899140683, 34.771362999581996 ], [ -76.808761991263054, 34.771224999686993 ], [ -76.808742991512375, 34.770480000151096 ], [ -76.807286990972841, 34.770493999622985 ], [ -76.806837991789209, 34.769665999647479 ], [ -76.810067991125166, 34.76822399995774 ], [ -76.810238991340043, 34.765947999983503 ] ] ] } },
{ "type": "Feature", "properties": { "county": null, "precinct": null, "enr_desc": "Newport 2", "winner": null, "winner_votes": null, "winner_share": null, "runner_up": null, "runner_up_votes": null, "runner_up_share": null, "contest_votes": null, "margin_of_victory": null, "is_tie": false, "results": null, "participated": false, "map_key": null }, "geometry": { "type": "Polygon", "coordinates": [ [ [ -76.957774991389968, 34.739049999890646 ], [ -76.957725990752991, 34.766789000017077 ], [ -76.957582991161019, 34.809025999972782 ], [ -76.954437991092064, 34.809066000184671 ], [ -76.954772991685331, 34.824508000118406 ], [ -76.882305990892931, 34.836684999413549 ], [ -76.87606199168664, 34.824534999781335 ], [ -76.87629799134973, 34.822029999723696 ], [ -76.879934991599427, 34.812862999427821 ], [ -76.877121991589519, 34.791492000120257 ], [ -76.871461991430593, 34.77631200026898 ], [ -76.865119991543665, 34.770404999421913 ], [ -76.867195990987568, 34.767158999709189 ], [ -76.873058991336805, 34.768684000121404 ], [ -76.877451991268089, 34.767837999895747 ], [ -76.905078990986127, 34.757302999873247 ], [ -76.911617991063409, 34.75285099940686 ], [ -76.917796991515118, 34.749994999455993 ], [ -76.918796991156242, 34.751084999791452 ], [ -76.92007099179655, 34.749982999804935 ], [ -76.924112991141783, 34.750341999575141 ], [ -76.927932991558365, 34.752197000029604 ], [ -76.929447991428091, 34.754960999711997 ], [ -76.93118599091332, 34.755496999600389 ], [ -76.935690991632569, 34.739059000107126 ], [ -76.941079990914304, 34.735812999434359 ], [ -76.947501991151981, 34.736055999763643 ], [ -76.95263699150513, 34.737580000232455 ], [ -76.95383499167275, 34.739175999893462 ], [ -76.957774991389968, 34.739049999890646 ] ] ] } },
{ "type": "Feature", "properties": { "county": "CARTERET", "precinct": "NRIV", "enr_desc": "North River", "winner": "Chris Chadwick", "winner_votes": 83.0, "winner_share": 81.372549019607845, "runner_up": "Kane Gillikin", "runner_up_votes": 19.0, "runner_up_share": 18.627450980392158, "contest_votes": 102.0, "margin_of_victory": 62.745098039215691, "is_tie": false, "results": [ { "candidate": "Chris Chadwick", "votes": 83, "share": 81.37254901960785 }, { "candidate": "Kane Gillikin", "votes": 19, "share": 18.627450980392158 } ], "participated": true, "map_key": "CARTERET_NRIV" }, "geometry": { "type": "Polygon", "coordinates": [ [ [ -76.646529991636442, 34.769399999646211 ], [ -76.651926990876945, 34.793391999838434 ], [ -76.658926991494027, 34.812483999613171 ], [ -76.664791991531899, 34.81079900021652 ], [ -76.669046991352872, 34.811193999995837 ], [ -76.668709991025906, 34.851008999955368 ], [ -76.664597990982571, 34.856961999398166 ], [ -76.672374990859709, 34.860901999816321 ], [ -76.680119991521252, 34.860832999816488 ], [ -76.680375991518289, 34.869901999495561 ], [ -76.678343991433209, 34.87649199965432 ], [ -76.672506991218597, 34.882788999830055 ], [ -76.67208999092378, 34.88519299983367 ], [ -76.670811990842338, 34.885422000053637 ], [ -76.672005991711245, 34.888605000289814 ], [ -76.675729990990234, 34.888714000256677 ], [ -76.670613991810214, 34.892885000199641 ], [ -76.67016699141503, 34.895693000046229 ], [ -76.670868991177954, 34.898217999717232 ], [ -76.669353990947812, 34.9004939998838 ], [ -76.669707990798429, 34.902412000122112 ], [ -76.66778399079621, 34.903144999391031 ], [ -76.66817299149119, 34.904428999599617 ], [ -76.666521990968107, 34.905247000171734 ], [ -76.665140991517248, 34.908286000059775 ], [ -76.663609990743723, 34.908922000122935 ], [ -76.664837991598276, 34.910208999719593 ], [ -76.662461991436047, 34.91225699984264 ], [ -76.660583990980726, 34.910328999715752 ], [ -76.635246991168756, 34.899872999927034 ], [ -76.634019991567641, 34.897749000028 ], [ -76.630231991627653, 34.89778400007544 ], [ -76.626379990923084, 34.896738999388511 ], [ -76.624062991122344, 34.89343399983531 ], [ -76.623264991580299, 34.893373999385254 ], [ -76.624721990760364, 34.890596999887201 ], [ -76.631100991372293, 34.847721999459871 ], [ -76.631667991267562, 34.84413500016133 ], [ -76.629935991726157, 34.838365999507481 ], [ -76.630571990735632, 34.836734000003503 ], [ -76.629138991274431, 34.835925000203936 ], [ -76.628610990749166, 34.834118999784913 ], [ -76.627184991183782, 34.833984999769271 ], [ -76.626524990846491, 34.831690999882518 ], [ -76.627694990829411, 34.830869999635453 ], [ -76.627806991619764, 34.829653999423961 ], [ -76.626807991766668, 34.829204000037251 ], [ -76.62764899175437, 34.826863999503004 ], [ -76.627336991280387, 34.82532899984902 ], [ -76.625945990864963, 34.82484300010735 ], [ -76.627554991705168, 34.822740999972581 ], [ -76.629309991380339, 34.822943000038869 ], [ -76.63053199077865, 34.821073999460978 ], [ -76.628366991453689, 34.818429000092863 ], [ -76.623879991015883, 34.818802999649471 ], [ -76.622729990959414, 34.817766999619664 ], [ -76.622768990945488, 34.815484999523932 ], [ -76.621155990808163, 34.814273000067594 ], [ -76.620713991089403, 34.807906999840505 ], [ -76.611016990779291, 34.788943999478775 ], [ -76.603859990944173, 34.761712999518814 ], [ -76.618915991405871, 34.759185999549523 ], [ -76.640377990818337, 34.75969999991645 ], [ -76.642362991562109, 34.768977999709371 ], [ -76.646421991161944, 34.768444999888381 ], [ -76.646529991636442, 34.769399999646211 ] ] ] } },
{ "type": "Feature", "properties": { "county": "CARTERET", "precinct": "OTBEG", "enr_desc": "Otway/Straits/Bettie/Gloucester", "winner": "Chris Chadwick", "winner_votes": 385.0, "winner_share": 72.778827977315686, "runner_up": "Kane Gillikin", "runner_up_votes": 144.0, "runner_up_share": 27.221172022684311, "contest_votes": 529.0, "margin_of_victory": 45.557655954631372, "is_tie": false, "results": [ { "candidate": "Chris Chadwick", "votes": 385, "share": 72.77882797731569 }, { "candidate": "Kane Gillikin", "votes": 144, "share": 27.22117202268431 } ], "participated": true, "map_key": "CARTERET_OTBEG" }, "geometry": { "type": "Polygon", "coordinates": [ [ [ -76.59278999139876, 34.7187209995354 ], [ -76.599719990910543, 34.750161000154826 ], [ -76.603859990944173, 34.761712999518814 ], [ -76.611016990779291, 34.788943999478775 ], [ -76.620713991089403, 34.807906999840505 ], [ -76.621155990808163, 34.814273000067594 ], [ -76.622768990945488, 34.815484999523932 ], [ -76.622729990959414, 34.817766999619664 ], [ -76.623879991015883, 34.818802999649471 ], [ -76.628366991453689, 34.818429000092863 ], [ -76.63053199077865, 34.821073999460978 ], [ -76.629309991380339, 34.822943000038869 ], [ -76.627554991705168, 34.822740999972581 ], [ -76.625945990864963, 34.82484300010735 ], [ -76.627336991280387, 34.82532899984902 ], [ -76.62764899175437, 34.826863999503004 ], [ -76.626807991766668, 34.829204000037251 ], [ -76.627806991619764, 34.829653999423961 ], [ -76.627694990829411, 34.830869999635453 ], [ -76.626524990846491, 34.831690999882518 ], [ -76.627184991183782, 34.833984999769271 ], [ -76.628610990749166, 34.834118999784913 ], [ -76.629138991274431, 34.835925000203936 ], [ -76.630571990735632, 34.836734000003503 ], [ -76.629935991726157, 34.838365999507481 ], [ -76.631667991267562, 34.84413500016133 ], [ -76.631100991372293, 34.847721999459871 ], [ -76.62483499076032, 34.847282999714523 ], [ -76.608621991492555, 34.850428999794936 ], [ -76.608381990763704, 34.821941999782254 ], [ -76.532713991328521, 34.822663999443996 ], [ -76.532480990888047, 34.788612999474452 ], [ -76.532611991732352, 34.762442000203215 ], [ -76.531548991130563, 34.740808000231894 ], [ -76.52996699157633, 34.741463999932932 ], [ -76.531745990787641, 34.739247000051911 ], [ -76.529491991166367, 34.737436999955285 ], [ -76.528516991289393, 34.734019000012594 ], [ -76.525377991565875, 34.731832999865524 ], [ -76.524532991272864, 34.729935999910296 ], [ -76.522710991080999, 34.715392999731385 ], [ -76.551004991699372, 34.717247999793265 ], [ -76.59278999139876, 34.7187209995354 ] ] ] } },
{ "type": "Feature", "properties": { "county": null, "precinct": null, "enr_desc": "Peletier", "winner": null, "winner_votes": null, "winner_share": null, "runner_up": null, "runner_up_votes": null, "runner_up_share": null, "contest_votes": null, "margin_of_victory": null, "is_tie": false, "results": null, "participated": false, "map_key": null }, "geometry": { "type": "Polygon", "coordinates": [ [ [ -77.125420990804599, 34.746282999738874 ], [ -77.114318991490805, 34.751366999929651 ], [ -77.110813991579093, 34.750467999438442 ], [ -77.109373991244766, 34.751920000137751 ], [ -77.106977991373981, 34.75220599967156 ], [ -77.106946991369114, 34.750874999420233 ], [ -77.105829991399119, 34.750596000074815 ], [ -77.105171991636652, 34.751289999810417 ], [ -77.099503991481328, 34.752213000104874 ], [ -77.092184991685357, 34.752039999859626 ], [ -77.091882990888507, 34.753351999426599 ], [ -77.072957991540676, 34.75917799953266 ], [ -77.066364991131223, 34.753432999487245 ], [ -77.064426991369885, 34.750353000068884 ], [ -77.064003991510845, 34.747076000277858 ], [ -77.055881990871242, 34.744492999855041 ], [ -77.05686599153286, 34.741747999915781 ], [ -77.056304991505939, 34.740544000160597 ], [ -77.057206991095455, 34.740549999844788 ], [ -77.058882991346863, 34.734331999736362 ], [ -77.047647990912395, 34.737651000243552 ], [ -77.038486991056928, 34.743352999714276 ], [ -77.026214991378396, 34.747854000291021 ], [ -77.028780990911088, 34.75074000010521 ], [ -77.026463990783299, 34.752609000112535 ], [ -77.012241991210985, 34.755661999478015 ], [ -77.012233991065273, 34.754566000131511 ], [ -77.015064991688959, 34.750798999879571 ], [ -77.018227991111175, 34.750610999975443 ], [ -77.020721991454067, 34.752582000089639 ], [ -77.021886991086987, 34.75242999988199 ], [ -77.021392991519988, 34.74908000014662 ], [ -77.021924991673529, 34.747853999594803 ], [ -77.026566991803662, 34.74097600021048 ], [ -77.028161991142412, 34.740653999844326 ], [ -77.029601991442817, 34.739521999677706 ], [ -77.029640991433737, 34.738521999774932 ], [ -77.034408991754219, 34.735297000162731 ], [ -77.040672990971231, 34.723823999590287 ], [ -77.044411991845919, 34.721529999546732 ], [ -77.044768990913227, 34.720506000290897 ], [ -77.043724991592299, 34.720509000071864 ], [ -77.043860991522934, 34.719424999694425 ], [ -77.045245991276673, 34.718511999626735 ], [ -77.048435991685835, 34.719275000157573 ], [ -77.048769991242139, 34.717037000104241 ], [ -77.047549991134957, 34.716862999568377 ], [ -77.048783991076846, 34.716328000036164 ], [ -77.047523990830513, 34.715656999803521 ], [ -77.050229990797547, 34.715147999833071 ], [ -77.05053799169589, 34.712586999876876 ], [ -77.053674999186626, 34.711807999601263 ], [ -77.054560991465948, 34.711385999849526 ], [ -77.058915991141077, 34.712821000140693 ], [ -77.06983199079518, 34.711124999975979 ], [ -77.074069991708015, 34.713245999667521 ], [ -77.074430991777461, 34.714093999823014 ], [ -77.073869991535972, 34.712565999795807 ], [ -77.075351991678062, 34.711349999756855 ], [ -77.084489991584022, 34.707523999848455 ], [ -77.089981990961036, 34.71397999943197 ], [ -77.105993991244659, 34.710105999700552 ], [ -77.109152991145038, 34.717874000045171 ], [ -77.113822991012427, 34.724065999503701 ], [ -77.121797991267243, 34.731533999902602 ], [ -77.125420990804599, 34.746282999738874 ] ] ] } },
{ "type": "Feature", "properties": { "county": null, "precinct": null, "enr_desc": "Stella", "winner": null, "winner_votes": null, "winner_share": null, "runner_up": null, "runner_up_votes": null, "runner_up_share": null, "contest_votes": null, "margin_of_victory": null, "is_tie": false, "results": null, "participated": false, "map_key": null }, "geometry": { "type": "Polygon", "coordinates": [ [ [ -77.125420990804599, 34.746282999738874 ], [ -77.125715991834923, 34.750486999794241 ], [ -77.124942991446062, 34.754384999429718 ], [ -77.125645991698349, 34.756707000107404 ], [ -77.126981990894549, 34.757788999459315 ], [ -77.131266991007465, 34.758918000077614 ], [ -77.134853991030127, 34.76415799996024 ], [ -77.136813991686822, 34.764437999439679 ], [ -77.139332991459639, 34.760105000134587 ], [ -77.141685991569403, 34.759703999717019 ], [ -77.142868991291394, 34.760908999620746 ], [ -77.143362991841187, 34.765788999471106 ], [ -77.149016990937909, 34.768505999527029 ], [ -77.155023991620766, 34.765634000229298 ], [ -77.158145991200499, 34.766267000168703 ], [ -77.158831991100598, 34.7682560002063 ], [ -77.158418991253981, 34.769478000159474 ], [ -77.151625991534175, 34.770094999645231 ], [ -77.150653991634258, 34.771170999997182 ], [ -77.153129991063338, 34.773139999681035 ], [ -77.153321991495091, 34.776232999929327 ], [ -77.153980991447085, 34.776836999657661 ], [ -77.155499991655162, 34.776331999623608 ], [ -77.157584991350376, 34.773569000147283 ], [ -77.160094991542024, 34.774257000016313 ], [ -77.16006099116322, 34.7770139997914 ], [ -77.157117991348358, 34.779738999552947 ], [ -77.158374991542331, 34.781663000314914 ], [ -77.160654991104579, 34.781813999921013 ], [ -77.164048991415498, 34.778910999491117 ], [ -77.166286991654076, 34.779812999631332 ], [ -77.165219990840953, 34.783735999605454 ], [ -77.165985991290924, 34.785031999468238 ], [ -77.163275991610689, 34.785382999698768 ], [ -77.162037991698028, 34.786948999950177 ], [ -77.16571399082936, 34.788146000097569 ], [ -77.167602991323861, 34.791319000249246 ], [ -77.164381991192627, 34.79050099961168 ], [ -77.161601991687121, 34.793267999634601 ], [ -77.161199991774694, 34.795200000309329 ], [ -77.160530990875387, 34.794182000206085 ], [ -77.159369991387166, 34.794384999526194 ], [ -77.158263991276556, 34.793512999474785 ], [ -77.156802990988766, 34.794186999568431 ], [ -77.156480990968021, 34.793158000048855 ], [ -77.15330299149808, 34.792570999438361 ], [ -77.152556990771075, 34.79330899973283 ], [ -77.152242990810677, 34.792479999962914 ], [ -77.14996299126642, 34.792651000134462 ], [ -77.147753991067518, 34.794190999647313 ], [ -77.147046990964228, 34.793414999954493 ], [ -77.145310991181802, 34.794075999566211 ], [ -77.144190990975702, 34.793336000048605 ], [ -77.143252991208087, 34.793959000210961 ], [ -77.142229991021338, 34.797004000010723 ], [ -77.139572991075482, 34.796983000096724 ], [ -77.137783991379877, 34.79785900026512 ], [ -77.137278990839278, 34.797067999995839 ], [ -77.13571399161593, 34.79799299985298 ], [ -77.134232991143179, 34.796835999871647 ], [ -77.130664991268929, 34.798124999730298 ], [ -77.128125991469616, 34.795898000052546 ], [ -77.125602991390636, 34.796174000183804 ], [ -77.125392991787933, 34.793375999451086 ], [ -77.123646990946497, 34.792635999845864 ], [ -77.120664990831926, 34.793370000175834 ], [ -77.120032991111955, 34.794501000043269 ], [ -77.116204991810278, 34.793916999540436 ], [ -77.115565990980883, 34.797229999408657 ], [ -77.114552991763404, 34.797537999727915 ], [ -77.112687991116275, 34.796474999539143 ], [ -77.111202991204522, 34.798083000185578 ], [ -77.110269990932736, 34.801024999793782 ], [ -77.107381991085362, 34.803105999872351 ], [ -77.103731990766562, 34.802448000032307 ], [ -77.101562991214905, 34.80071499956297 ], [ -77.098784991647335, 34.801023000192608 ], [ -77.096149991793254, 34.79924299982266 ], [ -77.090730991568932, 34.799316000082612 ], [ -77.089869991550984, 34.800536999958688 ], [ -77.090675991182053, 34.803462000033818 ], [ -77.089495991543387, 34.805230999603012 ], [ -77.090281991080275, 34.806068999545694 ], [ -77.089348991506682, 34.807943999925691 ], [ -77.090081991301389, 34.808669000001601 ], [ -77.084951991509797, 34.811147999480909 ], [ -77.08025499114315, 34.809984000227125 ], [ -77.07826299154749, 34.811322000011977 ], [ -76.957582991161019, 34.809025999972782 ], [ -76.957725990752991, 34.766789000017077 ], [ -76.970586991235734, 34.767476999790524 ], [ -76.975931991102115, 34.770089000256014 ], [ -76.979609991496901, 34.769033999467197 ], [ -76.983713990822679, 34.76931399974098 ], [ -76.986211990928496, 34.76865299993981 ], [ -77.001447991424484, 34.756321000080554 ], [ -77.009172990901746, 34.751066999828453 ], [ -77.018221991254649, 34.748028999430808 ], [ -77.021924991673529, 34.747853999594803 ], [ -77.021392991519988, 34.74908000014662 ], [ -77.021886991086987, 34.75242999988199 ], [ -77.020721991454067, 34.752582000089639 ], [ -77.018227991111175, 34.750610999975443 ], [ -77.015064991688959, 34.750798999879571 ], [ -77.012233991065273, 34.754566000131511 ], [ -77.012241991210985, 34.755661999478015 ], [ -77.026463990783299, 34.752609000112535 ], [ -77.028780990911088, 34.75074000010521 ], [ -77.026214991378396, 34.747854000291021 ], [ -77.038486991056928, 34.743352999714276 ], [ -77.047647990912395, 34.737651000243552 ], [ -77.058882991346863, 34.734331999736362 ], [ -77.057206991095455, 34.740549999844788 ], [ -77.056304991505939, 34.740544000160597 ], [ -77.05686599153286, 34.741747999915781 ], [ -77.055881990871242, 34.744492999855041 ], [ -77.064003991510845, 34.747076000277858 ], [ -77.064426991369885, 34.750353000068884 ], [ -77.066364991131223, 34.753432999487245 ], [ -77.072957991540676, 34.75917799953266 ], [ -77.091882990888507, 34.753351999426599 ], [ -77.092184991685357, 34.752039999859626 ], [ -77.099503991481328, 34.752213000104874 ], [ -77.105171991636652, 34.751289999810417 ], [ -77.105829991399119, 34.750596000074815 ], [ -77.106946991369114, 34.750874999420233 ], [ -77.106977991373981, 34.75220599967156 ], [ -77.109373991244766, 34.751920000137751 ], [ -77.110813991579093, 34.750467999438442 ], [ -77.114318991490805, 34.751366999929651 ], [ -77.125420990804599, 34.746282999738874 ] ] ] } },
{ "type": "Feature", "properties": { "county": "CARTERET", "precinct": "WIHA", "enr_desc": "Wiregrass/Harlowe", "winner": "Chris Chadwick", "winner_votes": 52.0, "winner_share": 75.362318840579718, "runner_up": "Kane Gillikin", "runner_up_votes": 17.0, "runner_up_share": 24.637681159420293, "contest_votes": 69.0, "margin_of_victory": 50.724637681159422, "is_tie": false, "results": [ { "candidate": "Chris Chadwick", "votes": 52, "share": 75.36231884057972 }, { "candidate": "Kane Gillikin", "votes": 17, "share": 24.637681159420293 } ], "participated": true, "map_key": "CARTERET_WIHA" }, "geometry": { "type": "Polygon", "coordinates": [ [ [ -76.646529991636442, 34.769399999646211 ], [ -76.650394991637555, 34.768045999949166 ], [ -76.652202990969172, 34.768510999451692 ], [ -76.652975991254095, 34.766603999679077 ], [ -76.657430991358311, 34.762794999743051 ], [ -76.658621991649156, 34.763319999800224 ], [ -76.660692991142028, 34.761862999635845 ], [ -76.661366991685327, 34.760233999880271 ], [ -76.671226990951041, 34.756568999983045 ], [ -76.674287991680629, 34.747781999911879 ], [ -76.683854991435311, 34.755776000197436 ], [ -76.69157299140727, 34.760876000216875 ], [ -76.713199991074049, 34.767341999577354 ], [ -76.72023599172833, 34.76833099995627 ], [ -76.724174991226235, 34.780817999641521 ], [ -76.724128991277169, 34.784267999707453 ], [ -76.722271991173429, 34.789450000261844 ], [ -76.72278899169946, 34.792515999818086 ], [ -76.723270990853166, 34.793234999394599 ], [ -76.72643499178092, 34.793194999679692 ], [ -76.728626990950659, 34.795701999740736 ], [ -76.732670990894889, 34.794592999562269 ], [ -76.738555990928731, 34.795950999906331 ], [ -76.736342990755205, 34.799803999644851 ], [ -76.736592991078382, 34.803096999410428 ], [ -76.749108991654438, 34.80102699944598 ], [ -76.762697990972441, 34.801396999889178 ], [ -76.780130990811855, 34.803017999463577 ], [ -76.781951990972516, 34.811092999397125 ], [ -76.783395990864932, 34.811115999572259 ], [ -76.784615991758301, 34.815490000174442 ], [ -76.795499991042618, 34.814576000235391 ], [ -76.795638991562782, 34.815193999647327 ], [ -76.795526991191608, 34.819041000140324 ], [ -76.793693991678595, 34.821308000202144 ], [ -76.781281991530719, 34.846528000123435 ], [ -76.771765991240684, 34.846677000080156 ], [ -76.766429991665973, 34.848795000124461 ], [ -76.763853991602829, 34.847876999938094 ], [ -76.762154991016942, 34.848231999721193 ], [ -76.760798991150466, 34.846612000236718 ], [ -76.758413991438857, 34.847410000043084 ], [ -76.75800799090851, 34.846284999933964 ], [ -76.693017990874523, 34.869179999793175 ], [ -76.69318899173409, 34.871002000093661 ], [ -76.691849991416618, 34.871066999613262 ], [ -76.691034991484031, 34.882386000283596 ], [ -76.686770991787924, 34.888701999443199 ], [ -76.686095991616753, 34.895629999993943 ], [ -76.682973991799074, 34.899268999575774 ], [ -76.674619991486566, 34.901942999609062 ], [ -76.669566991761741, 34.905134999512399 ], [ -76.664837991598276, 34.910208999719593 ], [ -76.663609990743723, 34.908922000122935 ], [ -76.665140991517248, 34.908286000059775 ], [ -76.666521990968107, 34.905247000171734 ], [ -76.66817299149119, 34.904428999599617 ], [ -76.66778399079621, 34.903144999391031 ], [ -76.669707990798429, 34.902412000122112 ], [ -76.669353990947812, 34.9004939998838 ], [ -76.670868991177954, 34.898217999717232 ], [ -76.67016699141503, 34.895693000046229 ], [ -76.670613991810214, 34.892885000199641 ], [ -76.675729990990234, 34.888714000256677 ], [ -76.672005991711245, 34.888605000289814 ], [ -76.670811990842338, 34.885422000053637 ], [ -76.67208999092378, 34.88519299983367 ], [ -76.672506991218597, 34.882788999830055 ], [ -76.678343991433209, 34.87649199965432 ], [ -76.680375991518289, 34.869901999495561 ], [ -76.680119991521252, 34.860832999816488 ], [ -76.672374990859709, 34.860901999816321 ], [ -76.664597990982571, 34.856961999398166 ], [ -76.668709991025906, 34.851008999955368 ], [ -76.669046991352872, 34.811193999995837 ], [ -76.664791991531899, 34.81079900021652 ], [ -76.658926991494027, 34.812483999613171 ], [ -76.651926990876945, 34.793391999838434 ], [ -76.646529991636442, 34.769399999646211 ] ] ] } },
{ "type": "Feature", "properties": { "county": null, "precinct": null, "enr_desc": "Wildwood", "winner": null, "winner_votes": null, "winner_share": null, "runner_up": null, "runner_up_votes": null, "runner_up_share": null, "contest_votes": null, "margin_of_victory": null, "is_tie": false, "results": null, "participated": false, "map_key": null }, "geometry": { "type": "Polygon", "coordinates": [ [ [ -76.867195990987568, 34.767158999709189 ], [ -76.865119991543665, 34.770404999421913 ], [ -76.860873991521345, 34.777251999465079 ], [ -76.860256991221078, 34.776702999853299 ], [ -76.859662991184976, 34.780842000168164 ], [ -76.858236991013428, 34.779305000085699 ], [ -76.855496991232243, 34.779286999658027 ], [ -76.853549991127849, 34.778170000168174 ], [ -76.851308991009105, 34.778670999580129 ], [ -76.845414991520187, 34.776302999483626 ], [ -76.843775991105304, 34.776742999455067 ], [ -76.842446991773613, 34.773756999730423 ], [ -76.839858991469754, 34.772868999880544 ], [ -76.839503990922807, 34.771277000014585 ], [ -76.837052991006033, 34.770204999596572 ], [ -76.837102990919249, 34.768151999613117 ], [ -76.833359991724137, 34.766848999862788 ], [ -76.829431991337898, 34.769752999568055 ], [ -76.82926099157379, 34.767045999648644 ], [ -76.824706991196521, 34.766375999595496 ], [ -76.822679991415043, 34.766841999534627 ], [ -76.820703991274172, 34.764799999625524 ], [ -76.816874990794446, 34.766826999822335 ], [ -76.816296990826714, 34.764344999860207 ], [ -76.812320991763144, 34.762842999528488 ], [ -76.811331991214729, 34.763280999451482 ], [ -76.810238991340043, 34.765947999983503 ], [ -76.809346991236609, 34.765074999620275 ], [ -76.809755991502456, 34.763024000162076 ], [ -76.807384991536082, 34.761830999927767 ], [ -76.804702991328256, 34.763495000077491 ], [ -76.805315991587662, 34.766291999502187 ], [ -76.803001991060867, 34.766695000118972 ], [ -76.80269899085522, 34.764601999835449 ], [ -76.801331991739332, 34.762707999657948 ], [ -76.798845991328832, 34.761786999649814 ], [ -76.795406991798856, 34.762102999885037 ], [ -76.793841990801596, 34.760196999515017 ], [ -76.794062991140251, 34.758077000024244 ], [ -76.791748991731424, 34.755332000032581 ], [ -76.786011990809783, 34.752521000129192 ], [ -76.781894991785506, 34.752326000018357 ], [ -76.779545991462186, 34.753837000020475 ], [ -76.780684991789556, 34.752651999697754 ], [ -76.778354990871662, 34.753815999581533 ], [ -76.776306991650685, 34.753494000140556 ], [ -76.777306991530551, 34.751013999792349 ], [ -76.77911099150073, 34.750599000088975 ], [ -76.780149991683842, 34.748559999896131 ], [ -76.789115991787, 34.742969999681009 ], [ -76.789140991550767, 34.741313999861553 ], [ -76.792365990814801, 34.74104999997612 ], [ -76.792816990749571, 34.737446999988236 ], [ -76.795376991610127, 34.735670000283477 ], [ -76.804514991106259, 34.734057999552185 ], [ -76.812313991444512, 34.734054000284694 ], [ -76.82993399131793, 34.730342000091134 ], [ -76.844212990931197, 34.734289999840371 ], [ -76.873043990917978, 34.734273999859738 ], [ -76.884684991230998, 34.731967000194167 ], [ -76.889212991063658, 34.729920000037602 ], [ -76.890585991580394, 34.72933500015791 ], [ -76.889002991770553, 34.733566999658976 ], [ -76.867195990987568, 34.767158999709189 ] ] ] } },
{ "type": "Feature", "properties": { "county": null, "precinct": null, "enr_desc": "Cape Carteret/Cedar Point", "winner": null, "winner_votes": null, "winner_share": null, "runner_up": null, "runner_up_votes": null, "runner_up_share": null, "contest_votes": null, "margin_of_victory": null, "is_tie": false, "results": null, "participated": false, "map_key": null }, "geometry": { "type": "Polygon", "coordinates": [ [ [ -77.053674999186626, 34.711807999601263 ], [ -77.051391999870816, 34.708744999907275 ], [ -77.047774999798662, 34.706967000334622 ], [ -77.045072999515497, 34.707424999944259 ], [ -77.046447000545086, 34.708852999648045 ], [ -77.046048000339113, 34.710372000140481 ], [ -77.043250000042278, 34.713624000419465 ], [ -77.041447000303407, 34.711695999608196 ], [ -77.03853599996566, 34.71355799968331 ], [ -77.037591000190886, 34.712587000099866 ], [ -77.041473000306397, 34.710101999806021 ], [ -77.038672999518752, 34.707312999717217 ], [ -77.039607000272113, 34.706680999841382 ], [ -77.043098000534584, 34.707092999961041 ], [ -77.040179000154538, 34.703274999822384 ], [ -77.046035999533643, 34.702701999951323 ], [ -77.046149999503754, 34.699162999562304 ], [ -77.046950999698495, 34.699752999763369 ], [ -77.048956999612201, 34.699371999705228 ], [ -77.048383000195813, 34.697852000022252 ], [ -77.049846999821014, 34.69754200025897 ], [ -77.050030999945832, 34.696230999733004 ], [ -77.046159000251464, 34.697115999641653 ], [ -77.046058000356467, 34.695894000388527 ], [ -77.047087999468204, 34.695173999594303 ], [ -77.046719000220236, 34.69175699970188 ], [ -77.04521100045595, 34.69169599968351 ], [ -77.046335999870294, 34.68672299984987 ], [ -77.045076999671906, 34.685870999914428 ], [ -77.043092000175349, 34.676117999448223 ], [ -77.089338000249953, 34.672475000086344 ], [ -77.100828000178424, 34.67342900060121 ], [ -77.10789900051094, 34.67593900008184 ], [ -77.113528999274848, 34.680540999392662 ], [ -77.113381999766219, 34.682909999434528 ], [ -77.108560999783336, 34.687345999407405 ], [ -77.105152795130692, 34.694711909646657 ], [ -77.105993999955714, 34.710106000739486 ], [ -77.08998199969335, 34.713979999570775 ], [ -77.084489999224161, 34.707523999970192 ], [ -77.075351999297425, 34.711350000780484 ], [ -77.073869999176623, 34.712565999918247 ], [ -77.074528000006083, 34.713367000031717 ], [ -77.074430999397023, 34.714094000846757 ], [ -77.07406999934868, 34.713245999789876 ], [ -77.069831999527111, 34.711125000116212 ], [ -77.058915999894523, 34.712820999380362 ], [ -77.054561000197936, 34.711385999990846 ], [ -77.053674999186626, 34.711807999601263 ] ] ] } },
{ "type": "Feature", "properties": { "county": null, "precinct": null, "enr_desc": "Bogue", "winner": null, "winner_votes": null, "winner_share": null, "runner_up": null, "runner_up_votes": null, "runner_up_share": null, "contest_votes": null, "margin_of_victory": null, "is_tie": false, "results": null, "participated": false, "map_key": null }, "geometry": { "type": "Polygon", "coordinates": [ [ [ -77.043092000175349, 34.676117999448223 ], [ -77.045076999671906, 34.685870999914428 ], [ -77.046335999870294, 34.68672299984987 ], [ -77.04521100045595, 34.69169599968351 ], [ -77.046719000220236, 34.69175699970188 ], [ -77.047087999468204, 34.695173999594303 ], [ -77.046058000356467, 34.695894000388527 ], [ -77.046159000251464, 34.697115999641653 ], [ -77.050030999945832, 34.696230999733004 ], [ -77.049846999821014, 34.69754200025897 ], [ -77.048383000195813, 34.697852000022252 ], [ -77.048956999612201, 34.699371999705228 ], [ -77.046950999698495, 34.699752999763369 ], [ -77.046149999503754, 34.699162999562304 ], [ -77.046035999533643, 34.702701999951323 ], [ -77.040179000154538, 34.703274999822384 ], [ -77.043098000534584, 34.707092999961041 ], [ -77.039607000272113, 34.706680999841382 ], [ -77.038672999518752, 34.707312999717217 ], [ -77.041473000306397, 34.710101999806021 ], [ -77.037591000190886, 34.712587000099866 ], [ -77.03853599996566, 34.71355799968331 ], [ -77.041447000303407, 34.711695999608196 ], [ -77.043250000042278, 34.713624000419465 ], [ -77.046048000339113, 34.710372000140481 ], [ -77.046447000545086, 34.708852999648045 ], [ -77.045072999515497, 34.707424999944259 ], [ -77.047774999798662, 34.706967000334622 ], [ -77.051391999870816, 34.708744999907275 ], [ -77.053674999186626, 34.711807999601263 ], [ -77.05053799933647, 34.712587000000759 ], [ -77.050229999529876, 34.715147999974711 ], [ -77.047523999562884, 34.715656999945352 ], [ -77.048783999830803, 34.716327999276572 ], [ -77.047549999845984, 34.716863000611532 ], [ -77.048769999996125, 34.717036999344636 ], [ -77.048435999348541, 34.719274999380339 ], [ -77.045245999987856, 34.71851200067006 ], [ -77.043861000255703, 34.719424999836527 ], [ -77.043724999255105, 34.720508999294935 ], [ -77.04476899966761, 34.72050599953166 ], [ -77.044411999487295, 34.721529999670999 ], [ -77.040672999704469, 34.723823999732623 ], [ -77.034408999418503, 34.735296999386364 ], [ -77.02964100016851, 34.738521999918035 ], [ -77.029602000156032, 34.739522000722218 ], [ -77.028161999877426, 34.740653999987586 ], [ -77.026566999468528, 34.740975999434653 ], [ -77.021924991673529, 34.747853999594803 ], [ -77.018221999990431, 34.748028999574771 ], [ -77.009172999637826, 34.751066999973041 ], [ -77.00144800018316, 34.756320999324466 ], [ -76.986211999666409, 34.76865300008609 ], [ -76.983713999560663, 34.769313999887451 ], [ -76.979610000234842, 34.769033999613939 ], [ -76.975931999862439, 34.770088999501752 ], [ -76.970586999973506, 34.767476999937927 ], [ -76.957725990752991, 34.766789000017077 ], [ -76.957774991389968, 34.739049999890646 ], [ -76.959506999240645, 34.739114999532667 ], [ -76.960832999678203, 34.736536999625265 ], [ -76.957444999578158, 34.731100000010464 ], [ -76.954870000182012, 34.730023999916675 ], [ -76.951900000114236, 34.726776999817631 ], [ -76.946978999252167, 34.724360999424675 ], [ -76.937237999968886, 34.714589999716083 ], [ -76.94214099940551, 34.711313999373345 ], [ -76.963775999243325, 34.704615000530865 ], [ -76.982131999585206, 34.700197999292477 ], [ -77.036889999962114, 34.676691999920948 ], [ -77.043092000175349, 34.676117999448223 ] ] ] } },
{ "type": "Feature", "properties": { "county": null, "precinct": null, "enr_desc": "Indian Beach/Salter Path/Pine Knoll", "winner": null, "winner_votes": null, "winner_share": null, "runner_up": null, "runner_up_votes": null, "runner_up_share": null, "contest_votes": null, "margin_of_victory": null, "is_tie": false, "results": null, "participated": false, "map_key": null }, "geometry": { "type": "Polygon", "coordinates": [ [ [ -76.782087991143598, 34.696554999895731 ], [ -76.781950991383184, 34.696563999920421 ], [ -76.78184399109675, 34.69656199970369 ], [ -76.781868991068563, 34.693923999664996 ], [ -76.781920990759801, 34.689539000066084 ], [ -76.782191991431816, 34.689528000121392 ], [ -76.782314999612382, 34.645793999344868 ], [ -76.818936999714325, 34.643252999207228 ], [ -76.909868999827808, 34.631525999828952 ], [ -76.910678999896263, 34.674735999681694 ], [ -76.910573000093237, 34.679915999995124 ], [ -76.909209000502926, 34.680112999678343 ], [ -76.909676999948175, 34.684522999773826 ], [ -76.9103710003223, 34.684398999768391 ], [ -76.910092000348513, 34.696155000262152 ], [ -76.912321999802032, 34.716422999562461 ], [ -76.889496991369498, 34.719640999558592 ], [ -76.869205999392051, 34.7224589993249 ], [ -76.850111000153206, 34.723829000915494 ], [ -76.826141999220724, 34.721487999438409 ], [ -76.78100200005612, 34.720000999772637 ], [ -76.781208999392788, 34.704106000405289 ], [ -76.784832999779113, 34.70354999977431 ], [ -76.784809999815764, 34.69783999919629 ], [ -76.782183000002959, 34.69791999952151 ], [ -76.782087991143598, 34.696554999895731 ] ] ] } },
{ "type": "Feature", "properties": { "county": null, "precinct": null, "enr_desc": "Emerald Isle", "winner": null, "winner_votes": null, "winner_share": null, "runner_up": null, "runner_up_votes": null, "runner_up_share": null, "contest_votes": null, "margin_of_victory": null, "is_tie": false, "results": null, "participated": false, "map_key": null }, "geometry": { "type": "Polygon", "coordinates": [ [ [ -76.909868999827808, 34.631525999828952 ], [ -76.999665999553272, 34.617009000919154 ], [ -77.07920800008246, 34.595974000983006 ], [ -77.094310999764403, 34.58859100092198 ], [ -77.117197999260142, 34.584366999938389 ], [ -77.112929999658277, 34.638543999938115 ], [ -77.108031999643643, 34.639739999735696 ], [ -77.108380000046409, 34.64305799936291 ], [ -77.111843999338191, 34.646594999815797 ], [ -77.113160957231329, 34.651027492887422 ], [ -77.111243873684273, 34.653645726382557 ], [ -77.104452259200073, 34.658857532892206 ], [ -77.098030787151117, 34.666653160443985 ], [ -77.096249039097771, 34.671780174354609 ], [ -77.100828000178424, 34.67342900060121 ], [ -77.089338000249953, 34.672475000086344 ], [ -77.043092000175349, 34.676117999448223 ], [ -77.036889999962114, 34.676691999920948 ], [ -76.982131999585206, 34.700197999292477 ], [ -76.963775999243325, 34.704615000530865 ], [ -76.94214099940551, 34.711313999373345 ], [ -76.937237999968886, 34.714589999716083 ], [ -76.912321999802032, 34.716422999562461 ], [ -76.910092000348513, 34.696155000262152 ], [ -76.9103710003223, 34.684398999768391 ], [ -76.909676999948175, 34.684522999773826 ], [ -76.909209000502926, 34.680112999678343 ], [ -76.910573000093237, 34.679915999995124 ], [ -76.910678999896263, 34.674735999681694 ], [ -76.909868999827808, 34.631525999828952 ] ] ] } }
]
}
