{
"type": "FeatureCollection",
"name": "caswell_county_clerk_of_superior_court_rep",
"crs": { "type": "name", "properties": { "name": "urn:ogc:def:crs:OGC:1.3:CRS84" } },
"features": [
{ "type": "Feature", "properties": { "county": "CASWELL", "precinct": "ANDE", "enr_desc": "Anderson", "winner": "Ron Bradsher", "winner_votes": 92, "winner_share": 71.875, "runner_up": "Bettie Lea Knight", "runner_up_votes": 36, "runner_up_share": 28.125, "contest_votes": 128, "margin_of_victory": 43.75, "is_tie": false, "results": [ { "candidate": "Ron Bradsher", "votes": 92, "share": 71.875 }, { "candidate": "Bettie Lea Knight", "votes": 36, "share": 28.125 } ], "participated": true, "map_key": "CASWELL_ANDE" }, "geometry": { "type": "Polygon", "coordinates": [ [ [ -79.392376991456885, 36.283212000315245 ], [ -79.391113991266636, 36.281496000241219 ], [ -79.388904990706664, 36.281900999617079 ], [ -79.385959990983437, 36.281073000236617 ], [ -79.37997699114905, 36.276672000008162 ], [ -79.378141991079417, 36.276117000167396 ], [ -79.373315991436215, 36.277268999917865 ], [ -79.36914699138697, 36.280609999921104 ], [ -79.361732991165383, 36.281437999742622 ], [ -79.364423991424971, 36.282862999956151 ], [ -79.368209991073769, 36.290623000131944 ], [ -79.36779199163712, 36.295119999681241 ], [ -79.361745991137525, 36.307717000022237 ], [ -79.352360990946835, 36.315810999794522 ], [ -79.34316299135908, 36.34012300015619 ], [ -79.337716990717141, 36.34409600022736 ], [ -79.336729991054128, 36.345708999824126 ], [ -79.323046990982959, 36.345602000054328 ], [ -79.316386991231539, 36.343455000058498 ], [ -79.299494991274742, 36.343696999903777 ], [ -79.305103990743234, 36.341048000212773 ], [ -79.308842991508911, 36.337551000457438 ], [ -79.313361990896539, 36.335480999782575 ], [ -79.315860990621175, 36.332769999933944 ], [ -79.318393991477691, 36.33247499957568 ], [ -79.320490991239083, 36.330497000144014 ], [ -79.322831991586128, 36.330545999830811 ], [ -79.324253990674279, 36.328728999862022 ], [ -79.327060991189967, 36.328433999811161 ], [ -79.328162990736828, 36.325619000089453 ], [ -79.332094991298277, 36.324832999651875 ], [ -79.333678990642142, 36.322312000062517 ], [ -79.332825991045368, 36.31957100007066 ], [ -79.323918990735834, 36.320399999623149 ], [ -79.316969991434917, 36.313422000130103 ], [ -79.312710990943216, 36.314946000271256 ], [ -79.302906991376432, 36.309525000068838 ], [ -79.302324991469803, 36.305672000264721 ], [ -79.300184990658295, 36.300802999942356 ], [ -79.300337991437473, 36.297352999671048 ], [ -79.297069990817931, 36.291364000322019 ], [ -79.29562699105233, 36.285237000218956 ], [ -79.301699991451954, 36.279169000160167 ], [ -79.305003991115527, 36.272579999584572 ], [ -79.304558990931184, 36.269188000109196 ], [ -79.298116991423058, 36.259523000424359 ], [ -79.29689599139239, 36.254458999996061 ], [ -79.287589991261754, 36.254241999781883 ], [ -79.278952991392572, 36.261736000289623 ], [ -79.273942991062356, 36.262932999702606 ], [ -79.270771991648488, 36.266406999806456 ], [ -79.266974991418692, 36.267782000275886 ], [ -79.264794991326198, 36.243599999714398 ], [ -79.394206991294638, 36.246543999599815 ], [ -79.392376991456885, 36.283212000315245 ] ] ] } },
{ "type": "Feature", "properties": { "county": "CASWELL", "precinct": "LOCU", "enr_desc": "Locust Hill", "winner": "Ron Bradsher", "winner_votes": 102, "winner_share": 72.340425531914903, "runner_up": "Bettie Lea Knight", "runner_up_votes": 39, "runner_up_share": 27.659574468085108, "contest_votes": 141, "margin_of_victory": 44.680851063829792, "is_tie": false, "results": [ { "candidate": "Ron Bradsher", "votes": 102, "share": 72.3404255319149 }, { "candidate": "Bettie Lea Knight", "votes": 39, "share": 27.659574468085108 } ], "participated": true, "map_key": "CASWELL_LOCU" }, "geometry": { "type": "Polygon", "coordinates": [ [ [ -79.392222991635961, 36.305973999985213 ], [ -79.39365399151562, 36.30754100008506 ], [ -79.394602990614672, 36.310415000056068 ], [ -79.396054990939064, 36.311635000340296 ], [ -79.403618991506647, 36.31263000038296 ], [ -79.410651991290706, 36.315122999875598 ], [ -79.434856991117371, 36.315575000471569 ], [ -79.437968990975136, 36.314192999925915 ], [ -79.442725990612132, 36.306139999636819 ], [ -79.444688991076688, 36.305248000305703 ], [ -79.446840990638592, 36.305426000450474 ], [ -79.453004990924768, 36.309190000117802 ], [ -79.453831990681735, 36.313756000308324 ], [ -79.457128990682918, 36.316502000266141 ], [ -79.458097990755988, 36.319363999802015 ], [ -79.4602149916592, 36.321833000468914 ], [ -79.461026991671787, 36.326397999708263 ], [ -79.464137991477486, 36.328909000210601 ], [ -79.46583399145058, 36.332229000202034 ], [ -79.471038991000768, 36.334924999855694 ], [ -79.472646991067862, 36.339974000462277 ], [ -79.476443990660471, 36.343615000299884 ], [ -79.478006991301527, 36.346270000298524 ], [ -79.478517991167337, 36.349146999716872 ], [ -79.480022990612568, 36.351062999978716 ], [ -79.478964991560758, 36.351963999790698 ], [ -79.525351991652713, 36.353994000279513 ], [ -79.519819991147486, 36.442358999691585 ], [ -79.51682199141915, 36.441909000269973 ], [ -79.512031991550415, 36.435512000307384 ], [ -79.511209991287416, 36.430759000001323 ], [ -79.506119991515845, 36.425495999821869 ], [ -79.506824990737385, 36.421233999959632 ], [ -79.504351990565652, 36.417505000099226 ], [ -79.501906991360229, 36.408127000010118 ], [ -79.500274990701385, 36.406384000444369 ], [ -79.497049991539185, 36.405197999904829 ], [ -79.494145991081595, 36.408220999669993 ], [ -79.488720991245103, 36.411593999839155 ], [ -79.487283991338117, 36.415032999818116 ], [ -79.484156991367911, 36.419240000268275 ], [ -79.483456991411259, 36.424584999960381 ], [ -79.481486991253661, 36.428611999743701 ], [ -79.475747991166898, 36.432930000268492 ], [ -79.469006991197134, 36.423683000077951 ], [ -79.469138991514896, 36.420026999615246 ], [ -79.467009991423311, 36.411909999721786 ], [ -79.464408990675821, 36.40895399966297 ], [ -79.459236991237063, 36.41182700000288 ], [ -79.455436990803321, 36.416931000477959 ], [ -79.449478990587934, 36.420596999918139 ], [ -79.443305990895141, 36.422902999770166 ], [ -79.440834991620051, 36.425478000197451 ], [ -79.436929991122483, 36.426466999691307 ], [ -79.435933990676716, 36.431128000148078 ], [ -79.438118991620343, 36.434344999956863 ], [ -79.44661599093817, 36.436232999758161 ], [ -79.44830899080263, 36.438675999896574 ], [ -79.410596991049289, 36.450869999858909 ], [ -79.393462991002011, 36.450773999772437 ], [ -79.393256990848016, 36.448271000094742 ], [ -79.396377990614255, 36.44097699965215 ], [ -79.396228991553855, 36.438044000156651 ], [ -79.398165991180363, 36.435982999758707 ], [ -79.399900991518336, 36.435432999610505 ], [ -79.387768991650248, 36.424555000286951 ], [ -79.38611099119035, 36.421594999865043 ], [ -79.387467990606325, 36.417217999627781 ], [ -79.391410991390302, 36.416594000474007 ], [ -79.399331990561848, 36.39929200024995 ], [ -79.397526991264513, 36.382343999598191 ], [ -79.396057990697543, 36.379879999844633 ], [ -79.39682899160232, 36.375872000049377 ], [ -79.392654991211884, 36.336452000071567 ], [ -79.392222991635961, 36.305973999985213 ] ] ] } },
{ "type": "Feature", "properties": { "county": "CASWELL", "precinct": "LEAS", "enr_desc": "Leasburg", "winner": "Ron Bradsher", "winner_votes": 45, "winner_share": 81.818181818181827, "runner_up": "Bettie Lea Knight", "runner_up_votes": 10, "runner_up_share": 18.181818181818183, "contest_votes": 55, "margin_of_victory": 63.63636363636364, "is_tie": false, "results": [ { "candidate": "Ron Bradsher", "votes": 45, "share": 81.81818181818183 }, { "candidate": "Bettie Lea Knight", "votes": 10, "share": 18.181818181818183 } ], "participated": true, "map_key": "CASWELL_LEAS" }, "geometry": { "type": "Polygon", "coordinates": [ [ [ -79.254770991037319, 36.447079999915886 ], [ -79.254660991615367, 36.447585000176687 ], [ -79.195624991523189, 36.446400000395968 ], [ -79.143160990850689, 36.447067000225196 ], [ -79.148238990695802, 36.352370000236228 ], [ -79.227494991247013, 36.35284000023308 ], [ -79.226097991633935, 36.358162999825751 ], [ -79.223057991376365, 36.363707000454461 ], [ -79.221814991126934, 36.380744000113218 ], [ -79.223224991613023, 36.385944999917186 ], [ -79.218211991092161, 36.392586999671273 ], [ -79.218224991655333, 36.397685999747857 ], [ -79.216684991113553, 36.400762999696447 ], [ -79.21422499126038, 36.403231000225816 ], [ -79.220639990568799, 36.402608000349247 ], [ -79.23174599055352, 36.405070000342292 ], [ -79.242657991180181, 36.403310999796687 ], [ -79.255632991240148, 36.39896299961935 ], [ -79.260509991033643, 36.390190999987368 ], [ -79.262975991411636, 36.388833999837772 ], [ -79.267113990848301, 36.414210000054268 ], [ -79.26142399084523, 36.419628999802192 ], [ -79.255076990609183, 36.445849000352162 ], [ -79.253547991256852, 36.446304000444762 ], [ -79.254770991037319, 36.447079999915886 ] ] ] } },
{ "type": "Feature", "properties": { "county": "CASWELL", "precinct": "MILT", "enr_desc": "Milton", "winner": "Ron Bradsher", "winner_votes": 101, "winner_share": 69.655172413793096, "runner_up": "Bettie Lea Knight", "runner_up_votes": 44, "runner_up_share": 30.344827586206897, "contest_votes": 145, "margin_of_victory": 39.310344827586199, "is_tie": false, "results": [ { "candidate": "Ron Bradsher", "votes": 101, "share": 69.6551724137931 }, { "candidate": "Bettie Lea Knight", "votes": 44, "share": 30.344827586206897 } ], "participated": true, "map_key": "CASWELL_MILT" }, "geometry": { "type": "Polygon", "coordinates": [ [ [ -79.143160990850689, 36.447067000225196 ], [ -79.195624991523189, 36.446400000395968 ], [ -79.254660991615367, 36.447585000176687 ], [ -79.254770991037319, 36.447079999915886 ], [ -79.293814990730525, 36.438778000199811 ], [ -79.306286990589285, 36.442308999768237 ], [ -79.319468990698283, 36.440907999596085 ], [ -79.317324990865998, 36.447354000341882 ], [ -79.312273991072431, 36.455656000017633 ], [ -79.317054991397825, 36.454667999972322 ], [ -79.322689991575473, 36.456259999903473 ], [ -79.328607990565246, 36.45916000025904 ], [ -79.330488990715153, 36.463224999704153 ], [ -79.334261991158328, 36.467290999666048 ], [ -79.335173990747208, 36.472635000362537 ], [ -79.331079990660854, 36.479543000144865 ], [ -79.325532991224804, 36.484772999634743 ], [ -79.31869999074766, 36.488708999882981 ], [ -79.317496991200471, 36.494154999839502 ], [ -79.307041990978405, 36.499792999666035 ], [ -79.295433990808093, 36.507627999867388 ], [ -79.293201991192944, 36.507947999981361 ], [ -79.293577991240838, 36.510503000199179 ], [ -79.296697990654465, 36.510978999923843 ], [ -79.304658990875126, 36.516509000298676 ], [ -79.313182991362723, 36.519199000237535 ], [ -79.320853990702872, 36.524016000382005 ], [ -79.327443990583674, 36.52486000032831 ], [ -79.326470991188643, 36.525635999751977 ], [ -79.32913899082628, 36.531188000006303 ], [ -79.335585991188239, 36.532886999619997 ], [ -79.343429991395197, 36.541591999657577 ], [ -79.250704990546723, 36.541139999775766 ], [ -79.138319991258768, 36.541974999872686 ], [ -79.143160990850689, 36.447067000225196 ] ] ] } },
{ "type": "Feature", "properties": { "county": "CASWELL", "precinct": "PH", "enr_desc": "Prospect Hill", "winner": "Ron Bradsher", "winner_votes": 185, "winner_share": 82.959641255605376, "runner_up": "Bettie Lea Knight", "runner_up_votes": 38, "runner_up_share": 17.040358744394617, "contest_votes": 223, "margin_of_victory": 65.919282511210753, "is_tie": false, "results": [ { "candidate": "Ron Bradsher", "votes": 185, "share": 82.95964125560538 }, { "candidate": "Bettie Lea Knight", "votes": 38, "share": 17.040358744394617 } ], "participated": true, "map_key": "CASWELL_PH" }, "geometry": { "type": "Polygon", "coordinates": [ [ [ -79.264794991326198, 36.243599999714398 ], [ -79.266974991418692, 36.267782000275886 ], [ -79.270771991648488, 36.266406999806456 ], [ -79.273942991062356, 36.262932999702606 ], [ -79.278952991392572, 36.261736000289623 ], [ -79.287589991261754, 36.254241999781883 ], [ -79.29689599139239, 36.254458999996061 ], [ -79.298116991423058, 36.259523000424359 ], [ -79.304558990931184, 36.269188000109196 ], [ -79.305003991115527, 36.272579999584572 ], [ -79.301699991451954, 36.279169000160167 ], [ -79.29562699105233, 36.285237000218956 ], [ -79.297069990817931, 36.291364000322019 ], [ -79.300337991437473, 36.297352999671048 ], [ -79.300184990658295, 36.300802999942356 ], [ -79.302324991469803, 36.305672000264721 ], [ -79.302906991376432, 36.309525000068838 ], [ -79.312710990943216, 36.314946000271256 ], [ -79.316969991434917, 36.313422000130103 ], [ -79.323918990735834, 36.320399999623149 ], [ -79.332825991045368, 36.31957100007066 ], [ -79.333678990642142, 36.322312000062517 ], [ -79.332094991298277, 36.324832999651875 ], [ -79.328162990736828, 36.325619000089453 ], [ -79.327060991189967, 36.328433999811161 ], [ -79.324253990674279, 36.328728999862022 ], [ -79.322831991586128, 36.330545999830811 ], [ -79.320490991239083, 36.330497000144014 ], [ -79.318393991477691, 36.33247499957568 ], [ -79.315860990621175, 36.332769999933944 ], [ -79.313361990896539, 36.335480999782575 ], [ -79.308842991508911, 36.337551000457438 ], [ -79.305103990743234, 36.341048000212773 ], [ -79.299494991274742, 36.343696999903777 ], [ -79.260143990978264, 36.343883000043782 ], [ -79.260307991455733, 36.349192000239071 ], [ -79.273357991150121, 36.369231999855366 ], [ -79.26202399103984, 36.377099999826235 ], [ -79.262975991411636, 36.388833999837772 ], [ -79.260509991033643, 36.390190999987368 ], [ -79.255632991240148, 36.39896299961935 ], [ -79.242657991180181, 36.403310999796687 ], [ -79.23174599055352, 36.405070000342292 ], [ -79.220639990568799, 36.402608000349247 ], [ -79.21422499126038, 36.403231000225816 ], [ -79.216684991113553, 36.400762999696447 ], [ -79.218224991655333, 36.397685999747857 ], [ -79.218211991092161, 36.392586999671273 ], [ -79.223224991613023, 36.385944999917186 ], [ -79.221814991126934, 36.380744000113218 ], [ -79.223057991376365, 36.363707000454461 ], [ -79.226097991633935, 36.358162999825751 ], [ -79.227494991247013, 36.35284000023308 ], [ -79.148238990695802, 36.352370000236228 ], [ -79.15399699161037, 36.241875000371962 ], [ -79.264794991326198, 36.243599999714398 ] ] ] } },
{ "type": "Feature", "properties": { "county": "CASWELL", "precinct": "PELH", "enr_desc": "Pelham", "winner": "Ron Bradsher", "winner_votes": 233, "winner_share": 73.040752351097183, "runner_up": "Bettie Lea Knight", "runner_up_votes": 86, "runner_up_share": 26.959247648902824, "contest_votes": 319, "margin_of_victory": 46.081504702194358, "is_tie": false, "results": [ { "candidate": "Ron Bradsher", "votes": 233, "share": 73.04075235109718 }, { "candidate": "Bettie Lea Knight", "votes": 86, "share": 26.959247648902824 } ], "participated": true, "map_key": "CASWELL_PELH" }, "geometry": { "type": "Polygon", "coordinates": [ [ [ -79.519819991147486, 36.442358999691585 ], [ -79.513637990863785, 36.5409019996602 ], [ -79.343429991395197, 36.541591999657577 ], [ -79.335585991188239, 36.532886999619997 ], [ -79.32913899082628, 36.531188000006303 ], [ -79.326470991188643, 36.525635999751977 ], [ -79.327443990583674, 36.52486000032831 ], [ -79.320853990702872, 36.524016000382005 ], [ -79.313182991362723, 36.519199000237535 ], [ -79.304658990875126, 36.516509000298676 ], [ -79.296697990654465, 36.510978999923843 ], [ -79.293577991240838, 36.510503000199179 ], [ -79.293201991192944, 36.507947999981361 ], [ -79.295433990808093, 36.507627999867388 ], [ -79.307041990978405, 36.499792999666035 ], [ -79.317496991200471, 36.494154999839502 ], [ -79.317882990655036, 36.499799000157012 ], [ -79.321315990782765, 36.505357999790192 ], [ -79.322898991610685, 36.506361000458696 ], [ -79.327476991204918, 36.507508000093225 ], [ -79.333387990659787, 36.506726999738909 ], [ -79.337393991177777, 36.508531999577926 ], [ -79.341206991106887, 36.506891999855313 ], [ -79.344695990950072, 36.506475000317003 ], [ -79.352801990586315, 36.510574000435412 ], [ -79.353677991487345, 36.511905999676792 ], [ -79.353602991309458, 36.513645999721859 ], [ -79.357302990569025, 36.51358399998891 ], [ -79.368426991038731, 36.507132000164503 ], [ -79.370433990804955, 36.504632000040623 ], [ -79.370726991554974, 36.505492999848009 ], [ -79.379514991202257, 36.51065099972206 ], [ -79.381077990957806, 36.51374500038807 ], [ -79.388100991098327, 36.518483000358486 ], [ -79.387913990785634, 36.487390000217964 ], [ -79.389267991082548, 36.486448999642491 ], [ -79.390140990996599, 36.474409000178852 ], [ -79.389462990896433, 36.473864000004298 ], [ -79.389386990993557, 36.465375999913363 ], [ -79.390721990593889, 36.463485000466328 ], [ -79.390441990822509, 36.461230000082821 ], [ -79.392284990731582, 36.459307000208725 ], [ -79.392333991363301, 36.454063999769971 ], [ -79.393462991002011, 36.450773999772437 ], [ -79.410596991049289, 36.450869999858909 ], [ -79.44830899080263, 36.438675999896574 ], [ -79.44661599093817, 36.436232999758161 ], [ -79.438118991620343, 36.434344999956863 ], [ -79.435933990676716, 36.431128000148078 ], [ -79.436929991122483, 36.426466999691307 ], [ -79.440834991620051, 36.425478000197451 ], [ -79.443305990895141, 36.422902999770166 ], [ -79.449478990587934, 36.420596999918139 ], [ -79.455436990803321, 36.416931000477959 ], [ -79.459236991237063, 36.41182700000288 ], [ -79.464408990675821, 36.40895399966297 ], [ -79.467009991423311, 36.411909999721786 ], [ -79.469138991514896, 36.420026999615246 ], [ -79.469006991197134, 36.423683000077951 ], [ -79.475747991166898, 36.432930000268492 ], [ -79.481486991253661, 36.428611999743701 ], [ -79.483456991411259, 36.424584999960381 ], [ -79.484156991367911, 36.419240000268275 ], [ -79.487283991338117, 36.415032999818116 ], [ -79.488720991245103, 36.411593999839155 ], [ -79.494145991081595, 36.408220999669993 ], [ -79.497049991539185, 36.405197999904829 ], [ -79.500274990701385, 36.406384000444369 ], [ -79.501906991360229, 36.408127000010118 ], [ -79.504351990565652, 36.417505000099226 ], [ -79.506824990737385, 36.421233999959632 ], [ -79.506119991515845, 36.425495999821869 ], [ -79.511209991287416, 36.430759000001323 ], [ -79.512031991550415, 36.435512000307384 ], [ -79.51682199141915, 36.441909000269973 ], [ -79.519819991147486, 36.442358999691585 ] ] ] } },
{ "type": "Feature", "properties": { "county": "CASWELL", "precinct": "PROVI", "enr_desc": "Providence", "winner": "Ron Bradsher", "winner_votes": 89, "winner_share": 68.992248062015506, "runner_up": "Bettie Lea Knight", "runner_up_votes": 40, "runner_up_share": 31.007751937984494, "contest_votes": 129, "margin_of_victory": 37.984496124031011, "is_tie": false, "results": [ { "candidate": "Ron Bradsher", "votes": 89, "share": 68.9922480620155 }, { "candidate": "Bettie Lea Knight", "votes": 40, "share": 31.007751937984494 } ], "participated": true, "map_key": "CASWELL_PROVI" }, "geometry": { "type": "Polygon", "coordinates": [ [ [ -79.393462991002011, 36.450773999772437 ], [ -79.392333991363301, 36.454063999769971 ], [ -79.392284990731582, 36.459307000208725 ], [ -79.390441990822509, 36.461230000082821 ], [ -79.390721990593889, 36.463485000466328 ], [ -79.389386990993557, 36.465375999913363 ], [ -79.389462990896433, 36.473864000004298 ], [ -79.390140990996599, 36.474409000178852 ], [ -79.389267991082548, 36.486448999642491 ], [ -79.387913990785634, 36.487390000217964 ], [ -79.388100991098327, 36.518483000358486 ], [ -79.381077990957806, 36.51374500038807 ], [ -79.379514991202257, 36.51065099972206 ], [ -79.370726991554974, 36.505492999848009 ], [ -79.370433990804955, 36.504632000040623 ], [ -79.368426991038731, 36.507132000164503 ], [ -79.357302990569025, 36.51358399998891 ], [ -79.353602991309458, 36.513645999721859 ], [ -79.353677991487345, 36.511905999676792 ], [ -79.352801990586315, 36.510574000435412 ], [ -79.344695990950072, 36.506475000317003 ], [ -79.341206991106887, 36.506891999855313 ], [ -79.337393991177777, 36.508531999577926 ], [ -79.333387990659787, 36.506726999738909 ], [ -79.327476991204918, 36.507508000093225 ], [ -79.322898991610685, 36.506361000458696 ], [ -79.321315990782765, 36.505357999790192 ], [ -79.317882990655036, 36.499799000157012 ], [ -79.317496991200471, 36.494154999839502 ], [ -79.31869999074766, 36.488708999882981 ], [ -79.325532991224804, 36.484772999634743 ], [ -79.331079990660854, 36.479543000144865 ], [ -79.335173990747208, 36.472635000362537 ], [ -79.334261991158328, 36.467290999666048 ], [ -79.330488990715153, 36.463224999704153 ], [ -79.328607990565246, 36.45916000025904 ], [ -79.322689991575473, 36.456259999903473 ], [ -79.317054991397825, 36.454667999972322 ], [ -79.312273991072431, 36.455656000017633 ], [ -79.317324990865998, 36.447354000341882 ], [ -79.319468990698283, 36.440907999596085 ], [ -79.324612990909444, 36.441806000194092 ], [ -79.337679991551127, 36.446177000414551 ], [ -79.366173991476288, 36.447829000116208 ], [ -79.393462991002011, 36.450773999772437 ] ] ] } },
{ "type": "Feature", "properties": { "county": "CASWELL", "precinct": "YANC", "enr_desc": "Yanceyville 2", "winner": "Ron Bradsher", "winner_votes": 156, "winner_share": 79.187817258883257, "runner_up": "Bettie Lea Knight", "runner_up_votes": 41, "runner_up_share": 20.812182741116754, "contest_votes": 197, "margin_of_victory": 58.3756345177665, "is_tie": false, "results": [ { "candidate": "Ron Bradsher", "votes": 156, "share": 79.18781725888326 }, { "candidate": "Bettie Lea Knight", "votes": 41, "share": 20.812182741116754 } ], "participated": true, "map_key": "CASWELL_YANC" }, "geometry": { "type": "Polygon", "coordinates": [ [ [ -79.299494991274742, 36.343696999903777 ], [ -79.316386991231539, 36.343455000058498 ], [ -79.323046990982959, 36.345602000054328 ], [ -79.336729991054128, 36.345708999824126 ], [ -79.337716990717141, 36.34409600022736 ], [ -79.34316299135908, 36.34012300015619 ], [ -79.352360990946835, 36.315810999794522 ], [ -79.361745991137525, 36.307717000022237 ], [ -79.36779199163712, 36.295119999681241 ], [ -79.368209991073769, 36.290623000131944 ], [ -79.364423991424971, 36.282862999956151 ], [ -79.361732991165383, 36.281437999742622 ], [ -79.36914699138697, 36.280609999921104 ], [ -79.373315991436215, 36.277268999917865 ], [ -79.378141991079417, 36.276117000167396 ], [ -79.37997699114905, 36.276672000008162 ], [ -79.385959990983437, 36.281073000236617 ], [ -79.388904990706664, 36.281900999617079 ], [ -79.391113991266636, 36.281496000241219 ], [ -79.392376991456885, 36.283212000315245 ], [ -79.392222991635961, 36.305973999985213 ], [ -79.392654991211884, 36.336452000071567 ], [ -79.39682899160232, 36.375872000049377 ], [ -79.396057990697543, 36.379879999844633 ], [ -79.397526991264513, 36.382343999598191 ], [ -79.399331990561848, 36.39929200024995 ], [ -79.391410991390302, 36.416594000474007 ], [ -79.387467990606325, 36.417217999627781 ], [ -79.38611099119035, 36.421594999865043 ], [ -79.387768991650248, 36.424555000286951 ], [ -79.399900991518336, 36.435432999610505 ], [ -79.398165991180363, 36.435982999758707 ], [ -79.396228991553855, 36.438044000156651 ], [ -79.396377990614255, 36.44097699965215 ], [ -79.393256990848016, 36.448271000094742 ], [ -79.393462991002011, 36.450773999772437 ], [ -79.366173991476288, 36.447829000116208 ], [ -79.337679991551127, 36.446177000414551 ], [ -79.324612990909444, 36.441806000194092 ], [ -79.319468990698283, 36.440907999596085 ], [ -79.306286990589285, 36.442308999768237 ], [ -79.293814990730525, 36.438778000199811 ], [ -79.254770991037319, 36.447079999915886 ], [ -79.253547991256852, 36.446304000444762 ], [ -79.255076990609183, 36.445849000352162 ], [ -79.26142399084523, 36.419628999802192 ], [ -79.267113990848301, 36.414210000054268 ], [ -79.262975991411636, 36.388833999837772 ], [ -79.26202399103984, 36.377099999826235 ], [ -79.273357991150121, 36.369231999855366 ], [ -79.260307991455733, 36.349192000239071 ], [ -79.260143990978264, 36.343883000043782 ], [ -79.299494991274742, 36.343696999903777 ] ] ] } },
{ "type": "Feature", "properties": { "county": "CASWELL", "precinct": "STON", "enr_desc": "Stoney Creek", "winner": "Ron Bradsher", "winner_votes": 146, "winner_share": 64.888888888888886, "runner_up": "Bettie Lea Knight", "runner_up_votes": 79, "runner_up_share": 35.111111111111107, "contest_votes": 225, "margin_of_victory": 29.777777777777779, "is_tie": false, "results": [ { "candidate": "Ron Bradsher", "votes": 146, "share": 64.88888888888889 }, { "candidate": "Bettie Lea Knight", "votes": 79, "share": 35.11111111111111 } ], "participated": true, "map_key": "CASWELL_STON" }, "geometry": { "type": "Polygon", "coordinates": [ [ [ -79.525351991652713, 36.353994000279513 ], [ -79.478964991560758, 36.351963999790698 ], [ -79.480022990612568, 36.351062999978716 ], [ -79.478517991167337, 36.349146999716872 ], [ -79.478006991301527, 36.346270000298524 ], [ -79.476443990660471, 36.343615000299884 ], [ -79.472646991067862, 36.339974000462277 ], [ -79.471038991000768, 36.334924999855694 ], [ -79.46583399145058, 36.332229000202034 ], [ -79.464137991477486, 36.328909000210601 ], [ -79.461026991671787, 36.326397999708263 ], [ -79.4602149916592, 36.321833000468914 ], [ -79.458097990755988, 36.319363999802015 ], [ -79.457128990682918, 36.316502000266141 ], [ -79.453831990681735, 36.313756000308324 ], [ -79.453004990924768, 36.309190000117802 ], [ -79.446840990638592, 36.305426000450474 ], [ -79.444688991076688, 36.305248000305703 ], [ -79.442725990612132, 36.306139999636819 ], [ -79.437968990975136, 36.314192999925915 ], [ -79.434856991117371, 36.315575000471569 ], [ -79.410651991290706, 36.315122999875598 ], [ -79.403618991506647, 36.31263000038296 ], [ -79.396054990939064, 36.311635000340296 ], [ -79.394602990614672, 36.310415000056068 ], [ -79.39365399151562, 36.30754100008506 ], [ -79.392222991635961, 36.305973999985213 ], [ -79.392376991456885, 36.283212000315245 ], [ -79.394206991294638, 36.246543999599815 ], [ -79.531864991425365, 36.249672999619932 ], [ -79.525351991652713, 36.353994000279513 ] ] ] } }
]
}
