{
"type": "FeatureCollection",
"name": "caswell_county_clerk_of_superior_court_rep_focus_mask",
"crs": { "type": "name", "properties": { "name": "urn:ogc:def:crs:OGC:1.3:CRS84" } },
"features": [
{ "type": "Feature", "properties": { }, "geometry": { "type": "Polygon", "coordinates": [ [ [ -79.531864760326371, 36.249673212135299 ], [ -79.531864674375242, 36.249677755264194 ], [ -79.53186000334577, 36.249747819122369 ], [ -79.531859979543228, 36.249748181098077 ], [ -79.531841014664593, 36.250040638918854 ], [ -79.531840969151929, 36.250041360994018 ], [ -79.531715992891264, 36.252082968883634 ], [ -79.531711993178661, 36.252147971791359 ], [ -79.531694996034673, 36.252422915762118 ], [ -79.531684999466165, 36.252586864254091 ], [ -79.531660994790755, 36.252971949278177 ], [ -79.531643998094737, 36.253246879689897 ], [ -79.531591998232216, 36.254071891129556 ], [ -79.531591984599672, 36.254072109317974 ], [ -79.531557991434624, 36.254620988828833 ], [ -79.531524013599736, 36.255170629735701 ], [ -79.531519991752191, 36.255231989858977 ], [ -79.531506013466853, 36.255445652942186 ], [ -79.531505969262938, 36.255446347144861 ], [ -79.531471991896424, 36.255994989222359 ], [ -79.531455007674765, 36.256269734012655 ], [ -79.531454975463205, 36.256270266618074 ], [ -79.531444011990146, 36.25645564668563 ], [ -79.531403996453932, 36.257093907199682 ], [ -79.531369002514097, 36.257643827271117 ], [ -79.531368980785771, 36.257644173462303 ], [ -79.531318000930128, 36.258467845409399 ], [ -79.531296997838552, 36.258798888031571 ], [ -79.531296983764477, 36.258799111847338 ], [ -79.531231994541997, 36.259841950189873 ], [ -79.531163998859711, 36.260941871682441 ], [ -79.531111998332051, 36.261765879600524 ], [ -79.531111983247641, 36.261766120951478 ], [ -79.531060995295476, 36.262589929044672 ], [ -79.531022992121308, 36.263196977866315 ], [ -79.530957994561462, 36.264238944426296 ], [ -79.530907003296889, 36.265063807567138 ], [ -79.530872006675651, 36.265612755360998 ], [ -79.530871976060013, 36.265613245049146 ], [ -79.530852996532971, 36.265922915817235 ], [ -79.530820992043118, 36.266437979507486 ], [ -79.530787001299927, 36.266986830554636 ], [ -79.530752001985476, 36.267536826828056 ], [ -79.530751980233092, 36.267537173402737 ], [ -79.530701002363145, 36.268360826219507 ], [ -79.530666001399055, 36.268910830595544 ], [ -79.530665980088884, 36.268911170015933 ], [ -79.530631991459046, 36.269459989257292 ], [ -79.530580998914189, 36.270284873677703 ], [ -79.530554009613482, 36.270712700072679 ], [ -79.530546018895308, 36.270833574560918 ], [ -79.53054596434329, 36.270834427443042 ], [ -79.530511991433059, 36.271384000185648 ], [ -79.530477992340806, 36.271933988789101 ], [ -79.530444001975596, 36.272482830776283 ], [ -79.530409002138398, 36.273032830165711 ], [ -79.53040898085068, 36.273033169231688 ], [ -79.530374992045026, 36.273581988557432 ], [ -79.530341001983047, 36.274131819239948 ], [ -79.530306027184039, 36.274681439905329 ], [ -79.530305958994035, 36.274682561170927 ], [ -79.530273027589118, 36.275250373866555 ], [ -79.530272947130101, 36.275251625350933 ], [ -79.530255052380397, 36.275505128531087 ], [ -79.530254936997238, 36.275506871408936 ], [ -79.530221002826394, 36.276055807991611 ], [ -79.530186003419274, 36.27660480787479 ], [ -79.530185979283672, 36.276605192295015 ], [ -79.530151991408815, 36.277155000151751 ], [ -79.530117991881028, 36.277704988830926 ], [ -79.530084001055116, 36.278253830380407 ], [ -79.530049001824963, 36.278803830799042 ], [ -79.53004898056227, 36.278804169467513 ], [ -79.530015001300654, 36.279352827805326 ], [ -79.530014980244715, 36.279353172619331 ], [ -79.529997012691055, 36.279651647736628 ], [ -79.529980991399569, 36.279902990455376 ], [ -79.529946001725946, 36.280452830809644 ], [ -79.529945980430966, 36.280453169993322 ], [ -79.529911992017745, 36.28100198894164 ], [ -79.529878003059451, 36.281551807643936 ], [ -79.529843003380606, 36.282100807753167 ], [ -79.529842979243398, 36.282101192196514 ], [ -79.529808991622005, 36.28265099281986 ], [ -79.529757991969632, 36.283474992673177 ], [ -79.529740998458649, 36.283749879990395 ], [ -79.529688998352228, 36.28457489128629 ], [ -79.529688984722199, 36.284575109433305 ], [ -79.529655001094369, 36.285123830387974 ], [ -79.529620001526396, 36.285673830445575 ], [ -79.52961998023649, 36.285674169549885 ], [ -79.52958599185223, 36.286222988801008 ], [ -79.529551991037437, 36.286773000002171 ], [ -79.52951800345167, 36.287322807537784 ], [ -79.529483003259671, 36.287871807888131 ], [ -79.529482979107158, 36.287872192573523 ], [ -79.529432003213927, 36.288696808055093 ], [ -79.529397002956998, 36.289245807885884 ], [ -79.529396978792633, 36.289246192761922 ], [ -79.529362992036695, 36.289795989088212 ], [ -79.529328992298844, 36.290344988919962 ], [ -79.529295003206869, 36.290894807660358 ], [ -79.529260003289195, 36.291443807744734 ], [ -79.529259979144655, 36.291444192303892 ], [ -79.529208999179446, 36.292268871439568 ], [ -79.52915699896657, 36.293092872056803 ], [ -79.529156982954618, 36.293093128402475 ], [ -79.529105991922378, 36.293917988829037 ], [ -79.529072001853208, 36.294466830763405 ], [ -79.529037002017347, 36.295016830146906 ], [ -79.529036980723077, 36.295017169318534 ], [ -79.52900299830192, 36.295565890276293 ], [ -79.528950998161093, 36.296390890678538 ], [ -79.528950984494813, 36.296391109407622 ], [ -79.528916992198688, 36.296939988523434 ], [ -79.528865999344617, 36.297764871413015 ], [ -79.528814007739669, 36.298588728995341 ], [ -79.528813974314289, 36.298589270329259 ], [ -79.528789008344177, 36.299002714491415 ], [ -79.528762993769789, 36.29941395123241 ], [ -79.528728003133097, 36.299962807823427 ], [ -79.528727978987419, 36.299963192402494 ], [ -79.528676999307422, 36.300787871490904 ], [ -79.528624998803906, 36.301611879608728 ], [ -79.528624983728719, 36.301612120810901 ], [ -79.528573991293385, 36.302435991972843 ], [ -79.528523003426372, 36.303260807467936 ], [ -79.528488002888096, 36.303809807650637 ], [ -79.528487978719753, 36.303810192588003 ], [ -79.528453991159282, 36.304360000478447 ], [ -79.528437002559656, 36.304634807744819 ], [ -79.528402008815831, 36.305183718234716 ], [ -79.528401973635141, 36.305184282643623 ], [ -79.528377999744393, 36.305577860091148 ], [ -79.528334000179868, 36.306283858191073 ], [ -79.52829900340717, 36.306832808241232 ], [ -79.528298979271867, 36.306833192650515 ], [ -79.52824799139178, 36.307657988676823 ], [ -79.528214001941649, 36.308206829835861 ], [ -79.528179001649534, 36.308756826993559 ], [ -79.528178979877225, 36.30875717388048 ], [ -79.528127992797309, 36.309580974111569 ], [ -79.528093996047886, 36.310127928271235 ], [ -79.52804199794673, 36.310954894663112 ], [ -79.528041984805157, 36.310955105440655 ], [ -79.52800800324485, 36.311504807949468 ], [ -79.527972998388762, 36.312053886157415 ], [ -79.527972984028992, 36.312054113439324 ], [ -79.527937000645906, 36.312628846894043 ], [ -79.527936981703192, 36.312629153219348 ], [ -79.527905003141569, 36.313152804769778 ], [ -79.527852997524775, 36.31397789034537 ], [ -79.527852983841214, 36.313978109352973 ], [ -79.527818998327319, 36.314526890212512 ], [ -79.527766998292662, 36.315351890665326 ], [ -79.527766984637793, 36.315352109210686 ], [ -79.527732991865435, 36.315900989002472 ], [ -79.527681999353732, 36.316725871942964 ], [ -79.527629998891811, 36.317549871832128 ], [ -79.527629982874572, 36.317550128261729 ], [ -79.52757899911974, 36.318374871820239 ], [ -79.527526996924635, 36.319198901080561 ], [ -79.527476991889955, 36.320003990170946 ], [ -79.527423015957623, 36.320871604192149 ], [ -79.527422968294346, 36.320872395648195 ], [ -79.527394030788741, 36.321369321182367 ], [ -79.527340006189164, 36.322199760869275 ], [ -79.527339975616286, 36.3222002396855 ], [ -79.52728699437651, 36.323045954760779 ], [ -79.527234999817978, 36.323869871159403 ], [ -79.527234983688686, 36.323870129405051 ], [ -79.527195999838383, 36.324500856399673 ], [ -79.527148995674452, 36.32524393251564 ], [ -79.527094992024132, 36.326106976630243 ], [ -79.527045994833983, 36.326892948161323 ], [ -79.526994991919096, 36.327717989271726 ], [ -79.526961001070049, 36.328266847504011 ], [ -79.526927999607665, 36.328786861001205 ], [ -79.526927982113335, 36.328787139743383 ], [ -79.526874995040501, 36.329640933379117 ], [ -79.526807992863525, 36.33070896509475 ], [ -79.526753998449394, 36.331564885710456 ], [ -79.526753984137642, 36.331565114670447 ], [ -79.526719991299942, 36.332113988939462 ], [ -79.526668999292355, 36.332938872025117 ], [ -79.526616999138071, 36.333762872171206 ], [ -79.526616983140812, 36.33376312827928 ], [ -79.526582998573403, 36.334312871981027 ], [ -79.526530998902317, 36.335136872065597 ], [ -79.526530982889298, 36.335137128431015 ], [ -79.526496999401218, 36.33568687135336 ], [ -79.526444998587849, 36.336510879510492 ], [ -79.526444983506067, 36.33651112081759 ], [ -79.526393997896193, 36.337334883761443 ], [ -79.526393983687754, 36.337335115505638 ], [ -79.526364013459172, 36.337828629003624 ], [ -79.526325000921503, 36.338433847856344 ], [ -79.526324981505113, 36.33843415269763 ], [ -79.526278996873117, 36.339164917451789 ], [ -79.526221994070582, 36.340082950089645 ], [ -79.526135995083706, 36.341456929184126 ], [ -79.526067996150005, 36.342555915665621 ], [ -79.525999010800177, 36.343655686333889 ], [ -79.525998972451134, 36.343656313461956 ], [ -79.525971019036334, 36.344125536889322 ], [ -79.525913000641992, 36.345028851412813 ], [ -79.525912981694788, 36.345029149899446 ], [ -79.525843993997981, 36.346128960662327 ], [ -79.525706992232315, 36.348326975846362 ], [ -79.525546991562038, 36.350883987453777 ], [ -79.525351998897378, 36.35399388473575 ], [ -79.525351984542937, 36.35399411581313 ], [ -79.525296000142674, 36.354903860334531 ], [ -79.525242991685289, 36.355745992028169 ], [ -79.525190998573677, 36.356570887346265 ], [ -79.525190984458845, 36.356571113322261 ], [ -79.525139998744578, 36.357394879203838 ], [ -79.525087998791108, 36.358218871603071 ], [ -79.525087982779539, 36.358219127941041 ], [ -79.52505399069662, 36.358769000389998 ], [ -79.525019996090023, 36.359318922985707 ], [ -79.524933992298386, 36.360692980796834 ], [ -79.524864993647952, 36.361791967765946 ], [ -79.524812998586754, 36.362615878925681 ], [ -79.524812983495835, 36.362616120378803 ], [ -79.524761995188683, 36.363439930715487 ], [ -79.524675991967882, 36.364813980464533 ], [ -79.524606996950155, 36.365912903904515 ], [ -79.524555996600895, 36.366737908670132 ], [ -79.524489991730192, 36.367789991323846 ], [ -79.524417996907033, 36.368935899892477 ], [ -79.524417984387441, 36.36893610077643 ], [ -79.524366997172322, 36.369760903820797 ], [ -79.524297992727824, 36.370859967976017 ], [ -79.524245992679667, 36.37168396796762 ], [ -79.524176996969601, 36.372782909469912 ], [ -79.524108998446366, 36.373881875168898 ], [ -79.524058999007352, 36.374673872101482 ], [ -79.524058983010406, 36.374674128105809 ], [ -79.524005998955019, 36.37553087468261 ], [ -79.523953991161349, 36.376354992486924 ], [ -79.523901998299507, 36.377179886795652 ], [ -79.523901984179687, 36.377180112852912 ], [ -79.523850998954146, 36.378003879289267 ], [ -79.52379899922181, 36.378827871408504 ], [ -79.523798983206262, 36.3788281278119 ], [ -79.523765000902614, 36.379377847188096 ], [ -79.523704999054416, 36.38032487738338 ], [ -79.523704983707105, 36.380325121990261 ], [ -79.523558994565633, 36.382674947941751 ], [ -79.523403992393511, 36.385148973219017 ], [ -79.523282994485527, 36.387071941211744 ], [ -79.523145997099093, 36.389269897912371 ], [ -79.523053998765292, 36.390721886067112 ], [ -79.523053984445013, 36.390722114145625 ], [ -79.522904991696009, 36.393116991264051 ], [ -79.522767994466719, 36.395315952189407 ], [ -79.52269899244213, 36.396414971756997 ], [ -79.522595997192283, 36.398062909350038 ], [ -79.52253099648874, 36.399087909420956 ], [ -79.522388992170889, 36.401359990799676 ], [ -79.522302992200864, 36.402733974805649 ], [ -79.522233996726598, 36.403831903896993 ], [ -79.522165996412156, 36.404930909868895 ], [ -79.522096991367178, 36.406029999630704 ], [ -79.522027991155738, 36.407129000064749 ], [ -79.521958991647608, 36.408227994026547 ], [ -79.521889992389291, 36.409325974684805 ], [ -79.521803995016427, 36.410699930968391 ], [ -79.521752999262802, 36.41152385946237 ], [ -79.521688998101141, 36.412534885896576 ], [ -79.521688983818251, 36.412535113582933 ], [ -79.521563994109641, 36.414545952384437 ], [ -79.521477991463087, 36.41591899562232 ], [ -79.521391991730823, 36.417292995515751 ], [ -79.521305994096295, 36.418665953242467 ], [ -79.521253990849914, 36.419489999844906 ], [ -79.521201998325054, 36.420313877557618 ], [ -79.521201982996828, 36.420314122847536 ], [ -79.521133996080692, 36.421412928833043 ], [ -79.521047991585149, 36.422786995297265 ], [ -79.520961992599752, 36.42415998310257 ], [ -79.520754993986145, 36.427455960530409 ], [ -79.520634993686784, 36.429378953534375 ], [ -79.520444993644361, 36.432400953779528 ], [ -79.520324995829924, 36.434323919983527 ], [ -79.520235998212158, 36.435731879466296 ], [ -79.520235983093997, 36.435732120958804 ], [ -79.520135997086328, 36.437344908112387 ], [ -79.520014994103974, 36.439267948079468 ], [ -79.519895002843796, 36.441190820328586 ], [ -79.519820003057731, 36.442358814210664 ], [ -79.519819979578614, 36.442359185250297 ], [ -79.51966799252591, 36.444796979796592 ], [ -79.519580995344441, 36.446196924001974 ], [ -79.519532992595643, 36.446959973052564 ], [ -79.519447002640504, 36.448332809783615 ], [ -79.519392009531927, 36.449184721053371 ], [ -79.519391974240591, 36.449185279929679 ], [ -79.519274997501881, 36.451079900567876 ], [ -79.519193991246226, 36.452370989695595 ], [ -79.519067991457106, 36.45437599397539 ], [ -79.51892999404815, 36.456573957652601 ], [ -79.518792995240034, 36.458770942800264 ], [ -79.518658030407039, 36.460915369163523 ], [ -79.518657954960389, 36.460916631574499 ], [ -79.518655025383865, 36.460968398591717 ], [ -79.518568994222647, 36.462341953168853 ], [ -79.518516994266051, 36.463165956988895 ], [ -79.518362000162213, 36.465638851617435 ], [ -79.518361981817065, 36.465639147829997 ], [ -79.518260004959927, 36.467305774108731 ], [ -79.518049006122695, 36.470630768043073 ], [ -79.51803901240531, 36.470782673462658 ], [ -79.518038970464772, 36.470783327310727 ], [ -79.518000000342084, 36.471406852916026 ], [ -79.517999982137368, 36.471407147688694 ], [ -79.517963995671579, 36.471996922187941 ], [ -79.517931030838994, 36.472530358076291 ], [ -79.517914035426486, 36.472779349771336 ], [ -79.517913950695572, 36.472780653816358 ], [ -79.517889997682957, 36.473168900456898 ], [ -79.517810991283994, 36.47442899383006 ], [ -79.517724992804105, 36.475801971716045 ], [ -79.517603997380604, 36.477724898074307 ], [ -79.517603984604776, 36.477725102789805 ], [ -79.517552995540001, 36.478548929045907 ], [ -79.51747799444955, 36.479746954116763 ], [ -79.51741499305939, 36.480745972051842 ], [ -79.517346007286093, 36.481844744392262 ], [ -79.51732601061272, 36.482150699149592 ], [ -79.517325972140085, 36.482151301768958 ], [ -79.517190996757336, 36.484316911700525 ], [ -79.517124996403453, 36.485360918080211 ], [ -79.517052992936826, 36.486514976019663 ], [ -79.516966997544344, 36.487887900448392 ], [ -79.516931996492517, 36.488437921564319 ], [ -79.516862996923535, 36.489535901117158 ], [ -79.516797998981161, 36.490586878333232 ], [ -79.516742992850922, 36.491458979925909 ], [ -79.516552992191848, 36.494480976621993 ], [ -79.516380994099222, 36.497226957178121 ], [ -79.51627699366972, 36.498875956970352 ], [ -79.516190992015879, 36.500248986581326 ], [ -79.516087996967016, 36.501896904380722 ], [ -79.516025995554259, 36.502873925230936 ], [ -79.515759991620683, 36.50711599019958 ], [ -79.51555299197085, 36.510411988258191 ], [ -79.515403993528295, 36.512788957624032 ], [ -79.515345994459778, 36.513707948491721 ], [ -79.515259991795716, 36.515081981128262 ], [ -79.515190991206993, 36.516180991918468 ], [ -79.51503599505817, 36.518652934459553 ], [ -79.515018995570998, 36.518926926574935 ], [ -79.514811992558691, 36.522223983074902 ], [ -79.514690994470868, 36.524145953459424 ], [ -79.514574999772833, 36.525974858367469 ], [ -79.514574981995636, 36.525975141849635 ], [ -79.514466997611308, 36.527716902626551 ], [ -79.514293998458413, 36.530463879757413 ], [ -79.514161008247683, 36.532535740918895 ], [ -79.514160975704343, 36.532536258405848 ], [ -79.514000999061892, 36.535133873691095 ], [ -79.5139030198782, 36.536692549693498 ], [ -79.513897033608373, 36.536781373561695 ], [ -79.513896952845542, 36.536782630937573 ], [ -79.51387300364172, 36.537174797389994 ], [ -79.513685993158049, 36.540137971924196 ], [ -79.513638305736009, 36.540896988000796 ], [ -79.513637764532774, 36.540901759122562 ], [ -79.513632969331937, 36.540902009226329 ], [ -79.511538181139755, 36.540905999844561 ], [ -79.509700239353137, 36.540905999911772 ], [ -79.509699742811549, 36.540906000528175 ], [ -79.508089238716607, 36.540909999010744 ], [ -79.507716230922711, 36.540909999685731 ], [ -79.507715751407716, 36.540910000261434 ], [ -79.502298007208523, 36.540922999550901 ], [ -79.500508051930865, 36.540926999882586 ], [ -79.499893008286364, 36.540928000308654 ], [ -79.497833112415279, 36.540930999607014 ], [ -79.497832869416598, 36.540931000108451 ], [ -79.497084098330049, 36.540933000109732 ], [ -79.496459294261498, 36.540933999141423 ], [ -79.49645868695643, 36.540934001034536 ], [ -79.495596455048613, 36.540937997932183 ], [ -79.494055198648226, 36.540938000078498 ], [ -79.494054783128448, 36.540938000510721 ], [ -79.49165003415159, 36.540942999974121 ], [ -79.489835010755385, 36.540945999872129 ], [ -79.48821600171766, 36.540948999904721 ], [ -79.484780999489004, 36.540954999759471 ], [ -79.482377073652131, 36.540958999850382 ], [ -79.479981016397844, 36.540961000049634 ], [ -79.478139099558021, 36.540962999988622 ], [ -79.477928150158121, 36.54096300004835 ], [ -79.477927832228801, 36.54096300030114 ], [ -79.476670079676168, 36.540965000041858 ], [ -79.473821041634508, 36.540967000153259 ], [ -79.471339033636355, 36.540970000183336 ], [ -79.470057141115518, 36.540971000083111 ], [ -79.470056841577133, 36.540971000541063 ], [ -79.469618219032739, 36.540971999598661 ], [ -79.468686991869887, 36.540972000425235 ], [ -79.468346301158448, 36.540971999781988 ], [ -79.468345681355061, 36.540972000741213 ], [ -79.46802324333035, 36.540972999378113 ], [ -79.46629340099247, 36.540973999983315 ], [ -79.465728691127239, 36.540972009127969 ], [ -79.465723291990273, 36.540972062977993 ], [ -79.465514022537334, 36.540976975939522 ], [ -79.46551195886633, 36.540977003083952 ], [ -79.465160491526575, 36.540977998794297 ], [ -79.464239313917972, 36.540976000606335 ], [ -79.464238667134566, 36.540976000249174 ], [ -79.463300136277198, 36.540976999555383 ], [ -79.463299845104942, 36.540977000077369 ], [ -79.462903170954519, 36.540977999943962 ], [ -79.460129063603191, 36.540980000228942 ], [ -79.459683053516343, 36.540979999774848 ], [ -79.45808269442513, 36.540980997719487 ], [ -79.458075291205461, 36.540981139405503 ], [ -79.456725074130958, 36.541031997207583 ], [ -79.451892687708337, 36.541209974774226 ], [ -79.450351065957747, 36.541255997958217 ], [ -79.448255026420725, 36.541316998918894 ], [ -79.446048587768672, 36.541381982835915 ], [ -79.446047395074061, 36.541382010843421 ], [ -79.44542045796743, 36.541392991528447 ], [ -79.444252024374947, 36.54140799916668 ], [ -79.443114247010087, 36.541422996809985 ], [ -79.443113735322086, 36.541423004209577 ], [ -79.442034301330338, 36.541439995344625 ], [ -79.441005023151476, 36.541452999754604 ], [ -79.440274633202606, 36.541461991752612 ], [ -79.440273349179506, 36.541462011683613 ], [ -79.439153638024777, 36.541482988014387 ], [ -79.43915234297738, 36.54148300388686 ], [ -79.438115044216488, 36.541488999371019 ], [ -79.434308006903038, 36.541509000345599 ], [ -79.431538995011536, 36.541523999578303 ], [ -79.429889320512871, 36.541532998554601 ], [ -79.428041015699293, 36.541537000408191 ], [ -79.425432282995303, 36.54154199969873 ], [ -79.42145800423917, 36.541538000273015 ], [ -79.41803524825572, 36.541535000620016 ], [ -79.418034734353455, 36.541535000829882 ], [ -79.413901111630338, 36.541541999587423 ], [ -79.413900871339123, 36.54154200013862 ], [ -79.412519026426452, 36.541546000020055 ], [ -79.411904315695153, 36.541547999372376 ], [ -79.411802267684351, 36.541548000404696 ], [ -79.41180171276109, 36.541548001180161 ], [ -79.411084081885136, 36.541549999597827 ], [ -79.410542095001432, 36.54155199950204 ], [ -79.409409064436403, 36.541554999632211 ], [ -79.407336038867356, 36.541561999898775 ], [ -79.404916991578418, 36.541568999987824 ], [ -79.402498993673845, 36.541576000433217 ], [ -79.400790982088452, 36.541580996804633 ], [ -79.400076169302665, 36.541576001282465 ], [ -79.398370995941008, 36.541560999980824 ], [ -79.398028032628417, 36.541557999950562 ], [ -79.397155055488284, 36.541550000927977 ], [ -79.395629016035556, 36.541537000195611 ], [ -79.39357203951495, 36.541520000811154 ], [ -79.391515003310218, 36.541501999739019 ], [ -79.389312054441007, 36.541483000760785 ], [ -79.388771998698502, 36.541477999672495 ], [ -79.388010057725893, 36.541471000797536 ], [ -79.386718006301976, 36.541460000280516 ], [ -79.386372089276733, 36.541457001006663 ], [ -79.37467102501094, 36.541367000548895 ], [ -79.373447016811042, 36.541358000281392 ], [ -79.372602006035038, 36.54135199975817 ], [ -79.36670003302315, 36.541311000228362 ], [ -79.364250085262682, 36.541295000520527 ], [ -79.362913735738431, 36.541285020512611 ], [ -79.362908245830425, 36.541285054866137 ], [ -79.35315399645836, 36.541479999650385 ], [ -79.347614011012681, 36.541590999352117 ], [ -79.347269080512334, 36.541597978352698 ], [ -79.347266901333484, 36.541597998692446 ], [ -79.343430563693033, 36.54159200055237 ], [ -79.343156718302481, 36.541590005150695 ], [ -79.343155262289912, 36.541589999841463 ], [ -79.343116994936139, 36.541589999598727 ], [ -79.343086993210349, 36.541590000372942 ], [ -79.342844991210399, 36.541590000141881 ], [ -79.342738182165562, 36.541590000042412 ], [ -79.337513003853289, 36.54158000047066 ], [ -79.334145339147838, 36.541574000755354 ], [ -79.330536093778136, 36.541555000617556 ], [ -79.327040015505418, 36.541532999857452 ], [ -79.324593018992132, 36.541517000438333 ], [ -79.322358464781772, 36.541503002910886 ], [ -79.322357516368243, 36.541502999218707 ], [ -79.319073030512698, 36.541498000451092 ], [ -79.314632016575388, 36.541492999837217 ], [ -79.311167045869382, 36.541490000145934 ], [ -79.306930006529839, 36.541483999911051 ], [ -79.299027029250269, 36.541474000098759 ], [ -79.297895049252702, 36.541472999865825 ], [ -79.295163049298537, 36.541469000445879 ], [ -79.294024033495333, 36.541468000259293 ], [ -79.285589349376437, 36.54145700049726 ], [ -79.285588633793438, 36.541457000844211 ], [ -79.283830008426733, 36.54146099962643 ], [ -79.280504003706838, 36.541468000165374 ], [ -79.279609053117269, 36.541469999637727 ], [ -79.279258133880091, 36.541470999362438 ], [ -79.278554000100584, 36.541472000208998 ], [ -79.277052942603447, 36.541473998568875 ], [ -79.277051039899447, 36.541473982998895 ], [ -79.276939322226369, 36.541472005713572 ], [ -79.276938660355839, 36.541471995094795 ], [ -79.275688031811995, 36.541454000659499 ], [ -79.27497305973391, 36.541444001233273 ], [ -79.273542002118518, 36.541423000310573 ], [ -79.271782996013371, 36.541397000433612 ], [ -79.271172017646919, 36.54138800059971 ], [ -79.26937415222659, 36.541362001995132 ], [ -79.269063814153071, 36.541357013307923 ], [ -79.269062167607984, 36.541356993619317 ], [ -79.266257516608704, 36.541335003900031 ], [ -79.264502161661724, 36.541312015107934 ], [ -79.264499819752174, 36.541311998150647 ], [ -79.263058824123078, 36.541310001350375 ], [ -79.262750349001607, 36.541307003654026 ], [ -79.261701087966713, 36.541293001558486 ], [ -79.260653055157064, 36.54127800088488 ], [ -79.257507010818074, 36.541235000701022 ], [ -79.252964020574524, 36.541172000510095 ], [ -79.250706917222857, 36.541140027068479 ], [ -79.250703063701494, 36.541140009609222 ], [ -79.25050949451358, 36.541140997469746 ], [ -79.250473984096644, 36.541141000120746 ], [ -79.250365809386054, 36.541140999679477 ], [ -79.250362172632663, 36.541141032732313 ], [ -79.249484059161659, 36.541156999199664 ], [ -79.248106040486292, 36.541182998940677 ], [ -79.24707204000795, 36.541201998790989 ], [ -79.245694064551955, 36.54122799864443 ], [ -79.244977144514337, 36.541240997382396 ], [ -79.244976837489517, 36.541241003184957 ], [ -79.244316119611071, 36.541253997728838 ], [ -79.242249039678711, 36.541291999422242 ], [ -79.240182269882069, 36.541330994776473 ], [ -79.23918702386932, 36.541346999705347 ], [ -79.237968075777815, 36.541366998905239 ], [ -79.234818027703795, 36.541415999778302 ], [ -79.232934011369721, 36.541445999269619 ], [ -79.230516998503859, 36.541483999645834 ], [ -79.228791033391829, 36.541510999583593 ], [ -79.227411033387952, 36.541531998999019 ], [ -79.225685019883159, 36.541558999347551 ], [ -79.224304011651824, 36.541580999334506 ], [ -79.221887471583841, 36.541618992121847 ], [ -79.220513159129212, 36.541633998203018 ], [ -79.21845605796716, 36.541652999590958 ], [ -79.217850084573314, 36.541658998967591 ], [ -79.21762708209215, 36.541660999414091 ], [ -79.216210025035565, 36.541674999264622 ], [ -79.215371070407187, 36.541682999443665 ], [ -79.214685138887162, 36.541688998681813 ], [ -79.214684843753417, 36.541689001480876 ], [ -79.214098016542351, 36.541695000020646 ], [ -79.213907106255718, 36.541696999141941 ], [ -79.213585063623512, 36.541699999149699 ], [ -79.213003158932622, 36.541704998142372 ], [ -79.212135104797952, 36.541710999287979 ], [ -79.209539013804076, 36.541726000128925 ], [ -79.208818030152969, 36.541729999372585 ], [ -79.207266991683483, 36.541737999855258 ], [ -79.207073175513742, 36.541738998679222 ], [ -79.207072807360447, 36.541739000915349 ], [ -79.20693027073871, 36.541739997863459 ], [ -79.205024010063084, 36.54174799978334 ], [ -79.202275991402743, 36.541759000275313 ], [ -79.199527159028321, 36.541769999722156 ], [ -79.19952682298586, 36.54177000134915 ], [ -79.198295248602761, 36.541776998871327 ], [ -79.196362083262741, 36.541783000105035 ], [ -79.194373005816047, 36.541791000246484 ], [ -79.192311016835276, 36.541799000100596 ], [ -79.190929103556172, 36.54180399966269 ], [ -79.190928877539875, 36.541804000608096 ], [ -79.189876039563458, 36.541808999447582 ], [ -79.189173038423732, 36.541811999894364 ], [ -79.188119226671489, 36.541816998599607 ], [ -79.187700200489104, 36.541817999623142 ], [ -79.187699780765172, 36.541818001066261 ], [ -79.186363113994133, 36.54182399947387 ], [ -79.185442161932286, 36.541826999557564 ], [ -79.185441820075667, 36.541827000963366 ], [ -79.183630209723816, 36.541835999080682 ], [ -79.181830002974934, 36.541841000198517 ], [ -79.180450991052254, 36.541845000346903 ], [ -79.179417048749571, 36.54184800011852 ], [ -79.177694039786957, 36.541852000246912 ], [ -79.175916009886066, 36.54185700009949 ], [ -79.174248001054963, 36.541861999574024 ], [ -79.172524027573672, 36.541866999915797 ], [ -79.16976700502174, 36.54187399985576 ], [ -79.165185148162308, 36.541885000017643 ], [ -79.161560235285535, 36.541887999403876 ], [ -79.158457022981693, 36.541882999889452 ], [ -79.156389039431474, 36.541879000105084 ], [ -79.155010011337168, 36.541876999689329 ], [ -79.152596007163751, 36.541873000345049 ], [ -79.149838014395598, 36.541867999930957 ], [ -79.148569000835124, 36.541865999664715 ], [ -79.146774479694201, 36.54186300220799 ], [ -79.146771503342677, 36.541863019383918 ], [ -79.14147502803533, 36.541932999461814 ], [ -79.140774133991073, 36.541941998112549 ], [ -79.14077384883673, 36.541942001976928 ], [ -79.14007308712327, 36.541951998330433 ], [ -79.139021038081879, 36.54196599972699 ], [ -79.138324788293374, 36.541974938287623 ], [ -79.138320221105957, 36.541974777786727 ], [ -79.138320217521567, 36.541970207777979 ], [ -79.138358988850044, 36.54114905695301 ], [ -79.138437988062989, 36.539496056118388 ], [ -79.138489981671185, 36.538395187728625 ], [ -79.138525981067289, 36.537662214656798 ], [ -79.138526001655194, 36.537661786090553 ], [ -79.138607987837986, 36.535916060560027 ], [ -79.138738990391829, 36.533162023336665 ], [ -79.138896986928373, 36.529857097061559 ], [ -79.138950985597958, 36.528704113941799 ], [ -79.139040988704025, 36.526828044659794 ], [ -79.139184990803884, 36.523798003014015 ], [ -79.139341990006059, 36.520493014732921 ], [ -79.139442988627408, 36.518360045130841 ], [ -79.139577989045236, 36.515536031888672 ], [ -79.139711990338114, 36.51271401148469 ], [ -79.139852988455218, 36.509752066809249 ], [ -79.139933983592343, 36.508026170635056 ], [ -79.139983983856155, 36.506998141236053 ], [ -79.139983997430747, 36.506997857998037 ], [ -79.140061990874997, 36.505346011854172 ], [ -79.140158988252551, 36.503297051060137 ], [ -79.140284989227453, 36.500664032408842 ], [ -79.140428989745558, 36.497634018992045 ], [ -79.140520988136402, 36.495706051522504 ], [ -79.140585988993706, 36.494329035447528 ], [ -79.140663973776412, 36.492689363722199 ], [ -79.140720973736421, 36.491576335826295 ], [ -79.140795991304643, 36.490202004269321 ], [ -79.140810982277998, 36.489927156180208 ], [ -79.140872973994959, 36.48882230316147 ], [ -79.14087300711266, 36.488821696441903 ], [ -79.14093797840053, 36.48759724149425 ], [ -79.141067984882469, 36.485254108998937 ], [ -79.141067996829079, 36.485253891542264 ], [ -79.14120298591925, 36.482772102217623 ], [ -79.141293988657111, 36.481130050538589 ], [ -79.141459989328851, 36.4781070348429 ], [ -79.141609988201424, 36.475358054607106 ], [ -79.141699988779848, 36.473725033753567 ], [ -79.141730988565641, 36.47315905461965 ], [ -79.141773987286669, 36.472366075156927 ], [ -79.141805989956865, 36.471784029334756 ], [ -79.141861989421898, 36.470771024603891 ], [ -79.14189699051235, 36.470135012135536 ], [ -79.14191998656483, 36.469718074020072 ], [ -79.142001984618943, 36.468211114183632 ], [ -79.142042989279048, 36.467473030550487 ], [ -79.142062983751188, 36.467111123523296 ], [ -79.142062997233268, 36.467110876724036 ], [ -79.142093986433309, 36.466537087519562 ], [ -79.142152989546886, 36.465462029619601 ], [ -79.142227987887637, 36.464088053975878 ], [ -79.14233498775539, 36.462147066764906 ], [ -79.142378987860155, 36.461339063840306 ], [ -79.142484987785352, 36.459415054489362 ], [ -79.142589990353841, 36.45749000539216 ], [ -79.142649988683004, 36.45639104284092 ], [ -79.142770991136686, 36.454192000837018 ], [ -79.142846984836041, 36.452811115911814 ], [ -79.142846997501579, 36.452810883296571 ], [ -79.142892988520742, 36.451957052998438 ], [ -79.142905980780696, 36.451718195890571 ], [ -79.14293698362404, 36.451168141240466 ], [ -79.142936999361567, 36.451167858460622 ], [ -79.142941988100247, 36.451077059578076 ], [ -79.142951985514685, 36.450893094947126 ], [ -79.142963984368492, 36.45067612438573 ], [ -79.142963997965737, 36.450675875703645 ], [ -79.142981988006255, 36.450343052040026 ], [ -79.143071989096811, 36.448694027081885 ], [ -79.143127985766128, 36.447673101934754 ], [ -79.143127996857487, 36.447672897810868 ], [ -79.143146983069784, 36.447320150312081 ], [ -79.143160985336564, 36.447067099877174 ], [ -79.143172989248313, 36.446854026069829 ], [ -79.14317898498507, 36.446747104341213 ], [ -79.143178996573667, 36.446746895732865 ], [ -79.143207987938126, 36.446220048283557 ], [ -79.14325298806348, 36.445395052623361 ], [ -79.143287980386674, 36.444747202244365 ], [ -79.143306981370728, 36.444408176951278 ], [ -79.143307000952561, 36.444407821913451 ], [ -79.143327989296409, 36.44402102999598 ], [ -79.14337399134287, 36.443178005882913 ], [ -79.14340298391096, 36.442646130963844 ], [ -79.143448983590787, 36.441822127733772 ], [ -79.143448997646246, 36.441821873036666 ], [ -79.143493990441044, 36.440997003214591 ], [ -79.143598988687245, 36.439073038260076 ], [ -79.143690989292722, 36.437399037352755 ], [ -79.14380698900159, 36.43527403334398 ], [ -79.143854990561806, 36.434400009897367 ], [ -79.143975988429801, 36.432201045879502 ], [ -79.14411098818411, 36.429727045225924 ], [ -79.14423198828915, 36.427528047893027 ], [ -79.144336988967083, 36.425603033937698 ], [ -79.144517989684687, 36.422305033665523 ], [ -79.144592990823327, 36.420930005285207 ], [ -79.144652991084627, 36.419831005553597 ], [ -79.144727985565183, 36.418456095969212 ], [ -79.144788985475415, 36.41735709595357 ], [ -79.144848990584222, 36.416256999843235 ], [ -79.144908990759831, 36.415157004408186 ], [ -79.144983986522149, 36.413783086421553 ], [ -79.145044986465024, 36.412683086789613 ], [ -79.145134991182786, 36.411033999843326 ], [ -79.145224990539845, 36.409385003591815 ], [ -79.145314987259908, 36.407735076504494 ], [ -79.145390987623529, 36.406361063454078 ], [ -79.145466990324152, 36.404971022354786 ], [ -79.145540990626472, 36.403612009426865 ], [ -79.145600986353443, 36.402512095546278 ], [ -79.145661985611625, 36.401413094972412 ], [ -79.145751991154867, 36.399763007333803 ], [ -79.14583598891744, 36.398221031971801 ], [ -79.145871988908453, 36.397564039084251 ], [ -79.145921981745232, 36.396658176510414 ], [ -79.145922000893606, 36.396657823886869 ], [ -79.145946984735801, 36.396190112147252 ], [ -79.145991977614571, 36.395365239274476 ], [ -79.146025953548701, 36.394768659054101 ], [ -79.146026024292709, 36.394767340165146 ], [ -79.146071975117636, 36.393854316682855 ], [ -79.146103982796944, 36.393256154964774 ], [ -79.146103999198672, 36.393255843908527 ], [ -79.146123988660534, 36.392871048634326 ], [ -79.146165988349196, 36.392070043262393 ], [ -79.146212986692788, 36.391181091674568 ], [ -79.146337990068787, 36.388775024667183 ], [ -79.146509990584249, 36.385480014128177 ], [ -79.146624990210654, 36.383283013561375 ], [ -79.146753990653522, 36.380812000362162 ], [ -79.146882990680538, 36.378341013253227 ], [ -79.147025988867753, 36.375595047218191 ], [ -79.147126988059213, 36.373673051885454 ], [ -79.147226989709296, 36.371751034093961 ], [ -79.147341989197557, 36.369555044195707 ], [ -79.147418990967125, 36.368072012867486 ], [ -79.147498989613013, 36.366535039174273 ], [ -79.147642990062025, 36.363789022899653 ], [ -79.147771990796556, 36.361317999633293 ], [ -79.147900989638742, 36.358847031638263 ], [ -79.148014989538879, 36.356650031344373 ], [ -79.148143991074207, 36.354179002523473 ], [ -79.14822997224941, 36.352531368495136 ], [ -79.148238965549098, 36.352370450121271 ], [ -79.14823901389444, 36.352369548549376 ], [ -79.148272982275273, 36.351708170552968 ], [ -79.148316981791424, 36.350879178583476 ], [ -79.148317000431376, 36.350878821353731 ], [ -79.148358983773491, 36.350060152972617 ], [ -79.148416983589811, 36.348962143180465 ], [ -79.148416998524098, 36.348961856551391 ], [ -79.148455987444748, 36.348203076483074 ], [ -79.148530987297789, 36.346765066421682 ], [ -79.148588987768406, 36.345667063702606 ], [ -79.148631989623979, 36.344843036608147 ], [ -79.148668987783694, 36.344129069413846 ], [ -79.148717988658902, 36.343196054084103 ], [ -79.14876799103213, 36.342234010621361 ], [ -79.148817989726297, 36.341274021352639 ], [ -79.148874989294583, 36.340175037646688 ], [ -79.148917988994512, 36.339352038487917 ], [ -79.148974988302598, 36.33825305008385 ], [ -79.149089990453561, 36.336057011805508 ], [ -79.149164981883857, 36.334628176643307 ], [ -79.149165000112973, 36.334627823348804 ], [ -79.149189980018235, 36.334135227781438 ], [ -79.14922798301059, 36.333418143109277 ], [ -79.149227997987111, 36.333417856627207 ], [ -79.149275989483655, 36.332487035432223 ], [ -79.149332989539545, 36.33138902994655 ], [ -79.149418991190146, 36.329742002364789 ], [ -79.149474989881071, 36.328670020713048 ], [ -79.149533988734788, 36.327545041803056 ], [ -79.149633991361, 36.325622999926289 ], [ -79.149733989860721, 36.32370103155391 ], [ -79.149848991164447, 36.32150400930184 ], [ -79.149891991467939, 36.320680999720921 ], [ -79.149912988452201, 36.320279058275119 ], [ -79.149948985464817, 36.319582118332093 ], [ -79.149989986612695, 36.318806090816587 ], [ -79.15002098946141, 36.318209032463677 ], [ -79.150063985501049, 36.317386100264763 ], [ -79.150063995880899, 36.317385899663968 ], [ -79.150094984037523, 36.316781138606977 ], [ -79.15012098957699, 36.316287019005472 ], [ -79.150149988486405, 36.315738055151009 ], [ -79.150172988029226, 36.315298059521162 ], [ -79.150206988931515, 36.314640035699661 ], [ -79.150306990304429, 36.312718020946598 ], [ -79.150362988274097, 36.311646047476231 ], [ -79.150406989511296, 36.31079604188762 ], [ -79.150492990276348, 36.309148025585529 ], [ -79.150564989316194, 36.307775041022055 ], [ -79.150664988924518, 36.305853031273529 ], [ -79.150735988681504, 36.304480053625731 ], [ -79.150778988118944, 36.303657052988356 ], [ -79.150836986247938, 36.302558090457666 ], [ -79.150886988065409, 36.301594061956351 ], [ -79.150921983244388, 36.300911152385055 ], [ -79.150979987844991, 36.299812052324377 ], [ -79.151022990293143, 36.298989005933926 ], [ -79.151065982163885, 36.298165173046726 ], [ -79.151065999939902, 36.298164826641887 ], [ -79.151082976821655, 36.297828292991618 ], [ -79.151108972926821, 36.297341336382267 ], [ -79.151109007764987, 36.297340662439879 ], [ -79.151130966640409, 36.296901499131366 ], [ -79.151136976702659, 36.29679225358835 ], [ -79.151137004245015, 36.296791740953047 ], [ -79.151208986946259, 36.295419072356637 ], [ -79.151279990028712, 36.294046017802664 ], [ -79.151312985578414, 36.293410102793338 ], [ -79.151351986359273, 36.292673099789951 ], [ -79.151351996866865, 36.292672899320145 ], [ -79.151408989859789, 36.291575013676834 ], [ -79.151455989462292, 36.290672027244021 ], [ -79.151522987685311, 36.289378058478512 ], [ -79.151637987954786, 36.287182050427191 ], [ -79.151694990876763, 36.286083001169146 ], [ -79.151754985685315, 36.284926107009781 ], [ -79.151809981721584, 36.283887182414524 ], [ -79.151810000699427, 36.283886817594286 ], [ -79.15184698312396, 36.283163148167652 ], [ -79.151909986663995, 36.281965084683662 ], [ -79.151994988431312, 36.280322041992086 ], [ -79.152052990068029, 36.279210010115776 ], [ -79.15212399062203, 36.277846013733722 ], [ -79.152180987018326, 36.276748085822142 ], [ -79.152238986379231, 36.275649085769217 ], [ -79.152295990209481, 36.274551019805905 ], [ -79.152381988087114, 36.272888056891659 ], [ -79.152452988941462, 36.27153003717963 ], [ -79.152509989355437, 36.270432030072627 ], [ -79.152595989991099, 36.26878502087618 ], [ -79.15269599036327, 36.26686202097531 ], [ -79.152781989124776, 36.265215030297306 ], [ -79.152838990455663, 36.264117004377205 ], [ -79.152895985751783, 36.263018093247346 ], [ -79.152945982655169, 36.262071151334574 ], [ -79.152945998371365, 36.262070849333298 ], [ -79.152995985971572, 36.261096092702864 ], [ -79.1530819908577, 36.259449002973774 ], [ -79.153167990112863, 36.257801025548112 ], [ -79.153239985387344, 36.256428106338873 ], [ -79.153239996380563, 36.256427894555813 ], [ -79.153295987658254, 36.255338068818887 ], [ -79.153996742966484, 36.24187977567955 ], [ -79.153997199135375, 36.241875221428359 ], [ -79.154001773092261, 36.241875053460163 ], [ -79.155347683901709, 36.241889996940415 ], [ -79.156476800896115, 36.24190599724902 ], [ -79.165059933038776, 36.242043999383981 ], [ -79.16835195613389, 36.242094999879065 ], [ -79.170530974412657, 36.242127999321276 ], [ -79.17621198345806, 36.242214999738081 ], [ -79.179980966816203, 36.242272999235098 ], [ -79.181565958268877, 36.242296999765024 ], [ -79.185571955610769, 36.242358999186187 ], [ -79.190134920672193, 36.24242799861242 ], [ -79.191777938437056, 36.242453998836467 ], [ -79.196025974184892, 36.242519000066743 ], [ -79.196818973650863, 36.242530999783916 ], [ -79.200020983449562, 36.24257999975184 ], [ -79.202946984860432, 36.242624999902375 ], [ -79.21084781152031, 36.24274599760674 ], [ -79.211782735414801, 36.242761995455027 ], [ -79.211783246640749, 36.242762003549174 ], [ -79.216729944025417, 36.242833999256604 ], [ -79.223783978683997, 36.24293999958266 ], [ -79.229083964842445, 36.24301899965571 ], [ -79.231786908745448, 36.243059998870386 ], [ -79.233807940299798, 36.243088999179449 ], [ -79.235759985347073, 36.243117999917757 ], [ -79.24018393953375, 36.243183999044739 ], [ -79.242266941530531, 36.243213999533644 ], [ -79.246966990194721, 36.243283999905096 ], [ -79.248979975226703, 36.243314000029514 ], [ -79.25110394753429, 36.243345999664825 ], [ -79.25698186820857, 36.243431997851722 ], [ -79.256982113850754, 36.243432001294742 ], [ -79.257951040042116, 36.243444986978687 ], [ -79.258387883167174, 36.243454997421672 ], [ -79.261049750390285, 36.243518993870502 ], [ -79.261050232630041, 36.243519004882621 ], [ -79.264794858317828, 36.243599996837581 ], [ -79.265186288744786, 36.243608984055385 ], [ -79.265187692709489, 36.243609026158445 ], [ -79.265212606337343, 36.243609948459692 ], [ -79.265215376840942, 36.243610031803847 ], [ -79.265861950251079, 36.243624998872328 ], [ -79.265905973851176, 36.243625999808906 ], [ -79.268564145457574, 36.243685980622601 ], [ -79.26859604011095, 36.243686970428755 ], [ -79.268597989569798, 36.243687021415447 ], [ -79.268878862511727, 36.243692997322668 ], [ -79.268879119070405, 36.243693002616595 ], [ -79.268928793210222, 36.243693995730865 ], [ -79.269019884999466, 36.243695997413788 ], [ -79.272187421257314, 36.243768987200177 ], [ -79.272188561048736, 36.243769010214478 ], [ -79.272706363681991, 36.243777989229343 ], [ -79.275035916880029, 36.243832998647846 ], [ -79.282382987515007, 36.244000999866621 ], [ -79.287446902170515, 36.244116997574302 ], [ -79.289081846555064, 36.244152997125767 ], [ -79.290999939220683, 36.244197998482385 ], [ -79.29335343246359, 36.244251986768084 ], [ -79.29335455019762, 36.244252018661911 ], [ -79.293938665748556, 36.244271955039792 ], [ -79.293941317577719, 36.24427202794503 ], [ -79.298446808116424, 36.244365996287691 ], [ -79.299592970167737, 36.244391999732514 ], [ -79.300882970089148, 36.244420999751817 ], [ -79.305377969342842, 36.244522999219178 ], [ -79.30625098060564, 36.244542999935966 ], [ -79.310678891580523, 36.244643998026831 ], [ -79.311228851290124, 36.244655996825664 ], [ -79.311229131975111, 36.244656002752393 ], [ -79.311277116042987, 36.24465698225373 ], [ -79.311311387822201, 36.244657981926366 ], [ -79.311312640518324, 36.244658014538786 ], [ -79.315547967428103, 36.244754999686826 ], [ -79.323004883792933, 36.24492399733321 ], [ -79.323341113733875, 36.244931979514767 ], [ -79.323342867808265, 36.24493201345993 ], [ -79.324477112111651, 36.244948987269872 ], [ -79.324478868764288, 36.244949028997816 ], [ -79.325368014088028, 36.244977968260756 ], [ -79.325369969091497, 36.244978022323338 ], [ -79.332793991345596, 36.245146999989181 ], [ -79.337187977658033, 36.245246999282465 ], [ -79.338734844840829, 36.245281996357363 ], [ -79.340021614258418, 36.2453129913197 ], [ -79.340022368899682, 36.245313008072245 ], [ -79.340661732276203, 36.245325994452074 ], [ -79.342888545416173, 36.245376990268781 ], [ -79.342961488214343, 36.245378985805324 ], [ -79.342962499836148, 36.245379010919841 ], [ -79.344800656984404, 36.245419992177474 ], [ -79.344917720386022, 36.245422993311003 ], [ -79.345199929828141, 36.245430998229956 ], [ -79.345406055929715, 36.245436972737075 ], [ -79.345407927151527, 36.245437018211391 ], [ -79.346986626390176, 36.245467992634048 ], [ -79.349221947126949, 36.245519999090227 ], [ -79.358947986349349, 36.245742000275776 ], [ -79.36511227873352, 36.24588298385838 ], [ -79.36511370295834, 36.245883011357577 ], [ -79.36536622709491, 36.245886987566394 ], [ -79.368017911091613, 36.24594899818986 ], [ -79.371249983024512, 36.246022000056556 ], [ -79.373559895402565, 36.246073997870262 ], [ -79.37441170055331, 36.246093993064029 ], [ -79.374412281483515, 36.246094005856385 ], [ -79.376210495709714, 36.246130989977679 ], [ -79.377385807791867, 36.246160995156551 ], [ -79.377386174003988, 36.24616100417019 ], [ -79.379284875008068, 36.246205997339018 ], [ -79.379285106753358, 36.246206002696269 ], [ -79.387892963707799, 36.246399999351311 ], [ -79.394206757657159, 36.246543994271384 ], [ -79.394207224943926, 36.246544004382223 ], [ -79.394548728076131, 36.246550994379355 ], [ -79.396063742639029, 36.246585994495589 ], [ -79.396064239375889, 36.246586005353954 ], [ -79.396160753281947, 36.246587995152034 ], [ -79.398552962622048, 36.246642999415087 ], [ -79.401502958586335, 36.246709999533707 ], [ -79.401719955892247, 36.246714999152971 ], [ -79.402336281850822, 36.246728983754416 ], [ -79.402337701130421, 36.246729010919196 ], [ -79.402785026681101, 36.246735984682509 ], [ -79.403815691161142, 36.246761992850416 ], [ -79.403816293909045, 36.246762007151318 ], [ -79.403905947320396, 36.24676399907807 ], [ -79.410524978342337, 36.246913999881762 ], [ -79.424081877046532, 36.24722299770086 ], [ -79.424457860132023, 36.247231996927155 ], [ -79.424458121622237, 36.247232003014886 ], [ -79.426269770258955, 36.247272994599321 ], [ -79.426270213004429, 36.247273004126768 ], [ -79.42651444876644, 36.24727798932259 ], [ -79.426630696181263, 36.247280992761745 ], [ -79.426631291649457, 36.247281007259346 ], [ -79.427505948195673, 36.247300998950195 ], [ -79.432186930451024, 36.247405998681437 ], [ -79.438220909587571, 36.247544998567058 ], [ -79.438355952788982, 36.247547998982569 ], [ -79.439417456213135, 36.247571987881209 ], [ -79.43941852533284, 36.247572009182818 ], [ -79.439475407735728, 36.247572990414653 ], [ -79.441684914180499, 36.247623998412529 ], [ -79.442446648094105, 36.247640992481891 ], [ -79.442679553995916, 36.247646988360287 ], [ -79.442680429967027, 36.24764700899108 ], [ -79.44497387548995, 36.247695997605867 ], [ -79.445950939743696, 36.247717998997693 ], [ -79.455504862900796, 36.24793799674643 ], [ -79.45550512031798, 36.247938002508178 ], [ -79.45573488075101, 36.24794299724735 ], [ -79.457135967090878, 36.247974999301263 ], [ -79.458684944029002, 36.248009998783836 ], [ -79.460852948755885, 36.248059999153007 ], [ -79.464695982103834, 36.248146999801584 ], [ -79.466983989959857, 36.248198999735493 ], [ -79.475646980085585, 36.248395999759261 ], [ -79.478341945140002, 36.248456999060977 ], [ -79.478904987194682, 36.248469999756026 ], [ -79.480683936383343, 36.248510998653309 ], [ -79.481972959002533, 36.248539999753227 ], [ -79.48403295098052, 36.248586999198984 ], [ -79.48778069604262, 36.248670993565263 ], [ -79.488056460438585, 36.248677986862276 ], [ -79.488057521568052, 36.248678010954833 ], [ -79.488455579437783, 36.248685991979883 ], [ -79.489448854190996, 36.248709996316229 ], [ -79.489449127390628, 36.248710002731855 ], [ -79.491027974070178, 36.248746000019104 ], [ -79.495180338571686, 36.248839984879716 ], [ -79.495797290825962, 36.248857979466401 ], [ -79.495798693991262, 36.248858015464876 ], [ -79.501487919604841, 36.248983998278106 ], [ -79.501837866116006, 36.248991997042992 ], [ -79.50183811646437, 36.248992002608432 ], [ -79.502161785049111, 36.248998995285973 ], [ -79.502330586470961, 36.249002990042413 ], [ -79.502331397323758, 36.249003007586651 ], [ -79.502483371229673, 36.249005987536542 ], [ -79.503645546259278, 36.249035988939781 ], [ -79.503646436695291, 36.249036009942323 ], [ -79.505705856498707, 36.249079997024168 ], [ -79.507114373883667, 36.249111985693148 ], [ -79.507115609430841, 36.249112009934613 ], [ -79.507235342777932, 36.24911398907259 ], [ -79.508017977684176, 36.249131999589586 ], [ -79.508751954600143, 36.249148999390329 ], [ -79.509760964455552, 36.249171999355582 ], [ -79.517572746993409, 36.249347994154171 ], [ -79.518493736305885, 36.249370993541177 ], [ -79.518494246103614, 36.249371005621789 ], [ -79.519608945768653, 36.249395998683845 ], [ -79.521881936878927, 36.249447998763316 ], [ -79.52273591215571, 36.249467998530832 ], [ -79.523561744288997, 36.249487994006159 ], [ -79.523562238541345, 36.249488005362039 ], [ -79.525585944831633, 36.249531999314598 ], [ -79.525679204230258, 36.249533982997804 ], [ -79.525680778395369, 36.249534028884362 ], [ -79.525705551374642, 36.249534946297338 ], [ -79.525708430800293, 36.249535032170165 ], [ -79.531631446203463, 36.249668987638486 ], [ -79.531632535592337, 36.249669009307354 ], [ -79.531860225926067, 36.249672917815872 ], [ -79.531864760326371, 36.249673212135299 ] ] ] } }
]
}
