{
"type": "FeatureCollection",
"name": "chatham_county_board_of_commissioners_district_03_dem",
"crs": { "type": "name", "properties": { "name": "urn:ogc:def:crs:OGC:1.3:CRS84" } },
"features": [
{ "type": "Feature", "properties": { "county": "CHATHAM", "precinct": "15", "enr_desc": "Bynum", "winner": "Michael R. (Mike) Roberson", "winner_votes": 329, "winner_share": 51.086956521739133, "runner_up": "Kate O'Brien", "runner_up_votes": 315, "runner_up_share": 48.913043478260867, "contest_votes": 644, "margin_of_victory": 2.1739130434782652, "is_tie": false, "results": [ { "candidate": "Michael R. (Mike) Roberson", "votes": 329, "share": 51.08695652173913 }, { "candidate": "Kate O'Brien", "votes": 315, "share": 48.91304347826087 } ], "participated": true, "map_key": "CHATHAM_15" }, "geometry": { "type": "Polygon", "coordinates": [ [ [ -79.107075990868765, 35.731491000370987 ], [ -79.123929990816649, 35.750102000140394 ], [ -79.128688991626333, 35.756291999926233 ], [ -79.131643991197748, 35.762988000115215 ], [ -79.13883899108933, 35.76843399985195 ], [ -79.141812991334547, 35.769273999843264 ], [ -79.145446991089301, 35.771849999689898 ], [ -79.151775991106234, 35.778576999959299 ], [ -79.156626991044973, 35.780800000394073 ], [ -79.16268899974547, 35.781923000445964 ], [ -79.164978991172077, 35.783702000315884 ], [ -79.164296991280949, 35.785571000219377 ], [ -79.160999990972783, 35.787399999828153 ], [ -79.15768599117547, 35.79201900010473 ], [ -79.155695990734301, 35.792574999741205 ], [ -79.158763991032117, 35.795135000275465 ], [ -79.162005991217768, 35.800976000379848 ], [ -79.15969199134787, 35.803415000199088 ], [ -79.154102991305848, 35.803981000179391 ], [ -79.156036991478956, 35.80502699990231 ], [ -79.157777991278039, 35.807718000204318 ], [ -79.151627990944377, 35.819277000151686 ], [ -79.14796200092556, 35.821163000044884 ], [ -79.145222991061303, 35.818968999936047 ], [ -79.13963099134952, 35.817196999944272 ], [ -79.126719990819907, 35.817102000077107 ], [ -79.121105991238295, 35.815618999877984 ], [ -79.115649991423851, 35.815948000416142 ], [ -79.110343991714103, 35.813197000067127 ], [ -79.10448099097745, 35.811305999651282 ], [ -79.092144991579801, 35.809474000335832 ], [ -79.0939919912324, 35.805926999622187 ], [ -79.094668991359825, 35.798237000205908 ], [ -79.100229990713089, 35.793669000366549 ], [ -79.09784699152037, 35.789195999698435 ], [ -79.092462990692951, 35.785649000381277 ], [ -79.093071991056405, 35.780068000130122 ], [ -79.094454991193558, 35.775883999596772 ], [ -79.092496990868995, 35.767014000200184 ], [ -79.089634990739413, 35.761743000164707 ], [ -79.08979699071638, 35.758472999647054 ], [ -79.086291991646164, 35.755189999703248 ], [ -79.087361990887388, 35.747691000069878 ], [ -79.084153991141619, 35.740025000224811 ], [ -79.083628990804044, 35.736949000277576 ], [ -79.096403991571393, 35.735328999908035 ], [ -79.107075990868765, 35.731491000370987 ] ] ] } },
{ "type": "Feature", "properties": { "county": "CHATHAM", "precinct": "21", "enr_desc": "Hadley", "winner": "Michael R. (Mike) Roberson", "winner_votes": 203, "winner_share": 58.501440922190206, "runner_up": "Kate O'Brien", "runner_up_votes": 144, "runner_up_share": 41.498559077809801, "contest_votes": 347, "margin_of_victory": 17.002881844380404, "is_tie": false, "results": [ { "candidate": "Michael R. (Mike) Roberson", "votes": 203, "share": 58.501440922190206 }, { "candidate": "Kate O'Brien", "votes": 144, "share": 41.4985590778098 } ], "participated": true, "map_key": "CHATHAM_21" }, "geometry": { "type": "Polygon", "coordinates": [ [ [ -79.370188990681058, 35.780865000043875 ], [ -79.369485991551286, 35.784006000132941 ], [ -79.365534991502571, 35.788587999587953 ], [ -79.361417991332488, 35.805492000307069 ], [ -79.358326991384317, 35.812447999911996 ], [ -79.358311990639137, 35.815725000366307 ], [ -79.354623991244637, 35.825032000199514 ], [ -79.354797991606574, 35.828382999588925 ], [ -79.352573991098325, 35.839675999800178 ], [ -79.350050991288398, 35.843908000018033 ], [ -79.237315991063056, 35.844246999809513 ], [ -79.232893991183602, 35.839108000035637 ], [ -79.231529991579592, 35.83593300044577 ], [ -79.229311991554397, 35.833938000187146 ], [ -79.222337990898637, 35.832813999934118 ], [ -79.2146639909285, 35.83340100025314 ], [ -79.21104299064632, 35.832284999739642 ], [ -79.206299991310928, 35.827212000022818 ], [ -79.202809991252693, 35.820132000018972 ], [ -79.200627991308352, 35.818894000026333 ], [ -79.19742599113053, 35.818681000455911 ], [ -79.192706991552001, 35.820312000217271 ], [ -79.188545991530773, 35.820385000143467 ], [ -79.186179991016658, 35.817302000184327 ], [ -79.184728990671829, 35.80945500029042 ], [ -79.182061991640424, 35.802558999587227 ], [ -79.181294000460781, 35.795204999902886 ], [ -79.181666990991218, 35.79477600025178 ], [ -79.18717699135135, 35.7974120001115 ], [ -79.184323991075075, 35.800128000162431 ], [ -79.185908991390676, 35.802759000165729 ], [ -79.196706990833604, 35.803016000133653 ], [ -79.199276990839181, 35.803994999804857 ], [ -79.20219699100538, 35.803197999936941 ], [ -79.206136991341054, 35.806148000324569 ], [ -79.209818991132039, 35.803686000194439 ], [ -79.214478990760838, 35.802608000286902 ], [ -79.21658299100649, 35.800992000456453 ], [ -79.217931991682704, 35.801568000084018 ], [ -79.218754991323635, 35.800254999924711 ], [ -79.221957990776232, 35.799538999774249 ], [ -79.221666990899024, 35.798365000421121 ], [ -79.224296990715629, 35.796753999690473 ], [ -79.226051990749909, 35.798532999755146 ], [ -79.229523990947229, 35.798399999838729 ], [ -79.233420991078972, 35.794756000449865 ], [ -79.241479991491445, 35.793362000117064 ], [ -79.241269991631441, 35.792555000003418 ], [ -79.244437991004602, 35.790120000179755 ], [ -79.253190991566171, 35.788921999629409 ], [ -79.256402990747148, 35.786038999976043 ], [ -79.262608991089493, 35.784518999817188 ], [ -79.267560991531909, 35.780740999879733 ], [ -79.26940199164639, 35.778241999817944 ], [ -79.270460991105693, 35.779730999711106 ], [ -79.27464899120173, 35.777612000325369 ], [ -79.278721991730677, 35.777529999868115 ], [ -79.280306991525222, 35.775829000312598 ], [ -79.284500990835824, 35.774505000372628 ], [ -79.287701990877352, 35.775132000333315 ], [ -79.287232991343842, 35.770048000021745 ], [ -79.292830990773538, 35.770569000313827 ], [ -79.298879991138691, 35.773604999952155 ], [ -79.311562991565353, 35.775363000021464 ], [ -79.316250991720636, 35.774666999875826 ], [ -79.327091991371077, 35.775779000075204 ], [ -79.330808991254656, 35.776948000142589 ], [ -79.337218990773493, 35.777160999725467 ], [ -79.353222991613052, 35.776011000062141 ], [ -79.360102991721902, 35.77797100045651 ], [ -79.365353991504477, 35.78113999964657 ], [ -79.370188990681058, 35.780865000043875 ] ] ] } },
{ "type": "Feature", "properties": { "county": "CHATHAM", "precinct": "3", "enr_desc": "Albright", "winner": "Michael R. (Mike) Roberson", "winner_votes": 85, "winner_share": 54.487179487179482, "runner_up": "Kate O'Brien", "runner_up_votes": 71, "runner_up_share": 45.512820512820511, "contest_votes": 156, "margin_of_victory": 8.9743589743589709, "is_tie": false, "results": [ { "candidate": "Michael R. (Mike) Roberson", "votes": 85, "share": 54.48717948717948 }, { "candidate": "Kate O'Brien", "votes": 71, "share": 45.51282051282051 } ], "participated": true, "map_key": "CHATHAM_3" }, "geometry": { "type": "Polygon", "coordinates": [ [ [ -79.371784991566585, 35.766842999996435 ], [ -79.404641990978661, 35.768158000012129 ], [ -79.442693990860604, 35.768177000170112 ], [ -79.516820991607403, 35.770326999994573 ], [ -79.517536991570893, 35.772939000189119 ], [ -79.520754990862699, 35.774878000304234 ], [ -79.524560990923661, 35.77978399994349 ], [ -79.52751299127749, 35.780682999990816 ], [ -79.539296991697228, 35.781441000332542 ], [ -79.544300990794483, 35.782926999820951 ], [ -79.542427991097554, 35.843302999849996 ], [ -79.350050991288398, 35.843908000018033 ], [ -79.352573991098325, 35.839675999800178 ], [ -79.354797991606574, 35.828382999588925 ], [ -79.354623991244637, 35.825032000199514 ], [ -79.358311990639137, 35.815725000366307 ], [ -79.358326991384317, 35.812447999911996 ], [ -79.361417991332488, 35.805492000307069 ], [ -79.365534991502571, 35.788587999587953 ], [ -79.369485991551286, 35.784006000132941 ], [ -79.370188990681058, 35.780865000043875 ], [ -79.371845991727795, 35.7771030001824 ], [ -79.371366991473636, 35.776043999610508 ], [ -79.372410991280475, 35.771086999588761 ], [ -79.371784991566585, 35.766842999996435 ] ] ] } },
{ "type": "Feature", "properties": { "county": "CHATHAM", "precinct": "30", "enr_desc": "Hickory Mountain", "winner": "Michael R. (Mike) Roberson", "winner_votes": 172, "winner_share": 61.209964412811388, "runner_up": "Kate O'Brien", "runner_up_votes": 109, "runner_up_share": 38.790035587188612, "contest_votes": 281, "margin_of_victory": 22.419928825622776, "is_tie": false, "results": [ { "candidate": "Michael R. (Mike) Roberson", "votes": 172, "share": 61.20996441281139 }, { "candidate": "Kate O'Brien", "votes": 109, "share": 38.79003558718861 } ], "participated": true, "map_key": "CHATHAM_30" }, "geometry": { "type": "Polygon", "coordinates": [ [ [ -79.254352991508114, 35.659386000076459 ], [ -79.256967991511857, 35.662773000236562 ], [ -79.262039991700547, 35.666637000192921 ], [ -79.268985991332343, 35.667871000425357 ], [ -79.269809991676539, 35.672676999909896 ], [ -79.27290599134588, 35.673719999995733 ], [ -79.275682991311044, 35.669715999959976 ], [ -79.277200991497892, 35.669146999840947 ], [ -79.280595991000226, 35.671487999732221 ], [ -79.285448991009545, 35.676628000351201 ], [ -79.289930991339418, 35.678873999765699 ], [ -79.303823990812162, 35.669420000261219 ], [ -79.314954991442434, 35.658385999967827 ], [ -79.317152990856158, 35.660907000207757 ], [ -79.323312991524375, 35.665218999664837 ], [ -79.332833991262135, 35.667339000245683 ], [ -79.342979991352408, 35.663743999602005 ], [ -79.357178990991628, 35.661910999592671 ], [ -79.360078990787997, 35.666968999753983 ], [ -79.36032499091921, 35.669370999839387 ], [ -79.366183991290114, 35.673867999806774 ], [ -79.369319991259786, 35.680937999690819 ], [ -79.371917991109555, 35.690617000431203 ], [ -79.375682990643796, 35.695468999601417 ], [ -79.375981991677293, 35.698781000404864 ], [ -79.378746990650143, 35.702046000284057 ], [ -79.381069991259494, 35.708924000036177 ], [ -79.387668990879874, 35.7159640001139 ], [ -79.388339990773062, 35.719316999949712 ], [ -79.389271991031535, 35.72018599992456 ], [ -79.392340991608265, 35.720407999653546 ], [ -79.396170991626278, 35.719550000428669 ], [ -79.400882991665398, 35.725562999828455 ], [ -79.403240990823519, 35.725820000316652 ], [ -79.403623991045123, 35.727369000010363 ], [ -79.403375991059491, 35.730854000178354 ], [ -79.402568991680923, 35.731583000175192 ], [ -79.402016991589051, 35.734541999819996 ], [ -79.397662990650645, 35.736359000412421 ], [ -79.398667990746006, 35.737462999814248 ], [ -79.397979990814179, 35.738529000288466 ], [ -79.389096990892043, 35.743416000238291 ], [ -79.392137991453666, 35.745384000123302 ], [ -79.392014991715229, 35.74614599977609 ], [ -79.390282990873828, 35.746776999971779 ], [ -79.38884399097843, 35.74614900012044 ], [ -79.387802991478921, 35.747734999776043 ], [ -79.383333991621726, 35.749788999857202 ], [ -79.381861991016294, 35.752588999729724 ], [ -79.38031399151302, 35.753469000258058 ], [ -79.37867099097582, 35.752911000388337 ], [ -79.379285991279758, 35.75141600023845 ], [ -79.375131991229821, 35.753793999681399 ], [ -79.374156991569549, 35.75519200009569 ], [ -79.375439991088186, 35.757901999914743 ], [ -79.373580991408303, 35.758906999593869 ], [ -79.371614991669617, 35.763254999726172 ], [ -79.371100990833739, 35.764683999632773 ], [ -79.371784991566585, 35.766842999996435 ], [ -79.372410991280475, 35.771086999588761 ], [ -79.371366991473636, 35.776043999610508 ], [ -79.371845991727795, 35.7771030001824 ], [ -79.370188990681058, 35.780865000043875 ], [ -79.365353991504477, 35.78113999964657 ], [ -79.360102991721902, 35.77797100045651 ], [ -79.353222991613052, 35.776011000062141 ], [ -79.337218990773493, 35.777160999725467 ], [ -79.330808991254656, 35.776948000142589 ], [ -79.327091991371077, 35.775779000075204 ], [ -79.316250991720636, 35.774666999875826 ], [ -79.311562991565353, 35.775363000021464 ], [ -79.298879991138691, 35.773604999952155 ], [ -79.292830990773538, 35.770569000313827 ], [ -79.287232991343842, 35.770048000021745 ], [ -79.287368991532574, 35.765363999628399 ], [ -79.285959991266111, 35.762727000082499 ], [ -79.285890991634474, 35.758725999925097 ], [ -79.283559991409618, 35.752042000366835 ], [ -79.277768991362024, 35.750535000006259 ], [ -79.277197990890883, 35.747070999809971 ], [ -79.2756089916424, 35.744439000225626 ], [ -79.275899990868353, 35.74335699983785 ], [ -79.269960990958282, 35.740077999984102 ], [ -79.26737399068567, 35.737374000409062 ], [ -79.265808990848782, 35.737697000242285 ], [ -79.262444991392471, 35.736442000215121 ], [ -79.259563991372971, 35.737011999647812 ], [ -79.258431991196161, 35.73631200011171 ], [ -79.252418991114581, 35.738812000246064 ], [ -79.245048991524342, 35.72483799989844 ], [ -79.242859991409603, 35.725250000403044 ], [ -79.240429991206199, 35.723175000028519 ], [ -79.237631990756341, 35.722586000342972 ], [ -79.238775990977587, 35.720017999772935 ], [ -79.238283991508496, 35.718568000273088 ], [ -79.239332991074832, 35.715211999577605 ], [ -79.238113991666623, 35.712350000081628 ], [ -79.239486991245499, 35.711385000399723 ], [ -79.241319991360697, 35.711885000103592 ], [ -79.241476990815514, 35.709825000058423 ], [ -79.244786991222909, 35.705011999619742 ], [ -79.241095991538742, 35.699660000312299 ], [ -79.243175990767327, 35.695841000164016 ], [ -79.244155991019554, 35.69101799982684 ], [ -79.246787991390519, 35.68988499974791 ], [ -79.247637990690166, 35.688689000171756 ], [ -79.250035991256468, 35.688300000020099 ], [ -79.249239991347181, 35.687438999900806 ], [ -79.25027699099725, 35.685614999706225 ], [ -79.249614991494425, 35.684370000294926 ], [ -79.250550990868533, 35.682709000278244 ], [ -79.250865991612955, 35.678347999678394 ], [ -79.257476991537331, 35.676432000171047 ], [ -79.25686199078514, 35.671942000436303 ], [ -79.254165990930048, 35.669760000085603 ], [ -79.256558991507163, 35.668634000460344 ], [ -79.254975991607651, 35.663321000291688 ], [ -79.252838991461388, 35.661637999720092 ], [ -79.254352991508114, 35.659386000076459 ] ] ] } },
{ "type": "Feature", "properties": { "county": "CHATHAM", "precinct": "75", "enr_desc": "East Williams", "winner": "Kate O'Brien", "winner_votes": 499, "winner_share": 50.711382113821138, "runner_up": "Michael R. (Mike) Roberson", "runner_up_votes": 485, "runner_up_share": 49.288617886178862, "contest_votes": 984, "margin_of_victory": 1.4227642276422756, "is_tie": false, "results": [ { "candidate": "Kate O'Brien", "votes": 499, "share": 50.71138211382114 }, { "candidate": "Michael R. (Mike) Roberson", "votes": 485, "share": 49.28861788617886 } ], "participated": true, "map_key": "CHATHAM_75" }, "geometry": { "type": "Polygon", "coordinates": [ [ [ -78.930890991595859, 35.794376999858002 ], [ -78.935989991069022, 35.794774000416638 ], [ -78.943734990845172, 35.793935999938462 ], [ -78.950198991151069, 35.789488999935251 ], [ -78.953312991080281, 35.786100999583574 ], [ -78.962412991311055, 35.784490999816818 ], [ -78.96383699080188, 35.790345000243754 ], [ -78.969666991100155, 35.790781999854502 ], [ -78.976628991125096, 35.795356999983738 ], [ -78.982048991094373, 35.795158000236732 ], [ -78.995220990966729, 35.789460000257421 ], [ -79.010072991198285, 35.789351000238696 ], [ -79.010844990912446, 35.794545000059024 ], [ -79.006325990924239, 35.795892000012948 ], [ -79.000496990921079, 35.802450000359478 ], [ -78.995071990869647, 35.811191999563782 ], [ -78.99540999170452, 35.81477100030574 ], [ -78.998451990958827, 35.822894000049928 ], [ -79.003861990871826, 35.843957000237246 ], [ -79.006777991664578, 35.850469999969661 ], [ -79.00433399139834, 35.851457000175174 ], [ -79.00344799074135, 35.854180000214932 ], [ -79.004764991631532, 35.856092000124491 ], [ -79.007867990665289, 35.85738900025293 ], [ -79.007596991654779, 35.859245999759686 ], [ -79.008642991472797, 35.859366999814434 ], [ -79.008688991489691, 35.860488000362565 ], [ -79.011644991544159, 35.8611969998272 ], [ -79.011587990921299, 35.862223000394799 ], [ -79.012434990839523, 35.862714999763739 ], [ -79.011482991548817, 35.863423000015445 ], [ -78.906070991324654, 35.868095999981449 ], [ -78.909424991185816, 35.842937000111647 ], [ -78.92660899074518, 35.801527999637621 ], [ -78.930890991595859, 35.794376999858002 ] ] ] } },
{ "type": "Feature", "properties": { "county": "CHATHAM", "precinct": "78", "enr_desc": "West Williams", "winner": "Michael R. (Mike) Roberson", "winner_votes": 954, "winner_share": 53.535353535353536, "runner_up": "Kate O'Brien", "runner_up_votes": 828, "runner_up_share": 46.464646464646464, "contest_votes": 1782, "margin_of_victory": 7.0707070707070727, "is_tie": false, "results": [ { "candidate": "Michael R. (Mike) Roberson", "votes": 954, "share": 53.535353535353536 }, { "candidate": "Kate O'Brien", "votes": 828, "share": 46.464646464646464 } ], "participated": true, "map_key": "CHATHAM_78" }, "geometry": { "type": "Polygon", "coordinates": [ [ [ -79.083628990804044, 35.736949000277576 ], [ -79.084153991141619, 35.740025000224811 ], [ -79.087361990887388, 35.747691000069878 ], [ -79.086291991646164, 35.755189999703248 ], [ -79.08979699071638, 35.758472999647054 ], [ -79.089634990739413, 35.761743000164707 ], [ -79.092496990868995, 35.767014000200184 ], [ -79.094454991193558, 35.775883999596772 ], [ -79.093071991056405, 35.780068000130122 ], [ -79.092462990692951, 35.785649000381277 ], [ -79.09784699152037, 35.789195999698435 ], [ -79.100229990713089, 35.793669000366549 ], [ -79.094668991359825, 35.798237000205908 ], [ -79.0939919912324, 35.805926999622187 ], [ -79.092144991579801, 35.809474000335832 ], [ -79.086058991319405, 35.813059999813724 ], [ -79.084511991565762, 35.816066999684345 ], [ -79.083032991510365, 35.8159090003846 ], [ -79.083143990678693, 35.813858999759226 ], [ -79.081166991232593, 35.809591000336333 ], [ -79.067946991561698, 35.805700999748971 ], [ -79.064574990799855, 35.803483000443649 ], [ -79.05897599115481, 35.805409999911134 ], [ -79.052338991444685, 35.809277999903848 ], [ -79.044015990748534, 35.811062999627509 ], [ -79.037943990804379, 35.813016999928188 ], [ -79.034250991006502, 35.815240999803137 ], [ -79.029395991653615, 35.816230999829649 ], [ -79.01855399133153, 35.795733000191376 ], [ -79.016426991239427, 35.794258999654453 ], [ -79.010844990912446, 35.794545000059024 ], [ -79.010072991198285, 35.789351000238696 ], [ -79.021578991608735, 35.789237999918811 ], [ -79.022375991352831, 35.787795999903508 ], [ -79.026780990635018, 35.770694000299308 ], [ -79.028403991305481, 35.737556999730927 ], [ -79.065632991069165, 35.739536999818519 ], [ -79.076486991718625, 35.737395999860908 ], [ -79.083628990804044, 35.736949000277576 ] ] ] } },
{ "type": "Feature", "properties": { "county": "CHATHAM", "precinct": "85", "enr_desc": "West Siler City", "winner": "Michael R. (Mike) Roberson", "winner_votes": 209, "winner_share": 69.435215946843854, "runner_up": "Kate O'Brien", "runner_up_votes": 92, "runner_up_share": 30.564784053156146, "contest_votes": 301, "margin_of_victory": 38.870431893687709, "is_tie": false, "results": [ { "candidate": "Michael R. (Mike) Roberson", "votes": 209, "share": 69.43521594684385 }, { "candidate": "Kate O'Brien", "votes": 92, "share": 30.564784053156146 } ], "participated": true, "map_key": "CHATHAM_85" }, "geometry": { "type": "Polygon", "coordinates": [ [ [ -79.473792991115744, 35.653968000299933 ], [ -79.47966899157116, 35.655194000041142 ], [ -79.486998991136204, 35.655258000073545 ], [ -79.48713199170129, 35.651852999788908 ], [ -79.488889991329387, 35.646022000158887 ], [ -79.491487991579987, 35.643593000404586 ], [ -79.492758991343933, 35.640609000478982 ], [ -79.498835991171063, 35.636119000385087 ], [ -79.504231991193009, 35.634736999850176 ], [ -79.507314991565778, 35.634785999647256 ], [ -79.507741991513228, 35.635982000208159 ], [ -79.518190991717631, 35.642281999941765 ], [ -79.518578990703986, 35.641050999712242 ], [ -79.521626991259524, 35.638385999621867 ], [ -79.525084991538705, 35.637212000452713 ], [ -79.528312990748447, 35.638095999958288 ], [ -79.530046990809623, 35.636255999725456 ], [ -79.534009991042851, 35.636834000463587 ], [ -79.535481991354516, 35.635242000235593 ], [ -79.535499991479568, 35.632592000192979 ], [ -79.536854991207136, 35.632087999730302 ], [ -79.535988991111253, 35.6335919999281 ], [ -79.539334991722257, 35.633801999917992 ], [ -79.540677990669224, 35.634786999964938 ], [ -79.540059991244263, 35.631749999831406 ], [ -79.540808991501279, 35.631004000296947 ], [ -79.543073991373035, 35.632427000406956 ], [ -79.547795991389989, 35.632765999619863 ], [ -79.550042991144466, 35.632748999965308 ], [ -79.551422991363722, 35.631483999616982 ], [ -79.546502991082704, 35.71225099986664 ], [ -79.544300990794483, 35.782926999820951 ], [ -79.539296991697228, 35.781441000332542 ], [ -79.52751299127749, 35.780682999990816 ], [ -79.524560990923661, 35.77978399994349 ], [ -79.520754990862699, 35.774878000304234 ], [ -79.517536991570893, 35.772939000189119 ], [ -79.516820991607403, 35.770326999994573 ], [ -79.504945991728079, 35.757399999960512 ], [ -79.477949991157516, 35.743641000110735 ], [ -79.47696999163486, 35.742065000215639 ], [ -79.476668991226575, 35.738660000345533 ], [ -79.471286990697848, 35.730371000241796 ], [ -79.466726991641465, 35.725891000040569 ], [ -79.464566990768432, 35.722385000177567 ], [ -79.468358991522194, 35.720759000099143 ], [ -79.469635991297579, 35.719370999748179 ], [ -79.470289991082041, 35.712027999588685 ], [ -79.473585990846757, 35.703448999872784 ], [ -79.473808991216643, 35.694308000096491 ], [ -79.469873990959485, 35.685127000480193 ], [ -79.471561991535722, 35.680595999989229 ], [ -79.472648990642469, 35.673863999706704 ], [ -79.472670991340451, 35.665854000403783 ], [ -79.474558990951692, 35.658135999681626 ], [ -79.473792991115744, 35.653968000299933 ] ] ] } },
{ "type": "Feature", "properties": { "county": "CHATHAM", "precinct": "9", "enr_desc": "Bonlee", "winner": "Michael R. (Mike) Roberson", "winner_votes": 82, "winner_share": 59.420289855072461, "runner_up": "Kate O'Brien", "runner_up_votes": 56, "runner_up_share": 40.579710144927539, "contest_votes": 138, "margin_of_victory": 18.840579710144922, "is_tie": false, "results": [ { "candidate": "Michael R. (Mike) Roberson", "votes": 82, "share": 59.42028985507246 }, { "candidate": "Kate O'Brien", "votes": 56, "share": 40.57971014492754 } ], "participated": true, "map_key": "CHATHAM_9" }, "geometry": { "type": "Polygon", "coordinates": [ [ [ -79.399304991708362, 35.599509999628246 ], [ -79.40009799111769, 35.598033000238097 ], [ -79.402135991186441, 35.599303999686988 ], [ -79.405916991173541, 35.598337999854266 ], [ -79.40656399133556, 35.596778000439294 ], [ -79.409032991599062, 35.597766000031534 ], [ -79.409626991074163, 35.594152000096052 ], [ -79.411469991164381, 35.593475000273855 ], [ -79.410588990700575, 35.592172000318683 ], [ -79.413844990852269, 35.591387999992627 ], [ -79.414808991187201, 35.590228999603333 ], [ -79.416220991040618, 35.590910000342838 ], [ -79.418069991595317, 35.594626000133466 ], [ -79.422166991652986, 35.595197999653919 ], [ -79.426276991151269, 35.595110000472715 ], [ -79.428100991727945, 35.593889999638805 ], [ -79.429384991034325, 35.594077999651923 ], [ -79.429371990776858, 35.592351000411782 ], [ -79.432103991731807, 35.59158899990345 ], [ -79.433872991185694, 35.592243000174392 ], [ -79.436960991210938, 35.590764000411177 ], [ -79.438259991386786, 35.591441000049059 ], [ -79.441541990813576, 35.591142999820988 ], [ -79.442853990659685, 35.592463000180153 ], [ -79.443621990730392, 35.59742499996279 ], [ -79.446379990725106, 35.599226999757342 ], [ -79.449958991307625, 35.600781000155891 ], [ -79.454783991162472, 35.601527999662018 ], [ -79.457118991128681, 35.604379999691588 ], [ -79.460341990990557, 35.60338500021674 ], [ -79.464458991499228, 35.600799999929997 ], [ -79.466773990759251, 35.600624000117399 ], [ -79.46766799108849, 35.601343999923081 ], [ -79.467271990703097, 35.603569999752708 ], [ -79.469002990730303, 35.606725000368669 ], [ -79.469177991730348, 35.604547000413007 ], [ -79.475263990863681, 35.604027000215389 ], [ -79.487716990816153, 35.600456000297214 ], [ -79.502995990954261, 35.600136000363733 ], [ -79.501847990654454, 35.605628000008423 ], [ -79.507404990753201, 35.61547199978623 ], [ -79.507406991052207, 35.62460199972633 ], [ -79.510296991103303, 35.631250999885047 ], [ -79.512028991152391, 35.632786999985036 ], [ -79.517737991486342, 35.634379000073785 ], [ -79.521626991259524, 35.638385999621867 ], [ -79.518578990703986, 35.641050999712242 ], [ -79.518190991717631, 35.642281999941765 ], [ -79.507741991513228, 35.635982000208159 ], [ -79.507314991565778, 35.634785999647256 ], [ -79.504231991193009, 35.634736999850176 ], [ -79.498835991171063, 35.636119000385087 ], [ -79.492758991343933, 35.640609000478982 ], [ -79.491487991579987, 35.643593000404586 ], [ -79.488889991329387, 35.646022000158887 ], [ -79.48713199170129, 35.651852999788908 ], [ -79.486998991136204, 35.655258000073545 ], [ -79.47966899157116, 35.655194000041142 ], [ -79.473792991115744, 35.653968000299933 ], [ -79.459099991306331, 35.653516999847483 ], [ -79.454188991383745, 35.654533999888848 ], [ -79.450770990900764, 35.656181999766311 ], [ -79.448938991105678, 35.658717000380861 ], [ -79.442496990944619, 35.659526000085769 ], [ -79.436613990672384, 35.666527000116567 ], [ -79.432880991282431, 35.666898000292619 ], [ -79.429414991190413, 35.66618300043114 ], [ -79.426041990730411, 35.667560999710993 ], [ -79.419063991311404, 35.662843000399306 ], [ -79.418248991101422, 35.65541700015622 ], [ -79.415168990792182, 35.654991000181191 ], [ -79.415793990894727, 35.656097000297329 ], [ -79.415337991243135, 35.657542000240269 ], [ -79.413916990956707, 35.658275999945289 ], [ -79.409792990893664, 35.657997000041377 ], [ -79.409308991503551, 35.659301999834007 ], [ -79.407450990946202, 35.659767000222573 ], [ -79.402857991558037, 35.660158999836383 ], [ -79.402092990899959, 35.659461000382286 ], [ -79.400740990711711, 35.660225000085461 ], [ -79.393047990825963, 35.653399999843352 ], [ -79.390177990823418, 35.657051000456065 ], [ -79.389184990958398, 35.661016000070333 ], [ -79.382445991640424, 35.669166999866675 ], [ -79.382525990798769, 35.673662999674406 ], [ -79.376328991415235, 35.675898000380947 ], [ -79.369319991259786, 35.680937999690819 ], [ -79.366183991290114, 35.673867999806774 ], [ -79.36032499091921, 35.669370999839387 ], [ -79.360078990787997, 35.666968999753983 ], [ -79.357178990991628, 35.661910999592671 ], [ -79.342979991352408, 35.663743999602005 ], [ -79.332833991262135, 35.667339000245683 ], [ -79.323312991524375, 35.665218999664837 ], [ -79.317152990856158, 35.660907000207757 ], [ -79.314954991442434, 35.658385999967827 ], [ -79.321308991031387, 35.654931999832492 ], [ -79.327858991593772, 35.653993000304389 ], [ -79.331892990685802, 35.652578999905373 ], [ -79.33698499109687, 35.648450999874669 ], [ -79.338205991080287, 35.64594100005003 ], [ -79.343723990900003, 35.640693999800632 ], [ -79.355097990738216, 35.636410000405746 ], [ -79.361700991336932, 35.635347999840683 ], [ -79.363848990823499, 35.63353300035098 ], [ -79.370110991253853, 35.630527999982363 ], [ -79.380187991293298, 35.621098999624856 ], [ -79.37911799151999, 35.618647999830792 ], [ -79.37983199135617, 35.617675000276918 ], [ -79.377341991354072, 35.616697000223539 ], [ -79.375633990878811, 35.615019999663922 ], [ -79.377949991376283, 35.613817999722158 ], [ -79.376881990670626, 35.611667000082029 ], [ -79.375144991160965, 35.610887000231045 ], [ -79.377233991050176, 35.609306000258123 ], [ -79.378285991349458, 35.606976000047119 ], [ -79.38012299173883, 35.606851999807631 ], [ -79.382124990865194, 35.609626000025884 ], [ -79.382965990884884, 35.609748000348354 ], [ -79.383720991295746, 35.607979999712569 ], [ -79.38634599151608, 35.607277999647231 ], [ -79.38738299077346, 35.605742999827839 ], [ -79.38958399172337, 35.605145999830604 ], [ -79.390903991544064, 35.603558999917283 ], [ -79.393567991187822, 35.604031999797655 ], [ -79.396791991510327, 35.602209000426356 ], [ -79.399304991708362, 35.599509999628246 ] ] ] } },
{ "type": "Feature", "properties": { "county": "CHATHAM", "precinct": "ESC114", "enr_desc": "East Siler City", "winner": "Michael R. (Mike) Roberson", "winner_votes": 319, "winner_share": 70.888888888888886, "runner_up": "Kate O'Brien", "runner_up_votes": 131, "runner_up_share": 29.111111111111111, "contest_votes": 450, "margin_of_victory": 41.777777777777771, "is_tie": false, "results": [ { "candidate": "Michael R. (Mike) Roberson", "votes": 319, "share": 70.88888888888889 }, { "candidate": "Kate O'Brien", "votes": 131, "share": 29.11111111111111 } ], "participated": true, "map_key": "CHATHAM_ESC114" }, "geometry": { "type": "Polygon", "coordinates": [ [ [ -79.473792991115744, 35.653968000299933 ], [ -79.474558990951692, 35.658135999681626 ], [ -79.472670991340451, 35.665854000403783 ], [ -79.472648990642469, 35.673863999706704 ], [ -79.471561991535722, 35.680595999989229 ], [ -79.469873990959485, 35.685127000480193 ], [ -79.473808991216643, 35.694308000096491 ], [ -79.473585990846757, 35.703448999872784 ], [ -79.470289991082041, 35.712027999588685 ], [ -79.469635991297579, 35.719370999748179 ], [ -79.468358991522194, 35.720759000099143 ], [ -79.464566990768432, 35.722385000177567 ], [ -79.466726991641465, 35.725891000040569 ], [ -79.471286990697848, 35.730371000241796 ], [ -79.476668991226575, 35.738660000345533 ], [ -79.47696999163486, 35.742065000215639 ], [ -79.477949991157516, 35.743641000110735 ], [ -79.504945991728079, 35.757399999960512 ], [ -79.516820991607403, 35.770326999994573 ], [ -79.442693990860604, 35.768177000170112 ], [ -79.404641990978661, 35.768158000012129 ], [ -79.371784991566585, 35.766842999996435 ], [ -79.371100990833739, 35.764683999632773 ], [ -79.371614991669617, 35.763254999726172 ], [ -79.373580991408303, 35.758906999593869 ], [ -79.375439991088186, 35.757901999914743 ], [ -79.374156991569549, 35.75519200009569 ], [ -79.375131991229821, 35.753793999681399 ], [ -79.379285991279758, 35.75141600023845 ], [ -79.37867099097582, 35.752911000388337 ], [ -79.38031399151302, 35.753469000258058 ], [ -79.381861991016294, 35.752588999729724 ], [ -79.383333991621726, 35.749788999857202 ], [ -79.387802991478921, 35.747734999776043 ], [ -79.38884399097843, 35.74614900012044 ], [ -79.390282990873828, 35.746776999971779 ], [ -79.392014991715229, 35.74614599977609 ], [ -79.392137991453666, 35.745384000123302 ], [ -79.389096990892043, 35.743416000238291 ], [ -79.397979990814179, 35.738529000288466 ], [ -79.398667990746006, 35.737462999814248 ], [ -79.397662990650645, 35.736359000412421 ], [ -79.402016991589051, 35.734541999819996 ], [ -79.402568991680923, 35.731583000175192 ], [ -79.403375991059491, 35.730854000178354 ], [ -79.403623991045123, 35.727369000010363 ], [ -79.403240990823519, 35.725820000316652 ], [ -79.400882991665398, 35.725562999828455 ], [ -79.396170991626278, 35.719550000428669 ], [ -79.392340991608265, 35.720407999653546 ], [ -79.389271991031535, 35.72018599992456 ], [ -79.388339990773062, 35.719316999949712 ], [ -79.387668990879874, 35.7159640001139 ], [ -79.381069991259494, 35.708924000036177 ], [ -79.378746990650143, 35.702046000284057 ], [ -79.375981991677293, 35.698781000404864 ], [ -79.375682990643796, 35.695468999601417 ], [ -79.371917991109555, 35.690617000431203 ], [ -79.369319991259786, 35.680937999690819 ], [ -79.376328991415235, 35.675898000380947 ], [ -79.382525990798769, 35.673662999674406 ], [ -79.382445991640424, 35.669166999866675 ], [ -79.389184990958398, 35.661016000070333 ], [ -79.390177990823418, 35.657051000456065 ], [ -79.393047990825963, 35.653399999843352 ], [ -79.400740990711711, 35.660225000085461 ], [ -79.402092990899959, 35.659461000382286 ], [ -79.402857991558037, 35.660158999836383 ], [ -79.407450990946202, 35.659767000222573 ], [ -79.409308991503551, 35.659301999834007 ], [ -79.409792990893664, 35.657997000041377 ], [ -79.413916990956707, 35.658275999945289 ], [ -79.415337991243135, 35.657542000240269 ], [ -79.415793990894727, 35.656097000297329 ], [ -79.415168990792182, 35.654991000181191 ], [ -79.418248991101422, 35.65541700015622 ], [ -79.419063991311404, 35.662843000399306 ], [ -79.426041990730411, 35.667560999710993 ], [ -79.429414991190413, 35.66618300043114 ], [ -79.432880991282431, 35.666898000292619 ], [ -79.436613990672384, 35.666527000116567 ], [ -79.442496990944619, 35.659526000085769 ], [ -79.448938991105678, 35.658717000380861 ], [ -79.450770990900764, 35.656181999766311 ], [ -79.454188991383745, 35.654533999888848 ], [ -79.459099991306331, 35.653516999847483 ], [ -79.473792991115744, 35.653968000299933 ] ] ] } },
{ "type": "Feature", "properties": { "county": "CHATHAM", "precinct": "NWM117", "enr_desc": "North Williams", "winner": "Kate O'Brien", "winner_votes": 849, "winner_share": 50.565812983919002, "runner_up": "Michael R. (Mike) Roberson", "runner_up_votes": 830, "runner_up_share": 49.434187016080998, "contest_votes": 1679, "margin_of_victory": 1.131625967838005, "is_tie": false, "results": [ { "candidate": "Kate O'Brien", "votes": 849, "share": 50.565812983919 }, { "candidate": "Michael R. (Mike) Roberson", "votes": 830, "share": 49.434187016081 } ], "participated": true, "map_key": "CHATHAM_NWM117" }, "geometry": { "type": "Polygon", "coordinates": [ [ [ -79.010844990912446, 35.794545000059024 ], [ -79.016426991239427, 35.794258999654453 ], [ -79.01855399133153, 35.795733000191376 ], [ -79.029395991653615, 35.816230999829649 ], [ -79.034250991006502, 35.815240999803137 ], [ -79.037943990804379, 35.813016999928188 ], [ -79.044015990748534, 35.811062999627509 ], [ -79.052338991444685, 35.809277999903848 ], [ -79.05897599115481, 35.805409999911134 ], [ -79.064574990799855, 35.803483000443649 ], [ -79.067946991561698, 35.805700999748971 ], [ -79.081166991232593, 35.809591000336333 ], [ -79.083143990678693, 35.813858999759226 ], [ -79.083032991510365, 35.8159090003846 ], [ -79.084511991565762, 35.816066999684345 ], [ -79.089511990737293, 35.833473000124762 ], [ -79.090885991582837, 35.846171000374071 ], [ -79.090018990855242, 35.848289999608397 ], [ -79.085988991565756, 35.851866999798403 ], [ -79.084881991067306, 35.856070000012899 ], [ -79.081937991136897, 35.860780000055748 ], [ -79.011482991548817, 35.863423000015445 ], [ -79.012434990839523, 35.862714999763739 ], [ -79.011587990921299, 35.862223000394799 ], [ -79.011644991544159, 35.8611969998272 ], [ -79.008688991489691, 35.860488000362565 ], [ -79.008642991472797, 35.859366999814434 ], [ -79.007596991654779, 35.859245999759686 ], [ -79.007867990665289, 35.85738900025293 ], [ -79.004764991631532, 35.856092000124491 ], [ -79.00344799074135, 35.854180000214932 ], [ -79.00433399139834, 35.851457000175174 ], [ -79.006777991664578, 35.850469999969661 ], [ -79.003861990871826, 35.843957000237246 ], [ -78.998451990958827, 35.822894000049928 ], [ -78.99540999170452, 35.81477100030574 ], [ -78.995071990869647, 35.811191999563782 ], [ -79.000496990921079, 35.802450000359478 ], [ -79.006325990924239, 35.795892000012948 ], [ -79.010844990912446, 35.794545000059024 ] ] ] } },
{ "type": "Feature", "properties": { "county": "CHATHAM", "precinct": "CRD118", "enr_desc": "Crossroads", "winner": "Michael R. (Mike) Roberson", "winner_votes": 58, "winner_share": 63.04347826086957, "runner_up": "Kate O'Brien", "runner_up_votes": 34, "runner_up_share": 36.95652173913043, "contest_votes": 92, "margin_of_victory": 26.08695652173914, "is_tie": false, "results": [ { "candidate": "Michael R. (Mike) Roberson", "votes": 58, "share": 63.04347826086957 }, { "candidate": "Kate O'Brien", "votes": 34, "share": 36.95652173913043 } ], "participated": true, "map_key": "CHATHAM_CRD118" }, "geometry": { "type": "Polygon", "coordinates": [ [ [ -79.551422991363722, 35.631483999616982 ], [ -79.550042991144466, 35.632748999965308 ], [ -79.547795991389989, 35.632765999619863 ], [ -79.543073991373035, 35.632427000406956 ], [ -79.540808991501279, 35.631004000296947 ], [ -79.540059991244263, 35.631749999831406 ], [ -79.540677990669224, 35.634786999964938 ], [ -79.539334991722257, 35.633801999917992 ], [ -79.535988991111253, 35.6335919999281 ], [ -79.536854991207136, 35.632087999730302 ], [ -79.535499991479568, 35.632592000192979 ], [ -79.535481991354516, 35.635242000235593 ], [ -79.534009991042851, 35.636834000463587 ], [ -79.530046990809623, 35.636255999725456 ], [ -79.528312990748447, 35.638095999958288 ], [ -79.525084991538705, 35.637212000452713 ], [ -79.521626991259524, 35.638385999621867 ], [ -79.517737991486342, 35.634379000073785 ], [ -79.512028991152391, 35.632786999985036 ], [ -79.510296991103303, 35.631250999885047 ], [ -79.507406991052207, 35.62460199972633 ], [ -79.507404990753201, 35.61547199978623 ], [ -79.501847990654454, 35.605628000008423 ], [ -79.502995990954261, 35.600136000363733 ], [ -79.487716990816153, 35.600456000297214 ], [ -79.475263990863681, 35.604027000215389 ], [ -79.469177991730348, 35.604547000413007 ], [ -79.469002990730303, 35.606725000368669 ], [ -79.467271990703097, 35.603569999752708 ], [ -79.46766799108849, 35.601343999923081 ], [ -79.466773990759251, 35.600624000117399 ], [ -79.464458991499228, 35.600799999929997 ], [ -79.460341990990557, 35.60338500021674 ], [ -79.457118991128681, 35.604379999691588 ], [ -79.454783991162472, 35.601527999662018 ], [ -79.449958991307625, 35.600781000155891 ], [ -79.446379990725106, 35.599226999757342 ], [ -79.443621990730392, 35.59742499996279 ], [ -79.442853990659685, 35.592463000180153 ], [ -79.441541990813576, 35.591142999820988 ], [ -79.438259991386786, 35.591441000049059 ], [ -79.436960991210938, 35.590764000411177 ], [ -79.433872991185694, 35.592243000174392 ], [ -79.432103991731807, 35.59158899990345 ], [ -79.429371990776858, 35.592351000411782 ], [ -79.429384991034325, 35.594077999651923 ], [ -79.428100991727945, 35.593889999638805 ], [ -79.426276991151269, 35.595110000472715 ], [ -79.422166991652986, 35.595197999653919 ], [ -79.418069991595317, 35.594626000133466 ], [ -79.416220991040618, 35.590910000342838 ], [ -79.414808991187201, 35.590228999603333 ], [ -79.413844990852269, 35.591387999992627 ], [ -79.410588990700575, 35.592172000318683 ], [ -79.411469991164381, 35.593475000273855 ], [ -79.409626991074163, 35.594152000096052 ], [ -79.409032991599062, 35.597766000031534 ], [ -79.40656399133556, 35.596778000439294 ], [ -79.405916991173541, 35.598337999854266 ], [ -79.402135991186441, 35.599303999686988 ], [ -79.40009799111769, 35.598033000238097 ], [ -79.399304991708362, 35.599509999628246 ], [ -79.398143990915273, 35.597710000156042 ], [ -79.401755991212653, 35.593113000454998 ], [ -79.402317991528093, 35.588693000053901 ], [ -79.401888990811344, 35.585523000141933 ], [ -79.396007991055868, 35.573058000400685 ], [ -79.392619990971568, 35.562571000306555 ], [ -79.39417299088457, 35.552946999975184 ], [ -79.400004991624527, 35.55096700004777 ], [ -79.410976991700622, 35.543417000203256 ], [ -79.412196991224903, 35.540931999981105 ], [ -79.413271990676563, 35.534030999937151 ], [ -79.413263990826877, 35.525172999986104 ], [ -79.41512799126879, 35.522500000005557 ], [ -79.421873991743055, 35.517007000323979 ], [ -79.555803990869578, 35.515039000182583 ], [ -79.553232991062671, 35.599281000337115 ], [ -79.551422991363722, 35.631483999616982 ] ] ] } },
{ "type": "Feature", "properties": { "county": "CHATHAM", "precinct": "GLD118", "enr_desc": "Goldston", "winner": "Michael R. (Mike) Roberson", "winner_votes": 324, "winner_share": 70.588235294117652, "runner_up": "Kate O'Brien", "runner_up_votes": 135, "runner_up_share": 29.411764705882355, "contest_votes": 459, "margin_of_victory": 41.176470588235297, "is_tie": false, "results": [ { "candidate": "Michael R. (Mike) Roberson", "votes": 324, "share": 70.58823529411765 }, { "candidate": "Kate O'Brien", "votes": 135, "share": 29.411764705882355 } ], "participated": true, "map_key": "CHATHAM_GLD118" }, "geometry": { "type": "Polygon", "coordinates": [ [ [ -79.421873991743055, 35.517007000323979 ], [ -79.41512799126879, 35.522500000005557 ], [ -79.413263990826877, 35.525172999986104 ], [ -79.413271990676563, 35.534030999937151 ], [ -79.412196991224903, 35.540931999981105 ], [ -79.410976991700622, 35.543417000203256 ], [ -79.400004991624527, 35.55096700004777 ], [ -79.39417299088457, 35.552946999975184 ], [ -79.392619990971568, 35.562571000306555 ], [ -79.396007991055868, 35.573058000400685 ], [ -79.401888990811344, 35.585523000141933 ], [ -79.402317991528093, 35.588693000053901 ], [ -79.401755991212653, 35.593113000454998 ], [ -79.398143990915273, 35.597710000156042 ], [ -79.399304991708362, 35.599509999628246 ], [ -79.396791991510327, 35.602209000426356 ], [ -79.393567991187822, 35.604031999797655 ], [ -79.390903991544064, 35.603558999917283 ], [ -79.38958399172337, 35.605145999830604 ], [ -79.38738299077346, 35.605742999827839 ], [ -79.38634599151608, 35.607277999647231 ], [ -79.383720991295746, 35.607979999712569 ], [ -79.382965990884884, 35.609748000348354 ], [ -79.382124990865194, 35.609626000025884 ], [ -79.38012299173883, 35.606851999807631 ], [ -79.378285991349458, 35.606976000047119 ], [ -79.377233991050176, 35.609306000258123 ], [ -79.375144991160965, 35.610887000231045 ], [ -79.376881990670626, 35.611667000082029 ], [ -79.377949991376283, 35.613817999722158 ], [ -79.375633990878811, 35.615019999663922 ], [ -79.377341991354072, 35.616697000223539 ], [ -79.37983199135617, 35.617675000276918 ], [ -79.37911799151999, 35.618647999830792 ], [ -79.380187991293298, 35.621098999624856 ], [ -79.370110991253853, 35.630527999982363 ], [ -79.363848990823499, 35.63353300035098 ], [ -79.361700991336932, 35.635347999840683 ], [ -79.355097990738216, 35.636410000405746 ], [ -79.343723990900003, 35.640693999800632 ], [ -79.338205991080287, 35.64594100005003 ], [ -79.33698499109687, 35.648450999874669 ], [ -79.331892990685802, 35.652578999905373 ], [ -79.327858991593772, 35.653993000304389 ], [ -79.321308991031387, 35.654931999832492 ], [ -79.314954991442434, 35.658385999967827 ], [ -79.303823990812162, 35.669420000261219 ], [ -79.289930991339418, 35.678873999765699 ], [ -79.285448991009545, 35.676628000351201 ], [ -79.280595991000226, 35.671487999732221 ], [ -79.277200991497892, 35.669146999840947 ], [ -79.275682991311044, 35.669715999959976 ], [ -79.27290599134588, 35.673719999995733 ], [ -79.269809991676539, 35.672676999909896 ], [ -79.268985991332343, 35.667871000425357 ], [ -79.262039991700547, 35.666637000192921 ], [ -79.256967991511857, 35.662773000236562 ], [ -79.254352991508114, 35.659386000076459 ], [ -79.251835991261473, 35.654130000082482 ], [ -79.247948991583655, 35.654550999830384 ], [ -79.245474991511912, 35.656282000128115 ], [ -79.242312991558919, 35.656883000090993 ], [ -79.239460990709759, 35.659519000394617 ], [ -79.239621991320945, 35.662166999746404 ], [ -79.236913991713706, 35.662172000315515 ], [ -79.234250991209436, 35.661019999810222 ], [ -79.222178991151054, 35.660815000004206 ], [ -79.219782990972249, 35.657326999920272 ], [ -79.21894299127942, 35.653657000072286 ], [ -79.209057991544384, 35.649325000319969 ], [ -79.20208699157952, 35.649310999956953 ], [ -79.190505990775293, 35.659794000125331 ], [ -79.18123199096658, 35.664351000260233 ], [ -79.178385991285722, 35.667608999681676 ], [ -79.175931990726781, 35.656282999821499 ], [ -79.176371991197698, 35.651078999762831 ], [ -79.183741991269372, 35.626066000144554 ], [ -79.185117990958872, 35.62430800033242 ], [ -79.190926991474669, 35.620377000206027 ], [ -79.192872990646009, 35.616753000348162 ], [ -79.193278990911139, 35.597494000412865 ], [ -79.195197990908426, 35.584173999754668 ], [ -79.194194990851244, 35.578398000006622 ], [ -79.200233991411096, 35.577084999802622 ], [ -79.201802991061555, 35.5748879995677 ], [ -79.201567991126396, 35.571445000212854 ], [ -79.199068991045962, 35.563923000045598 ], [ -79.19950099119481, 35.558839999867494 ], [ -79.21443899072824, 35.555687000338395 ], [ -79.220057991071002, 35.553443999574995 ], [ -79.223593990713823, 35.550800000173751 ], [ -79.225305991297361, 35.551357000308855 ], [ -79.226528991428992, 35.554156000038574 ], [ -79.221220991126515, 35.559598000352928 ], [ -79.218757990791147, 35.565339999844525 ], [ -79.219334991002711, 35.566489000427957 ], [ -79.223360991561435, 35.568685999627789 ], [ -79.231074991548368, 35.568012000352674 ], [ -79.240741990999709, 35.570518000026986 ], [ -79.244187991352717, 35.569721000211572 ], [ -79.244669990925672, 35.568367000425823 ], [ -79.24283799166831, 35.559927999699191 ], [ -79.243371991564928, 35.556650000082996 ], [ -79.245198991351842, 35.552961000270415 ], [ -79.25098399119706, 35.548133000420698 ], [ -79.260939991226834, 35.537139000299369 ], [ -79.268144991684082, 35.532494000307018 ], [ -79.276282991483214, 35.531970000433589 ], [ -79.286108991543415, 35.538984000052942 ], [ -79.290609990665246, 35.540097999611952 ], [ -79.291786990671113, 35.542720000384278 ], [ -79.290935991078186, 35.54539799964742 ], [ -79.288509991093136, 35.547869000101983 ], [ -79.282014990849675, 35.55180200037578 ], [ -79.284597991228225, 35.554999000454856 ], [ -79.288186991291582, 35.555040000204094 ], [ -79.294052991322232, 35.552690999640163 ], [ -79.298443991352727, 35.553556000121098 ], [ -79.302732991239793, 35.55236399963681 ], [ -79.303811990674845, 35.551557000338441 ], [ -79.303014991730421, 35.54984499968301 ], [ -79.303498991083671, 35.548546000266654 ], [ -79.308272991605918, 35.547595000388263 ], [ -79.313553991009599, 35.544422000249277 ], [ -79.317850990804089, 35.543273000467217 ], [ -79.321516990755299, 35.544553999581147 ], [ -79.323753991345512, 35.543994000327643 ], [ -79.323447991715582, 35.542224000239415 ], [ -79.315180990860952, 35.53685799991996 ], [ -79.310982991615816, 35.532213999626215 ], [ -79.312502991276233, 35.530179999863343 ], [ -79.322865991095313, 35.524319999908194 ], [ -79.32709699128533, 35.523988999744297 ], [ -79.334560991604903, 35.525148999804209 ], [ -79.336479990748373, 35.524166999972188 ], [ -79.339175990734319, 35.521117000341704 ], [ -79.344198991053986, 35.51966900019076 ], [ -79.348356990834361, 35.519850000371285 ], [ -79.350072990909723, 35.518001999711664 ], [ -79.421873991743055, 35.517007000323979 ] ] ] } },
{ "type": "Feature", "properties": { "county": "CHATHAM", "precinct": "MON113", "enr_desc": "Moncure", "winner": "Michael R. (Mike) Roberson", "winner_votes": 154, "winner_share": 62.096774193548384, "runner_up": "Kate O'Brien", "runner_up_votes": 94, "runner_up_share": 37.903225806451616, "contest_votes": 248, "margin_of_victory": 24.193548387096769, "is_tie": false, "results": [ { "candidate": "Michael R. (Mike) Roberson", "votes": 154, "share": 62.096774193548384 }, { "candidate": "Kate O'Brien", "votes": 94, "share": 37.903225806451616 } ], "participated": true, "map_key": "CHATHAM_MON113" }, "geometry": { "type": "Polygon", "coordinates": [ [ [ -79.178385991285722, 35.667608999681676 ], [ -79.178569000190095, 35.67123199993523 ], [ -79.173108991334288, 35.676079999685591 ], [ -79.171030991299716, 35.676681999840461 ], [ -79.164617990854921, 35.674614000020938 ], [ -79.159590991573722, 35.670606999873932 ], [ -79.157137990892608, 35.670713999945406 ], [ -79.151046991671947, 35.673502999653806 ], [ -79.144586991242278, 35.678906999941617 ], [ -79.140194990802797, 35.671816999998804 ], [ -79.139438990931481, 35.666926000387861 ], [ -79.135905990954484, 35.662859000440569 ], [ -79.133395991013458, 35.66361599963038 ], [ -79.121787990845121, 35.663406000261517 ], [ -79.115763990822614, 35.661034000301044 ], [ -79.110562991383148, 35.664085000256321 ], [ -79.108304990963916, 35.66795699960619 ], [ -79.103601990845391, 35.672843999995621 ], [ -79.102784991638728, 35.674859000086549 ], [ -79.104231990833043, 35.676401000263454 ], [ -79.099999991343736, 35.678083000400839 ], [ -79.096176991009173, 35.681712000375597 ], [ -79.089755991384109, 35.683550999634079 ], [ -79.088181991608892, 35.683036999844035 ], [ -79.086043990915371, 35.68353000042314 ], [ -79.08421699144381, 35.682576999792836 ], [ -79.082412991202119, 35.684270999900193 ], [ -79.078455991004674, 35.683674000379277 ], [ -79.07448199149475, 35.660265999831125 ], [ -79.073702991163415, 35.659202000112963 ], [ -79.071803991009972, 35.658958000048131 ], [ -79.069163991259188, 35.660479999920938 ], [ -79.066258991680186, 35.665499999929004 ], [ -79.065126991415823, 35.674798999624976 ], [ -79.066745990731917, 35.677547000164154 ], [ -79.06639399133546, 35.679479999785336 ], [ -79.064900991121362, 35.680357999676552 ], [ -79.062000990664629, 35.679568000325524 ], [ -79.058956991423017, 35.679848999997787 ], [ -79.057306990884484, 35.684647000133417 ], [ -79.053030990943242, 35.687032000292945 ], [ -79.055611991570146, 35.689505999786867 ], [ -79.055202991064334, 35.691489000264333 ], [ -79.05097899129548, 35.694600999771239 ], [ -79.038460991327355, 35.700209000072334 ], [ -79.02558899097086, 35.701093999903669 ], [ -79.008524990794413, 35.695141999860411 ], [ -79.004040991104333, 35.691209999663869 ], [ -78.99361399092642, 35.691823999762036 ], [ -78.98564599136742, 35.686074999908243 ], [ -78.979955991521763, 35.686635000066616 ], [ -78.968950991679677, 35.681931000397363 ], [ -78.977312991519256, 35.660553000183349 ], [ -78.995047991320803, 35.610165999758991 ], [ -78.949973991399091, 35.595898000400219 ], [ -78.914731991197797, 35.583681999836351 ], [ -78.969639990919447, 35.521668999942541 ], [ -78.98388099120676, 35.535583000075327 ], [ -78.990847991023742, 35.540190000340623 ], [ -78.997301991482331, 35.542467999678955 ], [ -79.009229990949109, 35.542708000021491 ], [ -79.01469199073756, 35.543696000324594 ], [ -79.024000991265552, 35.548377000049037 ], [ -79.030975991427965, 35.554946000123174 ], [ -79.036298991034613, 35.561876000365118 ], [ -79.040291991608541, 35.565314000026163 ], [ -79.045918991270469, 35.568670000429762 ], [ -79.047357991450966, 35.572226999969899 ], [ -79.046641991700128, 35.578038999672529 ], [ -79.05045899112325, 35.582354000004727 ], [ -79.051568990962451, 35.584974999727798 ], [ -79.052334990668754, 35.595872000006807 ], [ -79.060397991500992, 35.601290000334899 ], [ -79.069130991369121, 35.609283000429073 ], [ -79.077746991118261, 35.614037000270997 ], [ -79.093115991623478, 35.618859000243361 ], [ -79.097143990769155, 35.622123999958198 ], [ -79.100883991017625, 35.623872999634195 ], [ -79.108924991681548, 35.622521000453332 ], [ -79.112259991616696, 35.622947999709709 ], [ -79.114741991160898, 35.626615999843089 ], [ -79.117095991531016, 35.628163999665098 ], [ -79.121246991358291, 35.627632000358055 ], [ -79.123644991102793, 35.624778999971731 ], [ -79.125774990760988, 35.623863999742618 ], [ -79.132744990906431, 35.623427000312446 ], [ -79.138565991601737, 35.624042999871861 ], [ -79.142520991196449, 35.622731000189518 ], [ -79.14453799079979, 35.620342000369689 ], [ -79.148228991411713, 35.618942999596065 ], [ -79.150059991619202, 35.617058999944383 ], [ -79.158365990829296, 35.603164999897821 ], [ -79.162545991506477, 35.600634000064694 ], [ -79.166507990920437, 35.59643900042861 ], [ -79.17198299071292, 35.5934299998437 ], [ -79.18350999173559, 35.584376000414572 ], [ -79.186122991635202, 35.580327000277045 ], [ -79.194194990851244, 35.578398000006622 ], [ -79.195197990908426, 35.584173999754668 ], [ -79.193278990911139, 35.597494000412865 ], [ -79.192872990646009, 35.616753000348162 ], [ -79.190926991474669, 35.620377000206027 ], [ -79.185117990958872, 35.62430800033242 ], [ -79.183741991269372, 35.626066000144554 ], [ -79.176371991197698, 35.651078999762831 ], [ -79.175931990726781, 35.656282999821499 ], [ -79.178385991285722, 35.667608999681676 ] ] ] } },
{ "type": "Feature", "properties": { "county": "CHATHAM", "precinct": "ECL109", "enr_desc": "East Chapel", "winner": "Kate O'Brien", "winner_votes": 934, "winner_share": 56.640388114008488, "runner_up": "Michael R. (Mike) Roberson", "runner_up_votes": 715, "runner_up_share": 43.359611885991512, "contest_votes": 1649, "margin_of_victory": 13.280776228016975, "is_tie": false, "results": [ { "candidate": "Kate O'Brien", "votes": 934, "share": 56.64038811400849 }, { "candidate": "Michael R. (Mike) Roberson", "votes": 715, "share": 43.35961188599151 } ], "participated": true, "map_key": "CHATHAM_ECL109" }, "geometry": { "type": "Polygon", "coordinates": [ [ [ -79.14796200092556, 35.821163000044884 ], [ -79.146878423129095, 35.821411429719774 ], [ -79.146826531987955, 35.821427570199511 ], [ -79.146695178414021, 35.821472551598269 ], [ -79.146439314018437, 35.821582343162838 ], [ -79.14628623711944, 35.821668556407083 ], [ -79.146228932418424, 35.821704040302848 ], [ -79.145912189395531, 35.82193705995423 ], [ -79.145843079860484, 35.82199807720383 ], [ -79.145493855154612, 35.822405192574159 ], [ -79.145083999982276, 35.823365999393943 ], [ -79.143876938862135, 35.827501779289491 ], [ -79.143543615349898, 35.828094948164889 ], [ -79.141108000599203, 35.831771000043119 ], [ -79.141046999536727, 35.83186100071341 ], [ -79.140861000508622, 35.832058000167386 ], [ -79.140509704451574, 35.83236291314627 ], [ -79.140249955859261, 35.832581449133187 ], [ -79.140072661690894, 35.832725943047052 ], [ -79.139918575110045, 35.83284858890007 ], [ -79.137899746045875, 35.834542322559308 ], [ -79.137851583118703, 35.83458927582231 ], [ -79.137813201967958, 35.834627372376644 ], [ -79.134400163647598, 35.839583997384551 ], [ -79.134333813984853, 35.839678125704609 ], [ -79.134105285117599, 35.839946571403303 ], [ -79.134053495645176, 35.83999734688134 ], [ -79.131998794259687, 35.841184245606925 ], [ -79.130866823096952, 35.841745427971325 ], [ -79.126059772093257, 35.843717052940491 ], [ -79.123157999323837, 35.844576999963216 ], [ -79.119197543988463, 35.845679848838955 ], [ -79.117968000165661, 35.846014999671794 ], [ -79.117781064223522, 35.846056156389288 ], [ -79.117750945842914, 35.846061857512169 ], [ -79.117451353336534, 35.846104135558143 ], [ -79.117301851879816, 35.846115282844629 ], [ -79.111327000485304, 35.846212999997064 ], [ -79.108927145660402, 35.846240282098194 ], [ -79.106164938136544, 35.846276195493964 ], [ -79.106058088728147, 35.846277189807971 ], [ -79.104168313129065, 35.846167020584268 ], [ -79.10322106837728, 35.846083039554159 ], [ -79.10061300008914, 35.846103000032429 ], [ -79.10012614603697, 35.846119789581813 ], [ -79.097172877678446, 35.846219169599664 ], [ -79.096781927746449, 35.846232332527904 ], [ -79.093061000748492, 35.846352000318248 ], [ -79.092695999171468, 35.846362000038432 ], [ -79.092365000060397, 35.846373000421096 ], [ -79.090857000437282, 35.846415999959042 ], [ -79.089511999592105, 35.833473000118275 ], [ -79.084511991565762, 35.816066999684345 ], [ -79.086059000171986, 35.813059999807471 ], [ -79.092144991579801, 35.809474000335832 ], [ -79.104480999831054, 35.811306000545045 ], [ -79.110343999460127, 35.813197000060129 ], [ -79.115649999170159, 35.815948000408817 ], [ -79.12110600009251, 35.815619000770489 ], [ -79.126719999672929, 35.817102000067926 ], [ -79.139631000202613, 35.817196999934147 ], [ -79.145222999914537, 35.818968999925481 ], [ -79.14796200092556, 35.821163000044884 ] ] ] } },
{ "type": "Feature", "properties": { "county": "CHATHAM", "precinct": "WCL108", "enr_desc": "West Chapel", "winner": "Kate O'Brien", "winner_votes": 623, "winner_share": 59.276879162702187, "runner_up": "Michael R. (Mike) Roberson", "runner_up_votes": 428, "runner_up_share": 40.723120837297813, "contest_votes": 1051, "margin_of_victory": 18.553758325404374, "is_tie": false, "results": [ { "candidate": "Kate O'Brien", "votes": 623, "share": 59.27687916270219 }, { "candidate": "Michael R. (Mike) Roberson", "votes": 428, "share": 40.72312083729781 } ], "participated": true, "map_key": "CHATHAM_WCL108" }, "geometry": { "type": "Polygon", "coordinates": [ [ [ -79.092365000060397, 35.846373000421096 ], [ -79.092695999171468, 35.846362000038432 ], [ -79.093061000748492, 35.846352000318248 ], [ -79.096781927746449, 35.846232332527904 ], [ -79.097172877678446, 35.846219169599664 ], [ -79.10012614603697, 35.846119789581813 ], [ -79.10061300008914, 35.846103000032429 ], [ -79.10322106837728, 35.846083039554159 ], [ -79.104168313129065, 35.846167020584268 ], [ -79.106058088728147, 35.846277189807971 ], [ -79.106164938136544, 35.846276195493964 ], [ -79.108927145660402, 35.846240282098194 ], [ -79.111327000485304, 35.846212999997064 ], [ -79.117301851879816, 35.846115282844629 ], [ -79.117451353336534, 35.846104135558143 ], [ -79.117750945842914, 35.846061857512169 ], [ -79.117781064223522, 35.846056156389288 ], [ -79.117968000165661, 35.846014999671794 ], [ -79.119197543988463, 35.845679848838955 ], [ -79.123157999323837, 35.844576999963216 ], [ -79.126059772093257, 35.843717052940491 ], [ -79.130866823096952, 35.841745427971325 ], [ -79.131998794259687, 35.841184245606925 ], [ -79.134053495645176, 35.83999734688134 ], [ -79.134105285117599, 35.839946571403303 ], [ -79.134333813984853, 35.839678125704609 ], [ -79.134400163647598, 35.839583997384551 ], [ -79.137813201967958, 35.834627372376644 ], [ -79.137851583118703, 35.83458927582231 ], [ -79.137899746045875, 35.834542322559308 ], [ -79.139918575110045, 35.83284858890007 ], [ -79.140072661690894, 35.832725943047052 ], [ -79.140249955859261, 35.832581449133187 ], [ -79.140509704451574, 35.83236291314627 ], [ -79.140861000508622, 35.832058000167386 ], [ -79.141046999536727, 35.83186100071341 ], [ -79.141108000599203, 35.831771000043119 ], [ -79.143543615349898, 35.828094948164889 ], [ -79.143876938862135, 35.827501779289491 ], [ -79.145083999982276, 35.823365999393943 ], [ -79.145493855154612, 35.822405192574159 ], [ -79.145843079860484, 35.82199807720383 ], [ -79.145912189395531, 35.82193705995423 ], [ -79.146228932418424, 35.821704040302848 ], [ -79.14628623711944, 35.821668556407083 ], [ -79.146439314018437, 35.821582343162838 ], [ -79.146695178414021, 35.821472551598269 ], [ -79.146826531987955, 35.821427570199511 ], [ -79.146878423129095, 35.821411429719774 ], [ -79.14796200092556, 35.821163000044884 ], [ -79.151627999797697, 35.819277000140694 ], [ -79.157778000130079, 35.807718000192835 ], [ -79.156037000330699, 35.805026999890956 ], [ -79.154103000157477, 35.803981000168207 ], [ -79.159692000199442, 35.803415000187478 ], [ -79.162006000069027, 35.800976000368102 ], [ -79.158763999882794, 35.795135000263969 ], [ -79.155695999584637, 35.792574999729858 ], [ -79.157686000025791, 35.792019000093276 ], [ -79.16099999982255, 35.787399999816472 ], [ -79.164297000130574, 35.785571000207419 ], [ -79.164979000021447, 35.783702000303933 ], [ -79.16268899974547, 35.781923000445964 ], [ -79.170944999499369, 35.785124000046828 ], [ -79.173813000066005, 35.788978000200181 ], [ -79.179638999477902, 35.793050000042292 ], [ -79.181294000460781, 35.795204999902886 ], [ -79.182062000491868, 35.802558999573975 ], [ -79.184728999524054, 35.809455000277055 ], [ -79.186179999869694, 35.81730200017077 ], [ -79.188546000384164, 35.820385000129754 ], [ -79.192707000405377, 35.820312000203245 ], [ -79.197425999983764, 35.818681000441607 ], [ -79.200628000161558, 35.818894000011767 ], [ -79.202810000106041, 35.820132000004229 ], [ -79.206300000165058, 35.82721200000779 ], [ -79.211042999500989, 35.832284999724294 ], [ -79.214663999783298, 35.833401000237544 ], [ -79.222337999753407, 35.832813999917967 ], [ -79.229312000409251, 35.833938000170477 ], [ -79.231530000434674, 35.835933000429037 ], [ -79.232894000039067, 35.839108000018712 ], [ -79.23731599991909, 35.844246999792283 ], [ -79.236886000382583, 35.850524000091944 ], [ -79.2400120000068, 35.852448999555826 ], [ -79.248089000413742, 35.854514000443423 ], [ -79.249597000302686, 35.855717999663526 ], [ -79.250774999504515, 35.86009899997007 ], [ -79.249427999928784, 35.862697000312011 ], [ -79.248927999812437, 35.866164000045664 ], [ -79.250966000046219, 35.870693999563144 ], [ -79.249404000112179, 35.875061000190243 ], [ -79.249538000009778, 35.876809999867973 ], [ -79.2219350004425, 35.874043999663591 ], [ -79.221534000475188, 35.875466999836405 ], [ -79.218816000457906, 35.875256999942046 ], [ -79.218814999752283, 35.873724999730996 ], [ -79.131833999764453, 35.865309000029391 ], [ -79.131789999657016, 35.864759999695707 ], [ -79.081937999994722, 35.860780000049736 ], [ -79.084881999924605, 35.85607000000671 ], [ -79.085989000422643, 35.851866999792122 ], [ -79.090018999711745, 35.848289999601853 ], [ -79.090856998223202, 35.846415999960655 ], [ -79.092365000060397, 35.846373000421096 ] ] ] } },
{ "type": "Feature", "properties": { "county": "CHATHAM", "precinct": "EPP112", "enr_desc": "East Pittsboro", "winner": "Kate O'Brien", "winner_votes": 444, "winner_share": 51.508120649651964, "runner_up": "Michael R. (Mike) Roberson", "runner_up_votes": 418, "runner_up_share": 48.491879350348029, "contest_votes": 862, "margin_of_victory": 3.0162412993039354, "is_tie": false, "results": [ { "candidate": "Kate O'Brien", "votes": 444, "share": 51.508120649651964 }, { "candidate": "Michael R. (Mike) Roberson", "votes": 418, "share": 48.49187935034803 } ], "participated": true, "map_key": "CHATHAM_EPP112" }, "geometry": { "type": "Polygon", "coordinates": [ [ [ -79.2108641026621, 35.80259303841099 ], [ -79.211249999858182, 35.803419000354147 ], [ -79.206137000192882, 35.806148000309598 ], [ -79.202196999856938, 35.803197999922254 ], [ -79.199276999690795, 35.803994999790305 ], [ -79.196706999685091, 35.803016000119328 ], [ -79.185996000077466, 35.802791999687223 ], [ -79.184323999926235, 35.800128000149051 ], [ -79.187177000202212, 35.797412000097921 ], [ -79.181666999841795, 35.794776000238578 ], [ -79.181294000460781, 35.795204999902886 ], [ -79.179638999477902, 35.793050000042292 ], [ -79.173813000066005, 35.788978000200181 ], [ -79.170944999499369, 35.785124000046828 ], [ -79.16268899974547, 35.781923000445964 ], [ -79.156626999894016, 35.780800000382648 ], [ -79.151775999955106, 35.778576999948314 ], [ -79.145446999937363, 35.771849999679333 ], [ -79.141813000182339, 35.769273999832954 ], [ -79.138838999937093, 35.768433999841882 ], [ -79.131644000044915, 35.762988000105651 ], [ -79.128689000472747, 35.756291999916883 ], [ -79.123929999662408, 35.750102000131399 ], [ -79.107075990868765, 35.731491000370987 ], [ -79.095694000317025, 35.72173799973244 ], [ -79.094655999666486, 35.717524000298958 ], [ -79.092837000001339, 35.714837000228357 ], [ -79.086479000124029, 35.71048700005813 ], [ -79.081699999553891, 35.698178999778662 ], [ -79.078455999843186, 35.683674000373543 ], [ -79.082413000040631, 35.68427099989426 ], [ -79.084217000282123, 35.682576999786725 ], [ -79.086043999753841, 35.683530000416894 ], [ -79.088182000447262, 35.683036999837597 ], [ -79.089756000222536, 35.683550999627549 ], [ -79.096176999847444, 35.681712000368591 ], [ -79.100000000181609, 35.678083000393521 ], [ -79.104231999670688, 35.676401000255879 ], [ -79.102785000476217, 35.674859000079039 ], [ -79.103601999682667, 35.672843999988103 ], [ -79.108304999800637, 35.667956999598346 ], [ -79.110563000219457, 35.664085000248299 ], [ -79.115763999658597, 35.661034000292695 ], [ -79.121787999681402, 35.663406000252728 ], [ -79.133395999849725, 35.663615999620724 ], [ -79.135905999790722, 35.662859000430686 ], [ -79.139438999768146, 35.666926000377735 ], [ -79.140194999639945, 35.671816999988621 ], [ -79.144587000080193, 35.678906999931087 ], [ -79.151047000509294, 35.673502999642835 ], [ -79.157137999729628, 35.670713999934001 ], [ -79.159591000410799, 35.670606999862322 ], [ -79.164617999692382, 35.674614000008987 ], [ -79.171031000137432, 35.676681999828048 ], [ -79.173109000171891, 35.676079999673057 ], [ -79.178569000190095, 35.67123199993523 ], [ -79.177144000365118, 35.683020000123442 ], [ -79.179979000297138, 35.699570999647463 ], [ -79.179387000061141, 35.705074999839297 ], [ -79.178251999510451, 35.707947000376613 ], [ -79.17887499905909, 35.717496000167671 ], [ -79.177159999381018, 35.720784999818086 ], [ -79.176872999900255, 35.726092999455467 ], [ -79.175227999219345, 35.729264000158871 ], [ -79.17457899966756, 35.734171999277216 ], [ -79.168993999742113, 35.741355000264356 ], [ -79.167350999092335, 35.745963999106593 ], [ -79.167249713455391, 35.748668685080361 ], [ -79.174320906933218, 35.751014909147514 ], [ -79.182896942716496, 35.752637203646216 ], [ -79.188724649954466, 35.75240586785182 ], [ -79.190690647770452, 35.755083451038232 ], [ -79.190866683003804, 35.759897368755134 ], [ -79.195620680338138, 35.762690006954564 ], [ -79.201560999929754, 35.762281000422597 ], [ -79.203044132507614, 35.763223711031955 ], [ -79.206426285798855, 35.768383189866071 ], [ -79.208178063573797, 35.779822130744357 ], [ -79.210586219380687, 35.78737780113098 ], [ -79.210087000189475, 35.791920999981677 ], [ -79.211651119266676, 35.794898109253921 ], [ -79.2108641026621, 35.80259303841099 ] ] ] } },
{ "type": "Feature", "properties": { "county": "CHATHAM", "precinct": "WPP114", "enr_desc": "West Pittsboro", "winner": "Michael R. (Mike) Roberson", "winner_votes": 681, "winner_share": 59.372275501307762, "runner_up": "Kate O'Brien", "runner_up_votes": 466, "runner_up_share": 40.627724498692238, "contest_votes": 1147, "margin_of_victory": 18.744551002615523, "is_tie": false, "results": [ { "candidate": "Michael R. (Mike) Roberson", "votes": 681, "share": 59.37227550130776 }, { "candidate": "Kate O'Brien", "votes": 466, "share": 40.62772449869224 } ], "participated": true, "map_key": "CHATHAM_WPP114" }, "geometry": { "type": "Polygon", "coordinates": [ [ [ -79.178569000190095, 35.67123199993523 ], [ -79.178385991285722, 35.667608999681676 ], [ -79.181231999802975, 35.66435100024708 ], [ -79.190505999611133, 35.659794000111496 ], [ -79.202087000414252, 35.649310999942308 ], [ -79.209058000379102, 35.649325000304749 ], [ -79.218943000114564, 35.653657000056441 ], [ -79.219782999807862, 35.657326999904292 ], [ -79.222178999986994, 35.660814999988041 ], [ -79.23425100004539, 35.661019999793218 ], [ -79.236914000549788, 35.662172000298334 ], [ -79.239622000157013, 35.66216699972901 ], [ -79.239460999545585, 35.659519000377209 ], [ -79.242313000394404, 35.656883000073407 ], [ -79.245475000347355, 35.656282000110288 ], [ -79.247949000418942, 35.654550999812386 ], [ -79.251836000096731, 35.654130000064185 ], [ -79.254352991508114, 35.659386000076459 ], [ -79.252839000297456, 35.661637999701746 ], [ -79.254976000443847, 35.663321000273143 ], [ -79.256559000343984, 35.668634000441685 ], [ -79.254165999767011, 35.669760000067157 ], [ -79.25686199962233, 35.671942000417651 ], [ -79.257477000375019, 35.676432000152289 ], [ -79.250866000450799, 35.678347999660183 ], [ -79.250550999706846, 35.682709000260033 ], [ -79.249615000332909, 35.684370000276786 ], [ -79.250276999835876, 35.685614999688042 ], [ -79.249240000186006, 35.687438999882673 ], [ -79.250036000095406, 35.688300000001938 ], [ -79.247637999529132, 35.688689000153758 ], [ -79.246788000229628, 35.689884999729991 ], [ -79.244155999858791, 35.691017999809084 ], [ -79.243175999607118, 35.695841000146309 ], [ -79.241096000378917, 35.699660000294855 ], [ -79.244787000063653, 35.705011999601957 ], [ -79.241476999656797, 35.709825000040865 ], [ -79.241320000202251, 35.711885000085999 ], [ -79.239487000086939, 35.711385000382279 ], [ -79.238114000508162, 35.712350000064369 ], [ -79.239332999916698, 35.715211999560289 ], [ -79.238284000350731, 35.718568000255786 ], [ -79.238775999820021, 35.720017999755633 ], [ -79.237631999599017, 35.722586000325698 ], [ -79.240430000048946, 35.723175000011032 ], [ -79.242860000252577, 35.72525000038538 ], [ -79.245049000367302, 35.724837999880656 ], [ -79.252418999959019, 35.738812000227732 ], [ -79.25843200004033, 35.736312000093008 ], [ -79.259564000217267, 35.737011999628962 ], [ -79.262445000236653, 35.736442000196035 ], [ -79.265808999693135, 35.737697000222973 ], [ -79.267373999530008, 35.737374000389657 ], [ -79.269960999802862, 35.740077999964534 ], [ -79.275899999713275, 35.743356999817784 ], [ -79.275609000487449, 35.744439000205631 ], [ -79.277197999736231, 35.747070999789862 ], [ -79.277769000207741, 35.750534999986037 ], [ -79.283560000255491, 35.75204200034625 ], [ -79.285891000481087, 35.758725999904343 ], [ -79.285960000113207, 35.762727000061687 ], [ -79.287369000379954, 35.765363999607516 ], [ -79.287232991343842, 35.770048000021745 ], [ -79.287701999725812, 35.775132000312418 ], [ -79.284500999684212, 35.77450500035193 ], [ -79.280307000373696, 35.775829000292198 ], [ -79.278721999473262, 35.777529999850373 ], [ -79.274649000050402, 35.777612000305453 ], [ -79.270460999954608, 35.779730999691438 ], [ -79.269402000495148, 35.778241999798396 ], [ -79.267561000380923, 35.780740999860285 ], [ -79.262608999938919, 35.784518999798159 ], [ -79.256402999596816, 35.78603899995742 ], [ -79.253191000416138, 35.788921999610999 ], [ -79.244437999854654, 35.790120000162069 ], [ -79.241270000481762, 35.792554999985889 ], [ -79.241480000341866, 35.793362000099499 ], [ -79.233420999929592, 35.794756000432884 ], [ -79.229523999798189, 35.79839999982206 ], [ -79.226051999600898, 35.798532999738718 ], [ -79.224296999566462, 35.796753999674152 ], [ -79.221666999749999, 35.798365000404992 ], [ -79.222018000170706, 35.799500999923772 ], [ -79.218755000174852, 35.800254999908837 ], [ -79.217932000534063, 35.80156800006818 ], [ -79.216582999857792, 35.800992000440701 ], [ -79.214478999612268, 35.802608000271348 ], [ -79.211249999858182, 35.803419000354147 ], [ -79.2108641026621, 35.80259303841099 ], [ -79.211651119266676, 35.794898109253921 ], [ -79.210087000189475, 35.791920999981677 ], [ -79.210586219380687, 35.78737780113098 ], [ -79.208178063573797, 35.779822130744357 ], [ -79.206426285798855, 35.768383189866071 ], [ -79.203044132507614, 35.763223711031955 ], [ -79.201560999929754, 35.762281000422597 ], [ -79.195620680338138, 35.762690006954564 ], [ -79.190866683003804, 35.759897368755134 ], [ -79.190690647770452, 35.755083451038232 ], [ -79.188724649954466, 35.75240586785182 ], [ -79.182896942716496, 35.752637203646216 ], [ -79.174320906933218, 35.751014909147514 ], [ -79.167249713455391, 35.748668685080361 ], [ -79.167350999092335, 35.745963999106593 ], [ -79.168993999742113, 35.741355000264356 ], [ -79.17457899966756, 35.734171999277216 ], [ -79.175227999219345, 35.729264000158871 ], [ -79.176872999900255, 35.726092999455467 ], [ -79.177159999381018, 35.720784999818086 ], [ -79.17887499905909, 35.717496000167671 ], [ -79.178251999510451, 35.707947000376613 ], [ -79.179387000061141, 35.705074999839297 ], [ -79.179979000297138, 35.699570999647463 ], [ -79.177144000365118, 35.683020000123442 ], [ -79.178569000190095, 35.67123199993523 ] ] ] } },
{ "type": "Feature", "properties": { "county": "CHATHAM", "precinct": "42", "enr_desc": "Jordan Lake", "winner": "Kate O'Brien", "winner_votes": 181, "winner_share": 58.387096774193544, "runner_up": "Michael R. (Mike) Roberson", "runner_up_votes": 129, "runner_up_share": 41.612903225806456, "contest_votes": 310, "margin_of_victory": 16.774193548387089, "is_tie": false, "results": [ { "candidate": "Kate O'Brien", "votes": 181, "share": 58.387096774193544 }, { "candidate": "Michael R. (Mike) Roberson", "votes": 129, "share": 41.612903225806456 } ], "participated": true, "map_key": "CHATHAM_42" }, "geometry": { "type": "Polygon", "coordinates": [ [ [ -78.968950991679677, 35.681931000397363 ], [ -78.979955991521763, 35.686635000066616 ], [ -78.98564599136742, 35.686074999908243 ], [ -78.99361399092642, 35.691823999762036 ], [ -79.004040991104333, 35.691209999663869 ], [ -79.008524990794413, 35.695141999860411 ], [ -79.02558899097086, 35.701093999903669 ], [ -79.038460991327355, 35.700209000072334 ], [ -79.05097899129548, 35.694600999771239 ], [ -79.055202991064334, 35.691489000264333 ], [ -79.055611991570146, 35.689505999786867 ], [ -79.053030990943242, 35.687032000292945 ], [ -79.057306990884484, 35.684647000133417 ], [ -79.058956991423017, 35.679848999997787 ], [ -79.062000990664629, 35.679568000325524 ], [ -79.064900991121362, 35.680357999676552 ], [ -79.06639399133546, 35.679479999785336 ], [ -79.066745990731917, 35.677547000164154 ], [ -79.065126991415823, 35.674798999624976 ], [ -79.066258991680186, 35.665499999929004 ], [ -79.069163991259188, 35.660479999920938 ], [ -79.071803991009972, 35.658958000048131 ], [ -79.073702991163415, 35.659202000112963 ], [ -79.07448199149475, 35.660265999831125 ], [ -79.078455991004674, 35.683674000379277 ], [ -79.081699990713872, 35.698178999784609 ], [ -79.08647899128259, 35.710487000064425 ], [ -79.092836991159501, 35.714837000235107 ], [ -79.094655990824307, 35.717524000305865 ], [ -79.095693991474434, 35.721737999739389 ], [ -79.107075990868765, 35.731491000370987 ], [ -79.096403991571393, 35.735328999908035 ], [ -79.083628990804044, 35.736949000277576 ], [ -79.076486991718625, 35.737395999860908 ], [ -79.065632991069165, 35.739536999818519 ], [ -79.028403991305481, 35.737556999730927 ], [ -79.026780990635018, 35.770694000299308 ], [ -79.022375991352831, 35.787795999903508 ], [ -79.021578991608735, 35.789237999918811 ], [ -79.010072991198285, 35.789351000238696 ], [ -78.995220990966729, 35.789460000257421 ], [ -78.982048991094373, 35.795158000236732 ], [ -78.976628991125096, 35.795356999983738 ], [ -78.969666991100155, 35.790781999854502 ], [ -78.96383699080188, 35.790345000243754 ], [ -78.962412991311055, 35.784490999816818 ], [ -78.953312991080281, 35.786100999583574 ], [ -78.950198991151069, 35.789488999935251 ], [ -78.943734990845172, 35.793935999938462 ], [ -78.935989991069022, 35.794774000416638 ], [ -78.930890991595859, 35.794376999858002 ], [ -78.936270991671989, 35.77189800013646 ], [ -78.953246991435876, 35.723358000446616 ], [ -78.968950991679677, 35.681931000397363 ] ] ] } }
]
}
