{
"type": "FeatureCollection",
"name": "cherokee_county_board_of_education_district_ii_rep",
"crs": { "type": "name", "properties": { "name": "urn:ogc:def:crs:OGC:1.3:CRS84" } },
"features": [
{ "type": "Feature", "properties": { "county": "CHEROKEE", "precinct": "BELL", "enr_desc": "Bellview", "winner": "Jeannie Gaddis", "winner_votes": 120, "winner_share": 54.794520547945204, "runner_up": "David Ricks", "runner_up_votes": 99, "runner_up_share": 45.205479452054789, "contest_votes": 219, "margin_of_victory": 9.5890410958904155, "is_tie": false, "results": [ { "candidate": "Jeannie Gaddis", "votes": 120, "share": 54.794520547945204 }, { "candidate": "David Ricks", "votes": 99, "share": 45.20547945205479 } ], "participated": true, "map_key": "CHEROKEE_BELL" }, "geometry": { "type": "Polygon", "coordinates": [ [ [ -84.096714991202631, 34.987424000653995 ], [ -84.100011990917253, 34.990651000627714 ], [ -84.100374991176736, 34.992561000196247 ], [ -84.097415991215641, 34.994859000551571 ], [ -84.089143991156547, 34.995053000318364 ], [ -84.089099990767821, 34.996486000292769 ], [ -84.093167991146473, 35.000892000441425 ], [ -84.099577991360988, 35.001456000680243 ], [ -84.102207991565209, 35.006523000736983 ], [ -84.099901991329375, 35.006179000273782 ], [ -84.096513991535375, 35.008642000216092 ], [ -84.095829991187017, 35.009966000224701 ], [ -84.088840991212706, 35.012940000775245 ], [ -84.086218990769368, 35.014838000629943 ], [ -84.091427991657511, 35.019463000627269 ], [ -84.094646991672349, 35.023644000083941 ], [ -84.083986991586244, 35.019771000261819 ], [ -84.080192991119262, 35.024581000365984 ], [ -84.076187991637312, 35.026049999958886 ], [ -84.071177990789707, 35.026543000463299 ], [ -84.061749991547984, 35.027261999943761 ], [ -84.051400991168464, 35.029775000102845 ], [ -84.052937991078096, 35.026226000712164 ], [ -84.049091991762097, 35.022473000257996 ], [ -84.050044990850807, 35.021732000784226 ], [ -84.049683991416444, 35.019667000667745 ], [ -84.050557990860995, 35.019175000775142 ], [ -84.050331990858894, 35.018180000354775 ], [ -84.049030990862477, 35.018043000116748 ], [ -84.046559991103535, 35.015760999971988 ], [ -84.047049991329885, 35.013709000073412 ], [ -84.04458799102683, 35.012168999961474 ], [ -84.044945990932632, 35.00834000071027 ], [ -84.044219991285601, 35.006036000335357 ], [ -84.039399991037712, 35.005522000766419 ], [ -84.03279599156042, 35.0061870003873 ], [ -84.030613991799143, 35.005014000322006 ], [ -84.029752991302459, 35.002490999955057 ], [ -84.027646990766002, 35.001766000220144 ], [ -84.02477899123862, 34.999102000126854 ], [ -84.022595990912549, 34.999210000079891 ], [ -84.02072799096922, 34.998156999971087 ], [ -84.018002991219163, 34.998534999951204 ], [ -84.014572991703162, 34.99591099994462 ], [ -84.004594991435241, 34.994132000422731 ], [ -84.003348991103053, 34.991630000679841 ], [ -84.005810991288115, 34.989246999972899 ], [ -84.005131991312695, 34.987175000240271 ], [ -84.096714991202631, 34.987424000653995 ] ] ] } },
{ "type": "Feature", "properties": { "county": "CHEROKEE", "precinct": "ANNW", "enr_desc": "Andrews North Ward", "winner": "David Ricks", "winner_votes": 192, "winner_share": 61.146496815286625, "runner_up": "Jeannie Gaddis", "runner_up_votes": 122, "runner_up_share": 38.853503184713375, "contest_votes": 314, "margin_of_victory": 22.29299363057325, "is_tie": false, "results": [ { "candidate": "David Ricks", "votes": 192, "share": 61.146496815286625 }, { "candidate": "Jeannie Gaddis", "votes": 122, "share": 38.853503184713375 } ], "participated": true, "map_key": "CHEROKEE_ANNW" }, "geometry": { "type": "Polygon", "coordinates": [ [ [ -83.887876991242479, 35.177704000063876 ], [ -83.88993099160605, 35.178815000075552 ], [ -83.89158599125895, 35.181320000696211 ], [ -83.888139990896505, 35.18433300002463 ], [ -83.885797990995712, 35.183865000013768 ], [ -83.887761991100945, 35.189395000375825 ], [ -83.881976991431927, 35.191007999903 ], [ -83.883048990947216, 35.192177000126655 ], [ -83.881847991510654, 35.197184000154216 ], [ -83.88594099130249, 35.202446000131253 ], [ -83.886940990793505, 35.206815000331531 ], [ -83.887951991556733, 35.207858000468363 ], [ -83.888305991272901, 35.211629000197959 ], [ -83.887612991798207, 35.21370700055396 ], [ -83.892480991179511, 35.217945000673687 ], [ -83.892304991008729, 35.220157999977147 ], [ -83.89387099098424, 35.225237000173863 ], [ -83.89303399163407, 35.228438000307676 ], [ -83.893564991613516, 35.233351000575432 ], [ -83.892345991045289, 35.234931000059049 ], [ -83.887996991554687, 35.234815000562406 ], [ -83.886129991650321, 35.236561000315831 ], [ -83.879695991300011, 35.238481000427733 ], [ -83.877888991320816, 35.241056000489685 ], [ -83.873737991379215, 35.24410500054055 ], [ -83.869166991318693, 35.243359000552516 ], [ -83.867638991791495, 35.245955000599096 ], [ -83.86470499118353, 35.247416000294308 ], [ -83.862267990850384, 35.247380000284785 ], [ -83.860281990866724, 35.248710000470687 ], [ -83.85497899170484, 35.248424000759627 ], [ -83.851226991736482, 35.249377000333403 ], [ -83.84866499154947, 35.253253000685312 ], [ -83.845149991492761, 35.255236000398597 ], [ -83.841276990750643, 35.254325000070487 ], [ -83.837482991328173, 35.255499000451614 ], [ -83.831061991494508, 35.256108000565376 ], [ -83.82690499113933, 35.253580000567219 ], [ -83.827541990892257, 35.252891000425691 ], [ -83.825632990789003, 35.251184000174554 ], [ -83.822332991502307, 35.250273000326125 ], [ -83.818888991107912, 35.252646000478663 ], [ -83.813488990949594, 35.254748000728185 ], [ -83.809910991334377, 35.252480000638094 ], [ -83.806637991249019, 35.252813000267103 ], [ -83.802649990999342, 35.254773000731255 ], [ -83.800523991447406, 35.254588000740725 ], [ -83.795158991416386, 35.257463000435486 ], [ -83.789877991273812, 35.255544000081656 ], [ -83.787914991119266, 35.25283100033942 ], [ -83.783103991248751, 35.252849000720751 ], [ -83.781422991258523, 35.252166000243008 ], [ -83.773489990743172, 35.24574400065346 ], [ -83.771470990815317, 35.240808000792846 ], [ -83.771304990810378, 35.23676100018789 ], [ -83.772724990723475, 35.228606000209702 ], [ -83.775893991748816, 35.226962000210314 ], [ -83.776752991389714, 35.22234800050294 ], [ -83.774083991026288, 35.219025999906734 ], [ -83.774452990935202, 35.217201000684405 ], [ -83.771926991789641, 35.214663000188303 ], [ -83.773387991502346, 35.21214000040893 ], [ -83.766250990870205, 35.208175999925167 ], [ -83.770550990766097, 35.207102000118581 ], [ -83.773529990821359, 35.204431000528295 ], [ -83.779409990910835, 35.203883000172411 ], [ -83.779526991483024, 35.203317000586871 ], [ -83.778281991569102, 35.201804000211794 ], [ -83.777668991641292, 35.198803000317987 ], [ -83.775766991188846, 35.19790000007427 ], [ -83.777086991595795, 35.195602999962134 ], [ -83.774480991156949, 35.194894999911753 ], [ -83.770043991198634, 35.191739000312623 ], [ -83.769836991264114, 35.186405000015455 ], [ -83.76689399123552, 35.188188000165361 ], [ -83.764805991203346, 35.188439000558589 ], [ -83.760752991382461, 35.187786000172096 ], [ -83.7554719907139, 35.185727000315886 ], [ -83.750620990725764, 35.185928000489916 ], [ -83.747856991474023, 35.187234000411173 ], [ -83.741101991128076, 35.194263000745657 ], [ -83.738706991172805, 35.195268000367335 ], [ -83.73815399127929, 35.197176000694206 ], [ -83.728856991401983, 35.200772000009025 ], [ -83.72590199173311, 35.198497999976219 ], [ -83.719466991152018, 35.196752999956232 ], [ -83.716271990718951, 35.199724000326206 ], [ -83.713406991725606, 35.197052000620253 ], [ -83.716848991769353, 35.193925000538087 ], [ -83.726027990806159, 35.188259999939774 ], [ -83.730588991032576, 35.183663000707085 ], [ -83.748390991169487, 35.174132000667207 ], [ -83.754636991354985, 35.173719000414721 ], [ -83.757493990909424, 35.174964000025781 ], [ -83.76186299070649, 35.174038000238902 ], [ -83.764140991623407, 35.175756999998534 ], [ -83.768500991130338, 35.176177000165289 ], [ -83.76913599080774, 35.177146000740954 ], [ -83.770764991465853, 35.177372000033309 ], [ -83.778705991384783, 35.181991000772484 ], [ -83.785386991770579, 35.182214000513 ], [ -83.786522991697822, 35.18091100044856 ], [ -83.788737991680037, 35.18104800032031 ], [ -83.790630991321436, 35.183402000054066 ], [ -83.796118991153591, 35.184777000580929 ], [ -83.802121991078764, 35.188759000528243 ], [ -83.805301991007312, 35.193047000383118 ], [ -83.812670991261001, 35.200398000466393 ], [ -83.821327991673201, 35.202461000027753 ], [ -83.828561991324449, 35.199604000218763 ], [ -83.829197991574347, 35.198132000183946 ], [ -83.831563991314169, 35.197868000158373 ], [ -83.833031990864256, 35.195783000293865 ], [ -83.83787199138736, 35.192866000372518 ], [ -83.839769991269151, 35.19048200010436 ], [ -83.847819991741034, 35.189412000219164 ], [ -83.850396990875055, 35.187983000389345 ], [ -83.855824991260974, 35.187889000427674 ], [ -83.857248991772352, 35.18607400076818 ], [ -83.858827990970994, 35.186220000599626 ], [ -83.860945991018596, 35.185157999978387 ], [ -83.864236991398585, 35.182103000308672 ], [ -83.870055990787648, 35.179848000442284 ], [ -83.875570991756788, 35.178944000344771 ], [ -83.881982991540809, 35.18041400028325 ], [ -83.884101991234232, 35.178774000622951 ], [ -83.887876991242479, 35.177704000063876 ] ] ] } },
{ "type": "Feature", "properties": { "county": "CHEROKEE", "precinct": "ANSW", "enr_desc": "Andrews South Ward", "winner": "David Ricks", "winner_votes": 221, "winner_share": 67.17325227963525, "runner_up": "Jeannie Gaddis", "runner_up_votes": 108, "runner_up_share": 32.826747720364743, "contest_votes": 329, "margin_of_victory": 34.346504559270507, "is_tie": false, "results": [ { "candidate": "David Ricks", "votes": 221, "share": 67.17325227963525 }, { "candidate": "Jeannie Gaddis", "votes": 108, "share": 32.82674772036474 } ], "participated": true, "map_key": "CHEROKEE_ANSW" }, "geometry": { "type": "Polygon", "coordinates": [ [ [ -83.887876991242479, 35.177704000063876 ], [ -83.884101991234232, 35.178774000622951 ], [ -83.881982991540809, 35.18041400028325 ], [ -83.875570991756788, 35.178944000344771 ], [ -83.870055990787648, 35.179848000442284 ], [ -83.864236991398585, 35.182103000308672 ], [ -83.860945991018596, 35.185157999978387 ], [ -83.858827990970994, 35.186220000599626 ], [ -83.857248991772352, 35.18607400076818 ], [ -83.855824991260974, 35.187889000427674 ], [ -83.850396990875055, 35.187983000389345 ], [ -83.847819991741034, 35.189412000219164 ], [ -83.839769991269151, 35.19048200010436 ], [ -83.83787199138736, 35.192866000372518 ], [ -83.833031990864256, 35.195783000293865 ], [ -83.831563991314169, 35.197868000158373 ], [ -83.829197991574347, 35.198132000183946 ], [ -83.828561991324449, 35.199604000218763 ], [ -83.821327991673201, 35.202461000027753 ], [ -83.812670991261001, 35.200398000466393 ], [ -83.805301991007312, 35.193047000383118 ], [ -83.802121991078764, 35.188759000528243 ], [ -83.796118991153591, 35.184777000580929 ], [ -83.790630991321436, 35.183402000054066 ], [ -83.788737991680037, 35.18104800032031 ], [ -83.786522991697822, 35.18091100044856 ], [ -83.785386991770579, 35.182214000513 ], [ -83.778705991384783, 35.181991000772484 ], [ -83.770764991465853, 35.177372000033309 ], [ -83.76913599080774, 35.177146000740954 ], [ -83.768500991130338, 35.176177000165289 ], [ -83.764140991623407, 35.175756999998534 ], [ -83.76186299070649, 35.174038000238902 ], [ -83.757493990909424, 35.174964000025781 ], [ -83.754636991354985, 35.173719000414721 ], [ -83.748390991169487, 35.174132000667207 ], [ -83.730588991032576, 35.183663000707085 ], [ -83.726027990806159, 35.188259999939774 ], [ -83.716848991769353, 35.193925000538087 ], [ -83.713406991725606, 35.197052000620253 ], [ -83.711337991291487, 35.195658999922493 ], [ -83.712296990957739, 35.193481999958607 ], [ -83.711844991167197, 35.190517000631502 ], [ -83.712525991316568, 35.189276000487382 ], [ -83.716194991397444, 35.186471000695491 ], [ -83.725257991264115, 35.183527000172155 ], [ -83.726284991199009, 35.181593000770562 ], [ -83.731638991367717, 35.178411000256723 ], [ -83.731107991615559, 35.17683300027258 ], [ -83.732301991630194, 35.174816000046896 ], [ -83.731507990967387, 35.172241000708595 ], [ -83.730565991199086, 35.17176499995081 ], [ -83.732606990981125, 35.16915000013001 ], [ -83.733141991760618, 35.165080000674024 ], [ -83.735040990706892, 35.163404000210399 ], [ -83.737090991690593, 35.159705999979231 ], [ -83.738128991657533, 35.155950000769174 ], [ -83.739677991250119, 35.15609500049284 ], [ -83.740813991704655, 35.158175000077648 ], [ -83.745493991162036, 35.160659000778111 ], [ -83.752742991541197, 35.160836000403862 ], [ -83.75591999121032, 35.157202000692187 ], [ -83.760924990978353, 35.156748999930329 ], [ -83.764792990913222, 35.155467000265617 ], [ -83.767906991762061, 35.157019000701546 ], [ -83.772766990772169, 35.155913000601231 ], [ -83.776770991407972, 35.152468000366483 ], [ -83.77834099132555, 35.149950999906252 ], [ -83.785020990918042, 35.147790000715695 ], [ -83.787199991589929, 35.14842100044315 ], [ -83.791390991665679, 35.147114000636641 ], [ -83.794825991559009, 35.148062000427281 ], [ -83.797118991143904, 35.144922999955206 ], [ -83.806616990711106, 35.144064999960172 ], [ -83.808104990730968, 35.141648000447617 ], [ -83.812706991299237, 35.141198000106087 ], [ -83.817781991464869, 35.138838000516841 ], [ -83.821362991078018, 35.139050000055668 ], [ -83.823596991491044, 35.140173999913699 ], [ -83.832855990994958, 35.140570000192362 ], [ -83.834617991630196, 35.142890999981709 ], [ -83.840732991147476, 35.143841000316343 ], [ -83.845255991362009, 35.141148999964507 ], [ -83.850104991361164, 35.140879000777716 ], [ -83.856182991070483, 35.137410000728231 ], [ -83.857726991366619, 35.140293000245265 ], [ -83.859548991480494, 35.1470310004269 ], [ -83.861556990940016, 35.149531000610025 ], [ -83.861680991034092, 35.154016000112463 ], [ -83.864515990988892, 35.15621300013062 ], [ -83.862455991350913, 35.160312000241028 ], [ -83.86300599089661, 35.162349999928949 ], [ -83.86589899152348, 35.165692000197943 ], [ -83.866181991414422, 35.169637000551063 ], [ -83.870037991043205, 35.170081000411159 ], [ -83.870952991068293, 35.169419000744938 ], [ -83.870792991362421, 35.168084000478274 ], [ -83.874901990885917, 35.167446999920045 ], [ -83.875165991605584, 35.170111000088937 ], [ -83.879479991758728, 35.172668000565572 ], [ -83.880455991315586, 35.175471000649445 ], [ -83.881746991701561, 35.175498000246954 ], [ -83.883412991267647, 35.176900000729354 ], [ -83.887876991242479, 35.177704000063876 ] ] ] } },
{ "type": "Feature", "properties": { "county": "CHEROKEE", "precinct": "BRAS", "enr_desc": "Brasstown", "winner": "Jeannie Gaddis", "winner_votes": 111, "winner_share": 56.060606060606055, "runner_up": "David Ricks", "runner_up_votes": 87, "runner_up_share": 43.939393939393938, "contest_votes": 198, "margin_of_victory": 12.121212121212118, "is_tie": false, "results": [ { "candidate": "Jeannie Gaddis", "votes": 111, "share": 56.060606060606055 }, { "candidate": "David Ricks", "votes": 87, "share": 43.93939393939394 } ], "participated": true, "map_key": "CHEROKEE_BRAS" }, "geometry": { "type": "Polygon", "coordinates": [ [ [ -84.004594991435241, 34.994132000422731 ], [ -84.014572991703162, 34.99591099994462 ], [ -84.018002991219163, 34.998534999951204 ], [ -84.02072799096922, 34.998156999971087 ], [ -84.022595990912549, 34.999210000079891 ], [ -84.02477899123862, 34.999102000126854 ], [ -84.027646990766002, 35.001766000220144 ], [ -84.029752991302459, 35.002490999955057 ], [ -84.030613991799143, 35.005014000322006 ], [ -84.03279599156042, 35.0061870003873 ], [ -84.039399991037712, 35.005522000766419 ], [ -84.044219991285601, 35.006036000335357 ], [ -84.044945990932632, 35.00834000071027 ], [ -84.04458799102683, 35.012168999961474 ], [ -84.047049991329885, 35.013709000073412 ], [ -84.046559991103535, 35.015760999971988 ], [ -84.049030990862477, 35.018043000116748 ], [ -84.050331990858894, 35.018180000354775 ], [ -84.050557990860995, 35.019175000775142 ], [ -84.049683991416444, 35.019667000667745 ], [ -84.050044990850807, 35.021732000784226 ], [ -84.049091991762097, 35.022473000257996 ], [ -84.052937991078096, 35.026226000712164 ], [ -84.051400991168464, 35.029775000102845 ], [ -84.049315991673211, 35.029967000763989 ], [ -84.041819990763315, 35.037721000491054 ], [ -84.032619991582706, 35.044437999934615 ], [ -84.029394991550674, 35.052072000214324 ], [ -84.024217990848499, 35.053601000789634 ], [ -84.022906990890732, 35.0520820004566 ], [ -84.022770991614408, 35.049446000109086 ], [ -84.021213991424347, 35.046241000522095 ], [ -84.022386991541225, 35.040844000241655 ], [ -84.026991990933695, 35.03791800072409 ], [ -84.024097991432654, 35.035842000183223 ], [ -84.018268990882987, 35.037674000755587 ], [ -84.017316991589084, 35.040062000165243 ], [ -84.015284990812688, 35.042105000428009 ], [ -84.003330991468161, 35.04539600070828 ], [ -83.999742990875461, 35.044947000665594 ], [ -83.996111990792585, 35.046586000105656 ], [ -83.982225991401265, 35.047938000099961 ], [ -83.977399991183944, 35.047339000456816 ], [ -83.975867991126549, 35.048248000661317 ], [ -83.966058990871886, 35.044119000194172 ], [ -83.959391991683447, 35.040316000099054 ], [ -83.959560991068329, 35.038826000155758 ], [ -83.958405991680664, 35.038886000128372 ], [ -83.958691990822388, 35.035300000694605 ], [ -83.960713991012739, 35.03087399993349 ], [ -83.957615991821015, 35.028812000463802 ], [ -83.956505991663008, 35.026279000091726 ], [ -83.958999991172462, 35.024787000577376 ], [ -83.964516991635506, 35.018602000737069 ], [ -83.96830999182329, 35.017943000591067 ], [ -83.970308990983739, 35.015738000476702 ], [ -83.97169699133444, 35.015347000341592 ], [ -83.972569991247795, 35.01441300044025 ], [ -83.971300990951065, 35.012353000439781 ], [ -83.979939990893513, 35.00579600080296 ], [ -83.983890991459575, 35.0050059999203 ], [ -83.992624991166068, 34.999320999918048 ], [ -83.995580990938748, 34.99872100076491 ], [ -83.999295991020531, 34.996088000001791 ], [ -84.002711991546292, 34.996020000212489 ], [ -84.004594991435241, 34.994132000422731 ] ] ] } },
{ "type": "Feature", "properties": { "county": "CHEROKEE", "precinct": "CSON", "enr_desc": "Culberson", "winner": "Jeannie Gaddis", "winner_votes": 112, "winner_share": 57.731958762886592, "runner_up": "David Ricks", "runner_up_votes": 82, "runner_up_share": 42.268041237113401, "contest_votes": 194, "margin_of_victory": 15.463917525773191, "is_tie": false, "results": [ { "candidate": "Jeannie Gaddis", "votes": 112, "share": 57.73195876288659 }, { "candidate": "David Ricks", "votes": 82, "share": 42.2680412371134 } ], "participated": true, "map_key": "CHEROKEE_CSON" }, "geometry": { "type": "Polygon", "coordinates": [ [ [ -84.102207991565209, 35.006523000736983 ], [ -84.099577991360988, 35.001456000680243 ], [ -84.093167991146473, 35.000892000441425 ], [ -84.089099990767821, 34.996486000292769 ], [ -84.089143991156547, 34.995053000318364 ], [ -84.097415991215641, 34.994859000551571 ], [ -84.100374991176736, 34.992561000196247 ], [ -84.100011990917253, 34.990651000627714 ], [ -84.096714991202631, 34.987424000653995 ], [ -84.215981991018324, 34.987876000306294 ], [ -84.217079991275654, 34.992471000781528 ], [ -84.220139990915143, 34.995998000776503 ], [ -84.221733991525724, 35.00145800022041 ], [ -84.224949991149117, 35.00517700052233 ], [ -84.224712991775874, 35.00691300037866 ], [ -84.22597899175021, 35.009609000391755 ], [ -84.222008991441285, 35.01414200067245 ], [ -84.217987991693917, 35.015546000459715 ], [ -84.21478799135005, 35.014812000043378 ], [ -84.201724991436947, 35.021954000648627 ], [ -84.19835199111121, 35.022212000547917 ], [ -84.197853991653432, 35.02348800041154 ], [ -84.195912991669275, 35.022187000681647 ], [ -84.194073990800462, 35.023334000702718 ], [ -84.190229991557359, 35.023817000391929 ], [ -84.185891990897318, 35.028305000608185 ], [ -84.18064699136572, 35.029605000739004 ], [ -84.170334991413839, 35.034194000253841 ], [ -84.164904991637258, 35.034677000311547 ], [ -84.162736991742889, 35.038434000125037 ], [ -84.162817991115375, 35.040090000005158 ], [ -84.160893991790061, 35.038402000217296 ], [ -84.154074991306686, 35.036887000514952 ], [ -84.151706991347837, 35.033113000213127 ], [ -84.160764990963926, 35.02892600034 ], [ -84.172646991263562, 35.021926000405401 ], [ -84.167971990958165, 35.018636000209717 ], [ -84.166087990886524, 35.015606999952709 ], [ -84.168218990856317, 35.013026000034742 ], [ -84.167577991042421, 35.010441000243347 ], [ -84.166561991116467, 35.009831000061169 ], [ -84.164209991089848, 35.009406000787891 ], [ -84.163203991379191, 35.011362000297325 ], [ -84.160749991400365, 35.012007000722328 ], [ -84.157861991673059, 35.011208000506045 ], [ -84.156297991230403, 35.00954200020427 ], [ -84.151932990778789, 35.010523000558905 ], [ -84.15071099130337, 35.011658000799635 ], [ -84.147214990813708, 35.012044000301728 ], [ -84.145203991506634, 35.013308000037263 ], [ -84.144598991528255, 35.015370000754771 ], [ -84.142957990905998, 35.011930000669977 ], [ -84.141315991768579, 35.011816000250128 ], [ -84.138489991611877, 35.008206000760801 ], [ -84.13953399172054, 35.005765000152451 ], [ -84.142972991266134, 35.004461000737294 ], [ -84.142191991304657, 35.003784000237552 ], [ -84.140790991243094, 35.004157000133652 ], [ -84.139902991402778, 35.002017000290586 ], [ -84.132993991718067, 35.005453000674891 ], [ -84.127904991754193, 35.010197000692678 ], [ -84.128380991112991, 35.008979000568701 ], [ -84.125889991473258, 35.006687000771628 ], [ -84.122943991560348, 35.008242999940435 ], [ -84.121703991562043, 35.007455000096819 ], [ -84.118990991088552, 35.007372000574215 ], [ -84.117536991729736, 35.003978000545978 ], [ -84.116658991362442, 35.004061000416229 ], [ -84.114155991725752, 35.001942000003417 ], [ -84.113880991232463, 35.003740000039549 ], [ -84.115997991507584, 35.007392000794169 ], [ -84.113366991546556, 35.009736000432419 ], [ -84.108476991476081, 35.00975300028032 ], [ -84.102207991565209, 35.006523000736983 ] ] ] } },
{ "type": "Feature", "properties": { "county": "CHEROKEE", "precinct": "GCRK", "enr_desc": "Grape Creek", "winner": "Jeannie Gaddis", "winner_votes": 81, "winner_share": 65.853658536585371, "runner_up": "David Ricks", "runner_up_votes": 42, "runner_up_share": 34.146341463414636, "contest_votes": 123, "margin_of_victory": 31.707317073170735, "is_tie": false, "results": [ { "candidate": "Jeannie Gaddis", "votes": 81, "share": 65.85365853658537 }, { "candidate": "David Ricks", "votes": 42, "share": 34.146341463414636 } ], "participated": true, "map_key": "CHEROKEE_GCRK" }, "geometry": { "type": "Polygon", "coordinates": [ [ [ -84.075966991270803, 35.090500000082649 ], [ -84.081216991747667, 35.091745000216477 ], [ -84.082988991647127, 35.090071000263741 ], [ -84.084397991409915, 35.085249000459889 ], [ -84.087759990720983, 35.084176000374768 ], [ -84.092236991274518, 35.084976000113564 ], [ -84.097982991632591, 35.093653000072514 ], [ -84.109943990871145, 35.099776000233923 ], [ -84.115726991328884, 35.102037000680141 ], [ -84.118765991812793, 35.107113000694021 ], [ -84.124912991804692, 35.112862000697945 ], [ -84.12711899136275, 35.116784000807897 ], [ -84.131963991266659, 35.118607000738827 ], [ -84.131090991076945, 35.123196000357183 ], [ -84.133584990930544, 35.126693000380143 ], [ -84.135886991010523, 35.125541000128877 ], [ -84.139980990867343, 35.116750000345448 ], [ -84.137347991120748, 35.109669000213259 ], [ -84.144930991511885, 35.109871000537851 ], [ -84.148167990814997, 35.106787000521557 ], [ -84.151249991797826, 35.10594200060973 ], [ -84.153331990703805, 35.107204000158077 ], [ -84.154388990715333, 35.110138000211791 ], [ -84.159756991199856, 35.111266000111584 ], [ -84.163887990742339, 35.120328000165955 ], [ -84.163163991003628, 35.122435000631882 ], [ -84.163425991160793, 35.127022000674017 ], [ -84.168301991703601, 35.127085000754533 ], [ -84.173244991223683, 35.128034999980613 ], [ -84.175329991586324, 35.129300000629925 ], [ -84.173898991432665, 35.131712000638331 ], [ -84.171175991075188, 35.133793999971573 ], [ -84.169420991159726, 35.137901000811098 ], [ -84.162184991237623, 35.136684000165431 ], [ -84.159654991298737, 35.138435999959178 ], [ -84.154435991704119, 35.134924000172212 ], [ -84.15533199094277, 35.136699000489124 ], [ -84.154749991315995, 35.137560000771458 ], [ -84.155564991353572, 35.138427000184791 ], [ -84.152282991610164, 35.139638000646038 ], [ -84.147793991609561, 35.13688300049018 ], [ -84.146421991298894, 35.136952000812023 ], [ -84.149081991625678, 35.140036000670364 ], [ -84.148820991581914, 35.141043000622297 ], [ -84.149877991298581, 35.141284000384459 ], [ -84.148279990942044, 35.142340000191084 ], [ -84.144568991344954, 35.137491000401383 ], [ -84.140630991271735, 35.134441000743557 ], [ -84.135229990997942, 35.133173000587838 ], [ -84.133626990936207, 35.130652000655751 ], [ -84.130663991806372, 35.129471000693449 ], [ -84.128311991166569, 35.129561000452753 ], [ -84.12370299078303, 35.125734000794452 ], [ -84.119123990753877, 35.123898000459178 ], [ -84.118232991577045, 35.124230000732695 ], [ -84.117582991094821, 35.12595699998068 ], [ -84.115932991794438, 35.125534000515621 ], [ -84.111634991803513, 35.127565000425186 ], [ -84.110639991653969, 35.129142000580487 ], [ -84.107739991460619, 35.130930000150684 ], [ -84.107017991052444, 35.132920000625958 ], [ -84.103832991491288, 35.128785000466536 ], [ -84.102321990853653, 35.128447000748245 ], [ -84.100930991773836, 35.129203000660162 ], [ -84.099004991691615, 35.131349000626962 ], [ -84.099498991226184, 35.134795000269563 ], [ -84.101341990713877, 35.136569000238069 ], [ -84.099871991133355, 35.139882000288011 ], [ -84.100253991144143, 35.141538000203042 ], [ -84.104752991201309, 35.144632999956187 ], [ -84.105331991268386, 35.1456630006141 ], [ -84.104578991352909, 35.146780000738076 ], [ -84.108348991442625, 35.151961000300908 ], [ -84.108892991627243, 35.155773000018314 ], [ -84.113838991712768, 35.160431000556613 ], [ -84.115353991340172, 35.164475000127005 ], [ -84.115159991538732, 35.165362999997662 ], [ -84.112656990897804, 35.166403999949267 ], [ -84.110170991311833, 35.168884000450092 ], [ -84.109949990828881, 35.170767000518914 ], [ -84.105099991518387, 35.172810999917708 ], [ -84.10066199115704, 35.170908000012389 ], [ -84.090311991064667, 35.160154000685615 ], [ -84.08345099078069, 35.157464000527604 ], [ -84.08304199171512, 35.155906999928291 ], [ -84.08124999097501, 35.155104999966795 ], [ -84.078002990750434, 35.155580000021779 ], [ -84.07369199173705, 35.154828000777506 ], [ -84.073693991786342, 35.152985000299807 ], [ -84.071364991705423, 35.149963000413088 ], [ -84.06603899123958, 35.149259000365497 ], [ -84.069610991154491, 35.144446000343954 ], [ -84.069671991314166, 35.142352000454395 ], [ -84.070734990730202, 35.141237000352149 ], [ -84.070666990988599, 35.138637000738733 ], [ -84.073135991649735, 35.139081000767085 ], [ -84.072540991163763, 35.142270000055525 ], [ -84.073892991643348, 35.143644000320585 ], [ -84.07591399143783, 35.143994000285325 ], [ -84.075192991590399, 35.141610999932517 ], [ -84.076260991212934, 35.138807000301433 ], [ -84.076046991221617, 35.134956000147398 ], [ -84.073952991664981, 35.134719000060045 ], [ -84.067021991135576, 35.131208000219161 ], [ -84.067615991646448, 35.130088000454862 ], [ -84.069121991084444, 35.129807000150421 ], [ -84.069990990919621, 35.130197000407819 ], [ -84.072023991416984, 35.129130000208605 ], [ -84.073931990859563, 35.125674000205869 ], [ -84.070725991151349, 35.123340000518247 ], [ -84.065819990990121, 35.117899000128304 ], [ -84.065494990884901, 35.11617700064334 ], [ -84.068155991534354, 35.111470000491728 ], [ -84.070543991698273, 35.11076500057478 ], [ -84.071730991477082, 35.108354000189514 ], [ -84.075161991538735, 35.1075280007232 ], [ -84.075133990774518, 35.104449000410213 ], [ -84.077952990956533, 35.103235000538071 ], [ -84.077384991095073, 35.100981000345911 ], [ -84.074316991611909, 35.096639000327279 ], [ -84.074104991170501, 35.093216000129139 ], [ -84.076337991351835, 35.091091000812611 ], [ -84.075966991270803, 35.090500000082649 ] ] ] } },
{ "type": "Feature", "properties": { "county": "CHEROKEE", "precinct": "HANG", "enr_desc": "Hanging Dog", "winner": "Jeannie Gaddis", "winner_votes": 138, "winner_share": 66.666666666666657, "runner_up": "David Ricks", "runner_up_votes": 69, "runner_up_share": 33.333333333333329, "contest_votes": 207, "margin_of_victory": 33.333333333333329, "is_tie": false, "results": [ { "candidate": "Jeannie Gaddis", "votes": 138, "share": 66.66666666666666 }, { "candidate": "David Ricks", "votes": 69, "share": 33.33333333333333 } ], "participated": true, "map_key": "CHEROKEE_HANG" }, "geometry": { "type": "Polygon", "coordinates": [ [ [ -84.109949990828881, 35.170767000518914 ], [ -84.109838991156394, 35.171851000466759 ], [ -84.106830991110783, 35.174165000182704 ], [ -84.103742991385488, 35.175511000800448 ], [ -84.102161991286792, 35.178024000686044 ], [ -84.101989991755204, 35.181778000630203 ], [ -84.097457991756812, 35.185960000230651 ], [ -84.092727991033343, 35.187106000202149 ], [ -84.08782399173316, 35.190770000467893 ], [ -84.08663299103344, 35.192574000702848 ], [ -84.084345991277118, 35.19321200024455 ], [ -84.079323990831938, 35.190876000417255 ], [ -84.077660991389024, 35.190871000757575 ], [ -84.076110990892147, 35.188877000825215 ], [ -84.072884991036446, 35.188557000626858 ], [ -84.071969990856417, 35.189745000085431 ], [ -84.071233991425572, 35.194540000551285 ], [ -84.067885991617089, 35.198383000012079 ], [ -84.067367991433287, 35.206875000048733 ], [ -84.065963991467186, 35.209827000440399 ], [ -84.070010991430379, 35.214410000783978 ], [ -84.066297991353139, 35.217478000804689 ], [ -84.063736991332277, 35.217785000277104 ], [ -84.062415991273497, 35.219664000142089 ], [ -84.064043991046404, 35.221039000052336 ], [ -84.065274991570448, 35.224065000570228 ], [ -84.066735991415328, 35.224919000296985 ], [ -84.064573991547334, 35.227143000507063 ], [ -84.065342991484499, 35.229264000638892 ], [ -84.062407991426468, 35.229666999923261 ], [ -84.062151991493465, 35.230994000702061 ], [ -84.063032991139579, 35.231817000655667 ], [ -84.060609991677012, 35.232269000430612 ], [ -84.059251991587445, 35.23371300017012 ], [ -84.059595991567875, 35.235272000236222 ], [ -84.063104990859827, 35.237360000422846 ], [ -84.059245991154228, 35.237685000334608 ], [ -84.063290991538409, 35.238641000382934 ], [ -84.062437991657873, 35.242160000582615 ], [ -84.068833991571339, 35.242660000744436 ], [ -84.072630991333142, 35.244472000424672 ], [ -84.073172991307615, 35.245239000301275 ], [ -84.071808991727465, 35.252864000552087 ], [ -84.074188991138143, 35.257404000242474 ], [ -84.07274199108933, 35.259381000722733 ], [ -84.073895991634259, 35.260296000744091 ], [ -84.080323991046328, 35.261430000310966 ], [ -84.071023991022443, 35.263732000779818 ], [ -84.063399991487643, 35.266712999987483 ], [ -84.058205990950654, 35.26760400011149 ], [ -84.053216991474528, 35.269754000384104 ], [ -84.051007991032307, 35.273338000059489 ], [ -84.046886991625058, 35.274250000383468 ], [ -84.045234991000441, 35.276461000779499 ], [ -84.041056991469475, 35.279335000123702 ], [ -84.039294991615733, 35.284206000709041 ], [ -84.036238991111134, 35.288418000242558 ], [ -84.029066991684601, 35.292248000661829 ], [ -84.028750991645325, 35.290780000086535 ], [ -84.026492991029954, 35.28877400078207 ], [ -84.022528991260771, 35.286913999923399 ], [ -84.020440990717688, 35.282943000040106 ], [ -84.019826990824157, 35.279842000821539 ], [ -84.017359991766938, 35.279172000220193 ], [ -84.016082991216365, 35.277904000252803 ], [ -84.016442991073035, 35.276128000271669 ], [ -84.009647990876857, 35.273062000310517 ], [ -84.011491991648157, 35.263052000694479 ], [ -84.010310990754164, 35.26051700048319 ], [ -84.011014991625316, 35.257164000601939 ], [ -84.005884991199792, 35.253100000400003 ], [ -84.00183199146656, 35.252855000506941 ], [ -84.002397991513291, 35.250829000008302 ], [ -84.000919991525734, 35.249628000506711 ], [ -84.003960990889794, 35.245557000154236 ], [ -84.004596990970796, 35.243417000476803 ], [ -84.006424991017596, 35.241680999971265 ], [ -84.003999991278789, 35.239775000767189 ], [ -84.004006991372336, 35.236505000638324 ], [ -84.002931991095295, 35.235001000617665 ], [ -84.001046991644998, 35.233288000265453 ], [ -83.997756990943074, 35.232185000274704 ], [ -83.990926991779148, 35.231550000406372 ], [ -83.988702991578592, 35.229922000293513 ], [ -83.986226991621749, 35.230841000735438 ], [ -83.983374991288926, 35.229610000796342 ], [ -83.978893991340513, 35.226018000779874 ], [ -83.97736399100117, 35.225622999927474 ], [ -83.977572991352176, 35.224111000225236 ], [ -83.976452990879238, 35.222955999959261 ], [ -83.976342991740552, 35.221527000263798 ], [ -83.967131990925452, 35.217860000668878 ], [ -83.967261991509332, 35.216415000141495 ], [ -83.965030990782395, 35.213386000079737 ], [ -83.964796991587605, 35.211836999965122 ], [ -83.969804991261142, 35.203166999976425 ], [ -83.972407991694638, 35.202319000259898 ], [ -83.971918991744019, 35.19993100044492 ], [ -83.973013991651925, 35.194825000781364 ], [ -83.972468991103042, 35.193767000349894 ], [ -83.974591991325497, 35.19236700048419 ], [ -83.981343991155939, 35.192250000015257 ], [ -83.985119991452549, 35.185308000456651 ], [ -83.989902991176507, 35.180134000583323 ], [ -83.992979991412952, 35.178460000490134 ], [ -83.993054991382408, 35.176236000572558 ], [ -83.992105991067277, 35.174371000569082 ], [ -83.992649990896751, 35.172669000134938 ], [ -83.994434991018295, 35.170631000300403 ], [ -84.000051991071985, 35.16788400034207 ], [ -83.998934991163509, 35.163508000080903 ], [ -84.005303990975051, 35.157429000567411 ], [ -84.004967991727057, 35.156492000724057 ], [ -84.002239991107643, 35.15494300053885 ], [ -84.00265199106336, 35.153576000037454 ], [ -84.007089991146728, 35.152368000813489 ], [ -84.011038990845009, 35.153586000558178 ], [ -84.017327991374245, 35.150846000621364 ], [ -84.020647991425548, 35.151297999958636 ], [ -84.02399499163424, 35.144505000518471 ], [ -84.026037991491066, 35.142282000103137 ], [ -84.029512990944625, 35.141291000607936 ], [ -84.03077699171844, 35.139316000288403 ], [ -84.034255990853836, 35.137562000719967 ], [ -84.036024990811384, 35.139839000453179 ], [ -84.043861991012605, 35.133901000824643 ], [ -84.049768990795585, 35.135638999957635 ], [ -84.053170991737204, 35.135737000168831 ], [ -84.05554999084282, 35.133642000172131 ], [ -84.055846991541529, 35.132301000722066 ], [ -84.058419991267755, 35.131360000670611 ], [ -84.060021991540964, 35.132647000387458 ], [ -84.061909991652684, 35.132906000342324 ], [ -84.061773991409879, 35.13174000041721 ], [ -84.063033990806431, 35.130279000378088 ], [ -84.067801991032837, 35.128752000541013 ], [ -84.069121991084444, 35.129807000150421 ], [ -84.067615991646448, 35.130088000454862 ], [ -84.067021991135576, 35.131208000219161 ], [ -84.073952991664981, 35.134719000060045 ], [ -84.076046991221617, 35.134956000147398 ], [ -84.076260991212934, 35.138807000301433 ], [ -84.075192991590399, 35.141610999932517 ], [ -84.07591399143783, 35.143994000285325 ], [ -84.073892991643348, 35.143644000320585 ], [ -84.072540991163763, 35.142270000055525 ], [ -84.073135991649735, 35.139081000767085 ], [ -84.070666990988599, 35.138637000738733 ], [ -84.070734990730202, 35.141237000352149 ], [ -84.069671991314166, 35.142352000454395 ], [ -84.069610991154491, 35.144446000343954 ], [ -84.06603899123958, 35.149259000365497 ], [ -84.071364991705423, 35.149963000413088 ], [ -84.073693991786342, 35.152985000299807 ], [ -84.07369199173705, 35.154828000777506 ], [ -84.078002990750434, 35.155580000021779 ], [ -84.08124999097501, 35.155104999966795 ], [ -84.08304199171512, 35.155906999928291 ], [ -84.08345099078069, 35.157464000527604 ], [ -84.090311991064667, 35.160154000685615 ], [ -84.10066199115704, 35.170908000012389 ], [ -84.105099991518387, 35.172810999917708 ], [ -84.109949990828881, 35.170767000518914 ] ] ] } },
{ "type": "Feature", "properties": { "county": "CHEROKEE", "precinct": "HIWA", "enr_desc": "Hiwassee Dam", "winner": "David Ricks", "winner_votes": 230, "winner_share": 53.990610328638496, "runner_up": "Jeannie Gaddis", "runner_up_votes": 196, "runner_up_share": 46.009389671361504, "contest_votes": 426, "margin_of_victory": 7.9812206572769924, "is_tie": false, "results": [ { "candidate": "David Ricks", "votes": 230, "share": 53.990610328638496 }, { "candidate": "Jeannie Gaddis", "votes": 196, "share": 46.009389671361504 } ], "participated": true, "map_key": "CHEROKEE_HIWA" }, "geometry": { "type": "Polygon", "coordinates": [ [ [ -84.310865990816012, 35.072564000222151 ], [ -84.298029990739408, 35.168380000460942 ], [ -84.293158991774106, 35.167747000584768 ], [ -84.287310991484219, 35.16584200040478 ], [ -84.277460991364066, 35.165851000113314 ], [ -84.27327399155692, 35.167087000779389 ], [ -84.271229991251218, 35.169953000237065 ], [ -84.266101991769531, 35.170324999991408 ], [ -84.262727991414394, 35.171499000393162 ], [ -84.255907991034945, 35.169445999965532 ], [ -84.255071991514811, 35.170234000405735 ], [ -84.254895991260042, 35.17436900068823 ], [ -84.253117991343004, 35.176258000403486 ], [ -84.249917991723365, 35.177479000301602 ], [ -84.246241990858024, 35.176875000429042 ], [ -84.242615990785239, 35.175048000772463 ], [ -84.241106991626154, 35.172541000364369 ], [ -84.24037099172601, 35.167275000129678 ], [ -84.237999991435373, 35.165519000657071 ], [ -84.23247499088356, 35.163458000424441 ], [ -84.231466991587354, 35.155707000430546 ], [ -84.225393991544124, 35.14883200042015 ], [ -84.222121990881774, 35.147213000814226 ], [ -84.218772991301563, 35.147748000325322 ], [ -84.217470991083133, 35.147095000594256 ], [ -84.213210990760359, 35.142131000402621 ], [ -84.208657991466467, 35.140617000455897 ], [ -84.205093990793742, 35.140571000599408 ], [ -84.203389990990786, 35.141346000407239 ], [ -84.204239991323035, 35.146741000124287 ], [ -84.203230990866274, 35.147355000841991 ], [ -84.200400991471412, 35.147283000096721 ], [ -84.197551991419772, 35.143341000803403 ], [ -84.19542699174329, 35.142608000043154 ], [ -84.1883359913421, 35.145385000653768 ], [ -84.181930991213619, 35.14581500047214 ], [ -84.180118991455757, 35.147275000253444 ], [ -84.178693991633693, 35.150843000481387 ], [ -84.175430991595121, 35.153642000590999 ], [ -84.178832991246622, 35.156798000133598 ], [ -84.180010991224691, 35.16186500069918 ], [ -84.17595699116039, 35.169502000342248 ], [ -84.173572990800466, 35.170197000801551 ], [ -84.16995599155139, 35.167894000305168 ], [ -84.167387991115177, 35.163027000714095 ], [ -84.162557990829413, 35.158878999965815 ], [ -84.162890990849519, 35.155349000654525 ], [ -84.161939991755148, 35.152343000482908 ], [ -84.158529990916364, 35.152354000548733 ], [ -84.150671991062865, 35.149650000678726 ], [ -84.152327990834166, 35.145806000633186 ], [ -84.151258991460224, 35.143107000288943 ], [ -84.151650991590444, 35.141575000522906 ], [ -84.158003990741307, 35.139925000007793 ], [ -84.159654991298737, 35.138435999959178 ], [ -84.162184991237623, 35.136684000165431 ], [ -84.169420991159726, 35.137901000811098 ], [ -84.171175991075188, 35.133793999971573 ], [ -84.173898991432665, 35.131712000638331 ], [ -84.175329991586324, 35.129300000629925 ], [ -84.173244991223683, 35.128034999980613 ], [ -84.168301991703601, 35.127085000754533 ], [ -84.163425991160793, 35.127022000674017 ], [ -84.163163991003628, 35.122435000631882 ], [ -84.163887990742339, 35.120328000165955 ], [ -84.159756991199856, 35.111266000111584 ], [ -84.154388990715333, 35.110138000211791 ], [ -84.153331990703805, 35.107204000158077 ], [ -84.151249991797826, 35.10594200060973 ], [ -84.148167990814997, 35.106787000521557 ], [ -84.144930991511885, 35.109871000537851 ], [ -84.137347991120748, 35.109669000213259 ], [ -84.139980990867343, 35.116750000345448 ], [ -84.135886991010523, 35.125541000128877 ], [ -84.133584990930544, 35.126693000380143 ], [ -84.131090991076945, 35.123196000357183 ], [ -84.131963991266659, 35.118607000738827 ], [ -84.12711899136275, 35.116784000807897 ], [ -84.124912991804692, 35.112862000697945 ], [ -84.118765991812793, 35.107113000694021 ], [ -84.115726991328884, 35.102037000680141 ], [ -84.109943990871145, 35.099776000233923 ], [ -84.110880991372881, 35.097558000401541 ], [ -84.115087990856097, 35.09405600057174 ], [ -84.115118991027217, 35.089708000830974 ], [ -84.119980991217631, 35.085679000511895 ], [ -84.126443991080961, 35.083017000164496 ], [ -84.12415899158168, 35.078878000355644 ], [ -84.124705991184101, 35.076689000141933 ], [ -84.128989990818184, 35.072760000388278 ], [ -84.130996991230717, 35.072634000553705 ], [ -84.132590990812133, 35.070338000502872 ], [ -84.140046991222363, 35.067221000117151 ], [ -84.141250991720298, 35.065999000703023 ], [ -84.140675991190307, 35.06362099997181 ], [ -84.141941991789864, 35.062745000598966 ], [ -84.141975991445605, 35.060908999935698 ], [ -84.144011991804916, 35.057938000783274 ], [ -84.142523991557724, 35.056289000229441 ], [ -84.142270990792426, 35.051442000568869 ], [ -84.143795991328304, 35.045997000166153 ], [ -84.145717990826356, 35.044345000247105 ], [ -84.152160991297364, 35.044332000111787 ], [ -84.15485599107565, 35.043025000421203 ], [ -84.157274991066345, 35.043142000744169 ], [ -84.15988499093335, 35.044377000201912 ], [ -84.162999991675477, 35.042763000618471 ], [ -84.162817991115375, 35.040090000005158 ], [ -84.162736991742889, 35.038434000125037 ], [ -84.164904991637258, 35.034677000311547 ], [ -84.170334991413839, 35.034194000253841 ], [ -84.18064699136572, 35.029605000739004 ], [ -84.185891990897318, 35.028305000608185 ], [ -84.188926991688461, 35.031650000299344 ], [ -84.188067991556593, 35.034680000691125 ], [ -84.19193399079532, 35.03673600005299 ], [ -84.187149991159032, 35.042159000299286 ], [ -84.187166990881764, 35.043858000560093 ], [ -84.192057990880826, 35.045662000516856 ], [ -84.193284990740182, 35.047151000637633 ], [ -84.196798991623993, 35.046838000599728 ], [ -84.197912990821521, 35.047421000679186 ], [ -84.195348990932999, 35.053944000047174 ], [ -84.196773991462251, 35.056197000471563 ], [ -84.199526991152226, 35.057803000616246 ], [ -84.199313991684321, 35.060253000089332 ], [ -84.202222991657337, 35.061729000017344 ], [ -84.211672991207834, 35.061196000115217 ], [ -84.214191991274646, 35.063512000321118 ], [ -84.218136991747329, 35.064859000742388 ], [ -84.219932990923198, 35.066725000331729 ], [ -84.223955991656268, 35.064654000122736 ], [ -84.224971990758959, 35.061688000439318 ], [ -84.228095990927599, 35.057814000790621 ], [ -84.229423991353187, 35.054589000351768 ], [ -84.238151991617016, 35.054509000102001 ], [ -84.241626991333519, 35.051216000497526 ], [ -84.245252990991204, 35.049983000303826 ], [ -84.246176991152922, 35.048372000156789 ], [ -84.246391990746872, 35.043989000452079 ], [ -84.250569991490337, 35.041533000503442 ], [ -84.255041991606021, 35.042814000492967 ], [ -84.25984499084035, 35.042806000694327 ], [ -84.261816991491472, 35.044091000224817 ], [ -84.267244990971562, 35.042341999951326 ], [ -84.273473991198898, 35.043749000055897 ], [ -84.279839991290814, 35.041417000659749 ], [ -84.288141991436547, 35.044056000471485 ], [ -84.286381991024896, 35.050042000811729 ], [ -84.288841991064544, 35.055194000263619 ], [ -84.292942991580844, 35.059697000039492 ], [ -84.296789990841788, 35.06091500037023 ], [ -84.298214991366478, 35.063813000352802 ], [ -84.30327399129871, 35.065479000205578 ], [ -84.302328991049862, 35.067438000161751 ], [ -84.303037991412396, 35.069606000148951 ], [ -84.307996991029626, 35.070629000785736 ], [ -84.310865990816012, 35.072564000222151 ] ] ] } },
{ "type": "Feature", "properties": { "county": "CHEROKEE", "precinct": "HOTH", "enr_desc": "Hot House", "winner": "Jeannie Gaddis", "winner_votes": 154, "winner_share": 54.416961130742045, "runner_up": "David Ricks", "runner_up_votes": 129, "runner_up_share": 45.583038869257955, "contest_votes": 283, "margin_of_victory": 8.8339222614840907, "is_tie": false, "results": [ { "candidate": "Jeannie Gaddis", "votes": 154, "share": 54.416961130742045 }, { "candidate": "David Ricks", "votes": 129, "share": 45.583038869257955 } ], "participated": true, "map_key": "CHEROKEE_HOTH" }, "geometry": { "type": "Polygon", "coordinates": [ [ [ -84.310865990816012, 35.072564000222151 ], [ -84.307996991029626, 35.070629000785736 ], [ -84.303037991412396, 35.069606000148951 ], [ -84.302328991049862, 35.067438000161751 ], [ -84.30327399129871, 35.065479000205578 ], [ -84.298214991366478, 35.063813000352802 ], [ -84.296789990841788, 35.06091500037023 ], [ -84.292942991580844, 35.059697000039492 ], [ -84.288841991064544, 35.055194000263619 ], [ -84.286381991024896, 35.050042000811729 ], [ -84.288141991436547, 35.044056000471485 ], [ -84.279839991290814, 35.041417000659749 ], [ -84.273473991198898, 35.043749000055897 ], [ -84.267244990971562, 35.042341999951326 ], [ -84.261816991491472, 35.044091000224817 ], [ -84.25984499084035, 35.042806000694327 ], [ -84.255041991606021, 35.042814000492967 ], [ -84.250569991490337, 35.041533000503442 ], [ -84.246391990746872, 35.043989000452079 ], [ -84.246176991152922, 35.048372000156789 ], [ -84.245252990991204, 35.049983000303826 ], [ -84.241626991333519, 35.051216000497526 ], [ -84.238151991617016, 35.054509000102001 ], [ -84.229423991353187, 35.054589000351768 ], [ -84.228095990927599, 35.057814000790621 ], [ -84.224971990758959, 35.061688000439318 ], [ -84.223955991656268, 35.064654000122736 ], [ -84.219932990923198, 35.066725000331729 ], [ -84.218136991747329, 35.064859000742388 ], [ -84.214191991274646, 35.063512000321118 ], [ -84.211672991207834, 35.061196000115217 ], [ -84.202222991657337, 35.061729000017344 ], [ -84.199313991684321, 35.060253000089332 ], [ -84.199526991152226, 35.057803000616246 ], [ -84.196773991462251, 35.056197000471563 ], [ -84.195348990932999, 35.053944000047174 ], [ -84.197912990821521, 35.047421000679186 ], [ -84.196798991623993, 35.046838000599728 ], [ -84.193284990740182, 35.047151000637633 ], [ -84.192057990880826, 35.045662000516856 ], [ -84.187166990881764, 35.043858000560093 ], [ -84.187149991159032, 35.042159000299286 ], [ -84.19193399079532, 35.03673600005299 ], [ -84.188067991556593, 35.034680000691125 ], [ -84.188926991688461, 35.031650000299344 ], [ -84.185891990897318, 35.028305000608185 ], [ -84.190229991557359, 35.023817000391929 ], [ -84.194073990800462, 35.023334000702718 ], [ -84.195912991669275, 35.022187000681647 ], [ -84.197853991653432, 35.02348800041154 ], [ -84.19835199111121, 35.022212000547917 ], [ -84.201724991436947, 35.021954000648627 ], [ -84.21478799135005, 35.014812000043378 ], [ -84.217987991693917, 35.015546000459715 ], [ -84.222008991441285, 35.01414200067245 ], [ -84.22597899175021, 35.009609000391755 ], [ -84.224712991775874, 35.00691300037866 ], [ -84.224949991149117, 35.00517700052233 ], [ -84.221733991525724, 35.00145800022041 ], [ -84.220139990915143, 34.995998000776503 ], [ -84.217079991275654, 34.992471000781528 ], [ -84.215981991018324, 34.987876000306294 ], [ -84.321820991470403, 34.988408000605659 ], [ -84.310865990816012, 35.072564000222151 ] ] ] } },
{ "type": "Feature", "properties": { "county": "CHEROKEE", "precinct": "MARB", "enr_desc": "Marble", "winner": "David Ricks", "winner_votes": 179, "winner_share": 68.582375478927204, "runner_up": "Jeannie Gaddis", "runner_up_votes": 82, "runner_up_share": 31.417624521072796, "contest_votes": 261, "margin_of_victory": 37.164750957854409, "is_tie": false, "results": [ { "candidate": "David Ricks", "votes": 179, "share": 68.5823754789272 }, { "candidate": "Jeannie Gaddis", "votes": 82, "share": 31.417624521072796 } ], "participated": true, "map_key": "CHEROKEE_MARB" }, "geometry": { "type": "Polygon", "coordinates": [ [ [ -83.972468991103042, 35.193767000349894 ], [ -83.973013991651925, 35.194825000781364 ], [ -83.971918991744019, 35.19993100044492 ], [ -83.972407991694638, 35.202319000259898 ], [ -83.969804991261142, 35.203166999976425 ], [ -83.964796991587605, 35.211836999965122 ], [ -83.965030990782395, 35.213386000079737 ], [ -83.967261991509332, 35.216415000141495 ], [ -83.967131990925452, 35.217860000668878 ], [ -83.963870991055614, 35.218401000609575 ], [ -83.959035991046761, 35.216912000033979 ], [ -83.956934990955915, 35.218463000427519 ], [ -83.957322991335587, 35.220372000081717 ], [ -83.95463199150592, 35.219727000512805 ], [ -83.950463991223188, 35.220994000457367 ], [ -83.945384991540209, 35.219830000208098 ], [ -83.942806991378831, 35.220611000481227 ], [ -83.943437991191843, 35.222549000619701 ], [ -83.938414991254504, 35.222163000376121 ], [ -83.934123990865075, 35.223043000517293 ], [ -83.926008991309416, 35.228013000397127 ], [ -83.91935899103548, 35.229100000601896 ], [ -83.909202991580599, 35.233549000681244 ], [ -83.907039991721319, 35.233531000106971 ], [ -83.906265991751866, 35.23482800002072 ], [ -83.903404991174924, 35.235380000660761 ], [ -83.901853991730121, 35.237240999895462 ], [ -83.902210991774894, 35.237932000490673 ], [ -83.901093991788855, 35.238482000568986 ], [ -83.896248990901711, 35.235876000216614 ], [ -83.893564991613516, 35.233351000575432 ], [ -83.89303399163407, 35.228438000307676 ], [ -83.89387099098424, 35.225237000173863 ], [ -83.892304991008729, 35.220157999977147 ], [ -83.892480991179511, 35.217945000673687 ], [ -83.887612991798207, 35.21370700055396 ], [ -83.888305991272901, 35.211629000197959 ], [ -83.887951991556733, 35.207858000468363 ], [ -83.886940990793505, 35.206815000331531 ], [ -83.88594099130249, 35.202446000131253 ], [ -83.881847991510654, 35.197184000154216 ], [ -83.883048990947216, 35.192177000126655 ], [ -83.881976991431927, 35.191007999903 ], [ -83.887761991100945, 35.189395000375825 ], [ -83.885797990995712, 35.183865000013768 ], [ -83.888139990896505, 35.18433300002463 ], [ -83.89158599125895, 35.181320000696211 ], [ -83.88993099160605, 35.178815000075552 ], [ -83.887876991242479, 35.177704000063876 ], [ -83.883412991267647, 35.176900000729354 ], [ -83.881746991701561, 35.175498000246954 ], [ -83.880455991315586, 35.175471000649445 ], [ -83.879479991758728, 35.172668000565572 ], [ -83.875165991605584, 35.170111000088937 ], [ -83.874901990885917, 35.167446999920045 ], [ -83.870792991362421, 35.168084000478274 ], [ -83.870952991068293, 35.169419000744938 ], [ -83.870037991043205, 35.170081000411159 ], [ -83.866181991414422, 35.169637000551063 ], [ -83.86589899152348, 35.165692000197943 ], [ -83.86300599089661, 35.162349999928949 ], [ -83.862455991350913, 35.160312000241028 ], [ -83.864515990988892, 35.15621300013062 ], [ -83.861680991034092, 35.154016000112463 ], [ -83.861556990940016, 35.149531000610025 ], [ -83.859548991480494, 35.1470310004269 ], [ -83.857726991366619, 35.140293000245265 ], [ -83.856182991070483, 35.137410000728231 ], [ -83.857123991008748, 35.137066000391265 ], [ -83.857698991681701, 35.135473000592576 ], [ -83.862750990898917, 35.132447000069519 ], [ -83.868250991139575, 35.136359000268428 ], [ -83.878028991703573, 35.133059000560387 ], [ -83.88298999108369, 35.13439300049285 ], [ -83.883822991146118, 35.133868999962374 ], [ -83.890229990901886, 35.134871000695661 ], [ -83.895373991288693, 35.132775000077778 ], [ -83.901552990854412, 35.13290900025644 ], [ -83.910258991397342, 35.128977000146179 ], [ -83.920093991570084, 35.127910000678519 ], [ -83.920889991081324, 35.128024000491934 ], [ -83.923135991283871, 35.133678000691468 ], [ -83.925309991671185, 35.13374900009827 ], [ -83.924323991210414, 35.135768000352122 ], [ -83.926008991603709, 35.137032000528507 ], [ -83.92505399090858, 35.140067000331342 ], [ -83.926589991168456, 35.139542000597729 ], [ -83.927558991664412, 35.139922000476489 ], [ -83.929434991762932, 35.138662000738734 ], [ -83.93044399116846, 35.140064000530536 ], [ -83.934706991098423, 35.141744000212647 ], [ -83.93425199165597, 35.143605000254311 ], [ -83.935560991084543, 35.145270000115438 ], [ -83.934202991603229, 35.146407000597378 ], [ -83.931754991661066, 35.151204000141007 ], [ -83.936272991004316, 35.153608999981358 ], [ -83.944038990991885, 35.155127000176151 ], [ -83.946333991408707, 35.154815000459088 ], [ -83.945184991216564, 35.157130000145521 ], [ -83.94164699078776, 35.159090000057333 ], [ -83.940930991204169, 35.161566999925078 ], [ -83.94562399123393, 35.15840200020692 ], [ -83.949219991214534, 35.157597999955335 ], [ -83.952996990770856, 35.162729000685673 ], [ -83.95198399144779, 35.164229000430495 ], [ -83.953917991061417, 35.167935000162259 ], [ -83.953205991403223, 35.168720000704134 ], [ -83.953705991123471, 35.170749000008236 ], [ -83.952196991588664, 35.172999000078981 ], [ -83.954994991737564, 35.177088000528066 ], [ -83.954169991626785, 35.178926000596519 ], [ -83.955889991141547, 35.183178000010557 ], [ -83.953297991400106, 35.186406999917267 ], [ -83.954787991563535, 35.187976000572853 ], [ -83.959879991486687, 35.190291000509056 ], [ -83.962464991615533, 35.189769000764294 ], [ -83.964698991668115, 35.19110399993 ], [ -83.967457990867857, 35.190127000151385 ], [ -83.969824991788627, 35.190572000303924 ], [ -83.972468991103042, 35.193767000349894 ] ] ] } },
{ "type": "Feature", "properties": { "county": "CHEROKEE", "precinct": "MURN", "enr_desc": "Murphy North", "winner": "Jeannie Gaddis", "winner_votes": 232, "winner_share": 54.846335697399532, "runner_up": "David Ricks", "runner_up_votes": 191, "runner_up_share": 45.153664302600468, "contest_votes": 423, "margin_of_victory": 9.6926713947990635, "is_tie": false, "results": [ { "candidate": "Jeannie Gaddis", "votes": 232, "share": 54.84633569739953 }, { "candidate": "David Ricks", "votes": 191, "share": 45.15366430260047 } ], "participated": true, "map_key": "CHEROKEE_MURN" }, "geometry": { "type": "Polygon", "coordinates": [ [ [ -84.075637991659278, 35.049170000481034 ], [ -84.081967991060367, 35.044529000747993 ], [ -84.084868991687401, 35.047764000471382 ], [ -84.084751991664405, 35.04915800053935 ], [ -84.086456991282972, 35.051156000707493 ], [ -84.072487991268872, 35.063896000682007 ], [ -84.071078990771255, 35.068960000533373 ], [ -84.07093299135795, 35.071799000375172 ], [ -84.076402991531936, 35.080280000000535 ], [ -84.076789991579233, 35.082153000183155 ], [ -84.076317990917502, 35.082910000008951 ], [ -84.070834991057112, 35.083883000383295 ], [ -84.070985991824514, 35.085771000602989 ], [ -84.075966991270803, 35.090500000082649 ], [ -84.076337991351835, 35.091091000812611 ], [ -84.074104991170501, 35.093216000129139 ], [ -84.074316991611909, 35.096639000327279 ], [ -84.077384991095073, 35.100981000345911 ], [ -84.077952990956533, 35.103235000538071 ], [ -84.075133990774518, 35.104449000410213 ], [ -84.075161991538735, 35.1075280007232 ], [ -84.071730991477082, 35.108354000189514 ], [ -84.070543991698273, 35.11076500057478 ], [ -84.068155991534354, 35.111470000491728 ], [ -84.065494990884901, 35.11617700064334 ], [ -84.065819990990121, 35.117899000128304 ], [ -84.070725991151349, 35.123340000518247 ], [ -84.073931990859563, 35.125674000205869 ], [ -84.072023991416984, 35.129130000208605 ], [ -84.069990990919621, 35.130197000407819 ], [ -84.069121991084444, 35.129807000150421 ], [ -84.067801991032837, 35.128752000541013 ], [ -84.063033990806431, 35.130279000378088 ], [ -84.061773991409879, 35.13174000041721 ], [ -84.061909991652684, 35.132906000342324 ], [ -84.060021991540964, 35.132647000387458 ], [ -84.058419991267755, 35.131360000670611 ], [ -84.055846991541529, 35.132301000722066 ], [ -84.05554999084282, 35.133642000172131 ], [ -84.053170991737204, 35.135737000168831 ], [ -84.049768990795585, 35.135638999957635 ], [ -84.043861991012605, 35.133901000824643 ], [ -84.036024990811384, 35.139839000453179 ], [ -84.034255990853836, 35.137562000719967 ], [ -84.03077699171844, 35.139316000288403 ], [ -84.029512990944625, 35.141291000607936 ], [ -84.026037991491066, 35.142282000103137 ], [ -84.02399499163424, 35.144505000518471 ], [ -84.020647991425548, 35.151297999958636 ], [ -84.017327991374245, 35.150846000621364 ], [ -84.011038990845009, 35.153586000558178 ], [ -84.007089991146728, 35.152368000813489 ], [ -84.00265199106336, 35.153576000037454 ], [ -84.002239991107643, 35.15494300053885 ], [ -84.004967991727057, 35.156492000724057 ], [ -84.005303990975051, 35.157429000567411 ], [ -83.998934991163509, 35.163508000080903 ], [ -84.000051991071985, 35.16788400034207 ], [ -83.994434991018295, 35.170631000300403 ], [ -83.992649990896751, 35.172669000134938 ], [ -83.992105991067277, 35.174371000569082 ], [ -83.993054991382408, 35.176236000572558 ], [ -83.992979991412952, 35.178460000490134 ], [ -83.989902991176507, 35.180134000583323 ], [ -83.985119991452549, 35.185308000456651 ], [ -83.981343991155939, 35.192250000015257 ], [ -83.974591991325497, 35.19236700048419 ], [ -83.972468991103042, 35.193767000349894 ], [ -83.969824991788627, 35.190572000303924 ], [ -83.967457990867857, 35.190127000151385 ], [ -83.964698991668115, 35.19110399993 ], [ -83.962464991615533, 35.189769000764294 ], [ -83.959879991486687, 35.190291000509056 ], [ -83.954787991563535, 35.187976000572853 ], [ -83.953297991400106, 35.186406999917267 ], [ -83.955889991141547, 35.183178000010557 ], [ -83.954169991626785, 35.178926000596519 ], [ -83.954994991737564, 35.177088000528066 ], [ -83.952196991588664, 35.172999000078981 ], [ -83.953705991123471, 35.170749000008236 ], [ -83.953205991403223, 35.168720000704134 ], [ -83.953917991061417, 35.167935000162259 ], [ -83.95198399144779, 35.164229000430495 ], [ -83.952996990770856, 35.162729000685673 ], [ -83.949219991214534, 35.157597999955335 ], [ -83.955159990884127, 35.156256000203911 ], [ -83.963812991304366, 35.151583000724067 ], [ -83.970385991211401, 35.146773000575344 ], [ -83.978710991279698, 35.143004000207249 ], [ -83.986449991608993, 35.132241999957145 ], [ -83.993279991401721, 35.12533100013664 ], [ -83.993194990983895, 35.124421000239543 ], [ -84.000165991072137, 35.121382000300549 ], [ -84.002958991125041, 35.117034000680114 ], [ -84.006649991542801, 35.114299000683232 ], [ -84.007416991696132, 35.111425999939129 ], [ -84.01143299154225, 35.107296000231706 ], [ -84.019441991605675, 35.101780000578266 ], [ -84.023041991198085, 35.096363000009084 ], [ -84.027254991019419, 35.094454000038041 ], [ -84.028583990969352, 35.092652000195017 ], [ -84.028680991304753, 35.090050000357138 ], [ -84.030075991368932, 35.088465000497628 ], [ -84.031849991224036, 35.087939000598361 ], [ -84.033038991641263, 35.088472000126892 ], [ -84.036102991107484, 35.086627000101792 ], [ -84.037305991213429, 35.084324000362223 ], [ -84.035451990804489, 35.082773000603048 ], [ -84.034575991032867, 35.080453000038752 ], [ -84.039039991596482, 35.079655999976978 ], [ -84.04696699173374, 35.074087000337514 ], [ -84.054355991269077, 35.072065000609889 ], [ -84.061344990849989, 35.06587800044116 ], [ -84.065799991061681, 35.057182000027062 ], [ -84.075637991659278, 35.049170000481034 ] ] ] } },
{ "type": "Feature", "properties": { "county": "CHEROKEE", "precinct": "MURS", "enr_desc": "Murphy South", "winner": "Jeannie Gaddis", "winner_votes": 274, "winner_share": 52.998065764023202, "runner_up": "David Ricks", "runner_up_votes": 243, "runner_up_share": 47.00193423597679, "contest_votes": 517, "margin_of_victory": 5.996131528046412, "is_tie": false, "results": [ { "candidate": "Jeannie Gaddis", "votes": 274, "share": 52.9980657640232 }, { "candidate": "David Ricks", "votes": 243, "share": 47.00193423597679 } ], "participated": true, "map_key": "CHEROKEE_MURS" }, "geometry": { "type": "Polygon", "coordinates": [ [ [ -84.051400991168464, 35.029775000102845 ], [ -84.061749991547984, 35.027261999943761 ], [ -84.071177990789707, 35.026543000463299 ], [ -84.076460990769021, 35.027706000328322 ], [ -84.077876991427019, 35.028859000631378 ], [ -84.077329991454789, 35.030272000461295 ], [ -84.07516499174956, 35.031281999970865 ], [ -84.076534991150481, 35.035233000253065 ], [ -84.074098990765904, 35.036467000698579 ], [ -84.07607299117943, 35.038662000075767 ], [ -84.07532199136709, 35.040218000479527 ], [ -84.072836991357889, 35.041932000675935 ], [ -84.074583991501271, 35.042975000702491 ], [ -84.07435199126482, 35.04508899994444 ], [ -84.075637991659278, 35.049170000481034 ], [ -84.065799991061681, 35.057182000027062 ], [ -84.061344990849989, 35.06587800044116 ], [ -84.054355991269077, 35.072065000609889 ], [ -84.04696699173374, 35.074087000337514 ], [ -84.039039991596482, 35.079655999976978 ], [ -84.034575991032867, 35.080453000038752 ], [ -84.035451990804489, 35.082773000603048 ], [ -84.037305991213429, 35.084324000362223 ], [ -84.036102991107484, 35.086627000101792 ], [ -84.033038991641263, 35.088472000126892 ], [ -84.031849991224036, 35.087939000598361 ], [ -84.030075991368932, 35.088465000497628 ], [ -84.028680991304753, 35.090050000357138 ], [ -84.028583990969352, 35.092652000195017 ], [ -84.027254991019419, 35.094454000038041 ], [ -84.023041991198085, 35.096363000009084 ], [ -84.019441991605675, 35.101780000578266 ], [ -84.01143299154225, 35.107296000231706 ], [ -84.007416991696132, 35.111425999939129 ], [ -84.006649991542801, 35.114299000683232 ], [ -84.002958991125041, 35.117034000680114 ], [ -84.000165991072137, 35.121382000300549 ], [ -83.993194990983895, 35.124421000239543 ], [ -83.993279991401721, 35.12533100013664 ], [ -83.986449991608993, 35.132241999957145 ], [ -83.978710991279698, 35.143004000207249 ], [ -83.970385991211401, 35.146773000575344 ], [ -83.963812991304366, 35.151583000724067 ], [ -83.955159990884127, 35.156256000203911 ], [ -83.949219991214534, 35.157597999955335 ], [ -83.94562399123393, 35.15840200020692 ], [ -83.940930991204169, 35.161566999925078 ], [ -83.94164699078776, 35.159090000057333 ], [ -83.945184991216564, 35.157130000145521 ], [ -83.946333991408707, 35.154815000459088 ], [ -83.944038990991885, 35.155127000176151 ], [ -83.936272991004316, 35.153608999981358 ], [ -83.931754991661066, 35.151204000141007 ], [ -83.934202991603229, 35.146407000597378 ], [ -83.935560991084543, 35.145270000115438 ], [ -83.93425199165597, 35.143605000254311 ], [ -83.934706991098423, 35.141744000212647 ], [ -83.93044399116846, 35.140064000530536 ], [ -83.929434991762932, 35.138662000738734 ], [ -83.927558991664412, 35.139922000476489 ], [ -83.926589991168456, 35.139542000597729 ], [ -83.935305991435754, 35.134011000705236 ], [ -83.937070991540537, 35.132142000758101 ], [ -83.94061499154364, 35.131536000519631 ], [ -83.950325991653415, 35.126605000182927 ], [ -83.956424991666736, 35.126613000258537 ], [ -83.959926991252459, 35.125730999932266 ], [ -83.965291991446506, 35.128990000214976 ], [ -83.964485991707775, 35.122971000574438 ], [ -83.96724099157062, 35.119642000690156 ], [ -83.967782991658623, 35.117339000705748 ], [ -83.975543990775222, 35.114738000225458 ], [ -83.976505991143497, 35.113352000562379 ], [ -83.976196991562688, 35.112018000623479 ], [ -83.980171991321768, 35.108741000237188 ], [ -83.980314991303587, 35.107165000057698 ], [ -83.983565990911686, 35.107311000450018 ], [ -83.985835991586015, 35.10648799998431 ], [ -83.987280991780352, 35.10443700055847 ], [ -83.993050991229538, 35.103305000679995 ], [ -83.993867991208631, 35.101635000685135 ], [ -83.994207991341, 35.095232000122813 ], [ -83.999140991300138, 35.087492000527384 ], [ -84.001519991520198, 35.086179000711581 ], [ -83.997893991792324, 35.085874000481162 ], [ -83.994873991591817, 35.083517999964876 ], [ -83.989806991342661, 35.083087000566188 ], [ -83.985466991128717, 35.081295000511268 ], [ -83.983017990984834, 35.079088000040031 ], [ -83.982632991502498, 35.07638500054864 ], [ -83.981357991491734, 35.074964000234132 ], [ -83.977293991402718, 35.073766000659617 ], [ -83.974815990884622, 35.071851999926601 ], [ -83.97303499096823, 35.069047000124925 ], [ -83.972849990795055, 35.066927000514546 ], [ -83.975742991527895, 35.062651999918032 ], [ -83.977330990948701, 35.061544000194694 ], [ -83.977583991674138, 35.059826000334624 ], [ -83.964018990813003, 35.048077000825565 ], [ -83.962837991734546, 35.04596000000619 ], [ -83.965250990931793, 35.04537000037169 ], [ -83.966058990871886, 35.044119000194172 ], [ -83.975867991126549, 35.048248000661317 ], [ -83.977399991183944, 35.047339000456816 ], [ -83.982225991401265, 35.047938000099961 ], [ -83.996111990792585, 35.046586000105656 ], [ -83.999742990875461, 35.044947000665594 ], [ -84.003330991468161, 35.04539600070828 ], [ -84.015284990812688, 35.042105000428009 ], [ -84.017316991589084, 35.040062000165243 ], [ -84.018268990882987, 35.037674000755587 ], [ -84.024097991432654, 35.035842000183223 ], [ -84.026991990933695, 35.03791800072409 ], [ -84.022386991541225, 35.040844000241655 ], [ -84.021213991424347, 35.046241000522095 ], [ -84.022770991614408, 35.049446000109086 ], [ -84.022906990890732, 35.0520820004566 ], [ -84.024217990848499, 35.053601000789634 ], [ -84.029394991550674, 35.052072000214324 ], [ -84.032619991582706, 35.044437999934615 ], [ -84.041819990763315, 35.037721000491054 ], [ -84.049315991673211, 35.029967000763989 ], [ -84.051400991168464, 35.029775000102845 ] ] ] } },
{ "type": "Feature", "properties": { "county": "CHEROKEE", "precinct": "PCHT", "enr_desc": "Peachtree", "winner": "David Ricks", "winner_votes": 231, "winner_share": 51.333333333333329, "runner_up": "Jeannie Gaddis", "runner_up_votes": 219, "runner_up_share": 48.666666666666671, "contest_votes": 450, "margin_of_victory": 2.6666666666666572, "is_tie": false, "results": [ { "candidate": "David Ricks", "votes": 231, "share": 51.33333333333333 }, { "candidate": "Jeannie Gaddis", "votes": 219, "share": 48.66666666666667 } ], "participated": true, "map_key": "CHEROKEE_PCHT" }, "geometry": { "type": "Polygon", "coordinates": [ [ [ -83.964018990813003, 35.048077000825565 ], [ -83.977583991674138, 35.059826000334624 ], [ -83.977330990948701, 35.061544000194694 ], [ -83.975742991527895, 35.062651999918032 ], [ -83.972849990795055, 35.066927000514546 ], [ -83.97303499096823, 35.069047000124925 ], [ -83.974815990884622, 35.071851999926601 ], [ -83.977293991402718, 35.073766000659617 ], [ -83.981357991491734, 35.074964000234132 ], [ -83.982632991502498, 35.07638500054864 ], [ -83.983017990984834, 35.079088000040031 ], [ -83.985466991128717, 35.081295000511268 ], [ -83.989806991342661, 35.083087000566188 ], [ -83.994873991591817, 35.083517999964876 ], [ -83.997893991792324, 35.085874000481162 ], [ -84.001519991520198, 35.086179000711581 ], [ -83.999140991300138, 35.087492000527384 ], [ -83.994207991341, 35.095232000122813 ], [ -83.993867991208631, 35.101635000685135 ], [ -83.993050991229538, 35.103305000679995 ], [ -83.987280991780352, 35.10443700055847 ], [ -83.985835991586015, 35.10648799998431 ], [ -83.983565990911686, 35.107311000450018 ], [ -83.980314991303587, 35.107165000057698 ], [ -83.980171991321768, 35.108741000237188 ], [ -83.976196991562688, 35.112018000623479 ], [ -83.976505991143497, 35.113352000562379 ], [ -83.975543990775222, 35.114738000225458 ], [ -83.967782991658623, 35.117339000705748 ], [ -83.96724099157062, 35.119642000690156 ], [ -83.964485991707775, 35.122971000574438 ], [ -83.965291991446506, 35.128990000214976 ], [ -83.959926991252459, 35.125730999932266 ], [ -83.956424991666736, 35.126613000258537 ], [ -83.950325991653415, 35.126605000182927 ], [ -83.94061499154364, 35.131536000519631 ], [ -83.937070991540537, 35.132142000758101 ], [ -83.935305991435754, 35.134011000705236 ], [ -83.926589991168456, 35.139542000597729 ], [ -83.92505399090858, 35.140067000331342 ], [ -83.926008991603709, 35.137032000528507 ], [ -83.924323991210414, 35.135768000352122 ], [ -83.925309991671185, 35.13374900009827 ], [ -83.923135991283871, 35.133678000691468 ], [ -83.920889991081324, 35.128024000491934 ], [ -83.920093991570084, 35.127910000678519 ], [ -83.910258991397342, 35.128977000146179 ], [ -83.901552990854412, 35.13290900025644 ], [ -83.895373991288693, 35.132775000077778 ], [ -83.890229990901886, 35.134871000695661 ], [ -83.883822991146118, 35.133868999962374 ], [ -83.88298999108369, 35.13439300049285 ], [ -83.878028991703573, 35.133059000560387 ], [ -83.868250991139575, 35.136359000268428 ], [ -83.862750990898917, 35.132447000069519 ], [ -83.86552599141838, 35.127191000033953 ], [ -83.864378991107543, 35.125436000285511 ], [ -83.863650991654367, 35.120421000582844 ], [ -83.874235991600941, 35.11416700074971 ], [ -83.876035991294899, 35.110339000751289 ], [ -83.879818990792501, 35.10739300004559 ], [ -83.883101991142169, 35.106096000459743 ], [ -83.887658991158531, 35.099126000186999 ], [ -83.893909991483284, 35.094532000433809 ], [ -83.895959991641135, 35.091865000335098 ], [ -83.900212990848004, 35.090049000805195 ], [ -83.905264991140996, 35.086620000194344 ], [ -83.905719991073539, 35.081987000556538 ], [ -83.907670990877236, 35.078219000199411 ], [ -83.911559990890822, 35.07733100049127 ], [ -83.916693991764873, 35.074558000704243 ], [ -83.922678990929228, 35.074075000650062 ], [ -83.926032991720817, 35.070547000065986 ], [ -83.925838990826833, 35.067963000160105 ], [ -83.927410991431231, 35.066743000413453 ], [ -83.931100991451828, 35.069422000679126 ], [ -83.933701991495511, 35.068890999928449 ], [ -83.93446999083767, 35.068119000283318 ], [ -83.934649991270831, 35.065756000749964 ], [ -83.943503990880657, 35.056067000262885 ], [ -83.948819991739668, 35.053835999901906 ], [ -83.956498991186038, 35.054299000611628 ], [ -83.958582991161876, 35.052770000391483 ], [ -83.960854991557184, 35.049197000622165 ], [ -83.964018990813003, 35.048077000825565 ] ] ] } },
{ "type": "Feature", "properties": { "county": "CHEROKEE", "precinct": "RGER", "enr_desc": "Ranger", "winner": "Jeannie Gaddis", "winner_votes": 215, "winner_share": 56.578947368421048, "runner_up": "David Ricks", "runner_up_votes": 165, "runner_up_share": 43.421052631578952, "contest_votes": 380, "margin_of_victory": 13.157894736842096, "is_tie": false, "results": [ { "candidate": "Jeannie Gaddis", "votes": 215, "share": 56.57894736842105 }, { "candidate": "David Ricks", "votes": 165, "share": 43.42105263157895 } ], "participated": true, "map_key": "CHEROKEE_RGER" }, "geometry": { "type": "Polygon", "coordinates": [ [ [ -84.071177990789707, 35.026543000463299 ], [ -84.076187991637312, 35.026049999958886 ], [ -84.080192991119262, 35.024581000365984 ], [ -84.083986991586244, 35.019771000261819 ], [ -84.094646991672349, 35.023644000083941 ], [ -84.091427991657511, 35.019463000627269 ], [ -84.086218990769368, 35.014838000629943 ], [ -84.088840991212706, 35.012940000775245 ], [ -84.095829991187017, 35.009966000224701 ], [ -84.096513991535375, 35.008642000216092 ], [ -84.099901991329375, 35.006179000273782 ], [ -84.102207991565209, 35.006523000736983 ], [ -84.108476991476081, 35.00975300028032 ], [ -84.113366991546556, 35.009736000432419 ], [ -84.115997991507584, 35.007392000794169 ], [ -84.113880991232463, 35.003740000039549 ], [ -84.114155991725752, 35.001942000003417 ], [ -84.116658991362442, 35.004061000416229 ], [ -84.117536991729736, 35.003978000545978 ], [ -84.118990991088552, 35.007372000574215 ], [ -84.121703991562043, 35.007455000096819 ], [ -84.122943991560348, 35.008242999940435 ], [ -84.125889991473258, 35.006687000771628 ], [ -84.128380991112991, 35.008979000568701 ], [ -84.127904991754193, 35.010197000692678 ], [ -84.132993991718067, 35.005453000674891 ], [ -84.139902991402778, 35.002017000290586 ], [ -84.140790991243094, 35.004157000133652 ], [ -84.142191991304657, 35.003784000237552 ], [ -84.142972991266134, 35.004461000737294 ], [ -84.13953399172054, 35.005765000152451 ], [ -84.138489991611877, 35.008206000760801 ], [ -84.141315991768579, 35.011816000250128 ], [ -84.142957990905998, 35.011930000669977 ], [ -84.144598991528255, 35.015370000754771 ], [ -84.145203991506634, 35.013308000037263 ], [ -84.147214990813708, 35.012044000301728 ], [ -84.15071099130337, 35.011658000799635 ], [ -84.151932990778789, 35.010523000558905 ], [ -84.156297991230403, 35.00954200020427 ], [ -84.157861991673059, 35.011208000506045 ], [ -84.160749991400365, 35.012007000722328 ], [ -84.163203991379191, 35.011362000297325 ], [ -84.164209991089848, 35.009406000787891 ], [ -84.166561991116467, 35.009831000061169 ], [ -84.167577991042421, 35.010441000243347 ], [ -84.168218990856317, 35.013026000034742 ], [ -84.166087990886524, 35.015606999952709 ], [ -84.167971990958165, 35.018636000209717 ], [ -84.172646991263562, 35.021926000405401 ], [ -84.160764990963926, 35.02892600034 ], [ -84.151706991347837, 35.033113000213127 ], [ -84.154074991306686, 35.036887000514952 ], [ -84.160893991790061, 35.038402000217296 ], [ -84.162817991115375, 35.040090000005158 ], [ -84.162999991675477, 35.042763000618471 ], [ -84.15988499093335, 35.044377000201912 ], [ -84.157274991066345, 35.043142000744169 ], [ -84.15485599107565, 35.043025000421203 ], [ -84.152160991297364, 35.044332000111787 ], [ -84.145717990826356, 35.044345000247105 ], [ -84.143795991328304, 35.045997000166153 ], [ -84.142270990792426, 35.051442000568869 ], [ -84.142523991557724, 35.056289000229441 ], [ -84.144011991804916, 35.057938000783274 ], [ -84.141975991445605, 35.060908999935698 ], [ -84.141941991789864, 35.062745000598966 ], [ -84.140675991190307, 35.06362099997181 ], [ -84.141250991720298, 35.065999000703023 ], [ -84.140046991222363, 35.067221000117151 ], [ -84.132590990812133, 35.070338000502872 ], [ -84.130996991230717, 35.072634000553705 ], [ -84.128989990818184, 35.072760000388278 ], [ -84.124705991184101, 35.076689000141933 ], [ -84.12415899158168, 35.078878000355644 ], [ -84.126443991080961, 35.083017000164496 ], [ -84.119980991217631, 35.085679000511895 ], [ -84.115118991027217, 35.089708000830974 ], [ -84.115087990856097, 35.09405600057174 ], [ -84.110880991372881, 35.097558000401541 ], [ -84.109943990871145, 35.099776000233923 ], [ -84.097982991632591, 35.093653000072514 ], [ -84.092236991274518, 35.084976000113564 ], [ -84.087759990720983, 35.084176000374768 ], [ -84.084397991409915, 35.085249000459889 ], [ -84.082988991647127, 35.090071000263741 ], [ -84.081216991747667, 35.091745000216477 ], [ -84.075966991270803, 35.090500000082649 ], [ -84.070985991824514, 35.085771000602989 ], [ -84.070834991057112, 35.083883000383295 ], [ -84.076317990917502, 35.082910000008951 ], [ -84.076789991579233, 35.082153000183155 ], [ -84.076402991531936, 35.080280000000535 ], [ -84.07093299135795, 35.071799000375172 ], [ -84.071078990771255, 35.068960000533373 ], [ -84.072487991268872, 35.063896000682007 ], [ -84.086456991282972, 35.051156000707493 ], [ -84.084751991664405, 35.04915800053935 ], [ -84.084868991687401, 35.047764000471382 ], [ -84.081967991060367, 35.044529000747993 ], [ -84.075637991659278, 35.049170000481034 ], [ -84.07435199126482, 35.04508899994444 ], [ -84.074583991501271, 35.042975000702491 ], [ -84.072836991357889, 35.041932000675935 ], [ -84.07532199136709, 35.040218000479527 ], [ -84.07607299117943, 35.038662000075767 ], [ -84.074098990765904, 35.036467000698579 ], [ -84.076534991150481, 35.035233000253065 ], [ -84.07516499174956, 35.031281999970865 ], [ -84.077329991454789, 35.030272000461295 ], [ -84.077876991427019, 35.028859000631378 ], [ -84.076460990769021, 35.027706000328322 ], [ -84.071177990789707, 35.026543000463299 ] ] ] } },
{ "type": "Feature", "properties": { "county": "CHEROKEE", "precinct": "TOPT", "enr_desc": "Topton", "winner": "David Ricks", "winner_votes": 70, "winner_share": 75.268817204301072, "runner_up": "Jeannie Gaddis", "runner_up_votes": 23, "runner_up_share": 24.731182795698924, "contest_votes": 93, "margin_of_victory": 50.537634408602145, "is_tie": false, "results": [ { "candidate": "David Ricks", "votes": 70, "share": 75.26881720430107 }, { "candidate": "Jeannie Gaddis", "votes": 23, "share": 24.731182795698924 } ], "participated": true, "map_key": "CHEROKEE_TOPT" }, "geometry": { "type": "Polygon", "coordinates": [ [ [ -83.773489990743172, 35.24574400065346 ], [ -83.767206990757359, 35.248166000204996 ], [ -83.762923990757145, 35.248239000418351 ], [ -83.759627991541819, 35.246706000597506 ], [ -83.758989990852839, 35.244849000268871 ], [ -83.756766991087375, 35.242458999983192 ], [ -83.750090991804825, 35.243435000680016 ], [ -83.745462991523567, 35.245204000379509 ], [ -83.734313991642068, 35.24498900007049 ], [ -83.726822991092263, 35.249019000738492 ], [ -83.722868991644006, 35.252930000073427 ], [ -83.718786990812703, 35.253260000399592 ], [ -83.713346991400002, 35.257605000653612 ], [ -83.711186990707134, 35.257715000384742 ], [ -83.708455990707307, 35.257520000468503 ], [ -83.707847991490667, 35.255139000213688 ], [ -83.705353991445705, 35.253532999965984 ], [ -83.70427899085314, 35.251621000779785 ], [ -83.703163991712756, 35.251538000463682 ], [ -83.704187991038339, 35.249020000465116 ], [ -83.699032990702662, 35.247086999972069 ], [ -83.697815990731996, 35.247442000251723 ], [ -83.695169991230358, 35.243777000784547 ], [ -83.691663991034773, 35.242761999903195 ], [ -83.691887990980476, 35.239913000791368 ], [ -83.69011299096077, 35.23749700063204 ], [ -83.690471990683648, 35.234813000095308 ], [ -83.693259991130404, 35.232065000469987 ], [ -83.693924991446636, 35.228553000096746 ], [ -83.698448991288359, 35.223927000483442 ], [ -83.707565991510791, 35.219212000698526 ], [ -83.709988990938896, 35.218941000377484 ], [ -83.711495991599293, 35.217379000262575 ], [ -83.71143799156178, 35.215859000164222 ], [ -83.713042991159242, 35.213180000567789 ], [ -83.719072991723777, 35.210469999909883 ], [ -83.722650990889292, 35.209758000284445 ], [ -83.72321099122496, 35.207669000361918 ], [ -83.725151991470597, 35.206497000272549 ], [ -83.725968991130642, 35.20403400026246 ], [ -83.728856991401983, 35.200772000009025 ], [ -83.73815399127929, 35.197176000694206 ], [ -83.738706991172805, 35.195268000367335 ], [ -83.741101991128076, 35.194263000745657 ], [ -83.747856991474023, 35.187234000411173 ], [ -83.750620990725764, 35.185928000489916 ], [ -83.7554719907139, 35.185727000315886 ], [ -83.760752991382461, 35.187786000172096 ], [ -83.764805991203346, 35.188439000558589 ], [ -83.76689399123552, 35.188188000165361 ], [ -83.769836991264114, 35.186405000015455 ], [ -83.770043991198634, 35.191739000312623 ], [ -83.774480991156949, 35.194894999911753 ], [ -83.777086991595795, 35.195602999962134 ], [ -83.775766991188846, 35.19790000007427 ], [ -83.777668991641292, 35.198803000317987 ], [ -83.778281991569102, 35.201804000211794 ], [ -83.779526991483024, 35.203317000586871 ], [ -83.779409990910835, 35.203883000172411 ], [ -83.773529990821359, 35.204431000528295 ], [ -83.770550990766097, 35.207102000118581 ], [ -83.766250990870205, 35.208175999925167 ], [ -83.773387991502346, 35.21214000040893 ], [ -83.771926991789641, 35.214663000188303 ], [ -83.774452990935202, 35.217201000684405 ], [ -83.774083991026288, 35.219025999906734 ], [ -83.776752991389714, 35.22234800050294 ], [ -83.775893991748816, 35.226962000210314 ], [ -83.772724990723475, 35.228606000209702 ], [ -83.771304990810378, 35.23676100018789 ], [ -83.771470990815317, 35.240808000792846 ], [ -83.773489990743172, 35.24574400065346 ] ] ] } },
{ "type": "Feature", "properties": { "county": "CHEROKEE", "precinct": "UNKA", "enr_desc": "Unaka", "winner": "David Ricks", "winner_votes": 80, "winner_share": 54.794520547945204, "runner_up": "Jeannie Gaddis", "runner_up_votes": 66, "runner_up_share": 45.205479452054789, "contest_votes": 146, "margin_of_victory": 9.5890410958904155, "is_tie": false, "results": [ { "candidate": "David Ricks", "votes": 80, "share": 54.794520547945204 }, { "candidate": "Jeannie Gaddis", "votes": 66, "share": 45.20547945205479 } ], "participated": true, "map_key": "CHEROKEE_UNKA" }, "geometry": { "type": "Polygon", "coordinates": [ [ [ -84.159654991298737, 35.138435999959178 ], [ -84.158003990741307, 35.139925000007793 ], [ -84.151650991590444, 35.141575000522906 ], [ -84.151258991460224, 35.143107000288943 ], [ -84.152327990834166, 35.145806000633186 ], [ -84.150671991062865, 35.149650000678726 ], [ -84.158529990916364, 35.152354000548733 ], [ -84.161939991755148, 35.152343000482908 ], [ -84.162890990849519, 35.155349000654525 ], [ -84.162557990829413, 35.158878999965815 ], [ -84.167387991115177, 35.163027000714095 ], [ -84.16995599155139, 35.167894000305168 ], [ -84.173572990800466, 35.170197000801551 ], [ -84.17595699116039, 35.169502000342248 ], [ -84.180010991224691, 35.16186500069918 ], [ -84.178832991246622, 35.156798000133598 ], [ -84.175430991595121, 35.153642000590999 ], [ -84.178693991633693, 35.150843000481387 ], [ -84.180118991455757, 35.147275000253444 ], [ -84.181930991213619, 35.14581500047214 ], [ -84.1883359913421, 35.145385000653768 ], [ -84.19542699174329, 35.142608000043154 ], [ -84.197551991419772, 35.143341000803403 ], [ -84.200400991471412, 35.147283000096721 ], [ -84.203230990866274, 35.147355000841991 ], [ -84.204239991323035, 35.146741000124287 ], [ -84.203389990990786, 35.141346000407239 ], [ -84.205093990793742, 35.140571000599408 ], [ -84.208657991466467, 35.140617000455897 ], [ -84.213210990760359, 35.142131000402621 ], [ -84.217470991083133, 35.147095000594256 ], [ -84.218772991301563, 35.147748000325322 ], [ -84.222121990881774, 35.147213000814226 ], [ -84.225393991544124, 35.14883200042015 ], [ -84.231466991587354, 35.155707000430546 ], [ -84.23247499088356, 35.163458000424441 ], [ -84.237999991435373, 35.165519000657071 ], [ -84.24037099172601, 35.167275000129678 ], [ -84.241106991626154, 35.172541000364369 ], [ -84.242615990785239, 35.175048000772463 ], [ -84.246241990858024, 35.176875000429042 ], [ -84.249917991723365, 35.177479000301602 ], [ -84.253117991343004, 35.176258000403486 ], [ -84.254895991260042, 35.17436900068823 ], [ -84.255071991514811, 35.170234000405735 ], [ -84.255907991034945, 35.169445999965532 ], [ -84.262727991414394, 35.171499000393162 ], [ -84.266101991769531, 35.170324999991408 ], [ -84.271229991251218, 35.169953000237065 ], [ -84.27327399155692, 35.167087000779389 ], [ -84.277460991364066, 35.165851000113314 ], [ -84.287310991484219, 35.16584200040478 ], [ -84.293158991774106, 35.167747000584768 ], [ -84.298029990739408, 35.168380000460942 ], [ -84.294837991106647, 35.185017000762493 ], [ -84.290213990889328, 35.225432000818977 ], [ -84.288102991450259, 35.224346000528769 ], [ -84.28581299084108, 35.22622000075831 ], [ -84.28329699075708, 35.22645900011608 ], [ -84.275908991557941, 35.234204000346288 ], [ -84.260408990894703, 35.241833000182446 ], [ -84.258679991434121, 35.245345000770371 ], [ -84.253655991782793, 35.248996000353657 ], [ -84.25042299127125, 35.250934000024436 ], [ -84.242520990967833, 35.253486999986691 ], [ -84.23250399093692, 35.264245000099564 ], [ -84.229200991089243, 35.26594300014856 ], [ -84.227483991121275, 35.267925999956603 ], [ -84.223792991290267, 35.269031000418536 ], [ -84.22116299130677, 35.267518000379013 ], [ -84.217528991412024, 35.268141000752721 ], [ -84.214851991244416, 35.266263000699027 ], [ -84.211394991695741, 35.265621000076308 ], [ -84.209166991618517, 35.262202000488038 ], [ -84.206115990905232, 35.260026000148414 ], [ -84.202981991117539, 35.255291000659028 ], [ -84.202822991366006, 35.251805000751311 ], [ -84.201446991177903, 35.249170000062541 ], [ -84.20179099160859, 35.248021000502106 ], [ -84.199519991416778, 35.24385400026226 ], [ -84.193374990813581, 35.244779000432317 ], [ -84.191156990991786, 35.24195100052107 ], [ -84.188250991097959, 35.240024000730635 ], [ -84.178828991402298, 35.240511000629532 ], [ -84.177602991589794, 35.241986000565717 ], [ -84.171400991143173, 35.244722000570611 ], [ -84.170025990893237, 35.246460000474443 ], [ -84.161460990730703, 35.243523000039552 ], [ -84.159228990748517, 35.24572000024321 ], [ -84.154722990790319, 35.246494000205189 ], [ -84.149699991255858, 35.246026000696133 ], [ -84.147760991681011, 35.246864000138252 ], [ -84.139399990808101, 35.246097000101862 ], [ -84.13361899170836, 35.242376999905318 ], [ -84.127110991713778, 35.240770000144543 ], [ -84.125720990906174, 35.242121000233503 ], [ -84.126718991030799, 35.246305000408981 ], [ -84.125219990821762, 35.249871000648668 ], [ -84.122203991401349, 35.250061999970292 ], [ -84.119076991165699, 35.252249000285119 ], [ -84.116592991010862, 35.251426000285356 ], [ -84.113364991506984, 35.248980000656843 ], [ -84.110308991153801, 35.250436000477791 ], [ -84.108745991047741, 35.250034000223913 ], [ -84.106703991719243, 35.251521000111943 ], [ -84.102562990920319, 35.248365000831818 ], [ -84.097503991398199, 35.247598000600568 ], [ -84.092317991171825, 35.249374000227427 ], [ -84.090937991700869, 35.251374000100078 ], [ -84.085078991314177, 35.255473000403498 ], [ -84.082529991181062, 35.2562880003562 ], [ -84.082836991178937, 35.258408000563854 ], [ -84.080323991046328, 35.261430000310966 ], [ -84.073895991634259, 35.260296000744091 ], [ -84.07274199108933, 35.259381000722733 ], [ -84.074188991138143, 35.257404000242474 ], [ -84.071808991727465, 35.252864000552087 ], [ -84.073172991307615, 35.245239000301275 ], [ -84.072630991333142, 35.244472000424672 ], [ -84.068833991571339, 35.242660000744436 ], [ -84.062437991657873, 35.242160000582615 ], [ -84.063290991538409, 35.238641000382934 ], [ -84.059245991154228, 35.237685000334608 ], [ -84.063104990859827, 35.237360000422846 ], [ -84.059595991567875, 35.235272000236222 ], [ -84.059251991587445, 35.23371300017012 ], [ -84.060609991677012, 35.232269000430612 ], [ -84.063032991139579, 35.231817000655667 ], [ -84.062151991493465, 35.230994000702061 ], [ -84.062407991426468, 35.229666999923261 ], [ -84.065342991484499, 35.229264000638892 ], [ -84.064573991547334, 35.227143000507063 ], [ -84.066735991415328, 35.224919000296985 ], [ -84.065274991570448, 35.224065000570228 ], [ -84.064043991046404, 35.221039000052336 ], [ -84.062415991273497, 35.219664000142089 ], [ -84.063736991332277, 35.217785000277104 ], [ -84.066297991353139, 35.217478000804689 ], [ -84.070010991430379, 35.214410000783978 ], [ -84.065963991467186, 35.209827000440399 ], [ -84.067367991433287, 35.206875000048733 ], [ -84.067885991617089, 35.198383000012079 ], [ -84.071233991425572, 35.194540000551285 ], [ -84.071969990856417, 35.189745000085431 ], [ -84.072884991036446, 35.188557000626858 ], [ -84.076110990892147, 35.188877000825215 ], [ -84.077660991389024, 35.190871000757575 ], [ -84.079323990831938, 35.190876000417255 ], [ -84.084345991277118, 35.19321200024455 ], [ -84.08663299103344, 35.192574000702848 ], [ -84.08782399173316, 35.190770000467893 ], [ -84.092727991033343, 35.187106000202149 ], [ -84.097457991756812, 35.185960000230651 ], [ -84.101989991755204, 35.181778000630203 ], [ -84.102161991286792, 35.178024000686044 ], [ -84.103742991385488, 35.175511000800448 ], [ -84.106830991110783, 35.174165000182704 ], [ -84.109838991156394, 35.171851000466759 ], [ -84.109949990828881, 35.170767000518914 ], [ -84.110170991311833, 35.168884000450092 ], [ -84.112656990897804, 35.166403999949267 ], [ -84.115159991538732, 35.165362999997662 ], [ -84.115353991340172, 35.164475000127005 ], [ -84.113838991712768, 35.160431000556613 ], [ -84.108892991627243, 35.155773000018314 ], [ -84.108348991442625, 35.151961000300908 ], [ -84.104578991352909, 35.146780000738076 ], [ -84.105331991268386, 35.1456630006141 ], [ -84.104752991201309, 35.144632999956187 ], [ -84.100253991144143, 35.141538000203042 ], [ -84.099871991133355, 35.139882000288011 ], [ -84.101341990713877, 35.136569000238069 ], [ -84.099498991226184, 35.134795000269563 ], [ -84.099004991691615, 35.131349000626962 ], [ -84.100930991773836, 35.129203000660162 ], [ -84.102321990853653, 35.128447000748245 ], [ -84.103832991491288, 35.128785000466536 ], [ -84.107017991052444, 35.132920000625958 ], [ -84.107739991460619, 35.130930000150684 ], [ -84.110639991653969, 35.129142000580487 ], [ -84.111634991803513, 35.127565000425186 ], [ -84.115932991794438, 35.125534000515621 ], [ -84.117582991094821, 35.12595699998068 ], [ -84.118232991577045, 35.124230000732695 ], [ -84.119123990753877, 35.123898000459178 ], [ -84.12370299078303, 35.125734000794452 ], [ -84.128311991166569, 35.129561000452753 ], [ -84.130663991806372, 35.129471000693449 ], [ -84.133626990936207, 35.130652000655751 ], [ -84.135229990997942, 35.133173000587838 ], [ -84.140630991271735, 35.134441000743557 ], [ -84.144568991344954, 35.137491000401383 ], [ -84.148279990942044, 35.142340000191084 ], [ -84.149877991298581, 35.141284000384459 ], [ -84.148820991581914, 35.141043000622297 ], [ -84.149081991625678, 35.140036000670364 ], [ -84.146421991298894, 35.136952000812023 ], [ -84.147793991609561, 35.13688300049018 ], [ -84.152282991610164, 35.139638000646038 ], [ -84.155564991353572, 35.138427000184791 ], [ -84.154749991315995, 35.137560000771458 ], [ -84.15533199094277, 35.136699000489124 ], [ -84.154435991704119, 35.134924000172212 ], [ -84.159654991298737, 35.138435999959178 ] ] ] } }
]
}
