{
"type": "FeatureCollection",
"name": "clay_county_sheriff_rep",
"crs": { "type": "name", "properties": { "name": "urn:ogc:def:crs:OGC:1.3:CRS84" } },
"features": [
{ "type": "Feature", "properties": { "county": "CLAY", "precinct": "BRAS", "enr_desc": "Brasstown", "winner": "Mark Buchanan", "winner_votes": 177, "winner_share": 88.94472361809045, "runner_up": "Joe Shook", "runner_up_votes": 22, "runner_up_share": 11.055276381909549, "contest_votes": 199, "margin_of_victory": 77.889447236180899, "is_tie": false, "results": [ { "candidate": "Mark Buchanan", "votes": 177, "share": 88.94472361809045 }, { "candidate": "Joe Shook", "votes": 22, "share": 11.055276381909549 } ], "participated": true, "map_key": "CLAY_BRAS" }, "geometry": { "type": "Polygon", "coordinates": [ [ [ -83.926864991479903, 35.06704999989735 ], [ -83.925635991246011, 35.064051000334139 ], [ -83.924442991119179, 35.063060000024244 ], [ -83.920639991796435, 35.06218100026036 ], [ -83.919504991462091, 35.061126000327725 ], [ -83.91406999092959, 35.047223999984411 ], [ -83.903228991508229, 35.037505000072308 ], [ -83.898334991449602, 35.031543000200884 ], [ -83.902942991790212, 35.028259000403224 ], [ -83.9048419910972, 35.025464000671235 ], [ -83.906631990906988, 35.025262000678708 ], [ -83.908550991166607, 35.023745000063577 ], [ -83.913978991575377, 35.017668000664841 ], [ -83.919025991027226, 35.016327000371781 ], [ -83.919905991467928, 35.014885000662979 ], [ -83.924355991480965, 35.011897000326741 ], [ -83.92530999165254, 35.010624000129674 ], [ -83.924584991298559, 35.010087999966998 ], [ -83.927187991178641, 35.008091000692062 ], [ -83.926738991723411, 35.006842000728554 ], [ -83.923995991080034, 35.005096000589049 ], [ -83.92472499117126, 35.000813000154231 ], [ -83.929679990926701, 34.99816300071155 ], [ -83.936283991294175, 34.992828000782616 ], [ -83.936859990868598, 34.989069000367358 ], [ -83.941137990801579, 34.988533000634874 ], [ -83.952139990747256, 34.9898430006876 ], [ -83.964892990913114, 34.99534000078053 ], [ -83.965125991328648, 34.997012000718911 ], [ -83.966644991021539, 34.996791000674669 ], [ -83.969474991182807, 34.998195000769464 ], [ -83.973720991655696, 34.996770000750168 ], [ -83.971761991508387, 34.995204000368076 ], [ -83.971383991452043, 34.993071000672522 ], [ -83.977612990855434, 34.989620000688852 ], [ -83.979570991465579, 34.987276000267833 ], [ -84.005131991312695, 34.987175000240271 ], [ -84.005810991288115, 34.989246999972899 ], [ -84.003426991562336, 34.991387000710667 ], [ -84.004627990916504, 34.994222000556455 ], [ -84.003590990923868, 34.995465000109995 ], [ -83.999015990894264, 34.996193000553077 ], [ -83.995580990938748, 34.99872100076491 ], [ -83.992624991166068, 34.999320999918048 ], [ -83.984194991381372, 35.004855000522149 ], [ -83.979939990893513, 35.00579600080296 ], [ -83.971300990951065, 35.012353000439781 ], [ -83.972569991247795, 35.01441300044025 ], [ -83.97169699133444, 35.015347000341592 ], [ -83.970308990983739, 35.015738000476702 ], [ -83.96830999182329, 35.017943000591067 ], [ -83.964516991635506, 35.018602000737069 ], [ -83.958999991172462, 35.024787000577376 ], [ -83.956505991663008, 35.026279000091726 ], [ -83.957615991821015, 35.028812000463802 ], [ -83.960713991012739, 35.03087399993349 ], [ -83.958691990822388, 35.035300000694605 ], [ -83.958405991680664, 35.038886000128372 ], [ -83.959560991068329, 35.038826000155758 ], [ -83.959391991683447, 35.040316000099054 ], [ -83.966082991499079, 35.04397400060973 ], [ -83.965250990931793, 35.04537000037169 ], [ -83.962837991734546, 35.04596000000619 ], [ -83.963974991508465, 35.04812500024611 ], [ -83.960854991557184, 35.049197000622165 ], [ -83.958582991161876, 35.052770000391483 ], [ -83.956498991186038, 35.054299000611628 ], [ -83.948819991739668, 35.053835999901906 ], [ -83.943739991250197, 35.055905000202237 ], [ -83.934649991270831, 35.065756000749964 ], [ -83.93446999083767, 35.068119000283318 ], [ -83.933701991495511, 35.068890999928449 ], [ -83.931100991451828, 35.069422000679126 ], [ -83.927410991431231, 35.066743000413453 ], [ -83.926864991479903, 35.06704999989735 ] ] ] } },
{ "type": "Feature", "properties": { "county": "CLAY", "precinct": "HAY1", "enr_desc": "Hayesville One", "winner": "Mark Buchanan", "winner_votes": 295, "winner_share": 84.045584045584036, "runner_up": "Joe Shook", "runner_up_votes": 56, "runner_up_share": 15.954415954415953, "contest_votes": 351, "margin_of_victory": 68.091168091168086, "is_tie": false, "results": [ { "candidate": "Mark Buchanan", "votes": 295, "share": 84.04558404558404 }, { "candidate": "Joe Shook", "votes": 56, "share": 15.954415954415953 } ], "participated": true, "map_key": "CLAY_HAY1" }, "geometry": { "type": "Polygon", "coordinates": [ [ [ -83.780692990909074, 35.046868000667999 ], [ -83.785601991717826, 35.044770000144389 ], [ -83.786302991264449, 35.042005000505497 ], [ -83.787493991460394, 35.040813000767869 ], [ -83.794851991644961, 35.040911000712981 ], [ -83.801367991620907, 35.038858000409903 ], [ -83.803396991398387, 35.040488000207333 ], [ -83.803015991312037, 35.043085000526872 ], [ -83.80455999134081, 35.043343000446519 ], [ -83.807121991511693, 35.045966000456588 ], [ -83.808504991426176, 35.05111800077043 ], [ -83.81306899129504, 35.052570000362699 ], [ -83.816112991463498, 35.055385000268252 ], [ -83.818233991179738, 35.051153000634393 ], [ -83.823584991784429, 35.047686000352272 ], [ -83.823999991626891, 35.046350000109513 ], [ -83.825810991712657, 35.046485000650101 ], [ -83.829098991203352, 35.048426000780267 ], [ -83.830064991055053, 35.047614000264304 ], [ -83.83472399124345, 35.048002000266408 ], [ -83.834898991826762, 35.045979000616029 ], [ -83.837294991401293, 35.047660000075041 ], [ -83.839024991309216, 35.047173000088009 ], [ -83.840003991792585, 35.048536000175936 ], [ -83.840233990710118, 35.045569999941911 ], [ -83.836504990823926, 35.040529000779436 ], [ -83.832403991322877, 35.037719000281619 ], [ -83.83176199140577, 35.035572000318766 ], [ -83.860749991620651, 35.032148000631324 ], [ -83.865245991162226, 35.032813000234945 ], [ -83.861733991710707, 35.038903000752256 ], [ -83.862120991019268, 35.042551000066744 ], [ -83.853906991152158, 35.053733000158552 ], [ -83.852112991200158, 35.060417000032288 ], [ -83.851618991610579, 35.063494000760976 ], [ -83.854516990734467, 35.075838000193521 ], [ -83.852117991401371, 35.083622000554691 ], [ -83.853166991049065, 35.087766999980254 ], [ -83.852808991576012, 35.091084999927517 ], [ -83.848534991530016, 35.09517099997398 ], [ -83.845373990912393, 35.096886000393347 ], [ -83.816066990803094, 35.098309000230977 ], [ -83.805328991034344, 35.1009360005094 ], [ -83.799619991090694, 35.101470000136274 ], [ -83.795835990997034, 35.100856000116757 ], [ -83.791762991237292, 35.097944000350857 ], [ -83.791035990779008, 35.096273000288171 ], [ -83.791321991023977, 35.085910000248958 ], [ -83.787739991389472, 35.081024000362191 ], [ -83.782890991099762, 35.070120000780918 ], [ -83.782803990829279, 35.064444999993142 ], [ -83.783684991347712, 35.062976000637384 ], [ -83.779934991389354, 35.054594000237707 ], [ -83.780692990909074, 35.046868000667999 ] ] ] } },
{ "type": "Feature", "properties": { "county": "CLAY", "precinct": "HAY2", "enr_desc": "Hayesville Two", "winner": "Mark Buchanan", "winner_votes": 320, "winner_share": 88.39779005524862, "runner_up": "Joe Shook", "runner_up_votes": 42, "runner_up_share": 11.602209944751381, "contest_votes": 362, "margin_of_victory": 76.795580110497241, "is_tie": false, "results": [ { "candidate": "Mark Buchanan", "votes": 320, "share": 88.39779005524862 }, { "candidate": "Joe Shook", "votes": 42, "share": 11.602209944751381 } ], "participated": true, "map_key": "CLAY_HAY2" }, "geometry": { "type": "Polygon", "coordinates": [ [ [ -83.858317991331546, 34.987335000671727 ], [ -83.860182990772145, 34.998975000764808 ], [ -83.861429990921167, 35.002381000045894 ], [ -83.867554991176917, 35.011435000485072 ], [ -83.870668991312073, 35.014055000334736 ], [ -83.874898991180416, 35.016079000725981 ], [ -83.873035990912342, 35.023501000131652 ], [ -83.867457991806916, 35.029360000207241 ], [ -83.860791991187483, 35.028093000683988 ], [ -83.860892991471573, 35.026480000445446 ], [ -83.862667991306438, 35.026403000391326 ], [ -83.861777990826269, 35.023250000743666 ], [ -83.860324990730788, 35.023056000499871 ], [ -83.860982991101579, 35.020016000295264 ], [ -83.858847991312814, 35.019044999928951 ], [ -83.85642699116292, 35.019579999967128 ], [ -83.855353991156065, 35.018473000063942 ], [ -83.852773991266986, 35.018939000163606 ], [ -83.849980991016665, 35.018114000429108 ], [ -83.843273991208875, 35.018840000510401 ], [ -83.833401991451495, 35.023501000165766 ], [ -83.828684991663209, 35.024216000403356 ], [ -83.817703991587436, 35.038764000674803 ], [ -83.819024991539735, 35.044816000125564 ], [ -83.816867991393536, 35.046245000675711 ], [ -83.817558990794524, 35.046669000260323 ], [ -83.818233991179738, 35.051153000634393 ], [ -83.816112991463498, 35.055385000268252 ], [ -83.81306899129504, 35.052570000362699 ], [ -83.808504991426176, 35.05111800077043 ], [ -83.807121991511693, 35.045966000456588 ], [ -83.80455999134081, 35.043343000446519 ], [ -83.803015991312037, 35.043085000526872 ], [ -83.803396991398387, 35.040488000207333 ], [ -83.801367991620907, 35.038858000409903 ], [ -83.794851991644961, 35.040911000712981 ], [ -83.787493991460394, 35.040813000767869 ], [ -83.786302991264449, 35.042005000505497 ], [ -83.785601991717826, 35.044770000144389 ], [ -83.780692990909074, 35.046868000667999 ], [ -83.78117099171989, 35.045988000381769 ], [ -83.785578991058856, 35.02942600020728 ], [ -83.788240990760499, 35.024845000676464 ], [ -83.79224099107492, 35.02155700049267 ], [ -83.787871991705728, 35.008766000603117 ], [ -83.790893990861079, 34.987591000098668 ], [ -83.858317991331546, 34.987335000671727 ] ] ] } },
{ "type": "Feature", "properties": { "county": "CLAY", "precinct": "HAYC", "enr_desc": "Hayesville Central", "winner": "Mark Buchanan", "winner_votes": 77, "winner_share": 74.757281553398059, "runner_up": "Joe Shook", "runner_up_votes": 26, "runner_up_share": 25.242718446601941, "contest_votes": 103, "margin_of_victory": 49.514563106796118, "is_tie": false, "results": [ { "candidate": "Mark Buchanan", "votes": 77, "share": 74.75728155339806 }, { "candidate": "Joe Shook", "votes": 26, "share": 25.24271844660194 } ], "participated": true, "map_key": "CLAY_HAYC" }, "geometry": { "type": "Polygon", "coordinates": [ [ [ -83.867457991806916, 35.029360000207241 ], [ -83.865245991162226, 35.032813000234945 ], [ -83.860749991620651, 35.032148000631324 ], [ -83.83176199140577, 35.035572000318766 ], [ -83.832403991322877, 35.037719000281619 ], [ -83.836504990823926, 35.040529000779436 ], [ -83.840233990710118, 35.045569999941911 ], [ -83.840003991792585, 35.048536000175936 ], [ -83.839024991309216, 35.047173000088009 ], [ -83.837294991401293, 35.047660000075041 ], [ -83.834898991826762, 35.045979000616029 ], [ -83.83472399124345, 35.048002000266408 ], [ -83.830064991055053, 35.047614000264304 ], [ -83.829098991203352, 35.048426000780267 ], [ -83.825810991712657, 35.046485000650101 ], [ -83.823999991626891, 35.046350000109513 ], [ -83.823584991784429, 35.047686000352272 ], [ -83.818233991179738, 35.051153000634393 ], [ -83.817558990794524, 35.046669000260323 ], [ -83.816867991393536, 35.046245000675711 ], [ -83.819024991539735, 35.044816000125564 ], [ -83.817703991587436, 35.038764000674803 ], [ -83.828684991663209, 35.024216000403356 ], [ -83.833401991451495, 35.023501000165766 ], [ -83.843273991208875, 35.018840000510401 ], [ -83.849980991016665, 35.018114000429108 ], [ -83.852773991266986, 35.018939000163606 ], [ -83.855353991156065, 35.018473000063942 ], [ -83.85642699116292, 35.019579999967128 ], [ -83.858847991312814, 35.019044999928951 ], [ -83.860982991101579, 35.020016000295264 ], [ -83.860324990730788, 35.023056000499871 ], [ -83.861777990826269, 35.023250000743666 ], [ -83.862667991306438, 35.026403000391326 ], [ -83.860892991471573, 35.026480000445446 ], [ -83.860791991187483, 35.028093000683988 ], [ -83.867457991806916, 35.029360000207241 ] ] ] } },
{ "type": "Feature", "properties": { "county": "CLAY", "precinct": "HIAW", "enr_desc": "Hiawassee", "winner": "Mark Buchanan", "winner_votes": 339, "winner_share": 87.371134020618555, "runner_up": "Joe Shook", "runner_up_votes": 49, "runner_up_share": 12.628865979381443, "contest_votes": 388, "margin_of_victory": 74.742268041237111, "is_tie": false, "results": [ { "candidate": "Mark Buchanan", "votes": 339, "share": 87.37113402061856 }, { "candidate": "Joe Shook", "votes": 49, "share": 12.628865979381443 } ], "participated": true, "map_key": "CLAY_HIAW" }, "geometry": { "type": "Polygon", "coordinates": [ [ [ -83.718537991603867, 34.987519000204401 ], [ -83.790893990861079, 34.987591000098668 ], [ -83.787871991705728, 35.008766000603117 ], [ -83.79224099107492, 35.02155700049267 ], [ -83.788240990760499, 35.024845000676464 ], [ -83.785578991058856, 35.02942600020728 ], [ -83.78117099171989, 35.045988000381769 ], [ -83.770191991282175, 35.044410000455898 ], [ -83.748907990783792, 35.048825000170638 ], [ -83.733001991252735, 35.04572800000048 ], [ -83.718404991514532, 35.056212000755202 ], [ -83.715685990923291, 35.059674000476335 ], [ -83.713658991006795, 35.060191000032233 ], [ -83.710314991615732, 35.057777000526023 ], [ -83.704819991754903, 35.050458000521296 ], [ -83.70978299100571, 35.045544000456275 ], [ -83.71406399139579, 35.038323000538171 ], [ -83.716853991756523, 35.030206000391559 ], [ -83.718031991314007, 35.019418000081139 ], [ -83.71968999177183, 35.016548000061633 ], [ -83.721760991591353, 35.009173000073872 ], [ -83.722065991030234, 35.001917000594304 ], [ -83.719550991329797, 34.989466000103619 ], [ -83.718537991603867, 34.987519000204401 ] ] ] } },
{ "type": "Feature", "properties": { "county": "CLAY", "precinct": "WARN", "enr_desc": "Warne", "winner": "Mark Buchanan", "winner_votes": 154, "winner_share": 83.243243243243242, "runner_up": "Joe Shook", "runner_up_votes": 31, "runner_up_share": 16.756756756756758, "contest_votes": 185, "margin_of_victory": 66.486486486486484, "is_tie": false, "results": [ { "candidate": "Mark Buchanan", "votes": 154, "share": 83.24324324324324 }, { "candidate": "Joe Shook", "votes": 31, "share": 16.756756756756758 } ], "participated": true, "map_key": "CLAY_WARN" }, "geometry": { "type": "Polygon", "coordinates": [ [ [ -83.898334991449602, 35.031543000200884 ], [ -83.893207991555897, 35.0244400001488 ], [ -83.87489899147198, 35.015544000327239 ], [ -83.874898991180416, 35.016079000725981 ], [ -83.870668991312073, 35.014055000334736 ], [ -83.867554991176917, 35.011435000485072 ], [ -83.861429990921167, 35.002381000045894 ], [ -83.860182990772145, 34.998975000764808 ], [ -83.858317991331546, 34.987335000671727 ], [ -83.979570991465579, 34.987276000267833 ], [ -83.977612990855434, 34.989620000688852 ], [ -83.971383991452043, 34.993071000672522 ], [ -83.971761991508387, 34.995204000368076 ], [ -83.973720991655696, 34.996770000750168 ], [ -83.969474991182807, 34.998195000769464 ], [ -83.966644991021539, 34.996791000674669 ], [ -83.965125991328648, 34.997012000718911 ], [ -83.964892990913114, 34.99534000078053 ], [ -83.952139990747256, 34.9898430006876 ], [ -83.941137990801579, 34.988533000634874 ], [ -83.936859990868598, 34.989069000367358 ], [ -83.936283991294175, 34.992828000782616 ], [ -83.929679990926701, 34.99816300071155 ], [ -83.92472499117126, 35.000813000154231 ], [ -83.923995991080034, 35.005096000589049 ], [ -83.926738991723411, 35.006842000728554 ], [ -83.927187991178641, 35.008091000692062 ], [ -83.924584991298559, 35.010087999966998 ], [ -83.92530999165254, 35.010624000129674 ], [ -83.924355991480965, 35.011897000326741 ], [ -83.919905991467928, 35.014885000662979 ], [ -83.919025991027226, 35.016327000371781 ], [ -83.913978991575377, 35.017668000664841 ], [ -83.908550991166607, 35.023745000063577 ], [ -83.906631990906988, 35.025262000678708 ], [ -83.9048419910972, 35.025464000671235 ], [ -83.902942991790212, 35.028259000403224 ], [ -83.898334991449602, 35.031543000200884 ] ] ] } },
{ "type": "Feature", "properties": { "county": "CLAY", "precinct": "SHCR", "enr_desc": "Shooting Creek", "winner": "Mark Buchanan", "winner_votes": 257, "winner_share": 74.27745664739885, "runner_up": "Joe Shook", "runner_up_votes": 89, "runner_up_share": 25.722543352601157, "contest_votes": 346, "margin_of_victory": 48.554913294797693, "is_tie": false, "results": [ { "candidate": "Mark Buchanan", "votes": 257, "share": 74.27745664739885 }, { "candidate": "Joe Shook", "votes": 89, "share": 25.722543352601157 } ], "participated": true, "map_key": "CLAY_SHCR" }, "geometry": { "type": "Polygon", "coordinates": [ [ [ -83.718537991603867, 34.987519000204401 ], [ -83.719550991329797, 34.989466000103619 ], [ -83.722065991030234, 35.001917000594304 ], [ -83.721760991591353, 35.009173000073872 ], [ -83.71968999177183, 35.016548000061633 ], [ -83.718031991314007, 35.019418000081139 ], [ -83.716853991756523, 35.030206000391559 ], [ -83.71406399139579, 35.038323000538171 ], [ -83.70978299100571, 35.045544000456275 ], [ -83.704819991754903, 35.050458000521296 ], [ -83.688221990933428, 35.058020000256569 ], [ -83.67669899139436, 35.060425000301045 ], [ -83.667074990782936, 35.063827000164522 ], [ -83.662778990840437, 35.065540000490891 ], [ -83.658373991403437, 35.068802000571011 ], [ -83.663938991018966, 35.088014000607593 ], [ -83.659230990926488, 35.095198000075293 ], [ -83.658907991188087, 35.096791000033079 ], [ -83.66016799104446, 35.100361000045659 ], [ -83.660070991621311, 35.104208000206803 ], [ -83.664125991241932, 35.112817000581487 ], [ -83.66556999162546, 35.121534000179267 ], [ -83.663412990884638, 35.142478999968034 ], [ -83.659382990770069, 35.150055000591614 ], [ -83.652531991148734, 35.154337000587532 ], [ -83.648107991696151, 35.152584000310192 ], [ -83.647873990978212, 35.150213000020379 ], [ -83.649190991584547, 35.147465000013327 ], [ -83.645026990764137, 35.145215000062215 ], [ -83.649391991109482, 35.140526000401231 ], [ -83.657201991408826, 35.140059000358029 ], [ -83.65727099136258, 35.139174000082697 ], [ -83.655010991298852, 35.137518000203372 ], [ -83.654928991224338, 35.135808000415203 ], [ -83.651477991629235, 35.135515000403821 ], [ -83.6495329908023, 35.134540000669027 ], [ -83.643858991371175, 35.136871000669736 ], [ -83.642016991148481, 35.139149000735067 ], [ -83.640171991642049, 35.138719000396911 ], [ -83.637021991082094, 35.134608000557236 ], [ -83.637716991658664, 35.132841000363072 ], [ -83.639341991466296, 35.132375000301572 ], [ -83.642742991674695, 35.13295299993527 ], [ -83.643924991725981, 35.132237000649774 ], [ -83.640356990790536, 35.130648000369774 ], [ -83.637417991616005, 35.126208000551081 ], [ -83.637343991713649, 35.12365200003623 ], [ -83.634927990924027, 35.121161000530819 ], [ -83.633865991433055, 35.121451999979776 ], [ -83.633460990917143, 35.124044000025783 ], [ -83.632385990940691, 35.125086999934446 ], [ -83.629666991129398, 35.125562000173069 ], [ -83.626540990840837, 35.124493999979194 ], [ -83.62498399181338, 35.12517400053175 ], [ -83.624921991346184, 35.127014000071291 ], [ -83.627149991528356, 35.129748999882416 ], [ -83.626714991562935, 35.131246000355866 ], [ -83.625203991185444, 35.130613000360526 ], [ -83.6236879907363, 35.128603000147571 ], [ -83.61892799150209, 35.128250000481394 ], [ -83.620021991565324, 35.125976999881992 ], [ -83.618890990866817, 35.119408000503988 ], [ -83.616844991020429, 35.119131000472564 ], [ -83.616723991401216, 35.115385000019614 ], [ -83.614570991428479, 35.113106000367239 ], [ -83.618753991046646, 35.108592000200503 ], [ -83.617908991672465, 35.105960000705565 ], [ -83.611306991711899, 35.102123000036741 ], [ -83.605588991645291, 35.101909000563317 ], [ -83.600984990937675, 35.099802000253938 ], [ -83.596588991349975, 35.094321000217427 ], [ -83.594555990964395, 35.094616000140327 ], [ -83.591361991710315, 35.092241000605696 ], [ -83.586616990917335, 35.091582000025923 ], [ -83.583387991159412, 35.086954000390435 ], [ -83.585086991051099, 35.081792000050257 ], [ -83.581886990757425, 35.078113999967499 ], [ -83.580492991240618, 35.077111000264203 ], [ -83.578728991644539, 35.077126000236589 ], [ -83.575309991069787, 35.0716510007328 ], [ -83.566846991465169, 35.070814000717952 ], [ -83.567992991611931, 35.06690599990484 ], [ -83.563819991736523, 35.062808000079762 ], [ -83.562198991424466, 35.059536000271002 ], [ -83.563977990853232, 35.05821900050654 ], [ -83.564126991415264, 35.056763999951656 ], [ -83.56614199105212, 35.054216999933033 ], [ -83.566716991449013, 35.051281000140087 ], [ -83.563108991369873, 35.048314000210787 ], [ -83.558411991376204, 35.039133999897309 ], [ -83.557358991709222, 35.03863600041165 ], [ -83.552224991233359, 35.039577000142899 ], [ -83.547795991267179, 35.039448000001563 ], [ -83.543327991088546, 35.03854400031549 ], [ -83.540992991159158, 35.036771000636016 ], [ -83.538524991226822, 35.036197000381954 ], [ -83.536259990735005, 35.032109000139613 ], [ -83.531104990959648, 35.026222000553091 ], [ -83.521249991506551, 35.018246000561916 ], [ -83.521932990932996, 35.013234000242612 ], [ -83.527079991262752, 35.009214000727766 ], [ -83.524407991134311, 35.007471000182008 ], [ -83.52200499112719, 35.003618999900283 ], [ -83.522643991501596, 34.999433999983559 ], [ -83.521006990826805, 34.996772000195698 ], [ -83.519048991313454, 34.996604000705659 ], [ -83.517983991732109, 34.997417000398016 ], [ -83.516674990865852, 35.001871000429404 ], [ -83.514741991137342, 35.002847000311554 ], [ -83.514081991719749, 35.004144000114167 ], [ -83.510359990974635, 35.005155000691126 ], [ -83.508751991098194, 35.004489000425082 ], [ -83.507009990957002, 35.001654000329204 ], [ -83.504598991498824, 35.000658999883683 ], [ -83.500069990720363, 35.001609000135495 ], [ -83.498729990872988, 35.000419000707915 ], [ -83.493279991370514, 34.998889000533289 ], [ -83.486455991763961, 34.998524999867044 ], [ -83.48294899115669, 34.993301000411535 ], [ -83.620050990935766, 34.992032000557828 ], [ -83.619949991015119, 34.986669000192343 ], [ -83.718537991603867, 34.987519000204401 ] ] ] } },
{ "type": "Feature", "properties": { "county": "CLAY", "precinct": "SWEE", "enr_desc": "Sweetwater", "winner": "Mark Buchanan", "winner_votes": 180, "winner_share": 91.83673469387756, "runner_up": "Joe Shook", "runner_up_votes": 16, "runner_up_share": 8.1632653061224492, "contest_votes": 196, "margin_of_victory": 83.673469387755105, "is_tie": false, "results": [ { "candidate": "Mark Buchanan", "votes": 180, "share": 91.83673469387756 }, { "candidate": "Joe Shook", "votes": 16, "share": 8.16326530612245 } ], "participated": true, "map_key": "CLAY_SWEE" }, "geometry": { "type": "Polygon", "coordinates": [ [ [ -83.865245991162226, 35.032813000234945 ], [ -83.867457991806916, 35.029360000207241 ], [ -83.873035990912342, 35.023501000131652 ], [ -83.874898991180416, 35.016079000725981 ], [ -83.87489899147198, 35.015544000327239 ], [ -83.893207991555897, 35.0244400001488 ], [ -83.898334991449602, 35.031543000200884 ], [ -83.903228991508229, 35.037505000072308 ], [ -83.91406999092959, 35.047223999984411 ], [ -83.919504991462091, 35.061126000327725 ], [ -83.920639991796435, 35.06218100026036 ], [ -83.924442991119179, 35.063060000024244 ], [ -83.925635991246011, 35.064051000334139 ], [ -83.926864991479903, 35.06704999989735 ], [ -83.925838990826833, 35.067963000160105 ], [ -83.926032991720817, 35.070547000065986 ], [ -83.922678990929228, 35.074075000650062 ], [ -83.916693991764873, 35.074558000704243 ], [ -83.911559990890822, 35.07733100049127 ], [ -83.907670990877236, 35.078219000199411 ], [ -83.905719991073539, 35.081987000556538 ], [ -83.905264991140996, 35.086620000194344 ], [ -83.900212990848004, 35.090049000805195 ], [ -83.895959991641135, 35.091865000335098 ], [ -83.893909991483284, 35.094532000433809 ], [ -83.887658991158531, 35.099126000186999 ], [ -83.883101991142169, 35.106096000459743 ], [ -83.879818990792501, 35.10739300004559 ], [ -83.876035991294899, 35.110339000751289 ], [ -83.874235991600941, 35.11416700074971 ], [ -83.864024991247106, 35.120058000576378 ], [ -83.8496169914972, 35.103179000630668 ], [ -83.845373990912393, 35.096886000393347 ], [ -83.848534991530016, 35.09517099997398 ], [ -83.852808991576012, 35.091084999927517 ], [ -83.853166991049065, 35.087766999980254 ], [ -83.852117991401371, 35.083622000554691 ], [ -83.854516990734467, 35.075838000193521 ], [ -83.851618991610579, 35.063494000760976 ], [ -83.852112991200158, 35.060417000032288 ], [ -83.853906991152158, 35.053733000158552 ], [ -83.862120991019268, 35.042551000066744 ], [ -83.861733991710707, 35.038903000752256 ], [ -83.865245991162226, 35.032813000234945 ] ] ] } },
{ "type": "Feature", "properties": { "county": "CLAY", "precinct": "TUSQ", "enr_desc": "Tusquittee", "winner": "Mark Buchanan", "winner_votes": 178, "winner_share": 89.447236180904525, "runner_up": "Joe Shook", "runner_up_votes": 21, "runner_up_share": 10.552763819095476, "contest_votes": 199, "margin_of_victory": 78.894472361809051, "is_tie": false, "results": [ { "candidate": "Mark Buchanan", "votes": 178, "share": 89.44723618090453 }, { "candidate": "Joe Shook", "votes": 21, "share": 10.552763819095476 } ], "participated": true, "map_key": "CLAY_TUSQ" }, "geometry": { "type": "Polygon", "coordinates": [ [ [ -83.78117099171989, 35.045988000381769 ], [ -83.780692990909074, 35.046868000667999 ], [ -83.779934991389354, 35.054594000237707 ], [ -83.783684991347712, 35.062976000637384 ], [ -83.782803990829279, 35.064444999993142 ], [ -83.782890991099762, 35.070120000780918 ], [ -83.787739991389472, 35.081024000362191 ], [ -83.791321991023977, 35.085910000248958 ], [ -83.791035990779008, 35.096273000288171 ], [ -83.791762991237292, 35.097944000350857 ], [ -83.795835990997034, 35.100856000116757 ], [ -83.799619991090694, 35.101470000136274 ], [ -83.805328991034344, 35.1009360005094 ], [ -83.816066990803094, 35.098309000230977 ], [ -83.845373990912393, 35.096886000393347 ], [ -83.8496169914972, 35.103179000630668 ], [ -83.864024991247106, 35.120058000576378 ], [ -83.863366991654161, 35.121542000591653 ], [ -83.865513990994543, 35.127342000155558 ], [ -83.862795990991785, 35.132397000088268 ], [ -83.857698991681701, 35.135473000592576 ], [ -83.857123991008748, 35.137066000391265 ], [ -83.850104991361164, 35.140879000777716 ], [ -83.845255991362009, 35.141148999964507 ], [ -83.840732991147476, 35.143841000316343 ], [ -83.834617991630196, 35.142890999981709 ], [ -83.832855990994958, 35.140570000192362 ], [ -83.823596991491044, 35.140173999913699 ], [ -83.821362991078018, 35.139050000055668 ], [ -83.817781991464869, 35.138838000516841 ], [ -83.812706991299237, 35.141198000106087 ], [ -83.808104990730968, 35.141648000447617 ], [ -83.806616990711106, 35.144064999960172 ], [ -83.797118991143904, 35.144922999955206 ], [ -83.794825991559009, 35.148062000427281 ], [ -83.791390991665679, 35.147114000636641 ], [ -83.787199991589929, 35.14842100044315 ], [ -83.785020990918042, 35.147790000715695 ], [ -83.77834099132555, 35.149950999906252 ], [ -83.776770991407972, 35.152468000366483 ], [ -83.772766990772169, 35.155913000601231 ], [ -83.767906991762061, 35.157019000701546 ], [ -83.764792990913222, 35.155467000265617 ], [ -83.760924990978353, 35.156748999930329 ], [ -83.75591999121032, 35.157202000692187 ], [ -83.752742991541197, 35.160836000403862 ], [ -83.745960990987697, 35.160802000539007 ], [ -83.742457991432858, 35.159371000781015 ], [ -83.739677991250119, 35.15609500049284 ], [ -83.73594099074171, 35.154553000155751 ], [ -83.734107990972106, 35.151588000388017 ], [ -83.732370991769429, 35.150800000616158 ], [ -83.730553991058358, 35.148001000500301 ], [ -83.726725990855982, 35.145246000160924 ], [ -83.721702991051856, 35.149480000517947 ], [ -83.720781991101347, 35.151217000194066 ], [ -83.71444199128652, 35.155283000129003 ], [ -83.710295990765559, 35.154763000350883 ], [ -83.707468991037146, 35.153102999954839 ], [ -83.704691991284676, 35.153506000662752 ], [ -83.699516991174448, 35.152463000105151 ], [ -83.698759991123211, 35.153801000071397 ], [ -83.694009991458145, 35.156085000198175 ], [ -83.687391991535648, 35.154062000326299 ], [ -83.685865991365176, 35.157063000006133 ], [ -83.684441991189132, 35.157749000137663 ], [ -83.683437990956179, 35.156901000242421 ], [ -83.680502991544415, 35.156988000186765 ], [ -83.67792499128845, 35.155552000310074 ], [ -83.673448991088833, 35.157057000507208 ], [ -83.66952999152403, 35.154276000776875 ], [ -83.66780299165255, 35.150471999931597 ], [ -83.665916991270706, 35.150066000210501 ], [ -83.659414991418828, 35.154489000201082 ], [ -83.660298991568609, 35.158814000747363 ], [ -83.659823991257298, 35.1603040007844 ], [ -83.65368099104731, 35.157001000068675 ], [ -83.652531991148734, 35.154337000587532 ], [ -83.659382990770069, 35.150055000591614 ], [ -83.663412990884638, 35.142478999968034 ], [ -83.66556999162546, 35.121534000179267 ], [ -83.664125991241932, 35.112817000581487 ], [ -83.660070991621311, 35.104208000206803 ], [ -83.66016799104446, 35.100361000045659 ], [ -83.658907991188087, 35.096791000033079 ], [ -83.659230990926488, 35.095198000075293 ], [ -83.663938991018966, 35.088014000607593 ], [ -83.658373991403437, 35.068802000571011 ], [ -83.662778990840437, 35.065540000490891 ], [ -83.667074990782936, 35.063827000164522 ], [ -83.67669899139436, 35.060425000301045 ], [ -83.688221990933428, 35.058020000256569 ], [ -83.704819991754903, 35.050458000521296 ], [ -83.710314991615732, 35.057777000526023 ], [ -83.713658991006795, 35.060191000032233 ], [ -83.715685990923291, 35.059674000476335 ], [ -83.718404991514532, 35.056212000755202 ], [ -83.733001991252735, 35.04572800000048 ], [ -83.748907990783792, 35.048825000170638 ], [ -83.770191991282175, 35.044410000455898 ], [ -83.78117099171989, 35.045988000381769 ] ] ] } }
]
}
