{
"type": "FeatureCollection",
"name": "columbus_county_board_of_commissioners_district_06_rep",
"crs": { "type": "name", "properties": { "name": "urn:ogc:def:crs:OGC:1.3:CRS84" } },
"features": [
{ "type": "Feature", "properties": { "county": "COLUMBUS", "precinct": "P07", "enr_desc": "Chadbourn", "winner": "Jeanne McPherson", "winner_votes": 106.0, "winner_share": 49.532710280373834, "runner_up": "Ricky Bullard", "runner_up_votes": 99.0, "runner_up_share": 46.261682242990652, "contest_votes": 214.0, "margin_of_victory": 3.2710280373831822, "is_tie": false, "results": [ { "candidate": "Jeanne McPherson", "votes": 106, "share": 49.532710280373834 }, { "candidate": "Ricky Bullard", "votes": 99, "share": 46.26168224299065 }, { "candidate": "Jody (JL) Hinson", "votes": 9, "share": 4.205607476635514 } ], "participated": true, "map_key": "COLUMBUS_P07" }, "geometry": { "type": "Polygon", "coordinates": [ [ [ -78.794240991406795, 34.24742899996474 ], [ -78.802519990805806, 34.246556000212543 ], [ -78.80512499090726, 34.246995000337023 ], [ -78.813025990948304, 34.253786000215229 ], [ -78.81821999169884, 34.25506599974478 ], [ -78.82248599184301, 34.258838000363589 ], [ -78.828653991478362, 34.26110999979511 ], [ -78.838310991221917, 34.26266600011396 ], [ -78.842660991100615, 34.261952999558261 ], [ -78.853748991750933, 34.263986000167883 ], [ -78.861539991178432, 34.261925000436591 ], [ -78.873935991872983, 34.254220000015188 ], [ -78.874484991076358, 34.263031000369466 ], [ -78.880946991867631, 34.264314999577714 ], [ -78.883588990846008, 34.262381000110146 ], [ -78.889027991256711, 34.260749000092531 ], [ -78.889479991013829, 34.264130999697663 ], [ -78.885097991020245, 34.265962000216518 ], [ -78.880814991764552, 34.272305000183081 ], [ -78.879988991727643, 34.276079999684718 ], [ -78.877186991503351, 34.279817000004272 ], [ -78.877083991104811, 34.28240299971543 ], [ -78.877674991108492, 34.284920999627914 ], [ -78.880858991244082, 34.288339000120459 ], [ -78.880523991154959, 34.289605000140725 ], [ -78.881369991178232, 34.290691999987672 ], [ -78.881847991542784, 34.294908000253308 ], [ -78.880098990928786, 34.299456000015788 ], [ -78.880540991635598, 34.300834000039288 ], [ -78.88239699145484, 34.302451999865887 ], [ -78.885532991583304, 34.302765000281056 ], [ -78.884066991669457, 34.305972000029797 ], [ -78.886176991842177, 34.311113999559467 ], [ -78.89285999114017, 34.312415000193212 ], [ -78.901561991170198, 34.312226000076961 ], [ -78.893567990801913, 34.319634999782743 ], [ -78.887509991783489, 34.331447000303136 ], [ -78.884599990855463, 34.331389000008699 ], [ -78.884638990795921, 34.334926000037164 ], [ -78.881022991433355, 34.334994000327647 ], [ -78.868304990952808, 34.343561000102888 ], [ -78.863689991501943, 34.351834000137899 ], [ -78.858701990982965, 34.365574000221685 ], [ -78.858973991311231, 34.372284000086566 ], [ -78.859819991232399, 34.375075000434165 ], [ -78.859348990936411, 34.378088000170955 ], [ -78.858088991854132, 34.379617000281598 ], [ -78.855225991777871, 34.380928000346522 ], [ -78.849497991529191, 34.377726000199019 ], [ -78.830211991200258, 34.360504000082486 ], [ -78.831217991641182, 34.371827999711307 ], [ -78.83078199153465, 34.375709999621762 ], [ -78.821517991006431, 34.392303000037693 ], [ -78.810369991733097, 34.393847999900466 ], [ -78.804599991463235, 34.396163999627554 ], [ -78.803353991305741, 34.393963999997759 ], [ -78.800087991699002, 34.380171999788296 ], [ -78.79753099161826, 34.376380000425279 ], [ -78.79997999175599, 34.374865000263789 ], [ -78.799807991091782, 34.370037999902955 ], [ -78.795018991166231, 34.353982999811713 ], [ -78.797228991763319, 34.344257000250273 ], [ -78.799452990868375, 34.341216000020509 ], [ -78.799326991540539, 34.325400000059659 ], [ -78.797509991229617, 34.32551899978229 ], [ -78.796570991725105, 34.32454799970963 ], [ -78.794697991099511, 34.32053499958959 ], [ -78.781334991625727, 34.317068999579064 ], [ -78.777003990873439, 34.312157999791687 ], [ -78.776845991610031, 34.306021000250034 ], [ -78.778590991276062, 34.297539000388966 ], [ -78.779922991026623, 34.297609999925285 ], [ -78.782538991660203, 34.293496000174613 ], [ -78.78458399151441, 34.286609000182487 ], [ -78.786009991596345, 34.286250000267835 ], [ -78.785148991056587, 34.284583999813471 ], [ -78.786252991565306, 34.283435000375327 ], [ -78.786729991075859, 34.280616000422988 ], [ -78.785218991486573, 34.277604999722705 ], [ -78.779382991032037, 34.274656000270006 ], [ -78.777068990824191, 34.270523999692536 ], [ -78.787799990970598, 34.268803000213204 ], [ -78.791486991769574, 34.266177999747576 ], [ -78.79345799105387, 34.265884999825488 ], [ -78.795201991868481, 34.252648999608802 ], [ -78.794240991406795, 34.24742899996474 ] ] ] } },
{ "type": "Feature", "properties": { "county": null, "precinct": null, "enr_desc": "Bolton", "winner": null, "winner_votes": null, "winner_share": null, "runner_up": null, "runner_up_votes": null, "runner_up_share": null, "contest_votes": null, "margin_of_victory": null, "is_tie": false, "results": null, "participated": false, "map_key": null }, "geometry": { "type": "Polygon", "coordinates": [ [ [ -78.439657991572631, 34.144759999899847 ], [ -78.450019990880662, 34.160544999990755 ], [ -78.520428991750308, 34.243599999638029 ], [ -78.525912991220565, 34.253430999654121 ], [ -78.523653991302737, 34.254877999945549 ], [ -78.523276990802387, 34.25773100014338 ], [ -78.523930991526385, 34.258235999647091 ], [ -78.523165991443449, 34.260647999579156 ], [ -78.519277990877825, 34.260525000142053 ], [ -78.513654991666087, 34.257775999873559 ], [ -78.494079990810434, 34.256974999895952 ], [ -78.486664991671589, 34.25805399972117 ], [ -78.479207991438784, 34.26168099964795 ], [ -78.47884899172341, 34.259725999731906 ], [ -78.47601599159907, 34.259424000250981 ], [ -78.470489991020543, 34.261307999691255 ], [ -78.470057991643969, 34.262892999561089 ], [ -78.466857991536855, 34.264558999860554 ], [ -78.467313990899498, 34.268215000153596 ], [ -78.46491999118561, 34.279987999945476 ], [ -78.466839991519095, 34.285185999862705 ], [ -78.470495991707352, 34.289681000354541 ], [ -78.472557990812717, 34.294563000394653 ], [ -78.47540799162303, 34.296918000301758 ], [ -78.471405990792846, 34.299540000087454 ], [ -78.471156991230274, 34.303042000289061 ], [ -78.468347991051203, 34.306894000329613 ], [ -78.468115991695896, 34.309356999563477 ], [ -78.457119991076084, 34.31668900009182 ], [ -78.455161991830394, 34.320557999646205 ], [ -78.451659991668905, 34.332622999787084 ], [ -78.445891990878039, 34.342923999515065 ], [ -78.437380991672526, 34.34881700037689 ], [ -78.432358990995311, 34.355052999778735 ], [ -78.426267991648601, 34.360610999727605 ], [ -78.426195991865129, 34.363347000411018 ], [ -78.42273699129484, 34.369680999922643 ], [ -78.42073199137036, 34.378090000390799 ], [ -78.396914991455333, 34.370747000338838 ], [ -78.365701991143155, 34.372802999636825 ], [ -78.344586991806409, 34.369226000020682 ], [ -78.34134099089114, 34.365536000069021 ], [ -78.34092699116691, 34.364002999948426 ], [ -78.33623499153444, 34.364713000327605 ], [ -78.331106991123193, 34.364056999562337 ], [ -78.329133991741429, 34.342373000312939 ], [ -78.327183990894198, 34.309207999566055 ], [ -78.331813991238079, 34.250437000305901 ], [ -78.332141991102858, 34.236397999892539 ], [ -78.331247991874463, 34.209023000322262 ], [ -78.374294991535336, 34.204892999638034 ], [ -78.37513799096979, 34.203891999989146 ], [ -78.374748991651686, 34.202601999569623 ], [ -78.37216899152132, 34.199403000098442 ], [ -78.371782991407898, 34.197006000320826 ], [ -78.367707991053535, 34.192563999581566 ], [ -78.367965991582366, 34.190789999891848 ], [ -78.366792991133423, 34.188773999988221 ], [ -78.36913399134491, 34.188177999703463 ], [ -78.371392991747427, 34.188840000125197 ], [ -78.373650991841188, 34.188037999784555 ], [ -78.376951991384658, 34.184221999762656 ], [ -78.38272699144342, 34.181074999635022 ], [ -78.387231991237798, 34.177551999776959 ], [ -78.388108990819916, 34.175211999788232 ], [ -78.392813991222695, 34.172951999863308 ], [ -78.395348991155714, 34.168079000147273 ], [ -78.405726991378742, 34.158378000336221 ], [ -78.40716299162662, 34.154820999539922 ], [ -78.410820991011065, 34.151455999662439 ], [ -78.413667991115133, 34.15038000012855 ], [ -78.415327991631827, 34.147742999685896 ], [ -78.419291991270313, 34.144739999964173 ], [ -78.419709990869222, 34.142569999876336 ], [ -78.421544990821005, 34.140002999979416 ], [ -78.425769991322184, 34.1395250000771 ], [ -78.432108991750098, 34.140834999917608 ], [ -78.436762991527829, 34.142437000218578 ], [ -78.439657991572631, 34.144759999899847 ] ] ] } },
{ "type": "Feature", "properties": { "county": "COLUMBUS", "precinct": "P06", "enr_desc": "Cerro Gordo", "winner": "Ricky Bullard", "winner_votes": 96.0, "winner_share": 57.142857142857139, "runner_up": "Jeanne McPherson", "runner_up_votes": 66.0, "runner_up_share": 39.285714285714285, "contest_votes": 168.0, "margin_of_victory": 17.857142857142854, "is_tie": false, "results": [ { "candidate": "Ricky Bullard", "votes": 96, "share": 57.14285714285714 }, { "candidate": "Jeanne McPherson", "votes": 66, "share": 39.285714285714285 }, { "candidate": "Jody (JL) Hinson", "votes": 6, "share": 3.571428571428571 } ], "participated": true, "map_key": "COLUMBUS_P06" }, "geometry": { "type": "Polygon", "coordinates": [ [ [ -78.880814991764552, 34.272305000183081 ], [ -78.890483991419046, 34.274829999716303 ], [ -78.89167399089736, 34.275922999606642 ], [ -78.895600991131246, 34.275445000408659 ], [ -78.897681991410366, 34.275976999702614 ], [ -78.915634990879099, 34.284072999771318 ], [ -78.922811991458573, 34.286298999797808 ], [ -78.928774991197983, 34.286935000396042 ], [ -78.939394991737274, 34.291302000203423 ], [ -78.955626991739138, 34.300138000017142 ], [ -78.968096991262115, 34.302639999955581 ], [ -78.967317991681441, 34.305986000199994 ], [ -78.964931991558046, 34.308429999979204 ], [ -78.967223991506501, 34.313070999643656 ], [ -78.965572990815559, 34.317215999759185 ], [ -78.966517991071697, 34.32183799975806 ], [ -78.970532991215507, 34.322146000329262 ], [ -78.969374990908577, 34.32326800040196 ], [ -78.969194991026527, 34.324985999994531 ], [ -78.972679991171276, 34.334176000083332 ], [ -78.97294699079707, 34.337242999770574 ], [ -78.974868991318189, 34.339577999575923 ], [ -78.973959991447401, 34.343590999717797 ], [ -78.976232991097291, 34.352005000243317 ], [ -78.978513990911011, 34.357099000143286 ], [ -78.976951991720043, 34.35726100024209 ], [ -78.974341991000756, 34.359690000357645 ], [ -78.966322991680798, 34.363194000027491 ], [ -78.954844991796961, 34.362434999657928 ], [ -78.95023999127686, 34.360558000253725 ], [ -78.945385991593255, 34.356834999881059 ], [ -78.937050991298875, 34.348553999554902 ], [ -78.930697991832432, 34.3451609997582 ], [ -78.926889991717758, 34.344813999598564 ], [ -78.913639991299846, 34.346792999830669 ], [ -78.906897991410716, 34.346373999954572 ], [ -78.884638990795921, 34.334926000037164 ], [ -78.884599990855463, 34.331389000008699 ], [ -78.887509991783489, 34.331447000303136 ], [ -78.893567990801913, 34.319634999782743 ], [ -78.901561991170198, 34.312226000076961 ], [ -78.89285999114017, 34.312415000193212 ], [ -78.886176991842177, 34.311113999559467 ], [ -78.884066991669457, 34.305972000029797 ], [ -78.885532991583304, 34.302765000281056 ], [ -78.88239699145484, 34.302451999865887 ], [ -78.880540991635598, 34.300834000039288 ], [ -78.880098990928786, 34.299456000015788 ], [ -78.881847991542784, 34.294908000253308 ], [ -78.881369991178232, 34.290691999987672 ], [ -78.880523991154959, 34.289605000140725 ], [ -78.880858991244082, 34.288339000120459 ], [ -78.877674991108492, 34.284920999627914 ], [ -78.877083991104811, 34.28240299971543 ], [ -78.877186991503351, 34.279817000004272 ], [ -78.879988991727643, 34.276079999684718 ], [ -78.880814991764552, 34.272305000183081 ] ] ] } },
{ "type": "Feature", "properties": { "county": null, "precinct": null, "enr_desc": "Ransom", "winner": null, "winner_votes": null, "winner_share": null, "runner_up": null, "runner_up_votes": null, "runner_up_share": null, "contest_votes": null, "margin_of_victory": null, "is_tie": false, "results": null, "participated": false, "map_key": null }, "geometry": { "type": "Polygon", "coordinates": [ [ [ -78.331247991874463, 34.209023000322262 ], [ -78.332141991102858, 34.236397999892539 ], [ -78.331813991238079, 34.250437000305901 ], [ -78.327183990894198, 34.309207999566055 ], [ -78.329133991741429, 34.342373000312939 ], [ -78.331106991123193, 34.364056999562337 ], [ -78.33623499153444, 34.364713000327605 ], [ -78.34092699116691, 34.364002999948426 ], [ -78.34134099089114, 34.365536000069021 ], [ -78.344586991806409, 34.369226000020682 ], [ -78.334568991589194, 34.367535999726776 ], [ -78.25608499173623, 34.399468999846114 ], [ -78.25263099180691, 34.391208000173521 ], [ -78.250943991156461, 34.391247999916352 ], [ -78.247791991374115, 34.3938679998409 ], [ -78.246615991015972, 34.393312999591238 ], [ -78.244999991311374, 34.389922999802337 ], [ -78.245599991161598, 34.385087000383955 ], [ -78.24287999180423, 34.384289999805475 ], [ -78.236709991042559, 34.380447999836278 ], [ -78.236137991723069, 34.375769999601772 ], [ -78.235155991661031, 34.374228000120596 ], [ -78.232676990843714, 34.373970999709023 ], [ -78.231164991562665, 34.375613999496849 ], [ -78.230274990971594, 34.378289999596156 ], [ -78.228796991045314, 34.378927999831518 ], [ -78.228027991760925, 34.378323000034761 ], [ -78.227891991249734, 34.376198999651919 ], [ -78.224779991754232, 34.373502999659614 ], [ -78.220117991019421, 34.371418000004283 ], [ -78.210594990817413, 34.368794999631767 ], [ -78.209959991548828, 34.367671000273901 ], [ -78.21174999173887, 34.362603999615089 ], [ -78.210193991075599, 34.35795999954081 ], [ -78.202531991115791, 34.353305999664251 ], [ -78.192887991672748, 34.352674999723043 ], [ -78.183997991312452, 34.353747000335147 ], [ -78.179272991682311, 34.355277999982533 ], [ -78.177188991843579, 34.354476000317746 ], [ -78.174691991876145, 34.351245999531052 ], [ -78.169806991780149, 34.356801000391094 ], [ -78.162191991744123, 34.357239999509183 ], [ -78.254621991241905, 34.216304999625059 ], [ -78.331247991874463, 34.209023000322262 ] ] ] } },
{ "type": "Feature", "properties": { "county": "COLUMBUS", "precinct": "P15", "enr_desc": "Tatum", "winner": "Ricky Bullard", "winner_votes": 63.0, "winner_share": 50.4, "runner_up": "Jeanne McPherson", "runner_up_votes": 49.0, "runner_up_share": 39.2, "contest_votes": 125.0, "margin_of_victory": 11.2, "is_tie": false, "results": [ { "candidate": "Ricky Bullard", "votes": 63, "share": 50.4 }, { "candidate": "Jeanne McPherson", "votes": 49, "share": 39.2 }, { "candidate": "Jody (JL) Hinson", "votes": 13, "share": 10.4 } ], "participated": true, "map_key": "COLUMBUS_P15" }, "geometry": { "type": "Polygon", "coordinates": [ [ [ -78.825217991141074, 34.461761999834778 ], [ -78.825439991412907, 34.453061000383777 ], [ -78.823382990806962, 34.453491999878821 ], [ -78.820590991533408, 34.455759000113275 ], [ -78.815659991027289, 34.457393999684633 ], [ -78.813076991735286, 34.454204999596556 ], [ -78.810669991255253, 34.448209000223095 ], [ -78.805194990881006, 34.443979999875246 ], [ -78.802712990872493, 34.443158000382638 ], [ -78.793965991310998, 34.443190000190924 ], [ -78.797976991087609, 34.432842000213697 ], [ -78.796187991184908, 34.428864000007117 ], [ -78.796694991560997, 34.424491000298637 ], [ -78.788283990963805, 34.425713000003761 ], [ -78.784808991862548, 34.4233990000821 ], [ -78.782727991666619, 34.423882000220253 ], [ -78.775100991765925, 34.420292000132633 ], [ -78.773836991344723, 34.420451000149811 ], [ -78.773513990806876, 34.417774999537166 ], [ -78.774171991202408, 34.416728000259575 ], [ -78.782125990823374, 34.412240999839469 ], [ -78.788106991493578, 34.405058000339075 ], [ -78.801542991429898, 34.399311000124541 ], [ -78.804599991463235, 34.396163999627554 ], [ -78.810369991733097, 34.393847999900466 ], [ -78.821517991006431, 34.392303000037693 ], [ -78.83078199153465, 34.375709999621762 ], [ -78.831217991641182, 34.371827999711307 ], [ -78.830211991200258, 34.360504000082486 ], [ -78.849497991529191, 34.377726000199019 ], [ -78.855225991777871, 34.380928000346522 ], [ -78.858088991854132, 34.379617000281598 ], [ -78.859348990936411, 34.378088000170955 ], [ -78.859819991232399, 34.375075000434165 ], [ -78.858973991311231, 34.372284000086566 ], [ -78.858701990982965, 34.365574000221685 ], [ -78.863689991501943, 34.351834000137899 ], [ -78.868304990952808, 34.343561000102888 ], [ -78.881022991433355, 34.334994000327647 ], [ -78.884638990795921, 34.334926000037164 ], [ -78.906897991410716, 34.346373999954572 ], [ -78.913639991299846, 34.346792999830669 ], [ -78.926889991717758, 34.344813999598564 ], [ -78.930697991832432, 34.3451609997582 ], [ -78.937050991298875, 34.348553999554902 ], [ -78.945385991593255, 34.356834999881059 ], [ -78.95023999127686, 34.360558000253725 ], [ -78.954844991796961, 34.362434999657928 ], [ -78.966322991680798, 34.363194000027491 ], [ -78.974341991000756, 34.359690000357645 ], [ -78.976951991720043, 34.35726100024209 ], [ -78.978513990911011, 34.357099000143286 ], [ -78.983076991080054, 34.352816999874676 ], [ -78.984082991664579, 34.352685000135047 ], [ -78.986414991138346, 34.348371999637578 ], [ -78.988567990824734, 34.348462999553547 ], [ -78.989947991739257, 34.346699000120388 ], [ -78.997648990820977, 34.345549999560568 ], [ -79.011682991415086, 34.33923200006781 ], [ -79.013506990823075, 34.336416999616716 ], [ -79.013093991384025, 34.334424000346466 ], [ -79.014942990967796, 34.33410400001457 ], [ -79.019416991140346, 34.330717000407347 ], [ -79.022728990815452, 34.330627000051749 ], [ -79.025020991482407, 34.32836099983718 ], [ -79.027007990987968, 34.328110000100075 ], [ -79.027008991609549, 34.326095000048632 ], [ -79.028002990879912, 34.324561000050636 ], [ -79.034399991610314, 34.322570999592955 ], [ -79.034871991349675, 34.32320499999318 ], [ -79.033907991512606, 34.325067000077269 ], [ -79.036939991198807, 34.326183000145953 ], [ -79.034912991446177, 34.327187999884231 ], [ -79.036463990926237, 34.328822000304839 ], [ -79.034758991380343, 34.329886000316804 ], [ -79.03729499173842, 34.332991000364586 ], [ -79.036604991757656, 34.334286999600124 ], [ -79.035665991606677, 34.333509000087084 ], [ -79.035003991039048, 34.333874000216476 ], [ -79.035647990812151, 34.336722999586947 ], [ -79.033571991715647, 34.337161000270804 ], [ -79.034458991243454, 34.338422999764376 ], [ -79.030442991422674, 34.340123999686895 ], [ -79.031983991462226, 34.341273000333167 ], [ -79.032247991799395, 34.342738000069751 ], [ -79.028716991052548, 34.342747000152578 ], [ -79.028737991805286, 34.345491000449599 ], [ -79.030336991086827, 34.346073999977769 ], [ -79.030424990932303, 34.346827000400978 ], [ -79.028503990791151, 34.346827000042133 ], [ -79.026817991558872, 34.348859000443753 ], [ -79.025802991110282, 34.347880000352667 ], [ -79.025061991388583, 34.348155000365438 ], [ -79.02591099132232, 34.349879000247164 ], [ -79.024965991279842, 34.351669000208958 ], [ -79.027003991837816, 34.351869999790758 ], [ -79.027111990932838, 34.353068000053611 ], [ -79.025872991124018, 34.353384000211044 ], [ -79.023931991781865, 34.352163000240132 ], [ -79.022000990827095, 34.353214999828666 ], [ -79.021854991436925, 34.351684999726992 ], [ -79.018518991584301, 34.35215500029674 ], [ -79.017884991087342, 34.351394999591861 ], [ -79.018664991392939, 34.350634000050384 ], [ -79.017513991475042, 34.350027000235457 ], [ -79.016528991300277, 34.350294000290667 ], [ -79.016773991019477, 34.351799000065348 ], [ -79.011321991701664, 34.351897000235802 ], [ -79.010638991647895, 34.352998000393953 ], [ -79.009536990857896, 34.352584999872157 ], [ -79.009107990940521, 34.353670000170283 ], [ -79.010705991610038, 34.355215000324556 ], [ -79.009273991296041, 34.355192000371559 ], [ -79.009527990980487, 34.356454999816123 ], [ -79.007927991249531, 34.356803000266268 ], [ -79.007371991147394, 34.358494999854955 ], [ -79.005567991836784, 34.359434000048438 ], [ -79.008064991243884, 34.361449000239922 ], [ -79.004982991422537, 34.361829999651022 ], [ -79.003821991810511, 34.361231000158028 ], [ -79.004055991863368, 34.362785000325438 ], [ -79.000807991315469, 34.364452999631389 ], [ -79.001656991429741, 34.365626999742659 ], [ -79.00204699142401, 34.364379999707772 ], [ -79.002827991058126, 34.364550000322517 ], [ -79.002892991604639, 34.368892000009737 ], [ -79.004919991338312, 34.36970400032223 ], [ -79.004528991457178, 34.370900999608146 ], [ -79.005627991437791, 34.372895000280394 ], [ -79.006594990997684, 34.372139999644411 ], [ -79.00740799167103, 34.372500999948656 ], [ -79.006668990892294, 34.373943000141445 ], [ -79.007308991479377, 34.374350000014509 ], [ -79.007427991155282, 34.376805000422443 ], [ -79.008762991259076, 34.37774599981433 ], [ -79.010223990860936, 34.37695199983051 ], [ -79.00943099093324, 34.378092999732843 ], [ -79.010042991398976, 34.379163999857703 ], [ -79.009592990785535, 34.380034000238965 ], [ -79.011397991021909, 34.38005700030876 ], [ -79.011610991309425, 34.380887000326268 ], [ -79.008474991787878, 34.382349999696643 ], [ -79.006911991539326, 34.381460999684187 ], [ -79.007134991611565, 34.383053999600769 ], [ -79.006364991538803, 34.383609999955851 ], [ -79.00225899122016, 34.384253999787369 ], [ -78.998595991636037, 34.390980000229604 ], [ -78.99489599147914, 34.390352000024279 ], [ -78.994991991861539, 34.392573999993751 ], [ -78.991278990988661, 34.392678999794491 ], [ -78.988413991490518, 34.394148999769641 ], [ -78.987598991198439, 34.392991999966405 ], [ -78.98353499118376, 34.393842999718984 ], [ -78.982887990901972, 34.392286999568213 ], [ -78.978522990820466, 34.392648000222366 ], [ -78.979694991274243, 34.390860000058794 ], [ -78.977250991100604, 34.390350999964745 ], [ -78.973509991079524, 34.392127999772924 ], [ -78.975686991377032, 34.39392499977189 ], [ -78.975741991350063, 34.395917000178386 ], [ -78.973955991641972, 34.394748999705996 ], [ -78.972470991136092, 34.395757999723578 ], [ -78.969902991498586, 34.395156000061569 ], [ -78.970348991079874, 34.396601000261114 ], [ -78.968082991689059, 34.397433999599073 ], [ -78.969454991191583, 34.398490000200511 ], [ -78.969085991114738, 34.399748999946105 ], [ -78.969889991491968, 34.401213000367406 ], [ -78.968649991080895, 34.401138999928598 ], [ -78.967175991636722, 34.402221999617495 ], [ -78.968314991754355, 34.403445000021875 ], [ -78.967944991631185, 34.405722999980156 ], [ -78.969630991757754, 34.405955000314393 ], [ -78.968335990976044, 34.407047000098466 ], [ -78.968803990850205, 34.40870500018584 ], [ -78.967283990946015, 34.410779999679058 ], [ -78.968143991314321, 34.411455999664554 ], [ -78.970020991652234, 34.409594999717768 ], [ -78.971036991440073, 34.410197000118693 ], [ -78.967874991099393, 34.412984000279245 ], [ -78.969695991767651, 34.412983999743908 ], [ -78.970230991158871, 34.415254000058653 ], [ -78.968309991127754, 34.415993999943964 ], [ -78.968063991073521, 34.41686500005369 ], [ -78.971859991423926, 34.417810000277164 ], [ -78.971077990832597, 34.419069999643433 ], [ -78.969268991797165, 34.419216999631558 ], [ -78.969144991794394, 34.420736000212266 ], [ -78.967402991066365, 34.422347000417147 ], [ -78.969278991743778, 34.422439999927114 ], [ -78.969992991246315, 34.424338999976847 ], [ -78.968182991690625, 34.425089000309185 ], [ -78.971186991429008, 34.427470000325961 ], [ -78.969599991104346, 34.429682999642225 ], [ -78.968281991631912, 34.429692000103387 ], [ -78.966783991634571, 34.431233000275967 ], [ -78.966067991109796, 34.435443000323161 ], [ -78.96215799106875, 34.437590000210371 ], [ -78.96078299078907, 34.439285000383734 ], [ -78.959831991267507, 34.44289699966513 ], [ -78.956313991292049, 34.442909999644328 ], [ -78.955373991616639, 34.444516000092804 ], [ -78.953765991764513, 34.44361699960875 ], [ -78.954277991112235, 34.445506000309621 ], [ -78.951807991037882, 34.448755999854903 ], [ -78.94948399185958, 34.44902400022454 ], [ -78.948320991122756, 34.449967999681206 ], [ -78.945729991547424, 34.449069000314225 ], [ -78.944867991019549, 34.451281999760745 ], [ -78.942499991653023, 34.451780999843379 ], [ -78.941124991670918, 34.453601000260349 ], [ -78.938960990919512, 34.451612999841949 ], [ -78.936755990905326, 34.451731000394936 ], [ -78.935050991841322, 34.453705999928594 ], [ -78.937236991729208, 34.454686999927439 ], [ -78.936824991390921, 34.455341000395627 ], [ -78.932935991649131, 34.453897999659183 ], [ -78.929367991355065, 34.455025000192478 ], [ -78.92893899136601, 34.453701999673861 ], [ -78.927182991775766, 34.453820000297753 ], [ -78.925211991745385, 34.452823999998124 ], [ -78.921643991629509, 34.453860999848565 ], [ -78.918616990879769, 34.451809000442111 ], [ -78.91707399160866, 34.453279000361619 ], [ -78.918379991137385, 34.455879999975728 ], [ -78.919866991279051, 34.45654899990145 ], [ -78.920886991794262, 34.458333000408516 ], [ -78.919899990788721, 34.459297999974147 ], [ -78.916996991636097, 34.458299999893441 ], [ -78.914055991587801, 34.459159999662482 ], [ -78.908538991674405, 34.455872000207719 ], [ -78.90685399186269, 34.455841000011276 ], [ -78.903732991430033, 34.457829999681678 ], [ -78.907279991580197, 34.460091000137346 ], [ -78.90633199083598, 34.462245000029348 ], [ -78.902505991180817, 34.461107999762064 ], [ -78.901125991785193, 34.459907000359635 ], [ -78.895531991793092, 34.462280999690847 ], [ -78.893137991271601, 34.465352000162724 ], [ -78.894518991818757, 34.468377999833024 ], [ -78.891061991327746, 34.467636999658609 ], [ -78.888879991714461, 34.468719999746888 ], [ -78.887738991705476, 34.470658999827386 ], [ -78.885741991180652, 34.471087000328481 ], [ -78.883744991043244, 34.472686999561311 ], [ -78.88182199155294, 34.47277400011891 ], [ -78.881588991088748, 34.475263000356797 ], [ -78.86996299124155, 34.482069999793545 ], [ -78.868960990926567, 34.484778000288763 ], [ -78.863364990996956, 34.484746999723662 ], [ -78.860318990871107, 34.483175999834302 ], [ -78.858062991573604, 34.474411000371312 ], [ -78.849873990811176, 34.473618999724202 ], [ -78.849252991322189, 34.47193200035457 ], [ -78.844712991813282, 34.468882000188074 ], [ -78.837635991539614, 34.467561000031552 ], [ -78.830352991268001, 34.462577999953169 ], [ -78.825217991141074, 34.461761999834778 ] ] ] } },
{ "type": "Feature", "properties": { "county": null, "precinct": null, "enr_desc": "Waccamaw", "winner": null, "winner_votes": null, "winner_share": null, "runner_up": null, "runner_up_votes": null, "runner_up_share": null, "contest_votes": null, "margin_of_victory": null, "is_tie": false, "results": null, "participated": false, "map_key": null }, "geometry": { "type": "Polygon", "coordinates": [ [ [ -78.551178991388966, 34.420161000074643 ], [ -78.445319991391415, 34.377400000311269 ], [ -78.42073199137036, 34.378090000390799 ], [ -78.42273699129484, 34.369680999922643 ], [ -78.426195991865129, 34.363347000411018 ], [ -78.426267991648601, 34.360610999727605 ], [ -78.432358990995311, 34.355052999778735 ], [ -78.437380991672526, 34.34881700037689 ], [ -78.445891990878039, 34.342923999515065 ], [ -78.451659991668905, 34.332622999787084 ], [ -78.455161991830394, 34.320557999646205 ], [ -78.457119991076084, 34.31668900009182 ], [ -78.468115991695896, 34.309356999563477 ], [ -78.468347991051203, 34.306894000329613 ], [ -78.471156991230274, 34.303042000289061 ], [ -78.471405990792846, 34.299540000087454 ], [ -78.47540799162303, 34.296918000301758 ], [ -78.472557990812717, 34.294563000394653 ], [ -78.470495991707352, 34.289681000354541 ], [ -78.466839991519095, 34.285185999862705 ], [ -78.46491999118561, 34.279987999945476 ], [ -78.467313990899498, 34.268215000153596 ], [ -78.466857991536855, 34.264558999860554 ], [ -78.470057991643969, 34.262892999561089 ], [ -78.470489991020543, 34.261307999691255 ], [ -78.47601599159907, 34.259424000250981 ], [ -78.47884899172341, 34.259725999731906 ], [ -78.479207991438784, 34.26168099964795 ], [ -78.486664991671589, 34.25805399972117 ], [ -78.494079990810434, 34.256974999895952 ], [ -78.513654991666087, 34.257775999873559 ], [ -78.519277990877825, 34.260525000142053 ], [ -78.523165991443449, 34.260647999579156 ], [ -78.524694991204214, 34.261693999751074 ], [ -78.528619991581976, 34.268350000041146 ], [ -78.538198991599501, 34.275006000394846 ], [ -78.53903999151089, 34.277359000072842 ], [ -78.549159991570377, 34.290669000000641 ], [ -78.551743991029966, 34.292346999548492 ], [ -78.552186991779465, 34.293458000110434 ], [ -78.551527990976524, 34.294033999963972 ], [ -78.549462990924482, 34.292880000188575 ], [ -78.550075991329905, 34.298787000080885 ], [ -78.553348991238209, 34.301542999648724 ], [ -78.553195991541855, 34.304051000122655 ], [ -78.551864991241985, 34.307063000272976 ], [ -78.546021991527311, 34.312604999889622 ], [ -78.543018990808903, 34.314489999934963 ], [ -78.537466991440965, 34.31634900026355 ], [ -78.539600991800981, 34.34491599958762 ], [ -78.540896990936361, 34.350689000113064 ], [ -78.546780991400198, 34.361073999765239 ], [ -78.555726991467026, 34.369161000236716 ], [ -78.56324099079616, 34.37288000016823 ], [ -78.585260990979648, 34.395759999711117 ], [ -78.55855699140524, 34.416327000204184 ], [ -78.553874991547914, 34.417884000220532 ], [ -78.551178991388966, 34.420161000074643 ] ] ] } },
{ "type": "Feature", "properties": { "county": null, "precinct": null, "enr_desc": "Whiteville 1", "winner": null, "winner_votes": null, "winner_share": null, "runner_up": null, "runner_up_votes": null, "runner_up_share": null, "contest_votes": null, "margin_of_victory": null, "is_tie": false, "results": null, "participated": false, "map_key": null }, "geometry": { "type": "Polygon", "coordinates": [ [ [ -78.678800991512119, 34.340663999988962 ], [ -78.680906991340507, 34.330739000375452 ], [ -78.682702991620928, 34.330552999990182 ], [ -78.683283991757705, 34.331988000240109 ], [ -78.692997991394478, 34.330705999777791 ], [ -78.694070991220769, 34.329865999791664 ], [ -78.714199991026945, 34.329045000377327 ], [ -78.714245991230101, 34.327023000020759 ], [ -78.715174991453893, 34.327088999581392 ], [ -78.717482990842583, 34.327942999633237 ], [ -78.714799991584258, 34.328001000004633 ], [ -78.714959991665935, 34.330113999909919 ], [ -78.723626990934974, 34.33008600014891 ], [ -78.722484991253751, 34.332207999804226 ], [ -78.71406699146425, 34.332653999745609 ], [ -78.714971991268825, 34.336753000152449 ], [ -78.718952991228548, 34.336182000271407 ], [ -78.721498991753464, 34.334044999643403 ], [ -78.721366991643492, 34.335357999585277 ], [ -78.723166991708652, 34.335128999694376 ], [ -78.723527991237901, 34.336965999882437 ], [ -78.727090990812769, 34.338272000092196 ], [ -78.728659991621313, 34.339874999970704 ], [ -78.724539991673268, 34.340281999581258 ], [ -78.723997991245412, 34.341928999875869 ], [ -78.722906991172678, 34.342130000240779 ], [ -78.723284991671989, 34.338118999756503 ], [ -78.715780990884937, 34.339000000393483 ], [ -78.715963991350421, 34.339954000289246 ], [ -78.714115991183533, 34.340266000146713 ], [ -78.715010991579717, 34.34305199991811 ], [ -78.712973991658743, 34.3430349997045 ], [ -78.712947991299046, 34.344244999784955 ], [ -78.71100199088275, 34.343481000234803 ], [ -78.712999991549623, 34.34911200038804 ], [ -78.70147799133855, 34.350992000283071 ], [ -78.680115991659179, 34.349997000054941 ], [ -78.677876991266913, 34.345022000084164 ], [ -78.678800991512119, 34.340663999988962 ] ] ] } },
{ "type": "Feature", "properties": { "county": "COLUMBUS", "precinct": "P22A", "enr_desc": "South Whiteville", "winner": "Jeanne McPherson", "winner_votes": 39.0, "winner_share": 67.241379310344826, "runner_up": "Ricky Bullard", "runner_up_votes": 15.0, "runner_up_share": 25.862068965517242, "contest_votes": 58.0, "margin_of_victory": 41.379310344827587, "is_tie": false, "results": [ { "candidate": "Jeanne McPherson", "votes": 39, "share": 67.24137931034483 }, { "candidate": "Ricky Bullard", "votes": 15, "share": 25.862068965517242 }, { "candidate": "Jody (JL) Hinson", "votes": 4, "share": 6.896551724137931 } ], "participated": true, "map_key": "COLUMBUS_P22A" }, "geometry": { "type": "Polygon", "coordinates": [ [ [ -78.725138991518804, 34.211976000325819 ], [ -78.726966991287071, 34.218440999901084 ], [ -78.726720991350462, 34.224762999881619 ], [ -78.731054991846463, 34.224785999578366 ], [ -78.734000991613556, 34.22979399997795 ], [ -78.735269991556706, 34.230219999837743 ], [ -78.73459499097018, 34.233023999674039 ], [ -78.740810991102876, 34.233128000330808 ], [ -78.742079990920175, 34.234304000048681 ], [ -78.755379991191674, 34.235145000233778 ], [ -78.767213991216707, 34.238533999904035 ], [ -78.773839991830869, 34.239242999933019 ], [ -78.776526991339196, 34.240403000297626 ], [ -78.779077990935164, 34.243303999734763 ], [ -78.789024991045963, 34.247686999788989 ], [ -78.793151991487463, 34.248205000180654 ], [ -78.794240991406795, 34.24742899996474 ], [ -78.795201991868481, 34.252648999608802 ], [ -78.79345799105387, 34.265884999825488 ], [ -78.791486991769574, 34.266177999747576 ], [ -78.787799990970598, 34.268803000213204 ], [ -78.777068990824191, 34.270523999692536 ], [ -78.779382991032037, 34.274656000270006 ], [ -78.785218991486573, 34.277604999722705 ], [ -78.786729991075859, 34.280616000422988 ], [ -78.786252991565306, 34.283435000375327 ], [ -78.785148991056587, 34.284583999813471 ], [ -78.786009991596345, 34.286250000267835 ], [ -78.78458399151441, 34.286609000182487 ], [ -78.782538991660203, 34.293496000174613 ], [ -78.779922991026623, 34.297609999925285 ], [ -78.778590991276062, 34.297539000388966 ], [ -78.775826991528064, 34.298345000052485 ], [ -78.774061991454687, 34.296856000182906 ], [ -78.770531991278347, 34.296099000388779 ], [ -78.76768999100679, 34.296830999574603 ], [ -78.76451799153692, 34.296142999747197 ], [ -78.756046991015623, 34.297695999750616 ], [ -78.751412991794325, 34.297052999795739 ], [ -78.747875990825179, 34.300171000314052 ], [ -78.74684499159919, 34.303450000177122 ], [ -78.742990991250593, 34.308099999818253 ], [ -78.738460991665534, 34.310840000190211 ], [ -78.715103991255944, 34.318391999858498 ], [ -78.709119991140994, 34.318440999760902 ], [ -78.71264199092775, 34.313230000257043 ], [ -78.713810991778089, 34.313693000019256 ], [ -78.714706991758717, 34.312343999691727 ], [ -78.716102991113473, 34.312972000140057 ], [ -78.716704991664315, 34.311995000035665 ], [ -78.717404991461365, 34.312294999805793 ], [ -78.71738199169684, 34.310866999971395 ], [ -78.716228991056255, 34.310344000109183 ], [ -78.716682991616977, 34.309650999713071 ], [ -78.717434990910007, 34.309475000349281 ], [ -78.71853699082429, 34.311471999576654 ], [ -78.720114991259791, 34.310892000209783 ], [ -78.718678991141957, 34.309060999759168 ], [ -78.721627990950068, 34.308000000410132 ], [ -78.723069990966934, 34.305624999957843 ], [ -78.721403991719484, 34.305048000379884 ], [ -78.722964990801032, 34.30390899996047 ], [ -78.721950990922664, 34.301380999876173 ], [ -78.726279990795405, 34.297915999754395 ], [ -78.725488990843445, 34.297192000025511 ], [ -78.72703899142391, 34.295981999609133 ], [ -78.726060990939033, 34.295391999534658 ], [ -78.728208991320969, 34.293668999610524 ], [ -78.725965991389401, 34.292814999987613 ], [ -78.72502099107092, 34.293435999959598 ], [ -78.724932990844337, 34.294694999544383 ], [ -78.723993991761802, 34.294590999667122 ], [ -78.724317991456402, 34.297007000188927 ], [ -78.718821991485925, 34.301198000329379 ], [ -78.716289991719577, 34.300322000166325 ], [ -78.713317991598032, 34.303853999920769 ], [ -78.713389991170331, 34.305131000409304 ], [ -78.711626990961932, 34.306570999772021 ], [ -78.71085699154159, 34.305981999715655 ], [ -78.708115990923375, 34.307765000279524 ], [ -78.703731990939147, 34.314445999607841 ], [ -78.691351991724005, 34.312343000024811 ], [ -78.691688991641428, 34.322238000198887 ], [ -78.682700991005206, 34.322279999792102 ], [ -78.680906991340507, 34.330739000375452 ], [ -78.678800991512119, 34.340663999988962 ], [ -78.672820991513163, 34.342622999637975 ], [ -78.671093991677211, 34.341249000184412 ], [ -78.670287991686621, 34.337296000335932 ], [ -78.671897991265965, 34.336017000118581 ], [ -78.671076991556149, 34.334800999933535 ], [ -78.672316991421951, 34.334324000177993 ], [ -78.671533990946457, 34.333683999920552 ], [ -78.672145991638345, 34.333154999777271 ], [ -78.671625990837313, 34.332213000192858 ], [ -78.672505991122804, 34.330902000315014 ], [ -78.673386990893832, 34.331060000353183 ], [ -78.673469991564545, 34.329450999936277 ], [ -78.675021991558168, 34.329320000217884 ], [ -78.674477991049372, 34.327587999980345 ], [ -78.676316991813138, 34.327010999992567 ], [ -78.678007991613455, 34.32526499965028 ], [ -78.679403991830767, 34.320686999534331 ], [ -78.679153991405002, 34.318962000323431 ], [ -78.676878990864736, 34.315610999528438 ], [ -78.676136991100492, 34.303482999728956 ], [ -78.678335990810325, 34.301927999610029 ], [ -78.679408991082454, 34.298935999889501 ], [ -78.677216990900988, 34.29218600010995 ], [ -78.676525990894078, 34.287273999914923 ], [ -78.680763991361303, 34.285720999841246 ], [ -78.700061991646152, 34.284526999908131 ], [ -78.70129799095335, 34.286818999909407 ], [ -78.720765991767365, 34.279665999904026 ], [ -78.729012991312914, 34.279329000244942 ], [ -78.729806990832913, 34.266113999660945 ], [ -78.727919991854321, 34.261280999696176 ], [ -78.724607991061148, 34.259864999744195 ], [ -78.72516899150817, 34.25455599996576 ], [ -78.722254991458897, 34.24366000038323 ], [ -78.71717699160213, 34.238237999750361 ], [ -78.717155991234065, 34.234511000343076 ], [ -78.719431990827772, 34.228915999601405 ], [ -78.718657991803184, 34.22567999974256 ], [ -78.722613991665014, 34.222979999911523 ], [ -78.723086991601448, 34.213409000397576 ], [ -78.725138991518804, 34.211976000325819 ] ] ] } },
{ "type": "Feature", "properties": { "county": "COLUMBUS", "precinct": "P26B", "enr_desc": "South Williams", "winner": "Jeanne McPherson", "winner_votes": 0.0, "winner_share": null, "runner_up": "Jody (JL) Hinson", "runner_up_votes": 0.0, "runner_up_share": null, "contest_votes": 0.0, "margin_of_victory": null, "is_tie": false, "results": [ { "candidate": "Jeanne McPherson", "votes": 0, "share": "0" }, { "candidate": "Jody (JL) Hinson", "votes": 0, "share": "0" }, { "candidate": "Ricky Bullard", "votes": 0, "share": "0" } ], "participated": true, "map_key": "COLUMBUS_P26B" }, "geometry": { "type": "Polygon", "coordinates": [ [ [ -78.797870991320195, 34.069258000131128 ], [ -78.930891991696214, 34.181485999818122 ], [ -78.910769991019691, 34.197381999790856 ], [ -78.90651299125426, 34.204125999951629 ], [ -78.896157990990346, 34.204139000336738 ], [ -78.896354990851989, 34.19695000021779 ], [ -78.885846991156669, 34.197143000378169 ], [ -78.885556991655122, 34.190854999772341 ], [ -78.869037991556212, 34.1885849997199 ], [ -78.864966991480927, 34.185556999879026 ], [ -78.863640991484417, 34.182507999915295 ], [ -78.861082990877193, 34.180590000219645 ], [ -78.861242991331139, 34.178352000322391 ], [ -78.860127990863475, 34.176832999696934 ], [ -78.86146099173726, 34.17108999964239 ], [ -78.861677991000548, 34.165968000241953 ], [ -78.8572749918211, 34.158855000195324 ], [ -78.851364991136208, 34.160385000115262 ], [ -78.851650990923247, 34.161191999768867 ], [ -78.854836991575183, 34.16188399986919 ], [ -78.85653999167647, 34.164385999917165 ], [ -78.852477991717464, 34.166753000352998 ], [ -78.851508991393558, 34.166695000114537 ], [ -78.851656991170685, 34.164914000019067 ], [ -78.850728990961329, 34.16486500038986 ], [ -78.850973991247585, 34.163896999962915 ], [ -78.851735990956186, 34.163940999545872 ], [ -78.851424991327363, 34.161295999884523 ], [ -78.847691991521202, 34.162074000282061 ], [ -78.846882990896191, 34.163881000011266 ], [ -78.8498079908439, 34.164488999662204 ], [ -78.847271991873725, 34.166745000284486 ], [ -78.844553991183716, 34.165903999657509 ], [ -78.844872991655492, 34.165191999570446 ], [ -78.843644991342288, 34.164813000047211 ], [ -78.843839991242064, 34.163203000419401 ], [ -78.842046991671495, 34.164479000411013 ], [ -78.84163199140734, 34.16383799977126 ], [ -78.837308991302748, 34.166022000366496 ], [ -78.834379991126639, 34.166325999584444 ], [ -78.833786991856002, 34.165057999770049 ], [ -78.853728991800878, 34.157779000062604 ], [ -78.853072991826934, 34.15706999972447 ], [ -78.855180991033933, 34.157221000378854 ], [ -78.854408991820492, 34.156345999723705 ], [ -78.854913991149886, 34.156064999812926 ], [ -78.853059991810596, 34.149573999676726 ], [ -78.853517991613003, 34.146683000003321 ], [ -78.85183599084489, 34.144221999849563 ], [ -78.844732991379004, 34.144079999755519 ], [ -78.837993991418031, 34.141269999928355 ], [ -78.82793299175394, 34.14686999992977 ], [ -78.8252789908409, 34.146877999891018 ], [ -78.821811990945235, 34.145530000316732 ], [ -78.810297991463528, 34.147271000082277 ], [ -78.803687991123198, 34.144773999828594 ], [ -78.79641299127816, 34.146035999675263 ], [ -78.787113991335929, 34.149525000409206 ], [ -78.781696991168147, 34.148977000261546 ], [ -78.777236991426548, 34.151777000135645 ], [ -78.770435991440195, 34.151310999679858 ], [ -78.766700991231758, 34.147355999949596 ], [ -78.767002991244141, 34.141631999596783 ], [ -78.76590699118934, 34.139947000193736 ], [ -78.765849991334278, 34.137738999934811 ], [ -78.760761990857475, 34.135419000028662 ], [ -78.760107991883046, 34.130197999942474 ], [ -78.758805991145877, 34.127277999540347 ], [ -78.756027991196291, 34.124390999920536 ], [ -78.754244991049902, 34.120158999788842 ], [ -78.754907991390652, 34.118754000126827 ], [ -78.756883991283772, 34.118532999875754 ], [ -78.762592991556943, 34.120250000178707 ], [ -78.759665991763029, 34.118289999679781 ], [ -78.754468991331592, 34.116933000108503 ], [ -78.749807990966602, 34.113663999872756 ], [ -78.748429990881789, 34.114481000170876 ], [ -78.746815991232907, 34.114117999970034 ], [ -78.745684991417519, 34.11097500023525 ], [ -78.74366499123623, 34.112001000421031 ], [ -78.7400849910495, 34.110598000384279 ], [ -78.738375991094188, 34.106157000366935 ], [ -78.729261991754711, 34.100619000137534 ], [ -78.727973991536885, 34.09906799986237 ], [ -78.726761991215966, 34.098954000373411 ], [ -78.724147991077061, 34.092776000050975 ], [ -78.718730991146373, 34.085210999747339 ], [ -78.722235991886819, 34.084202000190288 ], [ -78.726433991507562, 34.084491000170125 ], [ -78.731056991601108, 34.083145000148214 ], [ -78.735636991311495, 34.082889000079156 ], [ -78.73838099127461, 34.084434000210983 ], [ -78.744316991530155, 34.089989000158461 ], [ -78.749235991779145, 34.092216999851146 ], [ -78.751606991174796, 34.092280000130003 ], [ -78.761191991184489, 34.086469999634787 ], [ -78.768077991304338, 34.084027999588088 ], [ -78.77088799119673, 34.079024000259693 ], [ -78.77395199110434, 34.076049000397113 ], [ -78.780439991267741, 34.075194999982081 ], [ -78.788331991284693, 34.071355000034785 ], [ -78.795884991677624, 34.071875999990162 ], [ -78.797153991079227, 34.071300999853491 ], [ -78.797870991320195, 34.069258000131128 ] ] ] } },
{ "type": "Feature", "properties": { "county": null, "precinct": null, "enr_desc": "Nw Whiteville", "winner": null, "winner_votes": null, "winner_share": null, "runner_up": null, "runner_up_votes": null, "runner_up_share": null, "contest_votes": null, "margin_of_victory": null, "is_tie": false, "results": null, "participated": false, "map_key": null }, "geometry": { "type": "Polygon", "coordinates": [ [ [ -78.79753099161826, 34.376380000425279 ], [ -78.800087991699002, 34.380171999788296 ], [ -78.803353991305741, 34.393963999997759 ], [ -78.804599991463235, 34.396163999627554 ], [ -78.801542991429898, 34.399311000124541 ], [ -78.788106991493578, 34.405058000339075 ], [ -78.782125990823374, 34.412240999839469 ], [ -78.774171991202408, 34.416728000259575 ], [ -78.773513990806876, 34.417774999537166 ], [ -78.773836991344723, 34.420451000149811 ], [ -78.775100991765925, 34.420292000132633 ], [ -78.782727991666619, 34.423882000220253 ], [ -78.784808991862548, 34.4233990000821 ], [ -78.788283990963805, 34.425713000003761 ], [ -78.796694991560997, 34.424491000298637 ], [ -78.796187991184908, 34.428864000007117 ], [ -78.797976991087609, 34.432842000213697 ], [ -78.793965991310998, 34.443190000190924 ], [ -78.802712990872493, 34.443158000382638 ], [ -78.805194990881006, 34.443979999875246 ], [ -78.810669991255253, 34.448209000223095 ], [ -78.813076991735286, 34.454204999596556 ], [ -78.815659991027289, 34.457393999684633 ], [ -78.820590991533408, 34.455759000113275 ], [ -78.823382990806962, 34.453491999878821 ], [ -78.825439991412907, 34.453061000383777 ], [ -78.825217991141074, 34.461761999834778 ], [ -78.670430991110891, 34.469888999678972 ], [ -78.667587991569007, 34.469644999555541 ], [ -78.666384991337722, 34.464651999788941 ], [ -78.663851990964261, 34.462417999622708 ], [ -78.656446990882017, 34.460338000195456 ], [ -78.656367991096928, 34.459170999531061 ], [ -78.659281991219032, 34.453589999876598 ], [ -78.648372991115508, 34.460868999832591 ], [ -78.649260991180185, 34.457686999594536 ], [ -78.649013991852527, 34.454481999739833 ], [ -78.651391991010684, 34.452628999686823 ], [ -78.653574991271654, 34.452148999991572 ], [ -78.654653991553957, 34.45084400037338 ], [ -78.657969990990537, 34.450044000080609 ], [ -78.661543991809509, 34.444248999856974 ], [ -78.666417991598834, 34.443215000314474 ], [ -78.669539991687756, 34.44157800036519 ], [ -78.671839991299379, 34.439029999675988 ], [ -78.678259990784071, 34.436077999928145 ], [ -78.680441990961796, 34.433607000330319 ], [ -78.69226599147791, 34.43097700032704 ], [ -78.694342990929613, 34.429682999599493 ], [ -78.699966990932481, 34.429201999768431 ], [ -78.70123699101913, 34.428042999848103 ], [ -78.70245099171629, 34.425431999575693 ], [ -78.701871990846854, 34.422206000168799 ], [ -78.703129991810954, 34.421355999780815 ], [ -78.702315990916702, 34.418729999921673 ], [ -78.708178991220791, 34.414767000254827 ], [ -78.710676991263796, 34.410917999596414 ], [ -78.711285991758928, 34.407048000242227 ], [ -78.698675991287018, 34.390858999955391 ], [ -78.706794991671487, 34.390400999992956 ], [ -78.714164991824106, 34.385139999684007 ], [ -78.721178990930767, 34.383054000079589 ], [ -78.723620991641724, 34.380334999956482 ], [ -78.721110991698154, 34.37547200001093 ], [ -78.716075991617998, 34.370488999544285 ], [ -78.717710991123624, 34.369774999976215 ], [ -78.724953991769254, 34.370772999939021 ], [ -78.723313991065822, 34.361648000000642 ], [ -78.721572991252543, 34.359598999754297 ], [ -78.724113990998802, 34.35573500017987 ], [ -78.724217991280184, 34.348462000229532 ], [ -78.736227991519982, 34.352193000330573 ], [ -78.744163991527344, 34.355714999585189 ], [ -78.753447991781499, 34.362745999721824 ], [ -78.770906991252531, 34.371598999839613 ], [ -78.783303991705637, 34.374986999861015 ], [ -78.790846991731655, 34.38022500019774 ], [ -78.79753099161826, 34.376380000425279 ] ] ] } },
{ "type": "Feature", "properties": { "county": "COLUMBUS", "precinct": "P89", "enr_desc": "Cherry Bluff", "winner": "Ricky Bullard", "winner_votes": 88.0, "winner_share": 56.774193548387096, "runner_up": "Jeanne McPherson", "runner_up_votes": 62.0, "runner_up_share": 40.0, "contest_votes": 155.0, "margin_of_victory": 16.774193548387096, "is_tie": false, "results": [ { "candidate": "Ricky Bullard", "votes": 88, "share": 56.774193548387096 }, { "candidate": "Jeanne McPherson", "votes": 62, "share": 40.0 }, { "candidate": "Jody (JL) Hinson", "votes": 5, "share": 3.225806451612903 } ], "participated": true, "map_key": "COLUMBUS_P89" }, "geometry": { "type": "Polygon", "coordinates": [ [ [ -78.880814991764552, 34.272305000183081 ], [ -78.885097991020245, 34.265962000216518 ], [ -78.889479991013829, 34.264130999697663 ], [ -78.889027991256711, 34.260749000092531 ], [ -78.883588990846008, 34.262381000110146 ], [ -78.880946991867631, 34.264314999577714 ], [ -78.874484991076358, 34.263031000369466 ], [ -78.873935991872983, 34.254220000015188 ], [ -78.878568991555525, 34.250167999842809 ], [ -78.87757899127881, 34.250167999780977 ], [ -78.90651299125426, 34.204125999951629 ], [ -78.910769991019691, 34.197381999790856 ], [ -78.930891991696214, 34.181485999818122 ], [ -79.071210991036637, 34.299341999951949 ], [ -79.068878991257677, 34.301180999643364 ], [ -79.070352991699238, 34.303470999558698 ], [ -79.067174991526556, 34.303626000356978 ], [ -79.069632991775094, 34.305016999994372 ], [ -79.069554991042637, 34.305640000146326 ], [ -79.068307991387982, 34.305551999597164 ], [ -79.068357991182239, 34.306977000198351 ], [ -79.066651991560803, 34.306977999844392 ], [ -79.065258991283201, 34.308686999827117 ], [ -79.063750991624843, 34.30753600038679 ], [ -79.061622991091284, 34.308275999817191 ], [ -79.061690990947156, 34.307223000424536 ], [ -79.060900991639684, 34.306713999819898 ], [ -79.058386991838134, 34.308875999996133 ], [ -79.054780990973498, 34.308959000149123 ], [ -79.054965991151434, 34.309767999755039 ], [ -79.057188991100688, 34.309653999584178 ], [ -79.057559991616486, 34.310852000287404 ], [ -79.055835990965249, 34.313183999888068 ], [ -79.052880991171904, 34.31463500041454 ], [ -79.050397991877333, 34.314530000363909 ], [ -79.04945999101767, 34.311891000152265 ], [ -79.04555999169888, 34.310727000205389 ], [ -79.038596991223031, 34.313041000084652 ], [ -79.037218991872905, 34.316452999832023 ], [ -79.040328991737539, 34.317440000226632 ], [ -79.038545991192208, 34.318273999630797 ], [ -79.039091991509508, 34.319876999727136 ], [ -79.036547991000234, 34.321310000213273 ], [ -79.0360799915548, 34.320994999814495 ], [ -79.036751991362891, 34.319844999608719 ], [ -79.035377991206303, 34.319295000217572 ], [ -79.034399991610314, 34.322570999592955 ], [ -79.028002990879912, 34.324561000050636 ], [ -79.027008991609549, 34.326095000048632 ], [ -79.027007990987968, 34.328110000100075 ], [ -79.025020991482407, 34.32836099983718 ], [ -79.022728990815452, 34.330627000051749 ], [ -79.019416991140346, 34.330717000407347 ], [ -79.014942990967796, 34.33410400001457 ], [ -79.013093991384025, 34.334424000346466 ], [ -79.013506990823075, 34.336416999616716 ], [ -79.011682991415086, 34.33923200006781 ], [ -78.997648990820977, 34.345549999560568 ], [ -78.989947991739257, 34.346699000120388 ], [ -78.988567990824734, 34.348462999553547 ], [ -78.986414991138346, 34.348371999637578 ], [ -78.984082991664579, 34.352685000135047 ], [ -78.983076991080054, 34.352816999874676 ], [ -78.978513990911011, 34.357099000143286 ], [ -78.976232991097291, 34.352005000243317 ], [ -78.973959991447401, 34.343590999717797 ], [ -78.974868991318189, 34.339577999575923 ], [ -78.97294699079707, 34.337242999770574 ], [ -78.972679991171276, 34.334176000083332 ], [ -78.969194991026527, 34.324985999994531 ], [ -78.969374990908577, 34.32326800040196 ], [ -78.970532991215507, 34.322146000329262 ], [ -78.966517991071697, 34.32183799975806 ], [ -78.965572990815559, 34.317215999759185 ], [ -78.967223991506501, 34.313070999643656 ], [ -78.964931991558046, 34.308429999979204 ], [ -78.967317991681441, 34.305986000199994 ], [ -78.968096991262115, 34.302639999955581 ], [ -78.955626991739138, 34.300138000017142 ], [ -78.939394991737274, 34.291302000203423 ], [ -78.928774991197983, 34.286935000396042 ], [ -78.922811991458573, 34.286298999797808 ], [ -78.915634990879099, 34.284072999771318 ], [ -78.897681991410366, 34.275976999702614 ], [ -78.895600991131246, 34.275445000408659 ], [ -78.89167399089736, 34.275922999606642 ], [ -78.890483991419046, 34.274829999716303 ], [ -78.880814991764552, 34.272305000183081 ] ] ] } },
{ "type": "Feature", "properties": { "county": null, "precinct": null, "enr_desc": "Bogue Creek", "winner": null, "winner_votes": null, "winner_share": null, "runner_up": null, "runner_up_votes": null, "runner_up_share": null, "contest_votes": null, "margin_of_victory": null, "is_tie": false, "results": null, "participated": false, "map_key": null }, "geometry": { "type": "Polygon", "coordinates": [ [ [ -78.551178991388966, 34.420161000074643 ], [ -78.553874991547914, 34.417884000220532 ], [ -78.55855699140524, 34.416327000204184 ], [ -78.585260990979648, 34.395759999711117 ], [ -78.56324099079616, 34.37288000016823 ], [ -78.555726991467026, 34.369161000236716 ], [ -78.546780991400198, 34.361073999765239 ], [ -78.540896990936361, 34.350689000113064 ], [ -78.539600991800981, 34.34491599958762 ], [ -78.537466991440965, 34.31634900026355 ], [ -78.543018990808903, 34.314489999934963 ], [ -78.546021991527311, 34.312604999889622 ], [ -78.551864991241985, 34.307063000272976 ], [ -78.553195991541855, 34.304051000122655 ], [ -78.553348991238209, 34.301542999648724 ], [ -78.550075991329905, 34.298787000080885 ], [ -78.549462990924482, 34.292880000188575 ], [ -78.551527990976524, 34.294033999963972 ], [ -78.552186991779465, 34.293458000110434 ], [ -78.551743991029966, 34.292346999548492 ], [ -78.549159991570377, 34.290669000000641 ], [ -78.53903999151089, 34.277359000072842 ], [ -78.538198991599501, 34.275006000394846 ], [ -78.528619991581976, 34.268350000041146 ], [ -78.524694991204214, 34.261693999751074 ], [ -78.523165991443449, 34.260647999579156 ], [ -78.523930991526385, 34.258235999647091 ], [ -78.523276990802387, 34.25773100014338 ], [ -78.523653991302737, 34.254877999945549 ], [ -78.525912991220565, 34.253430999654121 ], [ -78.528234990895683, 34.252558999728954 ], [ -78.530626991316339, 34.249234000108594 ], [ -78.53676999129587, 34.246878999685471 ], [ -78.537969991080203, 34.244985999787019 ], [ -78.538076990845397, 34.242702999698267 ], [ -78.540659991172447, 34.242226999924156 ], [ -78.54524899141957, 34.239855000282134 ], [ -78.547777991021761, 34.236376000308667 ], [ -78.553111991745368, 34.234494999632751 ], [ -78.554865991271626, 34.232511999833484 ], [ -78.557397991501915, 34.231509999951328 ], [ -78.562368990878852, 34.225276000122285 ], [ -78.56261699102609, 34.223993999879511 ], [ -78.560577991285257, 34.220674000179564 ], [ -78.561313990884372, 34.221267999781602 ], [ -78.561132991141505, 34.217437000075535 ], [ -78.563511991643054, 34.214376000167512 ], [ -78.564136991285906, 34.211739000385791 ], [ -78.563616991785295, 34.208035999770047 ], [ -78.56454899099711, 34.203173999911037 ], [ -78.56232499088037, 34.202163000320226 ], [ -78.561706990939129, 34.200907000094951 ], [ -78.562457991167079, 34.197516000244129 ], [ -78.565303991167141, 34.19232500007719 ], [ -78.565154991875261, 34.190590999727952 ], [ -78.566606991174751, 34.190281000410032 ], [ -78.568535991460521, 34.185859000211771 ], [ -78.566182991753323, 34.183495000324186 ], [ -78.563787990963959, 34.183007000365741 ], [ -78.563676990988327, 34.179625000348253 ], [ -78.565458990937543, 34.178997000121939 ], [ -78.567624991665525, 34.176714000318455 ], [ -78.56872899122871, 34.173560000310971 ], [ -78.575899991420911, 34.171304000289183 ], [ -78.576915991390791, 34.170018999892626 ], [ -78.577453991354176, 34.171041999792372 ], [ -78.576262991717925, 34.174869999953884 ], [ -78.578876991679522, 34.177968999968797 ], [ -78.577935991767589, 34.179970999752811 ], [ -78.578128991207052, 34.181586999702411 ], [ -78.580176991056959, 34.182936999947053 ], [ -78.582778991059129, 34.182446999832017 ], [ -78.586754991144915, 34.183711000304612 ], [ -78.588915991601297, 34.184760999878819 ], [ -78.591032991778718, 34.187071999588731 ], [ -78.587858991217431, 34.197848000169287 ], [ -78.588788991258212, 34.201084999719455 ], [ -78.589813990813795, 34.201921999984485 ], [ -78.592021990895503, 34.211698999522895 ], [ -78.591574991200162, 34.217050000214385 ], [ -78.592558990970034, 34.226909999757318 ], [ -78.596148991629917, 34.230480000196785 ], [ -78.600737990888859, 34.232386000170798 ], [ -78.602217991405993, 34.233813000117905 ], [ -78.609455990812918, 34.235224999583941 ], [ -78.61374699158435, 34.241154000046592 ], [ -78.615657991102339, 34.241597999879673 ], [ -78.617968991212393, 34.247251999736186 ], [ -78.620584991284034, 34.247324000121942 ], [ -78.623875990987969, 34.244398999807615 ], [ -78.627927991558764, 34.24403099998846 ], [ -78.632160991668243, 34.2424660002481 ], [ -78.634353991823289, 34.243903000094285 ], [ -78.648279991619603, 34.24447899969622 ], [ -78.650345991731399, 34.247158000206049 ], [ -78.65696699159848, 34.250570999870597 ], [ -78.6571329908178, 34.253963000184974 ], [ -78.660110991798192, 34.25600800009147 ], [ -78.666358991335372, 34.264469999908712 ], [ -78.668920991439819, 34.265582999970704 ], [ -78.670616990915917, 34.268236000092308 ], [ -78.674179990815475, 34.268753000393488 ], [ -78.674981991420196, 34.269664999895632 ], [ -78.676959991178123, 34.273534000380209 ], [ -78.675535991678984, 34.27575000034431 ], [ -78.676474991556063, 34.28041099956738 ], [ -78.676525990894078, 34.287273999914923 ], [ -78.677216990900988, 34.29218600010995 ], [ -78.679408991082454, 34.298935999889501 ], [ -78.678335990810325, 34.301927999610029 ], [ -78.676136991100492, 34.303482999728956 ], [ -78.676878990864736, 34.315610999528438 ], [ -78.679153991405002, 34.318962000323431 ], [ -78.679403991830767, 34.320686999534331 ], [ -78.678007991613455, 34.32526499965028 ], [ -78.676316991813138, 34.327010999992567 ], [ -78.674477991049372, 34.327587999980345 ], [ -78.675021991558168, 34.329320000217884 ], [ -78.673469991564545, 34.329450999936277 ], [ -78.673386990893832, 34.331060000353183 ], [ -78.672505991122804, 34.330902000315014 ], [ -78.671625990837313, 34.332213000192858 ], [ -78.672145991638345, 34.333154999777271 ], [ -78.671533990946457, 34.333683999920552 ], [ -78.672316991421951, 34.334324000177993 ], [ -78.671076991556149, 34.334800999933535 ], [ -78.671897991265965, 34.336017000118581 ], [ -78.670287991686621, 34.337296000335932 ], [ -78.671093991677211, 34.341249000184412 ], [ -78.672820991513163, 34.342622999637975 ], [ -78.673734991223384, 34.343184000069733 ], [ -78.673878991846323, 34.344735999720072 ], [ -78.671047991397472, 34.347059999630808 ], [ -78.671447991294045, 34.351539000374601 ], [ -78.673172991589126, 34.353261999890215 ], [ -78.675607991190674, 34.360029999612479 ], [ -78.679382991867158, 34.36124100036016 ], [ -78.678883990825824, 34.364073999988996 ], [ -78.685629991300701, 34.367453000117479 ], [ -78.691064991709283, 34.371924999746319 ], [ -78.693583991824028, 34.378859000328255 ], [ -78.692245991385221, 34.381551999567264 ], [ -78.692373991460428, 34.383611000076279 ], [ -78.693897991519137, 34.384188999817695 ], [ -78.698675991287018, 34.390858999955391 ], [ -78.711285991758928, 34.407048000242227 ], [ -78.710676991263796, 34.410917999596414 ], [ -78.708178991220791, 34.414767000254827 ], [ -78.702315990916702, 34.418729999921673 ], [ -78.703129991810954, 34.421355999780815 ], [ -78.701871990846854, 34.422206000168799 ], [ -78.70245099171629, 34.425431999575693 ], [ -78.70123699101913, 34.428042999848103 ], [ -78.699966990932481, 34.429201999768431 ], [ -78.694342990929613, 34.429682999599493 ], [ -78.69226599147791, 34.43097700032704 ], [ -78.680441990961796, 34.433607000330319 ], [ -78.678259990784071, 34.436077999928145 ], [ -78.671839991299379, 34.439029999675988 ], [ -78.669539991687756, 34.44157800036519 ], [ -78.666417991598834, 34.443215000314474 ], [ -78.661543991809509, 34.444248999856974 ], [ -78.657969990990537, 34.450044000080609 ], [ -78.654653991553957, 34.45084400037338 ], [ -78.653574991271654, 34.452148999991572 ], [ -78.651391991010684, 34.452628999686823 ], [ -78.649013991852527, 34.454481999739833 ], [ -78.649260991180185, 34.457686999594536 ], [ -78.648372991115508, 34.460868999832591 ], [ -78.646823991389212, 34.46070700023126 ], [ -78.635350990902367, 34.454475000100935 ], [ -78.622577991426795, 34.450356000348521 ], [ -78.614127991693351, 34.445312999817972 ], [ -78.603769991079403, 34.441133999727775 ], [ -78.600359991683433, 34.438666999957803 ], [ -78.594011990912691, 34.431442999901691 ], [ -78.578339991478344, 34.428463999631695 ], [ -78.551178991388966, 34.420161000074643 ] ] ] } },
{ "type": "Feature", "properties": { "county": null, "precinct": null, "enr_desc": "Nakina Hill", "winner": null, "winner_votes": null, "winner_share": null, "runner_up": null, "runner_up_votes": null, "runner_up_share": null, "contest_votes": null, "margin_of_victory": null, "is_tie": false, "results": null, "participated": false, "map_key": null }, "geometry": { "type": "Polygon", "coordinates": [ [ [ -78.561033991580501, 34.059163000274971 ], [ -78.561385991613164, 34.055338000113721 ], [ -78.562780991781636, 34.054287999707967 ], [ -78.568635991168492, 34.053793999787288 ], [ -78.569523991612058, 34.056159000032899 ], [ -78.570175991203413, 34.05590099959629 ], [ -78.570362991232884, 34.053623000125739 ], [ -78.571251991146568, 34.053391999556375 ], [ -78.572709991757847, 34.054503000144209 ], [ -78.573178991415887, 34.056034999998232 ], [ -78.574555991783285, 34.054458000381395 ], [ -78.575966991461641, 34.054497999850284 ], [ -78.577463991657496, 34.052456000097692 ], [ -78.579557990945418, 34.051615999814189 ], [ -78.582359991734563, 34.048537999846012 ], [ -78.583299991557197, 34.045923000043103 ], [ -78.581871990917691, 34.042668999887184 ], [ -78.579017990911439, 34.042511000188448 ], [ -78.579544991067607, 34.043935000191389 ], [ -78.578126991268718, 34.043770999941252 ], [ -78.577859991860706, 34.041178000256984 ], [ -78.578907991204332, 34.039892000181048 ], [ -78.579389991145888, 34.040777000230882 ], [ -78.57991399135021, 34.040473000218924 ], [ -78.578933990835054, 34.038155999577917 ], [ -78.580340990942688, 34.037440999995013 ], [ -78.579340991270982, 34.036890999622074 ], [ -78.581265991727662, 34.036454000396368 ], [ -78.582889991725025, 34.037458999644663 ], [ -78.585406991490572, 34.036157000338122 ], [ -78.584642991853784, 34.034066000331187 ], [ -78.58288099174608, 34.033882000193678 ], [ -78.583477991517952, 34.032018000415 ], [ -78.584469991482209, 34.031265999562805 ], [ -78.589004991055518, 34.032236999976291 ], [ -78.587729990990255, 34.030766000299906 ], [ -78.5888839910819, 34.02965899989244 ], [ -78.590723991571608, 34.030265000217788 ], [ -78.590136991744941, 34.027839000346432 ], [ -78.590799991071776, 34.027154999671545 ], [ -78.592910991213913, 34.027146999834756 ], [ -78.594338991512998, 34.02941899993715 ], [ -78.59530999099664, 34.028218999960806 ], [ -78.598751991898567, 34.027911000411486 ], [ -78.599409990949795, 34.029299999927595 ], [ -78.600401990844304, 34.027898000027385 ], [ -78.60023299155641, 34.029853000304648 ], [ -78.60084599098262, 34.02998800019656 ], [ -78.601839991398791, 34.028836000040435 ], [ -78.600541991125027, 34.026675000271709 ], [ -78.603045991393728, 34.027796000353682 ], [ -78.603408991728486, 34.024664999960955 ], [ -78.607907991570954, 34.024013999777928 ], [ -78.608463991838036, 34.0245429999718 ], [ -78.60672499145825, 34.025443000342072 ], [ -78.609380991844915, 34.024541000394358 ], [ -78.609115991484387, 34.02595400028946 ], [ -78.611659991248203, 34.023236999665599 ], [ -78.613267991112494, 34.024346000149386 ], [ -78.612775991697674, 34.022038000249097 ], [ -78.614717991150684, 34.023331999560135 ], [ -78.615801991097243, 34.022289000421083 ], [ -78.615840991065795, 34.023378000296169 ], [ -78.616847991188649, 34.023511999808633 ], [ -78.617783991122437, 34.02213900033739 ], [ -78.617570991203991, 34.020490000264473 ], [ -78.619096990881815, 34.018956999684235 ], [ -78.622357991746156, 34.018224999768229 ], [ -78.625448991738878, 34.019756000413537 ], [ -78.626376991006282, 34.017698000016722 ], [ -78.62969199115058, 34.017716999878623 ], [ -78.630048991524788, 34.016069999996425 ], [ -78.640614990962163, 34.010280000096756 ], [ -78.64030299110749, 34.004365999613697 ], [ -78.633370991190986, 33.996568000222027 ], [ -78.630544991163148, 33.990964000407509 ], [ -78.629415991564116, 33.985084000199343 ], [ -78.626435990875109, 33.979691999739622 ], [ -78.627724991845596, 33.976091999924314 ], [ -78.626861991433302, 33.9752200002291 ], [ -78.624853991353575, 33.975041000079948 ], [ -78.624082991796101, 33.973298000296616 ], [ -78.625282991027035, 33.972216999794234 ], [ -78.630252990903088, 33.974870999753414 ], [ -78.630506991370225, 33.972174999742727 ], [ -78.632824991639964, 33.972000999876244 ], [ -78.633522991338921, 33.97067200007961 ], [ -78.635141991427034, 33.970539999658058 ], [ -78.636003991657773, 33.969620000365268 ], [ -78.639521991807584, 33.969276000231112 ], [ -78.639330991737836, 33.970280999615312 ], [ -78.640525991003315, 33.970489999838286 ], [ -78.642326991065417, 33.967277999958952 ], [ -78.646501991303253, 33.966779000361079 ], [ -78.648350991759614, 33.965540000075585 ], [ -78.646522990962282, 33.960507999694727 ], [ -78.645567991094808, 33.960672000055006 ], [ -78.644631990938791, 33.962244999959943 ], [ -78.643449991888559, 33.961989999618659 ], [ -78.644319991104709, 33.960122999591583 ], [ -78.643171990853361, 33.9596489998343 ], [ -78.64337699116777, 33.958693999710995 ], [ -78.642127991717942, 33.958348999607026 ], [ -78.642914991561142, 33.957189999602498 ], [ -78.641993990970619, 33.956156999676281 ], [ -78.643011991523849, 33.956136000010105 ], [ -78.643496991199797, 33.954426999869924 ], [ -78.644219991216232, 33.95561699990656 ], [ -78.645024991331368, 33.954051999704902 ], [ -78.646557991620256, 33.954598999618696 ], [ -78.64415699140757, 33.950132000209763 ], [ -78.647484991793505, 33.950018000404711 ], [ -78.64647599159909, 33.948113999978098 ], [ -78.64969999084164, 33.946544000143824 ], [ -78.64941399146629, 33.945680999718441 ], [ -78.650871991204554, 33.94524799958733 ], [ -78.650341991488517, 33.944365000181548 ], [ -78.797870991320195, 34.069258000131128 ], [ -78.797153991079227, 34.071300999853491 ], [ -78.795884991677624, 34.071875999990162 ], [ -78.788331991284693, 34.071355000034785 ], [ -78.780439991267741, 34.075194999982081 ], [ -78.77395199110434, 34.076049000397113 ], [ -78.77088799119673, 34.079024000259693 ], [ -78.768077991304338, 34.084027999588088 ], [ -78.761191991184489, 34.086469999634787 ], [ -78.751606991174796, 34.092280000130003 ], [ -78.749235991779145, 34.092216999851146 ], [ -78.744316991530155, 34.089989000158461 ], [ -78.73838099127461, 34.084434000210983 ], [ -78.735636991311495, 34.082889000079156 ], [ -78.731056991601108, 34.083145000148214 ], [ -78.726433991507562, 34.084491000170125 ], [ -78.722235991886819, 34.084202000190288 ], [ -78.718730991146373, 34.085210999747339 ], [ -78.710137991199673, 34.087115000332503 ], [ -78.699176991376916, 34.086242000338935 ], [ -78.702801991404215, 34.093395999545656 ], [ -78.704041991264546, 34.101812999972637 ], [ -78.697948991348127, 34.111139000214756 ], [ -78.698369991373369, 34.113273999714409 ], [ -78.697416991737029, 34.114460000385726 ], [ -78.698788991248605, 34.115598999986901 ], [ -78.69888199187767, 34.117458999838725 ], [ -78.697694990818007, 34.11911900025865 ], [ -78.702009991415778, 34.125348999925173 ], [ -78.702278991080675, 34.128520999892004 ], [ -78.703628991150509, 34.128417999640369 ], [ -78.703073991314611, 34.130739999605723 ], [ -78.70023399186303, 34.134277000250762 ], [ -78.700123991408191, 34.137342999783208 ], [ -78.701431990895969, 34.140202000160208 ], [ -78.698025991024764, 34.144154000299672 ], [ -78.697792991576037, 34.148106000222249 ], [ -78.700229991287273, 34.167553999554229 ], [ -78.701410991647904, 34.170601000030807 ], [ -78.703878991695987, 34.170300999678417 ], [ -78.704237991623387, 34.173108000147003 ], [ -78.70225299142723, 34.174043000174898 ], [ -78.694358991596332, 34.172944999694508 ], [ -78.688061991064046, 34.175442999913344 ], [ -78.685625991649758, 34.178210999741495 ], [ -78.682231991800677, 34.192793999553061 ], [ -78.673948990883986, 34.195433000299978 ], [ -78.665653991672272, 34.182562999993273 ], [ -78.662430991233947, 34.18170599993141 ], [ -78.649102991346496, 34.180880999763311 ], [ -78.648078991498465, 34.175282999764306 ], [ -78.637546991419967, 34.155343999658122 ], [ -78.640686991205158, 34.153819000420633 ], [ -78.637596991344395, 34.148140000406578 ], [ -78.631668990921128, 34.142360999965561 ], [ -78.631047991358926, 34.13959299956214 ], [ -78.628450990950867, 34.13516300041568 ], [ -78.625431991624254, 34.134049999758048 ], [ -78.623455990851966, 34.13161900008425 ], [ -78.623470991560879, 34.126813000029159 ], [ -78.625305991717056, 34.125818000230851 ], [ -78.632005991204608, 34.117975000343449 ], [ -78.633144991846308, 34.116476000064068 ], [ -78.632980991884892, 34.114551999981899 ], [ -78.620632991471467, 34.105625000116838 ], [ -78.615072991101869, 34.104733999780912 ], [ -78.613861991755755, 34.10377300001602 ], [ -78.610666990964674, 34.097843999897094 ], [ -78.61184899084887, 34.095531999524191 ], [ -78.611765990880642, 34.094386999870501 ], [ -78.609783991041809, 34.093036999723012 ], [ -78.610882991190749, 34.090219999841956 ], [ -78.607386991121729, 34.087130999641928 ], [ -78.606202990931251, 34.084818999622328 ], [ -78.600064991210218, 34.081455000242151 ], [ -78.590982991421455, 34.07365000001414 ], [ -78.583711991108387, 34.072105000197354 ], [ -78.579669991265845, 34.069698999990514 ], [ -78.572079990828499, 34.07070299990643 ], [ -78.569572991005302, 34.070016999758295 ], [ -78.567368991144264, 34.068168999843671 ], [ -78.563411991662988, 34.062323999571802 ], [ -78.562092991597424, 34.061688000143199 ], [ -78.562284991882009, 34.060503000208932 ], [ -78.561033991580501, 34.059163000274971 ] ] ] } },
{ "type": "Feature", "properties": { "county": null, "precinct": null, "enr_desc": "Lees", "winner": null, "winner_votes": null, "winner_share": null, "runner_up": null, "runner_up_votes": null, "runner_up_share": null, "contest_votes": null, "margin_of_victory": null, "is_tie": false, "results": null, "participated": false, "map_key": null }, "geometry": { "type": "Polygon", "coordinates": [ [ [ -78.525912991220565, 34.253430999654121 ], [ -78.520428991750308, 34.243599999638029 ], [ -78.450019990880662, 34.160544999990755 ], [ -78.439657991572631, 34.144759999899847 ], [ -78.441887991274356, 34.146256000395148 ], [ -78.443749991196114, 34.145714999766632 ], [ -78.450080991856666, 34.148311999951297 ], [ -78.453282990816902, 34.148034999831225 ], [ -78.459277991165678, 34.149864999947937 ], [ -78.461972991738676, 34.151354000252724 ], [ -78.4627379917779, 34.152860000198011 ], [ -78.463843991162278, 34.15266799975511 ], [ -78.467195991717404, 34.154760999837386 ], [ -78.474556991420926, 34.15470700004483 ], [ -78.479561990970453, 34.156557999826234 ], [ -78.481677991102771, 34.158310999771778 ], [ -78.483982991308267, 34.157840000184045 ], [ -78.485815991139205, 34.158586000069612 ], [ -78.489283991621249, 34.163684000389559 ], [ -78.493618991003402, 34.164037000000995 ], [ -78.49546699139654, 34.167587999804667 ], [ -78.507337991328654, 34.16924599962919 ], [ -78.511406991794956, 34.168174999543169 ], [ -78.511788991600625, 34.166667000185456 ], [ -78.51307899140609, 34.165697999769449 ], [ -78.515215991677692, 34.165947999760604 ], [ -78.516138991881732, 34.162485999621175 ], [ -78.518226991744172, 34.161882999592976 ], [ -78.518631991728284, 34.15930299983544 ], [ -78.522321991783457, 34.157350999650909 ], [ -78.524398991067301, 34.155434000292928 ], [ -78.524664991252536, 34.15404599970838 ], [ -78.525792991314347, 34.15450300003269 ], [ -78.528216991164385, 34.153647999584734 ], [ -78.530740991826264, 34.154390999717421 ], [ -78.5329119918716, 34.153510000250748 ], [ -78.53463799116156, 34.148495999862789 ], [ -78.536000991337545, 34.148244999775478 ], [ -78.537056991576094, 34.146207999732646 ], [ -78.538439991690936, 34.145774000226957 ], [ -78.538044990822144, 34.146575999770853 ], [ -78.541161990931982, 34.148293999696229 ], [ -78.542632991549411, 34.146267999522806 ], [ -78.544976991711223, 34.145957000322177 ], [ -78.544234990908649, 34.142862000352231 ], [ -78.545022991485226, 34.139581000196401 ], [ -78.546375991192861, 34.138342000381023 ], [ -78.545827991091684, 34.137097999909166 ], [ -78.543572991422096, 34.135843000029617 ], [ -78.545630991313132, 34.135598999851389 ], [ -78.54581799134094, 34.134534000069863 ], [ -78.544330991001871, 34.134357999682749 ], [ -78.543881991463124, 34.132655999552796 ], [ -78.542472991154568, 34.131789000261833 ], [ -78.541925991170416, 34.128766999549455 ], [ -78.540203990822718, 34.128505000349172 ], [ -78.53926299181667, 34.127461999816248 ], [ -78.538837991223332, 34.124840999927535 ], [ -78.540023990862807, 34.1229260001979 ], [ -78.54156499142583, 34.124519999772822 ], [ -78.543215991060435, 34.124375000345303 ], [ -78.542001991173365, 34.125520999536 ], [ -78.542544991305832, 34.126108999556578 ], [ -78.549168991212753, 34.125235000188482 ], [ -78.549085991125011, 34.124227000149318 ], [ -78.550389991275125, 34.123592000308584 ], [ -78.550849991100819, 34.121839999907394 ], [ -78.549333991407025, 34.120182000093862 ], [ -78.551250991663579, 34.119850999964257 ], [ -78.54906299143552, 34.11881300036832 ], [ -78.552994991114033, 34.118113000020251 ], [ -78.553059991502977, 34.117326000303194 ], [ -78.554090990893911, 34.117677000010652 ], [ -78.553683991878287, 34.116152000256051 ], [ -78.555099990847395, 34.116752999614668 ], [ -78.552601991621543, 34.113925999936626 ], [ -78.553576990904944, 34.113110999574133 ], [ -78.551160991446181, 34.113343999698344 ], [ -78.552006991415595, 34.114649000013635 ], [ -78.551069991131882, 34.114753000294243 ], [ -78.549002991242858, 34.111466000061249 ], [ -78.551143991185384, 34.110103999796628 ], [ -78.553281991449097, 34.107063000268042 ], [ -78.551951990949064, 34.104320999997697 ], [ -78.554061991211071, 34.103671000145098 ], [ -78.549033991288795, 34.104273999867168 ], [ -78.548059991822399, 34.103064000029597 ], [ -78.546590991236357, 34.103227999655395 ], [ -78.546439991410878, 34.101830999956697 ], [ -78.547674990820184, 34.100335999801317 ], [ -78.544040991138601, 34.100114999708325 ], [ -78.545392991263412, 34.09860700006098 ], [ -78.547341991155136, 34.099032999586655 ], [ -78.548108991511782, 34.095242000209652 ], [ -78.552532991731198, 34.095126999774791 ], [ -78.552542991569666, 34.096871999577665 ], [ -78.553212991277974, 34.097239999697564 ], [ -78.555004991592781, 34.095337999835714 ], [ -78.558691990913331, 34.093536000322047 ], [ -78.556984991309676, 34.091736999726407 ], [ -78.56018899086223, 34.092051999702946 ], [ -78.55876599175788, 34.089611000170059 ], [ -78.559562991713349, 34.087789999714694 ], [ -78.556982991060366, 34.083697000204964 ], [ -78.558331990987313, 34.082369000077485 ], [ -78.561130991561214, 34.082449000020254 ], [ -78.56289399138457, 34.077692000154457 ], [ -78.561913991178002, 34.076370000086612 ], [ -78.558937991365127, 34.075233999555515 ], [ -78.557034991344963, 34.075860000405072 ], [ -78.558791991538669, 34.07727099963676 ], [ -78.558510991783464, 34.077736000247249 ], [ -78.554696991046455, 34.076684999642964 ], [ -78.553741991457542, 34.072186000114179 ], [ -78.554125991283328, 34.069991999646959 ], [ -78.555303991688831, 34.069776999962635 ], [ -78.554445991331008, 34.06881699954927 ], [ -78.555042991370854, 34.067071000122802 ], [ -78.556587991555602, 34.066077999692766 ], [ -78.559099990961712, 34.066410000205352 ], [ -78.558657991632131, 34.064961999763028 ], [ -78.55952499103023, 34.064133000410095 ], [ -78.558434991208273, 34.062110999693111 ], [ -78.558888991243705, 34.061395000091402 ], [ -78.556856990855081, 34.062582999860709 ], [ -78.557958991561023, 34.060178999765419 ], [ -78.56003699183367, 34.060681000135133 ], [ -78.559485991685008, 34.059204999715746 ], [ -78.561033991580501, 34.059163000274971 ], [ -78.562284991882009, 34.060503000208932 ], [ -78.562092991597424, 34.061688000143199 ], [ -78.563411991662988, 34.062323999571802 ], [ -78.567368991144264, 34.068168999843671 ], [ -78.569572991005302, 34.070016999758295 ], [ -78.572079990828499, 34.07070299990643 ], [ -78.579669991265845, 34.069698999990514 ], [ -78.583711991108387, 34.072105000197354 ], [ -78.590982991421455, 34.07365000001414 ], [ -78.600064991210218, 34.081455000242151 ], [ -78.606202990931251, 34.084818999622328 ], [ -78.607386991121729, 34.087130999641928 ], [ -78.610882991190749, 34.090219999841956 ], [ -78.609783991041809, 34.093036999723012 ], [ -78.611765990880642, 34.094386999870501 ], [ -78.61184899084887, 34.095531999524191 ], [ -78.610666990964674, 34.097843999897094 ], [ -78.613861991755755, 34.10377300001602 ], [ -78.615072991101869, 34.104733999780912 ], [ -78.620632991471467, 34.105625000116838 ], [ -78.632980991884892, 34.114551999981899 ], [ -78.633144991846308, 34.116476000064068 ], [ -78.632005991204608, 34.117975000343449 ], [ -78.625305991717056, 34.125818000230851 ], [ -78.623470991560879, 34.126813000029159 ], [ -78.623455990851966, 34.13161900008425 ], [ -78.625431991624254, 34.134049999758048 ], [ -78.628450990950867, 34.13516300041568 ], [ -78.631047991358926, 34.13959299956214 ], [ -78.631668990921128, 34.142360999965561 ], [ -78.637596991344395, 34.148140000406578 ], [ -78.640686991205158, 34.153819000420633 ], [ -78.637546991419967, 34.155343999658122 ], [ -78.648078991498465, 34.175282999764306 ], [ -78.649102991346496, 34.180880999763311 ], [ -78.662430991233947, 34.18170599993141 ], [ -78.665653991672272, 34.182562999993273 ], [ -78.673948990883986, 34.195433000299978 ], [ -78.682231991800677, 34.192793999553061 ], [ -78.685625991649758, 34.178210999741495 ], [ -78.688061991064046, 34.175442999913344 ], [ -78.694358991596332, 34.172944999694508 ], [ -78.70225299142723, 34.174043000174898 ], [ -78.704237991623387, 34.173108000147003 ], [ -78.703741991030924, 34.174374999850961 ], [ -78.705947991654028, 34.177273000214662 ], [ -78.706792990986543, 34.181954999603086 ], [ -78.709713991541946, 34.18653100011408 ], [ -78.714271991514764, 34.188636999786389 ], [ -78.718584991697597, 34.197363999961212 ], [ -78.721019991561207, 34.207218999631039 ], [ -78.724212991320485, 34.209698999745505 ], [ -78.725138991518804, 34.211976000325819 ], [ -78.723086991601448, 34.213409000397576 ], [ -78.722613991665014, 34.222979999911523 ], [ -78.718657991803184, 34.22567999974256 ], [ -78.719431990827772, 34.228915999601405 ], [ -78.717155991234065, 34.234511000343076 ], [ -78.71717699160213, 34.238237999750361 ], [ -78.722254991458897, 34.24366000038323 ], [ -78.72516899150817, 34.25455599996576 ], [ -78.724607991061148, 34.259864999744195 ], [ -78.727919991854321, 34.261280999696176 ], [ -78.729806990832913, 34.266113999660945 ], [ -78.729012991312914, 34.279329000244942 ], [ -78.720765991767365, 34.279665999904026 ], [ -78.70129799095335, 34.286818999909407 ], [ -78.700061991646152, 34.284526999908131 ], [ -78.680763991361303, 34.285720999841246 ], [ -78.676525990894078, 34.287273999914923 ], [ -78.676474991556063, 34.28041099956738 ], [ -78.675535991678984, 34.27575000034431 ], [ -78.676959991178123, 34.273534000380209 ], [ -78.674981991420196, 34.269664999895632 ], [ -78.674179990815475, 34.268753000393488 ], [ -78.670616990915917, 34.268236000092308 ], [ -78.668920991439819, 34.265582999970704 ], [ -78.666358991335372, 34.264469999908712 ], [ -78.660110991798192, 34.25600800009147 ], [ -78.6571329908178, 34.253963000184974 ], [ -78.65696699159848, 34.250570999870597 ], [ -78.650345991731399, 34.247158000206049 ], [ -78.648279991619603, 34.24447899969622 ], [ -78.634353991823289, 34.243903000094285 ], [ -78.632160991668243, 34.2424660002481 ], [ -78.627927991558764, 34.24403099998846 ], [ -78.623875990987969, 34.244398999807615 ], [ -78.620584991284034, 34.247324000121942 ], [ -78.617968991212393, 34.247251999736186 ], [ -78.615657991102339, 34.241597999879673 ], [ -78.61374699158435, 34.241154000046592 ], [ -78.609455990812918, 34.235224999583941 ], [ -78.602217991405993, 34.233813000117905 ], [ -78.600737990888859, 34.232386000170798 ], [ -78.596148991629917, 34.230480000196785 ], [ -78.592558990970034, 34.226909999757318 ], [ -78.591574991200162, 34.217050000214385 ], [ -78.592021990895503, 34.211698999522895 ], [ -78.589813990813795, 34.201921999984485 ], [ -78.588788991258212, 34.201084999719455 ], [ -78.587858991217431, 34.197848000169287 ], [ -78.591032991778718, 34.187071999588731 ], [ -78.588915991601297, 34.184760999878819 ], [ -78.586754991144915, 34.183711000304612 ], [ -78.582778991059129, 34.182446999832017 ], [ -78.580176991056959, 34.182936999947053 ], [ -78.578128991207052, 34.181586999702411 ], [ -78.577935991767589, 34.179970999752811 ], [ -78.578876991679522, 34.177968999968797 ], [ -78.576262991717925, 34.174869999953884 ], [ -78.577453991354176, 34.171041999792372 ], [ -78.576915991390791, 34.170018999892626 ], [ -78.575899991420911, 34.171304000289183 ], [ -78.56872899122871, 34.173560000310971 ], [ -78.567624991665525, 34.176714000318455 ], [ -78.565458990937543, 34.178997000121939 ], [ -78.563676990988327, 34.179625000348253 ], [ -78.563787990963959, 34.183007000365741 ], [ -78.566182991753323, 34.183495000324186 ], [ -78.568535991460521, 34.185859000211771 ], [ -78.566606991174751, 34.190281000410032 ], [ -78.565154991875261, 34.190590999727952 ], [ -78.565303991167141, 34.19232500007719 ], [ -78.562457991167079, 34.197516000244129 ], [ -78.561706990939129, 34.200907000094951 ], [ -78.56232499088037, 34.202163000320226 ], [ -78.56454899099711, 34.203173999911037 ], [ -78.563616991785295, 34.208035999770047 ], [ -78.564136991285906, 34.211739000385791 ], [ -78.563511991643054, 34.214376000167512 ], [ -78.561132991141505, 34.217437000075535 ], [ -78.561313990884372, 34.221267999781602 ], [ -78.560577991285257, 34.220674000179564 ], [ -78.56261699102609, 34.223993999879511 ], [ -78.562368990878852, 34.225276000122285 ], [ -78.557397991501915, 34.231509999951328 ], [ -78.554865991271626, 34.232511999833484 ], [ -78.553111991745368, 34.234494999632751 ], [ -78.547777991021761, 34.236376000308667 ], [ -78.54524899141957, 34.239855000282134 ], [ -78.540659991172447, 34.242226999924156 ], [ -78.538076990845397, 34.242702999698267 ], [ -78.537969991080203, 34.244985999787019 ], [ -78.53676999129587, 34.246878999685471 ], [ -78.530626991316339, 34.249234000108594 ], [ -78.528234990895683, 34.252558999728954 ], [ -78.525912991220565, 34.253430999654121 ] ] ] } },
{ "type": "Feature", "properties": { "county": "COLUMBUS", "precinct": "P245", "enr_desc": "Williams", "winner": "Jeanne McPherson", "winner_votes": 344.0, "winner_share": 66.28131021194605, "runner_up": "Ricky Bullard", "runner_up_votes": 163.0, "runner_up_share": 31.406551059730248, "contest_votes": 519.0, "margin_of_victory": 34.874759152215802, "is_tie": false, "results": [ { "candidate": "Jeanne McPherson", "votes": 344, "share": 66.28131021194605 }, { "candidate": "Ricky Bullard", "votes": 163, "share": 31.406551059730248 }, { "candidate": "Jody (JL) Hinson", "votes": 12, "share": 2.312138728323699 } ], "participated": true, "map_key": "COLUMBUS_P245" }, "geometry": { "type": "Polygon", "coordinates": [ [ [ -78.794240991406795, 34.24742899996474 ], [ -78.793151991487463, 34.248205000180654 ], [ -78.789024991045963, 34.247686999788989 ], [ -78.779077990935164, 34.243303999734763 ], [ -78.776526991339196, 34.240403000297626 ], [ -78.773839991830869, 34.239242999933019 ], [ -78.767213991216707, 34.238533999904035 ], [ -78.755379991191674, 34.235145000233778 ], [ -78.742079990920175, 34.234304000048681 ], [ -78.740810991102876, 34.233128000330808 ], [ -78.73459499097018, 34.233023999674039 ], [ -78.735269991556706, 34.230219999837743 ], [ -78.734000991613556, 34.22979399997795 ], [ -78.731054991846463, 34.224785999578366 ], [ -78.726720991350462, 34.224762999881619 ], [ -78.726966991287071, 34.218440999901084 ], [ -78.725138991518804, 34.211976000325819 ], [ -78.724212991320485, 34.209698999745505 ], [ -78.721019991561207, 34.207218999631039 ], [ -78.718584991697597, 34.197363999961212 ], [ -78.714271991514764, 34.188636999786389 ], [ -78.709713991541946, 34.18653100011408 ], [ -78.706792990986543, 34.181954999603086 ], [ -78.705947991654028, 34.177273000214662 ], [ -78.703741991030924, 34.174374999850961 ], [ -78.704237991623387, 34.173108000147003 ], [ -78.703878991695987, 34.170300999678417 ], [ -78.701410991647904, 34.170601000030807 ], [ -78.700229991287273, 34.167553999554229 ], [ -78.697792991576037, 34.148106000222249 ], [ -78.698025991024764, 34.144154000299672 ], [ -78.701431990895969, 34.140202000160208 ], [ -78.700123991408191, 34.137342999783208 ], [ -78.70023399186303, 34.134277000250762 ], [ -78.703073991314611, 34.130739999605723 ], [ -78.703628991150509, 34.128417999640369 ], [ -78.702278991080675, 34.128520999892004 ], [ -78.702009991415778, 34.125348999925173 ], [ -78.697694990818007, 34.11911900025865 ], [ -78.69888199187767, 34.117458999838725 ], [ -78.698788991248605, 34.115598999986901 ], [ -78.697416991737029, 34.114460000385726 ], [ -78.698369991373369, 34.113273999714409 ], [ -78.697948991348127, 34.111139000214756 ], [ -78.704041991264546, 34.101812999972637 ], [ -78.702801991404215, 34.093395999545656 ], [ -78.699176991376916, 34.086242000338935 ], [ -78.710137991199673, 34.087115000332503 ], [ -78.718730991146373, 34.085210999747339 ], [ -78.724147991077061, 34.092776000050975 ], [ -78.726761991215966, 34.098954000373411 ], [ -78.727973991536885, 34.09906799986237 ], [ -78.729261991754711, 34.100619000137534 ], [ -78.738375991094188, 34.106157000366935 ], [ -78.7400849910495, 34.110598000384279 ], [ -78.74366499123623, 34.112001000421031 ], [ -78.745684991417519, 34.11097500023525 ], [ -78.746815991232907, 34.114117999970034 ], [ -78.748429990881789, 34.114481000170876 ], [ -78.749807990966602, 34.113663999872756 ], [ -78.754468991331592, 34.116933000108503 ], [ -78.759665991763029, 34.118289999679781 ], [ -78.762592991556943, 34.120250000178707 ], [ -78.756883991283772, 34.118532999875754 ], [ -78.754907991390652, 34.118754000126827 ], [ -78.754244991049902, 34.120158999788842 ], [ -78.756027991196291, 34.124390999920536 ], [ -78.758805991145877, 34.127277999540347 ], [ -78.760107991883046, 34.130197999942474 ], [ -78.760761990857475, 34.135419000028662 ], [ -78.765849991334278, 34.137738999934811 ], [ -78.76590699118934, 34.139947000193736 ], [ -78.767002991244141, 34.141631999596783 ], [ -78.766700991231758, 34.147355999949596 ], [ -78.770435991440195, 34.151310999679858 ], [ -78.777236991426548, 34.151777000135645 ], [ -78.781696991168147, 34.148977000261546 ], [ -78.787113991335929, 34.149525000409206 ], [ -78.79641299127816, 34.146035999675263 ], [ -78.803687991123198, 34.144773999828594 ], [ -78.810297991463528, 34.147271000082277 ], [ -78.821811990945235, 34.145530000316732 ], [ -78.8252789908409, 34.146877999891018 ], [ -78.82793299175394, 34.14686999992977 ], [ -78.837993991418031, 34.141269999928355 ], [ -78.844732991379004, 34.144079999755519 ], [ -78.85183599084489, 34.144221999849563 ], [ -78.853517991613003, 34.146683000003321 ], [ -78.853059991810596, 34.149573999676726 ], [ -78.854913991149886, 34.156064999812926 ], [ -78.854408991820492, 34.156345999723705 ], [ -78.855180991033933, 34.157221000378854 ], [ -78.853072991826934, 34.15706999972447 ], [ -78.853728991800878, 34.157779000062604 ], [ -78.833786991856002, 34.165057999770049 ], [ -78.834379991126639, 34.166325999584444 ], [ -78.837308991302748, 34.166022000366496 ], [ -78.84163199140734, 34.16383799977126 ], [ -78.842046991671495, 34.164479000411013 ], [ -78.843839991242064, 34.163203000419401 ], [ -78.843644991342288, 34.164813000047211 ], [ -78.844872991655492, 34.165191999570446 ], [ -78.844553991183716, 34.165903999657509 ], [ -78.847271991873725, 34.166745000284486 ], [ -78.8498079908439, 34.164488999662204 ], [ -78.846882990896191, 34.163881000011266 ], [ -78.847691991521202, 34.162074000282061 ], [ -78.851424991327363, 34.161295999884523 ], [ -78.851735990956186, 34.163940999545872 ], [ -78.850973991247585, 34.163896999962915 ], [ -78.850728990961329, 34.16486500038986 ], [ -78.851656991170685, 34.164914000019067 ], [ -78.851508991393558, 34.166695000114537 ], [ -78.852477991717464, 34.166753000352998 ], [ -78.85653999167647, 34.164385999917165 ], [ -78.854836991575183, 34.16188399986919 ], [ -78.851650990923247, 34.161191999768867 ], [ -78.851364991136208, 34.160385000115262 ], [ -78.8572749918211, 34.158855000195324 ], [ -78.861677991000548, 34.165968000241953 ], [ -78.86146099173726, 34.17108999964239 ], [ -78.860127990863475, 34.176832999696934 ], [ -78.861242991331139, 34.178352000322391 ], [ -78.861082990877193, 34.180590000219645 ], [ -78.863640991484417, 34.182507999915295 ], [ -78.864966991480927, 34.185556999879026 ], [ -78.869037991556212, 34.1885849997199 ], [ -78.885556991655122, 34.190854999772341 ], [ -78.885846991156669, 34.197143000378169 ], [ -78.896354990851989, 34.19695000021779 ], [ -78.896157990990346, 34.204139000336738 ], [ -78.90651299125426, 34.204125999951629 ], [ -78.87757899127881, 34.250167999780977 ], [ -78.878568991555525, 34.250167999842809 ], [ -78.873935991872983, 34.254220000015188 ], [ -78.861539991178432, 34.261925000436591 ], [ -78.853748991750933, 34.263986000167883 ], [ -78.842660991100615, 34.261952999558261 ], [ -78.838310991221917, 34.26266600011396 ], [ -78.828653991478362, 34.26110999979511 ], [ -78.82248599184301, 34.258838000363589 ], [ -78.81821999169884, 34.25506599974478 ], [ -78.813025990948304, 34.253786000215229 ], [ -78.80512499090726, 34.246995000337023 ], [ -78.802519990805806, 34.246556000212543 ], [ -78.794240991406795, 34.24742899996474 ] ] ] } },
{ "type": "Feature", "properties": { "county": "COLUMBUS", "precinct": "P223", "enr_desc": "Whiteville Mid", "winner": "Ricky Bullard", "winner_votes": 1.0, "winner_share": 100.0, "runner_up": "Jeanne McPherson", "runner_up_votes": 0.0, "runner_up_share": 0.0, "contest_votes": 1.0, "margin_of_victory": 100.0, "is_tie": false, "results": [ { "candidate": "Ricky Bullard", "votes": 1, "share": 100.0 }, { "candidate": "Jeanne McPherson", "votes": 0, "share": 0.0 }, { "candidate": "Jody (JL) Hinson", "votes": 0, "share": 0.0 } ], "participated": true, "map_key": "COLUMBUS_P223" }, "geometry": { "type": "Polygon", "coordinates": [ [ [ -78.698675991287018, 34.390858999955391 ], [ -78.693897991519137, 34.384188999817695 ], [ -78.692373991460428, 34.383611000076279 ], [ -78.692245991385221, 34.381551999567264 ], [ -78.693583991824028, 34.378859000328255 ], [ -78.691064991709283, 34.371924999746319 ], [ -78.685629991300701, 34.367453000117479 ], [ -78.678883990825824, 34.364073999988996 ], [ -78.679382991867158, 34.36124100036016 ], [ -78.675607991190674, 34.360029999612479 ], [ -78.673172991589126, 34.353261999890215 ], [ -78.671447991294045, 34.351539000374601 ], [ -78.671047991397472, 34.347059999630808 ], [ -78.673878991846323, 34.344735999720072 ], [ -78.673734991223384, 34.343184000069733 ], [ -78.672820991513163, 34.342622999637975 ], [ -78.678800991512119, 34.340663999988962 ], [ -78.677876991266913, 34.345022000084164 ], [ -78.680115991659179, 34.349997000054941 ], [ -78.70147799133855, 34.350992000283071 ], [ -78.712999991549623, 34.34911200038804 ], [ -78.71100199088275, 34.343481000234803 ], [ -78.712947991299046, 34.344244999784955 ], [ -78.712973991658743, 34.3430349997045 ], [ -78.715010991579717, 34.34305199991811 ], [ -78.714115991183533, 34.340266000146713 ], [ -78.715963991350421, 34.339954000289246 ], [ -78.715780990884937, 34.339000000393483 ], [ -78.723284991671989, 34.338118999756503 ], [ -78.722906991172678, 34.342130000240779 ], [ -78.723997991245412, 34.341928999875869 ], [ -78.724539991673268, 34.340281999581258 ], [ -78.728659991621313, 34.339874999970704 ], [ -78.727090990812769, 34.338272000092196 ], [ -78.723527991237901, 34.336965999882437 ], [ -78.723166991708652, 34.335128999694376 ], [ -78.721366991643492, 34.335357999585277 ], [ -78.721498991753464, 34.334044999643403 ], [ -78.718952991228548, 34.336182000271407 ], [ -78.714971991268825, 34.336753000152449 ], [ -78.71406699146425, 34.332653999745609 ], [ -78.722484991253751, 34.332207999804226 ], [ -78.723626990934974, 34.33008600014891 ], [ -78.714959991665935, 34.330113999909919 ], [ -78.714799991584258, 34.328001000004633 ], [ -78.717482990842583, 34.327942999633237 ], [ -78.715174991453893, 34.327088999581392 ], [ -78.714245991230101, 34.327023000020759 ], [ -78.714199991026945, 34.329045000377327 ], [ -78.694070991220769, 34.329865999791664 ], [ -78.692997991394478, 34.330705999777791 ], [ -78.683283991757705, 34.331988000240109 ], [ -78.682702991620928, 34.330552999990182 ], [ -78.680906991340507, 34.330739000375452 ], [ -78.682700991005206, 34.322279999792102 ], [ -78.691688991641428, 34.322238000198887 ], [ -78.691351991724005, 34.312343000024811 ], [ -78.703731990939147, 34.314445999607841 ], [ -78.708115990923375, 34.307765000279524 ], [ -78.71085699154159, 34.305981999715655 ], [ -78.711626990961932, 34.306570999772021 ], [ -78.713389991170331, 34.305131000409304 ], [ -78.713317991598032, 34.303853999920769 ], [ -78.716289991719577, 34.300322000166325 ], [ -78.718821991485925, 34.301198000329379 ], [ -78.724317991456402, 34.297007000188927 ], [ -78.723993991761802, 34.294590999667122 ], [ -78.724932990844337, 34.294694999544383 ], [ -78.72502099107092, 34.293435999959598 ], [ -78.725965991389401, 34.292814999987613 ], [ -78.728208991320969, 34.293668999610524 ], [ -78.726060990939033, 34.295391999534658 ], [ -78.72703899142391, 34.295981999609133 ], [ -78.725488990843445, 34.297192000025511 ], [ -78.726279990795405, 34.297915999754395 ], [ -78.721950990922664, 34.301380999876173 ], [ -78.722964990801032, 34.30390899996047 ], [ -78.721403991719484, 34.305048000379884 ], [ -78.723069990966934, 34.305624999957843 ], [ -78.721627990950068, 34.308000000410132 ], [ -78.718678991141957, 34.309060999759168 ], [ -78.720114991259791, 34.310892000209783 ], [ -78.71853699082429, 34.311471999576654 ], [ -78.717434990910007, 34.309475000349281 ], [ -78.716682991616977, 34.309650999713071 ], [ -78.716228991056255, 34.310344000109183 ], [ -78.71738199169684, 34.310866999971395 ], [ -78.717404991461365, 34.312294999805793 ], [ -78.716704991664315, 34.311995000035665 ], [ -78.716102991113473, 34.312972000140057 ], [ -78.714706991758717, 34.312343999691727 ], [ -78.713810991778089, 34.313693000019256 ], [ -78.71264199092775, 34.313230000257043 ], [ -78.709119991140994, 34.318440999760902 ], [ -78.715103991255944, 34.318391999858498 ], [ -78.738460991665534, 34.310840000190211 ], [ -78.742990991250593, 34.308099999818253 ], [ -78.74684499159919, 34.303450000177122 ], [ -78.747875990825179, 34.300171000314052 ], [ -78.751412991794325, 34.297052999795739 ], [ -78.756046991015623, 34.297695999750616 ], [ -78.76451799153692, 34.296142999747197 ], [ -78.76768999100679, 34.296830999574603 ], [ -78.770531991278347, 34.296099000388779 ], [ -78.774061991454687, 34.296856000182906 ], [ -78.775826991528064, 34.298345000052485 ], [ -78.778590991276062, 34.297539000388966 ], [ -78.776845991610031, 34.306021000250034 ], [ -78.777003990873439, 34.312157999791687 ], [ -78.781334991625727, 34.317068999579064 ], [ -78.794697991099511, 34.32053499958959 ], [ -78.796570991725105, 34.32454799970963 ], [ -78.797509991229617, 34.32551899978229 ], [ -78.799326991540539, 34.325400000059659 ], [ -78.799452990868375, 34.341216000020509 ], [ -78.797228991763319, 34.344257000250273 ], [ -78.795018991166231, 34.353982999811713 ], [ -78.799807991091782, 34.370037999902955 ], [ -78.79997999175599, 34.374865000263789 ], [ -78.79753099161826, 34.376380000425279 ], [ -78.790846991731655, 34.38022500019774 ], [ -78.783303991705637, 34.374986999861015 ], [ -78.770906991252531, 34.371598999839613 ], [ -78.753447991781499, 34.362745999721824 ], [ -78.744163991527344, 34.355714999585189 ], [ -78.736227991519982, 34.352193000330573 ], [ -78.724217991280184, 34.348462000229532 ], [ -78.724113990998802, 34.35573500017987 ], [ -78.721572991252543, 34.359598999754297 ], [ -78.723313991065822, 34.361648000000642 ], [ -78.724953991769254, 34.370772999939021 ], [ -78.717710991123624, 34.369774999976215 ], [ -78.716075991617998, 34.370488999544285 ], [ -78.721110991698154, 34.37547200001093 ], [ -78.723620991641724, 34.380334999956482 ], [ -78.721178990930767, 34.383054000079589 ], [ -78.714164991824106, 34.385139999684007 ], [ -78.706794991671487, 34.390400999992956 ], [ -78.698675991287018, 34.390858999955391 ] ] ] } }
]
}
