{
"type": "FeatureCollection",
"name": "craven_county_board_of_commissioners_district_07_rep",
"crs": { "type": "name", "properties": { "name": "urn:ogc:def:crs:OGC:1.3:CRS84" } },
"features": [
{ "type": "Feature", "properties": { "county": null, "precinct": null, "enr_desc": "Havelock", "winner": null, "winner_votes": null, "winner_share": null, "runner_up": null, "runner_up_votes": null, "runner_up_share": null, "contest_votes": null, "margin_of_victory": null, "is_tie": false, "results": null, "participated": false, "map_key": null }, "geometry": { "type": "Polygon", "coordinates": [ [ [ -77.107170991105264, 34.887210999804388 ], [ -77.100092991321645, 34.885748000078841 ], [ -77.093543991193187, 34.903716999826628 ], [ -77.079813991341737, 34.894310000196114 ], [ -77.06575399093451, 34.909032999970457 ], [ -77.077353991735578, 34.91996799960711 ], [ -77.063931991780379, 34.932443999694677 ], [ -77.064848991164467, 34.93795199973767 ], [ -77.037318991474336, 34.95045800004926 ], [ -77.032202991140394, 34.953712999723095 ], [ -76.943317991370904, 34.915769999419794 ], [ -76.948095991099052, 34.922233999468645 ], [ -76.951868991601302, 34.929049999666809 ], [ -76.949868991455233, 34.930288999568326 ], [ -76.948582991142743, 34.929742999600869 ], [ -76.946732991046119, 34.93215200014405 ], [ -76.940380990903932, 34.936773999744119 ], [ -76.936210991679488, 34.937648000212874 ], [ -76.933647991552945, 34.939850999714388 ], [ -76.932166991413141, 34.939867999740422 ], [ -76.932653991235924, 34.940817999571365 ], [ -76.934408991706746, 34.94098899975657 ], [ -76.936417991230826, 34.944307999968608 ], [ -76.935262991813076, 34.943301999481712 ], [ -76.934128991542011, 34.940966999618155 ], [ -76.932713991543793, 34.941005000285223 ], [ -76.931739991022241, 34.939878999486382 ], [ -76.929897991217246, 34.939592999823162 ], [ -76.932144991659882, 34.94543799995872 ], [ -76.931358991368697, 34.948653999768602 ], [ -76.915795991334519, 34.963574000196857 ], [ -76.916747990877028, 34.964254000214488 ], [ -76.915688991604313, 34.963673000156696 ], [ -76.906527990971441, 34.970790999783603 ], [ -76.896513991394741, 34.981763999940441 ], [ -76.83933299120433, 34.959410000198659 ], [ -76.853967990985211, 34.934129999946109 ], [ -76.852040991297585, 34.930443999756335 ], [ -76.852006991139774, 34.923016000040974 ], [ -76.853010990769604, 34.919893999889197 ], [ -76.860352991659525, 34.909834999827808 ], [ -76.861307991481894, 34.905971999875952 ], [ -76.860083991752504, 34.902962999715015 ], [ -76.860263991496566, 34.900962999863928 ], [ -76.864315991240716, 34.895251999547135 ], [ -76.864075991443926, 34.893105999581799 ], [ -76.861789990980739, 34.888358999968531 ], [ -76.85936299099231, 34.884532999466188 ], [ -76.857689991639361, 34.883277999715112 ], [ -76.85755599111171, 34.878152000210029 ], [ -76.850962991181902, 34.873015000164656 ], [ -76.845858991343036, 34.867190999914541 ], [ -76.846224990759595, 34.864827999869277 ], [ -76.840569990762006, 34.85131499991261 ], [ -76.840380990890921, 34.845591000100512 ], [ -76.88320099160515, 34.844892999525449 ], [ -76.882351991639311, 34.842424999542523 ], [ -76.882194991763214, 34.836703999607529 ], [ -76.954772991685331, 34.824508000118406 ], [ -76.954437991092064, 34.809066000184671 ], [ -77.07826299154749, 34.811322000011977 ], [ -77.076959990770419, 34.813941999856006 ], [ -77.075506991169732, 34.814322999597024 ], [ -77.073342991576553, 34.817629999824767 ], [ -77.068084991385348, 34.820161999805208 ], [ -77.050032991333225, 34.833319999816979 ], [ -77.047248991250498, 34.836416000282128 ], [ -77.108850991195126, 34.830780000031325 ], [ -77.107170991105264, 34.887210999804388 ] ] ] } },
{ "type": "Feature", "properties": { "county": null, "precinct": null, "enr_desc": "Trent Woods", "winner": null, "winner_votes": null, "winner_share": null, "runner_up": null, "runner_up_votes": null, "runner_up_share": null, "contest_votes": null, "margin_of_victory": null, "is_tie": false, "results": null, "participated": false, "map_key": null }, "geometry": { "type": "Polygon", "coordinates": [ [ [ -77.116064991023507, 35.074106999766585 ], [ -77.11817199099238, 35.073230000136959 ], [ -77.118059991780996, 35.071743999511831 ], [ -77.118296991206904, 35.0715829999127 ], [ -77.118602991463888, 35.073284000260266 ], [ -77.122786991239607, 35.072950999611464 ], [ -77.126987990759105, 35.08065699962814 ], [ -77.126739991385506, 35.081957999950461 ], [ -77.119944991395116, 35.085849999842999 ], [ -77.121023991580358, 35.088349999756296 ], [ -77.115364991619856, 35.09091700020177 ], [ -77.115066991712737, 35.086914999762826 ], [ -77.112671990874503, 35.084921999694707 ], [ -77.11056699171975, 35.084681000128434 ], [ -77.10812699076412, 35.086069999464755 ], [ -77.105145991533263, 35.085748999983849 ], [ -77.102740990895455, 35.084334999912201 ], [ -77.100942991147562, 35.088090999900864 ], [ -77.097370991361217, 35.089770999974512 ], [ -77.095809991138083, 35.089237000049337 ], [ -77.090763991212725, 35.089791999576285 ], [ -77.090664991539043, 35.091048999807668 ], [ -77.092543991786883, 35.091812999948829 ], [ -77.092406991550448, 35.092681999728498 ], [ -77.090506990968663, 35.092507999916087 ], [ -77.085553991658287, 35.095096000066057 ], [ -77.083055991304903, 35.092179000177694 ], [ -77.079589991488092, 35.094358999697747 ], [ -77.07666899103539, 35.093578000192316 ], [ -77.077626991127843, 35.090978000224524 ], [ -77.075709991439652, 35.090541000104842 ], [ -77.076495990739218, 35.088499000297745 ], [ -77.068651991242518, 35.086648000108411 ], [ -77.072099990950349, 35.079403999705598 ], [ -77.070524991264961, 35.077625999683988 ], [ -77.069400991516815, 35.078073999794725 ], [ -77.068810991572107, 35.077050999931089 ], [ -77.064834990746547, 35.07520000021389 ], [ -77.071797990870593, 35.07201299992176 ], [ -77.078806990768143, 35.070429000271865 ], [ -77.09101599142663, 35.071630999819178 ], [ -77.101808990977219, 35.074059999536217 ], [ -77.116064991023507, 35.074106999766585 ] ] ] } },
{ "type": "Feature", "properties": { "county": null, "precinct": null, "enr_desc": "River Bend", "winner": null, "winner_votes": null, "winner_share": null, "runner_up": null, "runner_up_votes": null, "runner_up_share": null, "contest_votes": null, "margin_of_victory": null, "is_tie": false, "results": null, "participated": false, "map_key": null }, "geometry": { "type": "Polygon", "coordinates": [ [ [ -77.164510991528445, 35.065484999433494 ], [ -77.16651899081684, 35.065392999467107 ], [ -77.16853799108425, 35.064223000197906 ], [ -77.170267990849254, 35.064800000080361 ], [ -77.170401991513373, 35.067295000238893 ], [ -77.171777991076098, 35.069383000215815 ], [ -77.169557991096411, 35.073531000198471 ], [ -77.172182991433203, 35.075268000209213 ], [ -77.163668991432743, 35.076204999917522 ], [ -77.157228990758838, 35.080069999925989 ], [ -77.163837991578291, 35.077531000014041 ], [ -77.164520991387889, 35.078635999521929 ], [ -77.155461991633587, 35.082553999429869 ], [ -77.156660991564181, 35.084800999892124 ], [ -77.153278991443514, 35.086039000039982 ], [ -77.151565991702327, 35.084353000301498 ], [ -77.144537991571127, 35.087592999559803 ], [ -77.14326599102769, 35.08700300003516 ], [ -77.141990991250907, 35.085200999815278 ], [ -77.142385991300898, 35.083749999992669 ], [ -77.141658990914124, 35.080755999782262 ], [ -77.138344991391889, 35.079132000181055 ], [ -77.135672990823679, 35.07625800025 ], [ -77.131794991583305, 35.07505999998569 ], [ -77.128084991073038, 35.072509999612194 ], [ -77.130606991623921, 35.072233999741968 ], [ -77.13219799125801, 35.067222999602023 ], [ -77.138387990872076, 35.061279000143259 ], [ -77.139337991286453, 35.060797000097303 ], [ -77.140237991538186, 35.062096999534958 ], [ -77.142266991015433, 35.061811999539557 ], [ -77.145190991360835, 35.060065999808934 ], [ -77.147004991513001, 35.05656399994465 ], [ -77.149593991031182, 35.05657199976384 ], [ -77.149828990815635, 35.055625999541256 ], [ -77.148344991018575, 35.054674999884689 ], [ -77.15065399077227, 35.055313999601417 ], [ -77.15210099174702, 35.054720000061806 ], [ -77.15091899126115, 35.057093000303894 ], [ -77.149845991491716, 35.057667999766274 ], [ -77.154798990811727, 35.062736999566297 ], [ -77.15668699177597, 35.06205699982123 ], [ -77.15993699094463, 35.062339999673036 ], [ -77.163109991209396, 35.063884999524873 ], [ -77.164510991528445, 35.065484999433494 ] ] ] } },
{ "type": "Feature", "properties": { "county": null, "precinct": null, "enr_desc": "Jasper", "winner": null, "winner_votes": null, "winner_share": null, "runner_up": null, "runner_up_votes": null, "runner_up_share": null, "contest_votes": null, "margin_of_victory": null, "is_tie": false, "results": null, "participated": false, "map_key": null }, "geometry": { "type": "Polygon", "coordinates": [ [ [ -77.209027990785003, 35.09147000020085 ], [ -77.281161990866494, 35.126512999983809 ], [ -77.28271799092191, 35.15171000009277 ], [ -77.284803991259153, 35.163408000260667 ], [ -77.283771991621833, 35.166705000061597 ], [ -77.286362991186536, 35.171055000090675 ], [ -77.289345991480658, 35.17263499962931 ], [ -77.291393991306549, 35.174974999944858 ], [ -77.295115991154688, 35.176826000189763 ], [ -77.296599991094467, 35.181552999741385 ], [ -77.298073990896683, 35.182702999935508 ], [ -77.297093990714828, 35.185456000016906 ], [ -77.292632991580675, 35.185501999434585 ], [ -77.28998399110209, 35.187309999559275 ], [ -77.292463991723125, 35.19534500019833 ], [ -77.291904990879502, 35.198137999647969 ], [ -77.293047990752115, 35.199945999478366 ], [ -77.290235990784382, 35.201431999844004 ], [ -77.290456991033153, 35.206583999829085 ], [ -77.293328991546602, 35.208460999949416 ], [ -77.293884991038169, 35.209629000281708 ], [ -77.291178991134458, 35.21013299955186 ], [ -77.292014991038684, 35.211621000294507 ], [ -77.291650991720587, 35.212925999558259 ], [ -77.289252991429493, 35.214093000068679 ], [ -77.289446991019403, 35.215740999761913 ], [ -77.2883589907143, 35.217023000254422 ], [ -77.289055991518438, 35.218556999606669 ], [ -77.290840990849162, 35.218579999632283 ], [ -77.29109199098076, 35.21963300028127 ], [ -77.286768990736959, 35.219358000055557 ], [ -77.285456990885493, 35.221464000048563 ], [ -77.285288991626757, 35.223684000207925 ], [ -77.283754991529662, 35.225126000293365 ], [ -77.283474991110779, 35.226614000297225 ], [ -77.286459991399184, 35.22798799968038 ], [ -77.28559399070258, 35.231674000032548 ], [ -77.286039991124369, 35.232658000025609 ], [ -77.282579991467543, 35.233641999999129 ], [ -77.279455991636397, 35.231946999673333 ], [ -77.280459990948231, 35.235129000291863 ], [ -77.278059991381511, 35.235907000325554 ], [ -77.279453991001475, 35.237830000125754 ], [ -77.27724999072764, 35.23728000001617 ], [ -77.276273991374779, 35.237851999612936 ], [ -77.277277990722766, 35.239294999947319 ], [ -77.279258991238507, 35.239203999759511 ], [ -77.282912991011059, 35.243072999726571 ], [ -77.279054991337546, 35.245068000049628 ], [ -77.281951991354873, 35.249465999805722 ], [ -77.288142991393102, 35.252471999705072 ], [ -77.286670991701655, 35.253473000103639 ], [ -77.287553990703728, 35.254923999531698 ], [ -77.287067991772034, 35.256923999898106 ], [ -77.281573991036581, 35.257379999452439 ], [ -77.27999999115643, 35.25892300025734 ], [ -77.281747990996735, 35.259687999648449 ], [ -77.285887991210004, 35.258994999655471 ], [ -77.284463990743888, 35.260894999724137 ], [ -77.282007991254389, 35.262130999794131 ], [ -77.282648991456384, 35.263091999726839 ], [ -77.284490991276144, 35.262908999591296 ], [ -77.285774991462219, 35.263963000110614 ], [ -77.281504990726589, 35.264350999620497 ], [ -77.281085991689366, 35.26519799959825 ], [ -77.282535991375809, 35.267831000012166 ], [ -77.284517991393571, 35.267990999599725 ], [ -77.284935991031659, 35.268747000165625 ], [ -77.28359599119878, 35.269639000031816 ], [ -77.280022991679175, 35.269753000296227 ], [ -77.279715991763183, 35.270531000255815 ], [ -77.282171991776877, 35.271904999942016 ], [ -77.282757991461736, 35.273186999729504 ], [ -77.282002991683811, 35.276964000153534 ], [ -77.284318991759818, 35.277057000024556 ], [ -77.28635799141604, 35.275293999643857 ], [ -77.286328991748434, 35.279002999704304 ], [ -77.289092991233261, 35.280673999510441 ], [ -77.287276991704118, 35.283467000179449 ], [ -77.285321990900385, 35.28403899982105 ], [ -77.286020990822081, 35.285091999834535 ], [ -77.287527991532656, 35.285046000296035 ], [ -77.28724899141649, 35.28632799971794 ], [ -77.28923099122494, 35.286854999908932 ], [ -77.291267991131363, 35.288663999493004 ], [ -77.287581991680355, 35.293241999685883 ], [ -77.28468499167117, 35.291628000182961 ], [ -77.28210899161985, 35.287176000050714 ], [ -77.278498991103021, 35.284534999782402 ], [ -77.262359991733518, 35.280432999651651 ], [ -77.260325990887679, 35.280998999553752 ], [ -77.259650991206783, 35.2825639997031 ], [ -77.25735499103736, 35.281795000122358 ], [ -77.254264991251659, 35.279742000218498 ], [ -77.25237099089918, 35.276778000195485 ], [ -77.252727990777586, 35.272538000047597 ], [ -77.2512489915553, 35.265701999679813 ], [ -77.249677991744676, 35.263773999901872 ], [ -77.242053991663639, 35.261406000153585 ], [ -77.237861991603467, 35.261407000174067 ], [ -77.228489991250555, 35.256544999652945 ], [ -77.225434991354376, 35.257108999873289 ], [ -77.223603990819697, 35.254170999719186 ], [ -77.220566991089015, 35.252952999641344 ], [ -77.216882991218625, 35.252674999753204 ], [ -77.212931991490521, 35.248589000135162 ], [ -77.208646990924294, 35.248369000153112 ], [ -77.206594990768991, 35.24342399984284 ], [ -77.201384991386078, 35.242697000014253 ], [ -77.200902991629746, 35.238943000257414 ], [ -77.199485991505824, 35.237477999447123 ], [ -77.192354991638823, 35.236009000100175 ], [ -77.18758199072694, 35.23792600028068 ], [ -77.183573991711, 35.236414999702056 ], [ -77.181988991398597, 35.236874000031499 ], [ -77.179492990880178, 35.239183000153581 ], [ -77.177327991705198, 35.239526999590076 ], [ -77.174299990827336, 35.237880999837472 ], [ -77.167149990712701, 35.237960999968301 ], [ -77.166123990987188, 35.236986000242922 ], [ -77.164178991592905, 35.231566000000619 ], [ -77.16573499108793, 35.227336999974426 ], [ -77.164883990773774, 35.225616000090632 ], [ -77.160956990959946, 35.224034999946397 ], [ -77.153524991651196, 35.224224000037623 ], [ -77.151787991310854, 35.222936999768336 ], [ -77.152215991665713, 35.220295999610549 ], [ -77.145541990919142, 35.218910000029474 ], [ -77.139062991732558, 35.215640999725224 ], [ -77.134623990942387, 35.215162000246131 ], [ -77.12452699095833, 35.210490999750782 ], [ -77.122692991232469, 35.2108159998267 ], [ -77.12066499148392, 35.209100000091802 ], [ -77.118329991278486, 35.203538000032268 ], [ -77.109930990745553, 35.195305999773701 ], [ -77.111988991771369, 35.193238000124452 ], [ -77.110422990924206, 35.191986999435983 ], [ -77.111301990811938, 35.187733999523616 ], [ -77.109074990906507, 35.184667999735773 ], [ -77.108048991519226, 35.184645999651678 ], [ -77.103883991781018, 35.181137000176726 ], [ -77.101212991392714, 35.178024999543617 ], [ -77.10113599168595, 35.177419999627858 ], [ -77.103059991406127, 35.177295000096123 ], [ -77.105574991393993, 35.175684000217245 ], [ -77.105774991618972, 35.170833000173921 ], [ -77.108717991095119, 35.170987000008864 ], [ -77.108877990702879, 35.173463000211854 ], [ -77.107950991621678, 35.174945000209867 ], [ -77.108834991668985, 35.176182999686581 ], [ -77.109210991213544, 35.179586999600033 ], [ -77.111364991626075, 35.179269000073525 ], [ -77.113607991281725, 35.180014999477116 ], [ -77.116979990856876, 35.179827999961979 ], [ -77.117389991256246, 35.178614999629559 ], [ -77.115701991532177, 35.177388999667706 ], [ -77.121366991093907, 35.17503499943053 ], [ -77.122240991173427, 35.176232000207165 ], [ -77.119929990754798, 35.177592999655481 ], [ -77.119713990890006, 35.179594999516233 ], [ -77.12424999152978, 35.17710099999681 ], [ -77.128308991468302, 35.17869399957803 ], [ -77.127346991415308, 35.176924999454769 ], [ -77.128847991250609, 35.175916999416415 ], [ -77.13249499153855, 35.179447000317388 ], [ -77.13352699135325, 35.178622999531896 ], [ -77.134725991493809, 35.180019999901887 ], [ -77.135841991416854, 35.178600999846246 ], [ -77.141502991602337, 35.176656999461422 ], [ -77.148695991402192, 35.177368999745141 ], [ -77.155109991371532, 35.176112000154951 ], [ -77.160797991775311, 35.174002999439992 ], [ -77.161132990929744, 35.173244999786021 ], [ -77.162498991003005, 35.173859999497154 ], [ -77.167349991155348, 35.173710999828756 ], [ -77.167461990746958, 35.170979999994387 ], [ -77.164619991602279, 35.16787900024088 ], [ -77.168522990959787, 35.167277000166976 ], [ -77.168856991097385, 35.166548999728491 ], [ -77.167992990876698, 35.165319000281457 ], [ -77.169721991586457, 35.165394000013038 ], [ -77.16972199144837, 35.164117999966287 ], [ -77.168386990963839, 35.163353999969921 ], [ -77.169337991146207, 35.161903000185092 ], [ -77.169039991007097, 35.158262999496571 ], [ -77.170826991379528, 35.157384000251326 ], [ -77.172225990995031, 35.155423000313696 ], [ -77.171366990806547, 35.153878999688068 ], [ -77.173070991490491, 35.152608999797202 ], [ -77.174599991499932, 35.145973999553874 ], [ -77.179625991014419, 35.144352999427326 ], [ -77.178614991754955, 35.139496999772888 ], [ -77.180512991607827, 35.138798999483264 ], [ -77.18449799070747, 35.139714999667923 ], [ -77.190015991269604, 35.136395999506497 ], [ -77.190628991203027, 35.134197999691388 ], [ -77.192411991508521, 35.132457000074794 ], [ -77.199823991594727, 35.131541000034694 ], [ -77.20422699166258, 35.12547400002574 ], [ -77.205121991260654, 35.11905899975762 ], [ -77.203958991349822, 35.115266999934121 ], [ -77.204051991095852, 35.11158300013922 ], [ -77.205925991481152, 35.107635999609371 ], [ -77.205144991798804, 35.103422999575749 ], [ -77.206981991127648, 35.099690999851013 ], [ -77.206088991324805, 35.093967999716682 ], [ -77.209027990785003, 35.09147000020085 ] ] ] } },
{ "type": "Feature", "properties": { "county": null, "precinct": null, "enr_desc": "Bridgeton", "winner": null, "winner_votes": null, "winner_share": null, "runner_up": null, "runner_up_votes": null, "runner_up_share": null, "contest_votes": null, "margin_of_victory": null, "is_tie": false, "results": null, "participated": false, "map_key": null }, "geometry": { "type": "Polygon", "coordinates": [ [ [ -77.016867990827237, 35.090426999879462 ], [ -77.020148991528316, 35.097992999572035 ], [ -77.023167991229727, 35.102766999868905 ], [ -77.02578199167931, 35.1108199997092 ], [ -77.034876991091366, 35.123991000222027 ], [ -77.045799991679573, 35.136931999530759 ], [ -77.052074991466412, 35.14263999986759 ], [ -77.058299990856696, 35.146071999813785 ], [ -77.074370991691239, 35.150770000291999 ], [ -77.075765991533856, 35.153167999857686 ], [ -77.076305991729953, 35.159855999861414 ], [ -77.077151991699438, 35.16131199962927 ], [ -77.079754991693818, 35.162880999644699 ], [ -77.086002991025111, 35.164212999480931 ], [ -77.089010991029227, 35.167142999697482 ], [ -77.088907991112251, 35.168813999863893 ], [ -77.086926991468175, 35.172012000131126 ], [ -77.087682990850922, 35.175276999566762 ], [ -77.093332991456535, 35.182874000030331 ], [ -77.095424991089089, 35.187439000167927 ], [ -77.100508990906704, 35.192009000148524 ], [ -77.097815990969039, 35.196169999531428 ], [ -77.095757991567083, 35.196716999739195 ], [ -77.08722399084931, 35.191087999537551 ], [ -77.08429999125633, 35.191606999836388 ], [ -77.083825991645497, 35.193857999777748 ], [ -77.085010991326726, 35.195048999735747 ], [ -77.095972991621792, 35.198722000009148 ], [ -77.09937399157117, 35.202724000110862 ], [ -77.099347991184075, 35.207049999610739 ], [ -77.097902991437039, 35.206946999665078 ], [ -77.096282990812696, 35.203741999627596 ], [ -77.095250991654709, 35.203674000006906 ], [ -77.092963991282375, 35.205757999700651 ], [ -77.093187991326616, 35.207291999857894 ], [ -77.091821991463007, 35.208710999739971 ], [ -77.092101991651816, 35.210108000001711 ], [ -77.09017699083995, 35.210750000066028 ], [ -77.09120999109129, 35.212717999641946 ], [ -77.091460991244475, 35.211595999510159 ], [ -77.092854991189355, 35.211870999494991 ], [ -77.092911990820596, 35.214159999714973 ], [ -77.087137991202667, 35.214367999824262 ], [ -77.086886991613298, 35.21514599947912 ], [ -77.082005991715334, 35.216222999482355 ], [ -77.079803991621603, 35.221306999683357 ], [ -77.076482991630996, 35.222979000057265 ], [ -77.073720990995, 35.223047999856142 ], [ -77.072772991367842, 35.225245999561132 ], [ -77.075834990784799, 35.22745500018285 ], [ -77.07492399116353, 35.230797000237601 ], [ -77.069956990903862, 35.232983999487146 ], [ -77.065514991407156, 35.233163999692017 ], [ -77.063596991716935, 35.23454099973285 ], [ -77.061785991544923, 35.233612999626338 ], [ -77.061014991177856, 35.235209999585081 ], [ -77.052511990697894, 35.224896000281831 ], [ -77.053950991443955, 35.222416000309906 ], [ -77.055636990810669, 35.221961999895861 ], [ -77.050301991143044, 35.218399999980882 ], [ -77.044462991573823, 35.216349999438087 ], [ -77.0407549914367, 35.213544000060054 ], [ -77.037943991061994, 35.209929000262491 ], [ -77.037320991778259, 35.205839999540657 ], [ -77.033799990977911, 35.199001999731387 ], [ -77.028701991442119, 35.195653999569934 ], [ -77.021971990979765, 35.193138999642251 ], [ -77.015717991144626, 35.195474999585173 ], [ -77.010558991005823, 35.194448000149848 ], [ -77.010403991183566, 35.19155099941954 ], [ -77.008966990927135, 35.188813999924854 ], [ -77.007951991340036, 35.183823999491715 ], [ -77.003760990785494, 35.17801499960072 ], [ -77.000386991427249, 35.174758999865205 ], [ -76.999667991477196, 35.172913000072434 ], [ -76.996687991152896, 35.171886999729985 ], [ -76.99398499071043, 35.167991000096755 ], [ -76.99237899137276, 35.165235999539192 ], [ -76.992728991445404, 35.163552999589143 ], [ -76.994280991170811, 35.161781000236338 ], [ -76.993315991622595, 35.16041099975682 ], [ -76.988615991712891, 35.158302000157526 ], [ -76.98643099118587, 35.155137999433641 ], [ -76.987568990963297, 35.154648999922038 ], [ -76.987336990846629, 35.151084999675426 ], [ -76.984978991404745, 35.147351000048943 ], [ -76.984900991162036, 35.145062000236166 ], [ -76.982071991075202, 35.143032999979162 ], [ -76.982017991471253, 35.141046999533593 ], [ -76.977984991138598, 35.138350999887848 ], [ -76.977553991386259, 35.136107000046643 ], [ -76.975853991291856, 35.133678000025611 ], [ -76.970771991305014, 35.131317000120923 ], [ -76.968464991569945, 35.129272999450542 ], [ -76.959141991644941, 35.127617999630679 ], [ -76.955641991457142, 35.125437999688053 ], [ -76.952113991709609, 35.125346000195989 ], [ -76.948561991174884, 35.123688999510819 ], [ -76.948398991294283, 35.125737999867084 ], [ -76.948210991447596, 35.123378000034499 ], [ -76.948778991696784, 35.123580999716317 ], [ -76.948097991166193, 35.12325499999578 ], [ -76.947785990743853, 35.122801000254235 ], [ -76.95096399119663, 35.120383999451754 ], [ -76.967227991164833, 35.115292999576972 ], [ -76.970778990959289, 35.117023999543129 ], [ -76.981232991697581, 35.117868000302295 ], [ -76.991500991498199, 35.124285000048964 ], [ -76.997873991638485, 35.126561999434962 ], [ -76.99951899149238, 35.124988000283608 ], [ -77.006484991544625, 35.121558000045205 ], [ -77.005176991741749, 35.119893999689417 ], [ -76.997793990914985, 35.116527000177562 ], [ -76.996175991300191, 35.114487000220279 ], [ -76.995412991680922, 35.113279000294618 ], [ -76.995948991000134, 35.106431999782579 ], [ -76.998714991533376, 35.103562000183715 ], [ -77.002287991040433, 35.10616600028272 ], [ -77.003890991139514, 35.105726000007898 ], [ -77.004874991661495, 35.100852000269768 ], [ -77.007367990932309, 35.097797999537057 ], [ -77.007152990953955, 35.095598999798668 ], [ -77.016867990827237, 35.090426999879462 ] ] ] } },
{ "type": "Feature", "properties": { "county": null, "precinct": null, "enr_desc": "Harlowe", "winner": null, "winner_votes": null, "winner_share": null, "runner_up": null, "runner_up_votes": null, "runner_up_share": null, "contest_votes": null, "margin_of_victory": null, "is_tie": false, "results": null, "participated": false, "map_key": null }, "geometry": { "type": "Polygon", "coordinates": [ [ [ -76.840380990890921, 34.845591000100512 ], [ -76.840569990762006, 34.85131499991261 ], [ -76.846224990759595, 34.864827999869277 ], [ -76.845858991343036, 34.867190999914541 ], [ -76.850962991181902, 34.873015000164656 ], [ -76.85755599111171, 34.878152000210029 ], [ -76.857689991639361, 34.883277999715112 ], [ -76.85936299099231, 34.884532999466188 ], [ -76.861789990980739, 34.888358999968531 ], [ -76.864075991443926, 34.893105999581799 ], [ -76.864315991240716, 34.895251999547135 ], [ -76.860263991496566, 34.900962999863928 ], [ -76.860083991752504, 34.902962999715015 ], [ -76.861307991481894, 34.905971999875952 ], [ -76.860352991659525, 34.909834999827808 ], [ -76.853010990769604, 34.919893999889197 ], [ -76.852006991139774, 34.923016000040974 ], [ -76.852040991297585, 34.930443999756335 ], [ -76.853967990985211, 34.934129999946109 ], [ -76.83933299120433, 34.959410000198659 ], [ -76.823884991630067, 34.953791999745604 ], [ -76.814763991651148, 34.951550999516563 ], [ -76.780585990881988, 34.950434000228299 ], [ -76.771349990937878, 34.951392000109415 ], [ -76.75600299135786, 34.956150999659947 ], [ -76.711579990969, 34.981767999454483 ], [ -76.685362991565526, 34.964240000214389 ], [ -76.652570991729746, 34.937594999565619 ], [ -76.660632990897184, 34.915578000004338 ], [ -76.662674991252246, 34.911853000103143 ], [ -76.666582991746324, 34.908883999593264 ], [ -76.669566991761741, 34.905134999512399 ], [ -76.674619991486566, 34.901942999609062 ], [ -76.682973991799074, 34.899268999575774 ], [ -76.686262991659035, 34.895371000171785 ], [ -76.686770991787924, 34.888701999443199 ], [ -76.691034991484031, 34.882386000283596 ], [ -76.691849991416618, 34.871066999613262 ], [ -76.69318899173409, 34.871002000093661 ], [ -76.693017990874523, 34.869179999793175 ], [ -76.75800799090851, 34.846284999933964 ], [ -76.758413991438857, 34.847410000043084 ], [ -76.760798991150466, 34.846612000236718 ], [ -76.762154991016942, 34.848231999721193 ], [ -76.763853991602829, 34.847876999938094 ], [ -76.766429991665973, 34.848795000124461 ], [ -76.771765991240684, 34.846677000080156 ], [ -76.840380990890921, 34.845591000100512 ] ] ] } },
{ "type": "Feature", "properties": { "county": null, "precinct": null, "enr_desc": "Fairfield Harbour", "winner": null, "winner_votes": null, "winner_share": null, "runner_up": null, "runner_up_votes": null, "runner_up_share": null, "contest_votes": null, "margin_of_victory": null, "is_tie": false, "results": null, "participated": false, "map_key": null }, "geometry": { "type": "Polygon", "coordinates": [ [ [ -76.967022990719769, 35.040337999684226 ], [ -77.004089990811821, 35.06937399987909 ], [ -77.007086991295466, 35.073705999982288 ], [ -77.008208991687752, 35.078511999875637 ], [ -77.013317991770151, 35.086649999952463 ], [ -77.016867990827237, 35.090426999879462 ], [ -77.007152990953955, 35.095598999798668 ], [ -77.007367990932309, 35.097797999537057 ], [ -77.004874991661495, 35.100852000269768 ], [ -77.003890991139514, 35.105726000007898 ], [ -77.002287991040433, 35.10616600028272 ], [ -76.998714991533376, 35.103562000183715 ], [ -76.995948991000134, 35.106431999782579 ], [ -76.995412991680922, 35.113279000294618 ], [ -76.996175991300191, 35.114487000220279 ], [ -76.997793990914985, 35.116527000177562 ], [ -77.005176991741749, 35.119893999689417 ], [ -77.006484991544625, 35.121558000045205 ], [ -76.99951899149238, 35.124988000283608 ], [ -76.997873991638485, 35.126561999434962 ], [ -76.991500991498199, 35.124285000048964 ], [ -76.981232991697581, 35.117868000302295 ], [ -76.970778990959289, 35.117023999543129 ], [ -76.967227991164833, 35.115292999576972 ], [ -76.95096399119663, 35.120383999451754 ], [ -76.947785990743853, 35.122801000254235 ], [ -76.948097991166193, 35.12325499999578 ], [ -76.947873991012273, 35.124089000187524 ], [ -76.946914991132985, 35.121272000125238 ], [ -76.943545990747722, 35.121305999911058 ], [ -76.940818991292389, 35.119102999500015 ], [ -76.942079991736662, 35.115711999810422 ], [ -76.940228991708665, 35.114706000207221 ], [ -76.93789799158732, 35.114365999737394 ], [ -76.937612990759931, 35.115269999993622 ], [ -76.934200991369906, 35.115339000240269 ], [ -76.932787990857491, 35.11616499961962 ], [ -76.931447991523001, 35.116176999558455 ], [ -76.931261991276472, 35.117242999782654 ], [ -76.930864991723723, 35.11681900011223 ], [ -76.931522990901371, 35.115951999668702 ], [ -76.934082990895547, 35.115153000138413 ], [ -76.937076991701105, 35.115055999935365 ], [ -76.937607991482551, 35.114589999815905 ], [ -76.937875991605921, 35.112882999996465 ], [ -76.937239991766702, 35.112199999873191 ], [ -76.936624991559469, 35.112816999456662 ], [ -76.936813991683749, 35.111747999854671 ], [ -76.935871991593544, 35.111850000158093 ], [ -76.936546991220794, 35.111643999702324 ], [ -76.936233991780227, 35.108141000047034 ], [ -76.934466991600942, 35.107694000126187 ], [ -76.932820990811095, 35.105610999763599 ], [ -76.933785990769721, 35.106281999961439 ], [ -76.934488990995689, 35.105489999772495 ], [ -76.93666099153846, 35.105298999756293 ], [ -76.936579991411804, 35.103769999799155 ], [ -76.937379990829015, 35.102924999946197 ], [ -76.940227991159489, 35.103130999576592 ], [ -76.939440991045728, 35.101955999733761 ], [ -76.936828991055407, 35.101609999744092 ], [ -76.937680990917755, 35.099626999833994 ], [ -76.936831991568553, 35.098974999607705 ], [ -76.937691991486929, 35.09901400003406 ], [ -76.937731990980794, 35.098005000007028 ], [ -76.935923991348261, 35.097044999540195 ], [ -76.937675990968145, 35.097157000204838 ], [ -76.938424991495182, 35.094720999997108 ], [ -76.93850399101828, 35.093277999913056 ], [ -76.937363991001988, 35.092175000221545 ], [ -76.937811990887425, 35.090793999491865 ], [ -76.937159991257303, 35.090644000090187 ], [ -76.938371990874955, 35.090368999539002 ], [ -76.938537991037762, 35.088737999573389 ], [ -76.937856991416041, 35.088440999735489 ], [ -76.937530991704961, 35.089121999917182 ], [ -76.937762991474244, 35.088002999458702 ], [ -76.936731990718641, 35.087985000007855 ], [ -76.936418991143867, 35.08679700011421 ], [ -76.937981991194462, 35.085043999830198 ], [ -76.936383991567439, 35.084260999997788 ], [ -76.935205991436916, 35.085198000283775 ], [ -76.935952990881233, 35.083091999407976 ], [ -76.933291991603127, 35.081940999423736 ], [ -76.93363099177391, 35.077566999958833 ], [ -76.937519991728237, 35.075801999831519 ], [ -76.936982991300525, 35.07358999983181 ], [ -76.935117991508562, 35.071266000002332 ], [ -76.935860991041153, 35.065004999649538 ], [ -76.936670991505082, 35.064137999525578 ], [ -76.936148991626609, 35.061909999417878 ], [ -76.938283990865941, 35.059058000141995 ], [ -76.941057990763625, 35.057697999451428 ], [ -76.940768991037771, 35.05372599951292 ], [ -76.941969991517226, 35.052746999892243 ], [ -76.941622991173588, 35.052086999566448 ], [ -76.942775991798072, 35.052614999760621 ], [ -76.942860991449294, 35.051357999784237 ], [ -76.953237991544555, 35.051526999938226 ], [ -76.967022990719769, 35.040337999684226 ] ] ] } },
{ "type": "Feature", "properties": { "county": null, "precinct": null, "enr_desc": "Croatan", "winner": null, "winner_votes": null, "winner_share": null, "runner_up": null, "runner_up_votes": null, "runner_up_share": null, "contest_votes": null, "margin_of_victory": null, "is_tie": false, "results": null, "participated": false, "map_key": null }, "geometry": { "type": "Polygon", "coordinates": [ [ [ -77.107170991105264, 34.887210999804388 ], [ -77.104872990735203, 34.940553999806667 ], [ -77.103064990783082, 35.017792999863559 ], [ -77.102355991307661, 35.02335900004968 ], [ -77.098790990796502, 35.026933999880839 ], [ -77.103358991111037, 35.031152999605169 ], [ -77.096507991165936, 35.031783999949013 ], [ -77.088976991740054, 35.028579999505361 ], [ -77.085774991489146, 35.025636000149063 ], [ -77.072005991246328, 35.017893999750051 ], [ -77.058677991354372, 35.014337000024675 ], [ -77.0542069908211, 35.009983000244162 ], [ -77.050562991307658, 35.007687000044939 ], [ -77.035134991719886, 35.002964999667 ], [ -77.027135990992221, 35.001648000185085 ], [ -77.01961099149878, 35.000248999895533 ], [ -77.008585990877052, 34.996018000275349 ], [ -77.001300990740376, 34.996342999783607 ], [ -76.993732991790367, 34.995630000242919 ], [ -76.987645990980795, 34.991158999625405 ], [ -76.984782991135319, 34.98696499946562 ], [ -76.98192299179388, 34.988827000105481 ], [ -76.97301499147477, 34.972820000075217 ], [ -76.968031991685734, 34.968583999410285 ], [ -76.966459990730101, 34.971937999502288 ], [ -76.964770991260906, 34.972300999413129 ], [ -76.963249991189912, 34.97416899969673 ], [ -76.962195991182028, 34.976851000122366 ], [ -76.959919990839836, 34.979342999633147 ], [ -76.959247991333172, 34.981688999696871 ], [ -76.956965991404047, 34.984194000282002 ], [ -76.956549991311078, 34.985774999829104 ], [ -76.955765991287834, 34.985907999633945 ], [ -76.956400991495485, 34.989844999817393 ], [ -76.932809991121459, 35.005767000186196 ], [ -76.907507990865426, 34.987835999478555 ], [ -76.896513991394741, 34.981763999940441 ], [ -76.906527990971441, 34.970790999783603 ], [ -76.915688991604313, 34.963673000156696 ], [ -76.916747990877028, 34.964254000214488 ], [ -76.915795991334519, 34.963574000196857 ], [ -76.931358991368697, 34.948653999768602 ], [ -76.932144991659882, 34.94543799995872 ], [ -76.929897991217246, 34.939592999823162 ], [ -76.931739991022241, 34.939878999486382 ], [ -76.932713991543793, 34.941005000285223 ], [ -76.934128991542011, 34.940966999618155 ], [ -76.935262991813076, 34.943301999481712 ], [ -76.936417991230826, 34.944307999968608 ], [ -76.934408991706746, 34.94098899975657 ], [ -76.932653991235924, 34.940817999571365 ], [ -76.932166991413141, 34.939867999740422 ], [ -76.933647991552945, 34.939850999714388 ], [ -76.936210991679488, 34.937648000212874 ], [ -76.940380990903932, 34.936773999744119 ], [ -76.946732991046119, 34.93215200014405 ], [ -76.948582991142743, 34.929742999600869 ], [ -76.949868991455233, 34.930288999568326 ], [ -76.951868991601302, 34.929049999666809 ], [ -76.948095991099052, 34.922233999468645 ], [ -76.943317991370904, 34.915769999419794 ], [ -77.032202991140394, 34.953712999723095 ], [ -77.037318991474336, 34.95045800004926 ], [ -77.064848991164467, 34.93795199973767 ], [ -77.063931991780379, 34.932443999694677 ], [ -77.077353991735578, 34.91996799960711 ], [ -77.06575399093451, 34.909032999970457 ], [ -77.079813991341737, 34.894310000196114 ], [ -77.093543991193187, 34.903716999826628 ], [ -77.100092991321645, 34.885748000078841 ], [ -77.107170991105264, 34.887210999804388 ] ] ] } },
{ "type": "Feature", "properties": { "county": "CRAVEN", "precinct": "16", "enr_desc": "Grantham 1A", "winner": "Denny Bucher", "winner_votes": 151.0, "winner_share": 63.983050847457626, "runner_up": "Greg Muse", "runner_up_votes": 85.0, "runner_up_share": 36.016949152542374, "contest_votes": 236.0, "margin_of_victory": 27.966101694915253, "is_tie": false, "results": [ { "candidate": "Denny Bucher", "votes": 151, "share": 63.983050847457626 }, { "candidate": "Greg Muse", "votes": 85, "share": 36.016949152542374 } ], "participated": true, "map_key": "CRAVEN_16" }, "geometry": { "type": "Polygon", "coordinates": [ [ [ -76.98192299179388, 34.988827000105481 ], [ -76.984858990813251, 34.997105000030409 ], [ -77.029402991096831, 35.077606999675865 ], [ -77.032531991377923, 35.085696999706357 ], [ -77.03791799161398, 35.092841000175589 ], [ -77.045227991452677, 35.096204000279911 ], [ -77.039171991348709, 35.10233499983277 ], [ -77.023167991229727, 35.102766999868905 ], [ -77.020148991528316, 35.097992999572035 ], [ -77.016867990827237, 35.090426999879462 ], [ -77.013317991770151, 35.086649999952463 ], [ -77.008208991687752, 35.078511999875637 ], [ -77.007086991295466, 35.073705999982288 ], [ -77.004089990811821, 35.06937399987909 ], [ -76.967022990719769, 35.040337999684226 ], [ -76.953284991101839, 35.021248000065221 ], [ -76.949212991494363, 35.017459000068236 ], [ -76.932809991121459, 35.005767000186196 ], [ -76.956400991495485, 34.989844999817393 ], [ -76.955765991287834, 34.985907999633945 ], [ -76.956549991311078, 34.985774999829104 ], [ -76.956965991404047, 34.984194000282002 ], [ -76.959247991333172, 34.981688999696871 ], [ -76.959919990839836, 34.979342999633147 ], [ -76.962195991182028, 34.976851000122366 ], [ -76.963249991189912, 34.97416899969673 ], [ -76.964770991260906, 34.972300999413129 ], [ -76.966459990730101, 34.971937999502288 ], [ -76.968031991685734, 34.968583999410285 ], [ -76.97301499147477, 34.972820000075217 ], [ -76.98192299179388, 34.988827000105481 ] ] ] } },
{ "type": "Feature", "properties": { "county": "CRAVEN", "precinct": "21", "enr_desc": "Brices Creek", "winner": "Denny Bucher", "winner_votes": 391.0, "winner_share": 69.821428571428569, "runner_up": "Greg Muse", "runner_up_votes": 169.0, "runner_up_share": 30.178571428571427, "contest_votes": 560.0, "margin_of_victory": 39.642857142857139, "is_tie": false, "results": [ { "candidate": "Denny Bucher", "votes": 391, "share": 69.82142857142857 }, { "candidate": "Greg Muse", "votes": 169, "share": 30.178571428571427 } ], "participated": true, "map_key": "CRAVEN_21" }, "geometry": { "type": "Polygon", "coordinates": [ [ [ -77.027135990992221, 35.001648000185085 ], [ -77.035134991719886, 35.002964999667 ], [ -77.050562991307658, 35.007687000044939 ], [ -77.0542069908211, 35.009983000244162 ], [ -77.058677991354372, 35.014337000024675 ], [ -77.072005991246328, 35.017893999750051 ], [ -77.085774991489146, 35.025636000149063 ], [ -77.088976991740054, 35.028579999505361 ], [ -77.096507991165936, 35.031783999949013 ], [ -77.103358991111037, 35.031152999605169 ], [ -77.106862991610711, 35.03495099993966 ], [ -77.106707991220887, 35.036545000201862 ], [ -77.107870991124003, 35.038118999924997 ], [ -77.107199991085039, 35.039513000026467 ], [ -77.107504990793871, 35.041733000280715 ], [ -77.108389991046394, 35.044103999607366 ], [ -77.110337991164457, 35.045870000213434 ], [ -77.107868991298702, 35.05425400006218 ], [ -77.108984991724896, 35.056429999763964 ], [ -77.108538991674948, 35.059566999899921 ], [ -77.109552991556413, 35.06271299996299 ], [ -77.109212991200067, 35.064168999736751 ], [ -77.110205991726744, 35.064237999813891 ], [ -77.110356991437769, 35.065153999953594 ], [ -77.109122991112613, 35.067098999933819 ], [ -77.109655990824635, 35.068608999504605 ], [ -77.112998991753827, 35.070517999824773 ], [ -77.113573991557104, 35.072570000054156 ], [ -77.116064991023507, 35.074106999766585 ], [ -77.101808990977219, 35.074059999536217 ], [ -77.09101599142663, 35.071630999819178 ], [ -77.078806990768143, 35.070429000271865 ], [ -77.071797990870593, 35.07201299992176 ], [ -77.064834990746547, 35.07520000021389 ], [ -77.059447991738494, 35.077655999569501 ], [ -77.055981991462176, 35.073622999425339 ], [ -77.052482990709436, 35.073911999876664 ], [ -77.055417990945784, 35.071558000229707 ], [ -77.052082990872947, 35.064101000154622 ], [ -77.049051991499979, 35.062801999500707 ], [ -77.049432991736609, 35.062107999753913 ], [ -77.05184599165311, 35.062831999496751 ], [ -77.051597991113866, 35.061305999493641 ], [ -77.053589990899866, 35.059933000254404 ], [ -77.051043991193936, 35.059504000271517 ], [ -77.051912991614572, 35.058569999705021 ], [ -77.05179299127181, 35.057404999713945 ], [ -77.051010990841434, 35.057486999767136 ], [ -77.050041990806321, 35.059218000017978 ], [ -77.048838990807056, 35.059124999433372 ], [ -77.048474991700715, 35.055470000065775 ], [ -77.049840991235598, 35.054633999737696 ], [ -77.047373991595634, 35.053477000060809 ], [ -77.049779991637294, 35.05214100004504 ], [ -77.049859990740757, 35.051084999842871 ], [ -77.047852991212153, 35.048875999772967 ], [ -77.043513991593144, 35.047940999740987 ], [ -77.046543991018311, 35.045243999485194 ], [ -77.045156991154656, 35.042954000108061 ], [ -77.043877991098967, 35.042605000198002 ], [ -77.044510991256246, 35.040850999708844 ], [ -77.041842991763346, 35.039618999554044 ], [ -77.039900991527048, 35.040005999444666 ], [ -77.038964991746667, 35.039081999427921 ], [ -77.037651991532826, 35.039920999668198 ], [ -77.035513991786075, 35.038113000011862 ], [ -77.034784991609541, 35.038576999907143 ], [ -77.033980991373696, 35.037921999879742 ], [ -77.036388990729691, 35.034617999541688 ], [ -77.036370990717245, 35.032407999673644 ], [ -77.037394991252043, 35.03101599962114 ], [ -77.034677991482582, 35.029988999410584 ], [ -77.035232991098198, 35.029022999707834 ], [ -77.036243990786033, 35.029159999453142 ], [ -77.035776991387152, 35.02789599957169 ], [ -77.037775991430394, 35.026770999733422 ], [ -77.036215991333577, 35.02532999995541 ], [ -77.035225991011984, 35.02566100002074 ], [ -77.035989991418191, 35.024263999936103 ], [ -77.035450991683206, 35.023576999875942 ], [ -77.036751990820065, 35.022463000039863 ], [ -77.035977990945213, 35.022268999695456 ], [ -77.035830990839514, 35.019201999935319 ], [ -77.033883991038081, 35.017477000151636 ], [ -77.034698991288423, 35.016740999469349 ], [ -77.033075991262905, 35.015609000269883 ], [ -77.034037991563366, 35.015065000039833 ], [ -77.033209991662375, 35.01417399955826 ], [ -77.033944991633859, 35.012367000146668 ], [ -77.032902990896631, 35.01296499945245 ], [ -77.03244999134148, 35.011376999586872 ], [ -77.029724991620114, 35.010826999434038 ], [ -77.029357991666402, 35.008980999516908 ], [ -77.02661199130813, 35.008902000153945 ], [ -77.027135990992221, 35.001648000185085 ] ] ] } },
{ "type": "Feature", "properties": { "county": "CRAVEN", "precinct": "23", "enr_desc": "Grantham 2B", "winner": "Denny Bucher", "winner_votes": 701.0, "winner_share": 77.032967032967036, "runner_up": "Greg Muse", "runner_up_votes": 209.0, "runner_up_share": 22.967032967032967, "contest_votes": 910.0, "margin_of_victory": 54.065934065934073, "is_tie": false, "results": [ { "candidate": "Denny Bucher", "votes": 701, "share": 77.03296703296704 }, { "candidate": "Greg Muse", "votes": 209, "share": 22.967032967032967 } ], "participated": true, "map_key": "CRAVEN_23" }, "geometry": { "type": "Polygon", "coordinates": [ [ [ -77.059447991738494, 35.077655999569501 ], [ -77.055763991206391, 35.083503999774287 ], [ -77.05044299115248, 35.08879299989799 ], [ -77.047874990992142, 35.09389499980162 ], [ -77.045227991452677, 35.096204000279911 ], [ -77.03791799161398, 35.092841000175589 ], [ -77.032531991377923, 35.085696999706357 ], [ -77.029402991096831, 35.077606999675865 ], [ -76.984858990813251, 34.997105000030409 ], [ -76.98192299179388, 34.988827000105481 ], [ -76.984782991135319, 34.98696499946562 ], [ -76.987645990980795, 34.991158999625405 ], [ -76.993732991790367, 34.995630000242919 ], [ -77.001300990740376, 34.996342999783607 ], [ -77.008585990877052, 34.996018000275349 ], [ -77.01961099149878, 35.000248999895533 ], [ -77.027135990992221, 35.001648000185085 ], [ -77.02661199130813, 35.008902000153945 ], [ -77.029357991666402, 35.008980999516908 ], [ -77.029724991620114, 35.010826999434038 ], [ -77.03244999134148, 35.011376999586872 ], [ -77.032902990896631, 35.01296499945245 ], [ -77.033944991633859, 35.012367000146668 ], [ -77.033209991662375, 35.01417399955826 ], [ -77.034037991563366, 35.015065000039833 ], [ -77.033075991262905, 35.015609000269883 ], [ -77.034698991288423, 35.016740999469349 ], [ -77.033883991038081, 35.017477000151636 ], [ -77.035830990839514, 35.019201999935319 ], [ -77.035977990945213, 35.022268999695456 ], [ -77.036751990820065, 35.022463000039863 ], [ -77.035450991683206, 35.023576999875942 ], [ -77.035989991418191, 35.024263999936103 ], [ -77.035225991011984, 35.02566100002074 ], [ -77.036215991333577, 35.02532999995541 ], [ -77.037775991430394, 35.026770999733422 ], [ -77.035776991387152, 35.02789599957169 ], [ -77.036243990786033, 35.029159999453142 ], [ -77.035232991098198, 35.029022999707834 ], [ -77.034677991482582, 35.029988999410584 ], [ -77.037394991252043, 35.03101599962114 ], [ -77.036370990717245, 35.032407999673644 ], [ -77.036388990729691, 35.034617999541688 ], [ -77.033980991373696, 35.037921999879742 ], [ -77.034784991609541, 35.038576999907143 ], [ -77.035513991786075, 35.038113000011862 ], [ -77.037651991532826, 35.039920999668198 ], [ -77.038964991746667, 35.039081999427921 ], [ -77.039900991527048, 35.040005999444666 ], [ -77.041842991763346, 35.039618999554044 ], [ -77.044510991256246, 35.040850999708844 ], [ -77.043877991098967, 35.042605000198002 ], [ -77.045156991154656, 35.042954000108061 ], [ -77.046543991018311, 35.045243999485194 ], [ -77.043513991593144, 35.047940999740987 ], [ -77.047852991212153, 35.048875999772967 ], [ -77.049859990740757, 35.051084999842871 ], [ -77.049779991637294, 35.05214100004504 ], [ -77.047373991595634, 35.053477000060809 ], [ -77.049840991235598, 35.054633999737696 ], [ -77.048474991700715, 35.055470000065775 ], [ -77.048838990807056, 35.059124999433372 ], [ -77.050041990806321, 35.059218000017978 ], [ -77.051010990841434, 35.057486999767136 ], [ -77.05179299127181, 35.057404999713945 ], [ -77.051912991614572, 35.058569999705021 ], [ -77.051043991193936, 35.059504000271517 ], [ -77.053589990899866, 35.059933000254404 ], [ -77.051597991113866, 35.061305999493641 ], [ -77.05184599165311, 35.062831999496751 ], [ -77.049432991736609, 35.062107999753913 ], [ -77.049051991499979, 35.062801999500707 ], [ -77.052082990872947, 35.064101000154622 ], [ -77.055417990945784, 35.071558000229707 ], [ -77.052482990709436, 35.073911999876664 ], [ -77.055981991462176, 35.073622999425339 ], [ -77.059447991738494, 35.077655999569501 ] ] ] } },
{ "type": "Feature", "properties": { "county": null, "precinct": null, "enr_desc": "Clarks-Rhems", "winner": null, "winner_votes": null, "winner_share": null, "runner_up": null, "runner_up_votes": null, "runner_up_share": null, "contest_votes": null, "margin_of_victory": null, "is_tie": false, "results": null, "participated": false, "map_key": null }, "geometry": { "type": "Polygon", "coordinates": [ [ [ -77.122786991239607, 35.072950999611464 ], [ -77.128084991073038, 35.072509999612194 ], [ -77.131794991583305, 35.07505999998569 ], [ -77.135672990823679, 35.07625800025 ], [ -77.138344991391889, 35.079132000181055 ], [ -77.141658990914124, 35.080755999782262 ], [ -77.142385991300898, 35.083749999992669 ], [ -77.141990991250907, 35.085200999815278 ], [ -77.14326599102769, 35.08700300003516 ], [ -77.144537991571127, 35.087592999559803 ], [ -77.151565991702327, 35.084353000301498 ], [ -77.153278991443514, 35.086039000039982 ], [ -77.156660991564181, 35.084800999892124 ], [ -77.155461991633587, 35.082553999429869 ], [ -77.164520991387889, 35.078635999521929 ], [ -77.163837991578291, 35.077531000014041 ], [ -77.157228990758838, 35.080069999925989 ], [ -77.163668991432743, 35.076204999917522 ], [ -77.172182991433203, 35.075268000209213 ], [ -77.169557991096411, 35.073531000198471 ], [ -77.171777991076098, 35.069383000215815 ], [ -77.170401991513373, 35.067295000238893 ], [ -77.170267990849254, 35.064800000080361 ], [ -77.16853799108425, 35.064223000197906 ], [ -77.16651899081684, 35.065392999467107 ], [ -77.164510991528445, 35.065484999433494 ], [ -77.16776699117591, 35.062847999750886 ], [ -77.168837990970914, 35.060276000073536 ], [ -77.171018990964811, 35.060013999608529 ], [ -77.17188899090894, 35.06082599958286 ], [ -77.173851991682881, 35.058159000096062 ], [ -77.178978991684957, 35.055353999719955 ], [ -77.18059199113344, 35.055219999729104 ], [ -77.173873991447749, 35.059120000138691 ], [ -77.176869991160132, 35.057977000172613 ], [ -77.179110990903141, 35.058223999765509 ], [ -77.182383991564564, 35.062614999522701 ], [ -77.185422991658498, 35.063167999802353 ], [ -77.189421991741909, 35.066669999456892 ], [ -77.189133991404006, 35.07054299986175 ], [ -77.190815990938049, 35.072799999624593 ], [ -77.191024991079132, 35.076543999588225 ], [ -77.187678991319331, 35.081085999827053 ], [ -77.209027990785003, 35.09147000020085 ], [ -77.206088991324805, 35.093967999716682 ], [ -77.206981991127648, 35.099690999851013 ], [ -77.205144991798804, 35.103422999575749 ], [ -77.205925991481152, 35.107635999609371 ], [ -77.204051991095852, 35.11158300013922 ], [ -77.203958991349822, 35.115266999934121 ], [ -77.205121991260654, 35.11905899975762 ], [ -77.20422699166258, 35.12547400002574 ], [ -77.199823991594727, 35.131541000034694 ], [ -77.192411991508521, 35.132457000074794 ], [ -77.190628991203027, 35.134197999691388 ], [ -77.190015991269604, 35.136395999506497 ], [ -77.18449799070747, 35.139714999667923 ], [ -77.180512991607827, 35.138798999483264 ], [ -77.178614991754955, 35.139496999772888 ], [ -77.179625991014419, 35.144352999427326 ], [ -77.174599991499932, 35.145973999553874 ], [ -77.173070991490491, 35.152608999797202 ], [ -77.171366990806547, 35.153878999688068 ], [ -77.172225990995031, 35.155423000313696 ], [ -77.170826991379528, 35.157384000251326 ], [ -77.169039991007097, 35.158262999496571 ], [ -77.169337991146207, 35.161903000185092 ], [ -77.168386990963839, 35.163353999969921 ], [ -77.16972199144837, 35.164117999966287 ], [ -77.169721991586457, 35.165394000013038 ], [ -77.167992990876698, 35.165319000281457 ], [ -77.168856991097385, 35.166548999728491 ], [ -77.168522990959787, 35.167277000166976 ], [ -77.164619991602279, 35.16787900024088 ], [ -77.167461990746958, 35.170979999994387 ], [ -77.167349991155348, 35.173710999828756 ], [ -77.162498991003005, 35.173859999497154 ], [ -77.161132990929744, 35.173244999786021 ], [ -77.160797991775311, 35.174002999439992 ], [ -77.155109991371532, 35.176112000154951 ], [ -77.148695991402192, 35.177368999745141 ], [ -77.141502991602337, 35.176656999461422 ], [ -77.135841991416854, 35.178600999846246 ], [ -77.134725991493809, 35.180019999901887 ], [ -77.13352699135325, 35.178622999531896 ], [ -77.13249499153855, 35.179447000317388 ], [ -77.128847991250609, 35.175916999416415 ], [ -77.127346991415308, 35.176924999454769 ], [ -77.128308991468302, 35.17869399957803 ], [ -77.12424999152978, 35.17710099999681 ], [ -77.119713990890006, 35.179594999516233 ], [ -77.119929990754798, 35.177592999655481 ], [ -77.122240991173427, 35.176232000207165 ], [ -77.121366991093907, 35.17503499943053 ], [ -77.115701991532177, 35.177388999667706 ], [ -77.117389991256246, 35.178614999629559 ], [ -77.116979990856876, 35.179827999961979 ], [ -77.113607991281725, 35.180014999477116 ], [ -77.111364991626075, 35.179269000073525 ], [ -77.109210991213544, 35.179586999600033 ], [ -77.108834991668985, 35.176182999686581 ], [ -77.107950991621678, 35.174945000209867 ], [ -77.108877990702879, 35.173463000211854 ], [ -77.108717991095119, 35.170987000008864 ], [ -77.105774991618972, 35.170833000173921 ], [ -77.105574991393993, 35.175684000217245 ], [ -77.103059991406127, 35.177295000096123 ], [ -77.10113599168595, 35.177419999627858 ], [ -77.101212991392714, 35.178024999543617 ], [ -77.103883991781018, 35.181137000176726 ], [ -77.108048991519226, 35.184645999651678 ], [ -77.109074990906507, 35.184667999735773 ], [ -77.111301990811938, 35.187733999523616 ], [ -77.110422990924206, 35.191986999435983 ], [ -77.111988991771369, 35.193238000124452 ], [ -77.109930990745553, 35.195305999773701 ], [ -77.106484991485701, 35.192263999678424 ], [ -77.100508990906704, 35.192009000148524 ], [ -77.095424991089089, 35.187439000167927 ], [ -77.093332991456535, 35.182874000030331 ], [ -77.087682990850922, 35.175276999566762 ], [ -77.086926991468175, 35.172012000131126 ], [ -77.088907991112251, 35.168813999863893 ], [ -77.089010991029227, 35.167142999697482 ], [ -77.086002991025111, 35.164212999480931 ], [ -77.079754991693818, 35.162880999644699 ], [ -77.077151991699438, 35.16131199962927 ], [ -77.076305991729953, 35.159855999861414 ], [ -77.075765991533856, 35.153167999857686 ], [ -77.074370991691239, 35.150770000291999 ], [ -77.075966991600851, 35.149357999733425 ], [ -77.077514991585389, 35.149121000141136 ], [ -77.081781990946212, 35.150700000156668 ], [ -77.082869991190464, 35.152421000236124 ], [ -77.085122991223443, 35.153135999976861 ], [ -77.087527991775971, 35.15614799983166 ], [ -77.089665991768726, 35.156290999460161 ], [ -77.092565990975473, 35.155565999503871 ], [ -77.092419991442497, 35.153560000292316 ], [ -77.10678199146821, 35.149264999796046 ], [ -77.107213991175229, 35.149972999836741 ], [ -77.108630991108811, 35.149549000230273 ], [ -77.113267991282683, 35.156425999928807 ], [ -77.118739991230456, 35.149601000124086 ], [ -77.122696991652916, 35.151348000077704 ], [ -77.122182990995185, 35.152231000125091 ], [ -77.121166991433967, 35.151726999682651 ], [ -77.114891991054549, 35.15800199947256 ], [ -77.116720991013622, 35.159623999801497 ], [ -77.124214991042294, 35.154455999921097 ], [ -77.123712990963071, 35.155418999723338 ], [ -77.125729991415085, 35.156293999733045 ], [ -77.126811991746493, 35.155725999519362 ], [ -77.125558991732944, 35.15412999965551 ], [ -77.126101991787252, 35.152761999816327 ], [ -77.138839991644971, 35.154767000311026 ], [ -77.155785991438762, 35.149344999673005 ], [ -77.158702991304253, 35.145597999555143 ], [ -77.113248991191369, 35.134120999978109 ], [ -77.11789099115235, 35.127541000075794 ], [ -77.104749991451328, 35.121673999966582 ], [ -77.104687991010408, 35.117442999597024 ], [ -77.111652990848029, 35.1204189995969 ], [ -77.13468499147902, 35.127366000138238 ], [ -77.133545991312943, 35.112683999561504 ], [ -77.124987991740738, 35.112832999753692 ], [ -77.114824991685737, 35.104343999989901 ], [ -77.119149991536361, 35.104348999576352 ], [ -77.11936999089896, 35.100683999966066 ], [ -77.121438990731548, 35.099693999608604 ], [ -77.123216991082444, 35.097306999738898 ], [ -77.125459991060708, 35.096634999534061 ], [ -77.124663991656689, 35.094705999639253 ], [ -77.121286991532884, 35.094934000218863 ], [ -77.120914991466933, 35.097540999623618 ], [ -77.119892991559013, 35.097686000222041 ], [ -77.119629991238384, 35.094607000182528 ], [ -77.128883991004955, 35.094040999529739 ], [ -77.128949991227188, 35.097247000275296 ], [ -77.124412990896644, 35.097951999493006 ], [ -77.128062990944414, 35.105357999537098 ], [ -77.13269999108806, 35.106157000171535 ], [ -77.129493991200448, 35.099498999800879 ], [ -77.128970991527083, 35.093008000076502 ], [ -77.131133990979791, 35.092872999943147 ], [ -77.132099990828124, 35.09046300026251 ], [ -77.137671991090357, 35.089135000136068 ], [ -77.137386991027938, 35.087316999413268 ], [ -77.127188991207476, 35.089452999979386 ], [ -77.121023991580358, 35.088349999756296 ], [ -77.119944991395116, 35.085849999842999 ], [ -77.126739991385506, 35.081957999950461 ], [ -77.126987990759105, 35.08065699962814 ], [ -77.122786991239607, 35.072950999611464 ] ] ] } },
{ "type": "Feature", "properties": { "county": null, "precinct": null, "enr_desc": "Dover-Fort Barnwell West", "winner": null, "winner_votes": null, "winner_share": null, "runner_up": null, "runner_up_votes": null, "runner_up_share": null, "contest_votes": null, "margin_of_victory": null, "is_tie": false, "results": null, "participated": false, "map_key": null }, "geometry": { "type": "Polygon", "coordinates": [ [ [ -77.377913991749125, 35.177240999807417 ], [ -77.45174499134005, 35.218716999910484 ], [ -77.47371699155677, 35.229087999819619 ], [ -77.473293991711742, 35.231063999785881 ], [ -77.465615991221881, 35.234617999543516 ], [ -77.464315990843204, 35.239154999625733 ], [ -77.445906991512814, 35.246579000110728 ], [ -77.433373991275403, 35.249687999938267 ], [ -77.426974991752388, 35.255869000002349 ], [ -77.426129990832877, 35.257545000255647 ], [ -77.425623991701883, 35.259647999586484 ], [ -77.426171991275865, 35.262375000110794 ], [ -77.428608990940248, 35.264075999786705 ], [ -77.428843991367216, 35.266120999809146 ], [ -77.431775991644045, 35.271184000332234 ], [ -77.437655991124572, 35.276986999850649 ], [ -77.440588991064715, 35.284573999545266 ], [ -77.439929991201723, 35.289592999882565 ], [ -77.446595991204433, 35.293572999889605 ], [ -77.446412991590677, 35.296172999734587 ], [ -77.448444990979922, 35.297339000272181 ], [ -77.449612990974686, 35.29945699965306 ], [ -77.448858990972724, 35.302006999595356 ], [ -77.440135990762755, 35.303845000025433 ], [ -77.439394991278775, 35.310654000269473 ], [ -77.438503990970645, 35.311756999539561 ], [ -77.431132990881707, 35.312906999856267 ], [ -77.432294991313526, 35.324478999972271 ], [ -77.431391990777584, 35.326464999488813 ], [ -77.432142991186936, 35.327837000253865 ], [ -77.43131899164112, 35.329780999484051 ], [ -77.429297991586878, 35.330561000156443 ], [ -77.428459991538659, 35.329845999500876 ], [ -77.425121991089526, 35.329952999928608 ], [ -77.423348991703094, 35.328743999733874 ], [ -77.42241799087472, 35.329024999698852 ], [ -77.421348991560691, 35.331330999737105 ], [ -77.419601991635972, 35.330572000021661 ], [ -77.417270990885896, 35.331191000043468 ], [ -77.41468699129922, 35.330412999454573 ], [ -77.414039991605051, 35.33123799965631 ], [ -77.415106991195913, 35.3332959995181 ], [ -77.414214991534976, 35.333968999812036 ], [ -77.411278991145124, 35.333235999598543 ], [ -77.410497991494921, 35.331868000040323 ], [ -77.410088990771655, 35.33487999975975 ], [ -77.410943990990873, 35.338032000045445 ], [ -77.408673991305207, 35.339396000115897 ], [ -77.405564990992715, 35.340202999698775 ], [ -77.405154991314419, 35.339518000009207 ], [ -77.405249990931424, 35.340294999581609 ], [ -77.397815991619382, 35.341769000028506 ], [ -77.395157990850905, 35.343023999548045 ], [ -77.39386499108187, 35.342550999750785 ], [ -77.392827990854428, 35.340127999549736 ], [ -77.393416991658682, 35.340337000136124 ], [ -77.391903990982286, 35.339108999437798 ], [ -77.391351991621804, 35.339307999977351 ], [ -77.391895991337208, 35.339646999504993 ], [ -77.390582991018434, 35.339479000324118 ], [ -77.381749991492796, 35.334042999906941 ], [ -77.365434991286634, 35.333185999833333 ], [ -77.362094990795896, 35.332131999981698 ], [ -77.357580991436592, 35.328528999774498 ], [ -77.352549991088765, 35.327735999825705 ], [ -77.346744991308199, 35.325034999820588 ], [ -77.336954991622122, 35.322450999742671 ], [ -77.334805991394148, 35.319394999950916 ], [ -77.333299991062177, 35.318869999981708 ], [ -77.321539991256557, 35.318326999700609 ], [ -77.306239991720446, 35.315876999932314 ], [ -77.302189991383003, 35.312523999652164 ], [ -77.310638991244574, 35.307211000260324 ], [ -77.313904991649977, 35.309538999445863 ], [ -77.321831991670265, 35.299355000303343 ], [ -77.328567991566416, 35.292656000324769 ], [ -77.335903991100253, 35.292088999565813 ], [ -77.3403999911081, 35.293476999796503 ], [ -77.347189991351883, 35.28295199973644 ], [ -77.34938899131221, 35.2811230001981 ], [ -77.367843991235347, 35.278171999505851 ], [ -77.374166991440234, 35.275709999860233 ], [ -77.38512199105287, 35.27663300001992 ], [ -77.396237991228347, 35.276338999470561 ], [ -77.400763991148807, 35.273734000257527 ], [ -77.414015991215692, 35.259802999713045 ], [ -77.414607990879489, 35.25297599964096 ], [ -77.416190990753819, 35.250010999854709 ], [ -77.411057991283698, 35.249633000276965 ], [ -77.400549990990001, 35.245499999595189 ], [ -77.3942209914904, 35.238189000327452 ], [ -77.388942991382237, 35.235206999585273 ], [ -77.391693991513478, 35.23041700031964 ], [ -77.390515991486012, 35.226908999928234 ], [ -77.394309990929941, 35.227044000032649 ], [ -77.399443991427034, 35.224024000265985 ], [ -77.398719990886008, 35.222054999810616 ], [ -77.392277990750543, 35.217543999573408 ], [ -77.39250199178727, 35.215712999645937 ], [ -77.401317991609858, 35.211434999491487 ], [ -77.402883991552258, 35.207632000011984 ], [ -77.363620991495452, 35.197427999581507 ], [ -77.371236990790408, 35.194423999910654 ], [ -77.376707991380371, 35.185124000087946 ], [ -77.376486990845834, 35.182825999830101 ], [ -77.377940990927954, 35.180471000092894 ], [ -77.377913991749125, 35.177240999807417 ] ] ] } },
{ "type": "Feature", "properties": { "county": null, "precinct": null, "enr_desc": "Cove-Fort Barnwell", "winner": null, "winner_votes": null, "winner_share": null, "runner_up": null, "runner_up_votes": null, "runner_up_share": null, "contest_votes": null, "margin_of_victory": null, "is_tie": false, "results": null, "participated": false, "map_key": null }, "geometry": { "type": "Polygon", "coordinates": [ [ [ -77.281161990866494, 35.126512999983809 ], [ -77.329243991331396, 35.149828999704539 ], [ -77.377913991749125, 35.177240999807417 ], [ -77.377940990927954, 35.180471000092894 ], [ -77.376486990845834, 35.182825999830101 ], [ -77.376707991380371, 35.185124000087946 ], [ -77.371236990790408, 35.194423999910654 ], [ -77.363620991495452, 35.197427999581507 ], [ -77.402883991552258, 35.207632000011984 ], [ -77.401317991609858, 35.211434999491487 ], [ -77.39250199178727, 35.215712999645937 ], [ -77.392277990750543, 35.217543999573408 ], [ -77.398719990886008, 35.222054999810616 ], [ -77.399443991427034, 35.224024000265985 ], [ -77.394309990929941, 35.227044000032649 ], [ -77.390515991486012, 35.226908999928234 ], [ -77.391693991513478, 35.23041700031964 ], [ -77.388942991382237, 35.235206999585273 ], [ -77.3942209914904, 35.238189000327452 ], [ -77.400549990990001, 35.245499999595189 ], [ -77.411057991283698, 35.249633000276965 ], [ -77.416190990753819, 35.250010999854709 ], [ -77.414607990879489, 35.25297599964096 ], [ -77.414015991215692, 35.259802999713045 ], [ -77.400763991148807, 35.273734000257527 ], [ -77.396237991228347, 35.276338999470561 ], [ -77.38512199105287, 35.27663300001992 ], [ -77.374166991440234, 35.275709999860233 ], [ -77.367843991235347, 35.278171999505851 ], [ -77.34938899131221, 35.2811230001981 ], [ -77.347189991351883, 35.28295199973644 ], [ -77.3403999911081, 35.293476999796503 ], [ -77.335903991100253, 35.292088999565813 ], [ -77.328567991566416, 35.292656000324769 ], [ -77.321831991670265, 35.299355000303343 ], [ -77.313904991649977, 35.309538999445863 ], [ -77.310638991244574, 35.307211000260324 ], [ -77.302189991383003, 35.312523999652164 ], [ -77.297455991646018, 35.307759999553518 ], [ -77.29387199115601, 35.297843999955489 ], [ -77.291743991065289, 35.297139999598109 ], [ -77.28828999146711, 35.298154999692187 ], [ -77.285429991297747, 35.295695999539355 ], [ -77.28468499167117, 35.291628000182961 ], [ -77.287581991680355, 35.293241999685883 ], [ -77.291267991131363, 35.288663999493004 ], [ -77.28923099122494, 35.286854999908932 ], [ -77.28724899141649, 35.28632799971794 ], [ -77.287527991532656, 35.285046000296035 ], [ -77.286020990822081, 35.285091999834535 ], [ -77.285321990900385, 35.28403899982105 ], [ -77.287276991704118, 35.283467000179449 ], [ -77.289092991233261, 35.280673999510441 ], [ -77.286328991748434, 35.279002999704304 ], [ -77.28635799141604, 35.275293999643857 ], [ -77.284318991759818, 35.277057000024556 ], [ -77.282002991683811, 35.276964000153534 ], [ -77.282757991461736, 35.273186999729504 ], [ -77.282171991776877, 35.271904999942016 ], [ -77.279715991763183, 35.270531000255815 ], [ -77.280022991679175, 35.269753000296227 ], [ -77.28359599119878, 35.269639000031816 ], [ -77.284935991031659, 35.268747000165625 ], [ -77.284517991393571, 35.267990999599725 ], [ -77.282535991375809, 35.267831000012166 ], [ -77.281085991689366, 35.26519799959825 ], [ -77.281504990726589, 35.264350999620497 ], [ -77.285774991462219, 35.263963000110614 ], [ -77.284490991276144, 35.262908999591296 ], [ -77.282648991456384, 35.263091999726839 ], [ -77.282007991254389, 35.262130999794131 ], [ -77.284463990743888, 35.260894999724137 ], [ -77.285887991210004, 35.258994999655471 ], [ -77.281747990996735, 35.259687999648449 ], [ -77.27999999115643, 35.25892300025734 ], [ -77.281573991036581, 35.257379999452439 ], [ -77.287067991772034, 35.256923999898106 ], [ -77.287553990703728, 35.254923999531698 ], [ -77.286670991701655, 35.253473000103639 ], [ -77.288142991393102, 35.252471999705072 ], [ -77.281951991354873, 35.249465999805722 ], [ -77.279054991337546, 35.245068000049628 ], [ -77.282912991011059, 35.243072999726571 ], [ -77.279258991238507, 35.239203999759511 ], [ -77.277277990722766, 35.239294999947319 ], [ -77.276273991374779, 35.237851999612936 ], [ -77.27724999072764, 35.23728000001617 ], [ -77.279453991001475, 35.237830000125754 ], [ -77.278059991381511, 35.235907000325554 ], [ -77.280459990948231, 35.235129000291863 ], [ -77.279455991636397, 35.231946999673333 ], [ -77.282579991467543, 35.233641999999129 ], [ -77.286039991124369, 35.232658000025609 ], [ -77.28559399070258, 35.231674000032548 ], [ -77.286459991399184, 35.22798799968038 ], [ -77.283474991110779, 35.226614000297225 ], [ -77.283754991529662, 35.225126000293365 ], [ -77.285288991626757, 35.223684000207925 ], [ -77.285456990885493, 35.221464000048563 ], [ -77.286768990736959, 35.219358000055557 ], [ -77.29109199098076, 35.21963300028127 ], [ -77.290840990849162, 35.218579999632283 ], [ -77.289055991518438, 35.218556999606669 ], [ -77.2883589907143, 35.217023000254422 ], [ -77.289446991019403, 35.215740999761913 ], [ -77.289252991429493, 35.214093000068679 ], [ -77.291650991720587, 35.212925999558259 ], [ -77.292014991038684, 35.211621000294507 ], [ -77.291178991134458, 35.21013299955186 ], [ -77.293884991038169, 35.209629000281708 ], [ -77.293328991546602, 35.208460999949416 ], [ -77.290456991033153, 35.206583999829085 ], [ -77.290235990784382, 35.201431999844004 ], [ -77.293047990752115, 35.199945999478366 ], [ -77.291904990879502, 35.198137999647969 ], [ -77.292463991723125, 35.19534500019833 ], [ -77.28998399110209, 35.187309999559275 ], [ -77.292632991580675, 35.185501999434585 ], [ -77.297093990714828, 35.185456000016906 ], [ -77.298073990896683, 35.182702999935508 ], [ -77.296599991094467, 35.181552999741385 ], [ -77.295115991154688, 35.176826000189763 ], [ -77.291393991306549, 35.174974999944858 ], [ -77.289345991480658, 35.17263499962931 ], [ -77.286362991186536, 35.171055000090675 ], [ -77.283771991621833, 35.166705000061597 ], [ -77.284803991259153, 35.163408000260667 ], [ -77.28271799092191, 35.15171000009277 ], [ -77.281161990866494, 35.126512999983809 ] ] ] } },
{ "type": "Feature", "properties": { "county": "CRAVEN", "precinct": "N1", "enr_desc": "George Street", "winner": "Denny Bucher", "winner_votes": 60.0, "winner_share": 70.588235294117652, "runner_up": "Greg Muse", "runner_up_votes": 25.0, "runner_up_share": 29.411764705882355, "contest_votes": 85.0, "margin_of_victory": 41.176470588235297, "is_tie": false, "results": [ { "candidate": "Denny Bucher", "votes": 60, "share": 70.58823529411765 }, { "candidate": "Greg Muse", "votes": 25, "share": 29.411764705882355 } ], "participated": true, "map_key": "CRAVEN_N1" }, "geometry": { "type": "Polygon", "coordinates": [ [ [ -77.068651991242518, 35.086648000108411 ], [ -77.062685990981336, 35.096447000192505 ], [ -77.055024990820598, 35.104090000294242 ], [ -77.054980991102624, 35.105393999637698 ], [ -77.051752990793645, 35.105541999969326 ], [ -77.052095991659058, 35.106694999457858 ], [ -77.049030991500047, 35.108211999957092 ], [ -77.049348990733662, 35.111927999924717 ], [ -77.051363990934334, 35.111899999503272 ], [ -77.051567991654977, 35.114927999909789 ], [ -77.046143990755155, 35.11462400028951 ], [ -77.046284991030902, 35.116933000016651 ], [ -77.034876991091366, 35.123991000222027 ], [ -77.02578199167931, 35.1108199997092 ], [ -77.023167991229727, 35.102766999868905 ], [ -77.039171991348709, 35.10233499983277 ], [ -77.045227991452677, 35.096204000279911 ], [ -77.047874990992142, 35.09389499980162 ], [ -77.05044299115248, 35.08879299989799 ], [ -77.055763991206391, 35.083503999774287 ], [ -77.059447991738494, 35.077655999569501 ], [ -77.064834990746547, 35.07520000021389 ], [ -77.068810991572107, 35.077050999931089 ], [ -77.069400991516815, 35.078073999794725 ], [ -77.070524991264961, 35.077625999683988 ], [ -77.072099990950349, 35.079403999705598 ], [ -77.068651991242518, 35.086648000108411 ] ] ] } },
{ "type": "Feature", "properties": { "county": null, "precinct": null, "enr_desc": "Fort Totten", "winner": null, "winner_votes": null, "winner_share": null, "runner_up": null, "runner_up_votes": null, "runner_up_share": null, "contest_votes": null, "margin_of_victory": null, "is_tie": false, "results": null, "participated": false, "map_key": null }, "geometry": { "type": "Polygon", "coordinates": [ [ [ -77.068651991242518, 35.086648000108411 ], [ -77.076495990739218, 35.088499000297745 ], [ -77.075709991439652, 35.090541000104842 ], [ -77.077626991127843, 35.090978000224524 ], [ -77.07666899103539, 35.093578000192316 ], [ -77.079589991488092, 35.094358999697747 ], [ -77.083055991304903, 35.092179000177694 ], [ -77.085553991658287, 35.095096000066057 ], [ -77.090506990968663, 35.092507999916087 ], [ -77.091624991659245, 35.100469999863016 ], [ -77.089371990887486, 35.1009300003006 ], [ -77.081788991726285, 35.097349999746548 ], [ -77.075477991492676, 35.102370999924901 ], [ -77.073787991280923, 35.103590000134766 ], [ -77.063639991629927, 35.104615000012508 ], [ -77.063780991111486, 35.105610000076688 ], [ -77.058416991069521, 35.10659999948961 ], [ -77.058148991123872, 35.109535999695758 ], [ -77.060283990854018, 35.109941999785619 ], [ -77.059090991430438, 35.111940999637561 ], [ -77.059705990858433, 35.113465000156616 ], [ -77.062475990847958, 35.113794999531521 ], [ -77.062426991287609, 35.11441000029253 ], [ -77.056247991168661, 35.114061999524651 ], [ -77.056800991103032, 35.116173999449636 ], [ -77.054529991641672, 35.117573999918598 ], [ -77.051567991654977, 35.114927999909789 ], [ -77.051363990934334, 35.111899999503272 ], [ -77.049348990733662, 35.111927999924717 ], [ -77.049030991500047, 35.108211999957092 ], [ -77.052095991659058, 35.106694999457858 ], [ -77.051752990793645, 35.105541999969326 ], [ -77.054980991102624, 35.105393999637698 ], [ -77.055024990820598, 35.104090000294242 ], [ -77.062685990981336, 35.096447000192505 ], [ -77.068651991242518, 35.086648000108411 ] ] ] } },
{ "type": "Feature", "properties": { "county": null, "precinct": null, "enr_desc": "Glenburnie-Grover C", "winner": null, "winner_votes": null, "winner_share": null, "runner_up": null, "runner_up_votes": null, "runner_up_share": null, "contest_votes": null, "margin_of_victory": null, "is_tie": false, "results": null, "participated": false, "map_key": null }, "geometry": { "type": "Polygon", "coordinates": [ [ [ -77.075477991492676, 35.102370999924901 ], [ -77.076667990733938, 35.108947000076 ], [ -77.076116991198305, 35.111567000293427 ], [ -77.078277991510774, 35.112766999577168 ], [ -77.077536990781184, 35.113854000085858 ], [ -77.079968990788288, 35.115231999556677 ], [ -77.077563991018607, 35.118160999897569 ], [ -77.082431991234472, 35.121447999928954 ], [ -77.086253991678717, 35.124976999943421 ], [ -77.073931991470715, 35.136429999484278 ], [ -77.069430991015693, 35.139422999652034 ], [ -77.072312990837503, 35.139826999699046 ], [ -77.073511991750664, 35.141040000282395 ], [ -77.072702991312752, 35.141588999801407 ], [ -77.074427991719148, 35.143342000318171 ], [ -77.072592991348031, 35.144284999791658 ], [ -77.071642991048222, 35.145821999823305 ], [ -77.077007990887751, 35.147790000150756 ], [ -77.077514991585389, 35.149121000141136 ], [ -77.075966991600851, 35.149357999733425 ], [ -77.074370991691239, 35.150770000291999 ], [ -77.058299990856696, 35.146071999813785 ], [ -77.052074991466412, 35.14263999986759 ], [ -77.045799991679573, 35.136931999530759 ], [ -77.034876991091366, 35.123991000222027 ], [ -77.046284991030902, 35.116933000016651 ], [ -77.046143990755155, 35.11462400028951 ], [ -77.051567991654977, 35.114927999909789 ], [ -77.054529991641672, 35.117573999918598 ], [ -77.056800991103032, 35.116173999449636 ], [ -77.056247991168661, 35.114061999524651 ], [ -77.062426991287609, 35.11441000029253 ], [ -77.062475990847958, 35.113794999531521 ], [ -77.059705990858433, 35.113465000156616 ], [ -77.059090991430438, 35.111940999637561 ], [ -77.060283990854018, 35.109941999785619 ], [ -77.058148991123872, 35.109535999695758 ], [ -77.058416991069521, 35.10659999948961 ], [ -77.063780991111486, 35.105610000076688 ], [ -77.063639991629927, 35.104615000012508 ], [ -77.073787991280923, 35.103590000134766 ], [ -77.075477991492676, 35.102370999924901 ] ] ] } },
{ "type": "Feature", "properties": { "county": null, "precinct": null, "enr_desc": "H.J. Macdonald", "winner": null, "winner_votes": null, "winner_share": null, "runner_up": null, "runner_up_votes": null, "runner_up_share": null, "contest_votes": null, "margin_of_victory": null, "is_tie": false, "results": null, "participated": false, "map_key": null }, "geometry": { "type": "Polygon", "coordinates": [ [ [ -77.104687991010408, 35.117442999597024 ], [ -77.104749991451328, 35.121673999966582 ], [ -77.11789099115235, 35.127541000075794 ], [ -77.113248991191369, 35.134120999978109 ], [ -77.158702991304253, 35.145597999555143 ], [ -77.155785991438762, 35.149344999673005 ], [ -77.138839991644971, 35.154767000311026 ], [ -77.126101991787252, 35.152761999816327 ], [ -77.125558991732944, 35.15412999965551 ], [ -77.126811991746493, 35.155725999519362 ], [ -77.125729991415085, 35.156293999733045 ], [ -77.123712990963071, 35.155418999723338 ], [ -77.124214991042294, 35.154455999921097 ], [ -77.116720991013622, 35.159623999801497 ], [ -77.114891991054549, 35.15800199947256 ], [ -77.121166991433967, 35.151726999682651 ], [ -77.122182990995185, 35.152231000125091 ], [ -77.122696991652916, 35.151348000077704 ], [ -77.118739991230456, 35.149601000124086 ], [ -77.113267991282683, 35.156425999928807 ], [ -77.108630991108811, 35.149549000230273 ], [ -77.107213991175229, 35.149972999836741 ], [ -77.10678199146821, 35.149264999796046 ], [ -77.092419991442497, 35.153560000292316 ], [ -77.092565990975473, 35.155565999503871 ], [ -77.089665991768726, 35.156290999460161 ], [ -77.087527991775971, 35.15614799983166 ], [ -77.085122991223443, 35.153135999976861 ], [ -77.082869991190464, 35.152421000236124 ], [ -77.081781990946212, 35.150700000156668 ], [ -77.077514991585389, 35.149121000141136 ], [ -77.077007990887751, 35.147790000150756 ], [ -77.071642991048222, 35.145821999823305 ], [ -77.072592991348031, 35.144284999791658 ], [ -77.074427991719148, 35.143342000318171 ], [ -77.072702991312752, 35.141588999801407 ], [ -77.073511991750664, 35.141040000282395 ], [ -77.072312990837503, 35.139826999699046 ], [ -77.069430991015693, 35.139422999652034 ], [ -77.073931991470715, 35.136429999484278 ], [ -77.086253991678717, 35.124976999943421 ], [ -77.082431991234472, 35.121447999928954 ], [ -77.083462990860355, 35.120400999824881 ], [ -77.083033991042157, 35.119542999450005 ], [ -77.08594299144977, 35.116518999544809 ], [ -77.082242990825961, 35.114876999744617 ], [ -77.084803991524367, 35.111776999729976 ], [ -77.081594991322689, 35.109830999466482 ], [ -77.080399991297909, 35.105558000169168 ], [ -77.08426899095673, 35.104099000184725 ], [ -77.104687991010408, 35.117442999597024 ] ] ] } },
{ "type": "Feature", "properties": { "county": null, "precinct": null, "enr_desc": "West New Bern", "winner": null, "winner_votes": null, "winner_share": null, "runner_up": null, "runner_up_votes": null, "runner_up_share": null, "contest_votes": null, "margin_of_victory": null, "is_tie": false, "results": null, "participated": false, "map_key": null }, "geometry": { "type": "Polygon", "coordinates": [ [ [ -77.121023991580358, 35.088349999756296 ], [ -77.127188991207476, 35.089452999979386 ], [ -77.137386991027938, 35.087316999413268 ], [ -77.137671991090357, 35.089135000136068 ], [ -77.132099990828124, 35.09046300026251 ], [ -77.131133990979791, 35.092872999943147 ], [ -77.128970991527083, 35.093008000076502 ], [ -77.129493991200448, 35.099498999800879 ], [ -77.13269999108806, 35.106157000171535 ], [ -77.128062990944414, 35.105357999537098 ], [ -77.124412990896644, 35.097951999493006 ], [ -77.128949991227188, 35.097247000275296 ], [ -77.128883991004955, 35.094040999529739 ], [ -77.119629991238384, 35.094607000182528 ], [ -77.119892991559013, 35.097686000222041 ], [ -77.120914991466933, 35.097540999623618 ], [ -77.121286991532884, 35.094934000218863 ], [ -77.124663991656689, 35.094705999639253 ], [ -77.125459991060708, 35.096634999534061 ], [ -77.123216991082444, 35.097306999738898 ], [ -77.121438990731548, 35.099693999608604 ], [ -77.11936999089896, 35.100683999966066 ], [ -77.119149991536361, 35.104348999576352 ], [ -77.114824991685737, 35.104343999989901 ], [ -77.124987991740738, 35.112832999753692 ], [ -77.133545991312943, 35.112683999561504 ], [ -77.13468499147902, 35.127366000138238 ], [ -77.111652990848029, 35.1204189995969 ], [ -77.104687991010408, 35.117442999597024 ], [ -77.08426899095673, 35.104099000184725 ], [ -77.080399991297909, 35.105558000169168 ], [ -77.081594991322689, 35.109830999466482 ], [ -77.084803991524367, 35.111776999729976 ], [ -77.082242990825961, 35.114876999744617 ], [ -77.08594299144977, 35.116518999544809 ], [ -77.083033991042157, 35.119542999450005 ], [ -77.083462990860355, 35.120400999824881 ], [ -77.082431991234472, 35.121447999928954 ], [ -77.077563991018607, 35.118160999897569 ], [ -77.079968990788288, 35.115231999556677 ], [ -77.077536990781184, 35.113854000085858 ], [ -77.078277991510774, 35.112766999577168 ], [ -77.076116991198305, 35.111567000293427 ], [ -77.076667990733938, 35.108947000076 ], [ -77.075477991492676, 35.102370999924901 ], [ -77.081788991726285, 35.097349999746548 ], [ -77.089371990887486, 35.1009300003006 ], [ -77.091624991659245, 35.100469999863016 ], [ -77.090506990968663, 35.092507999916087 ], [ -77.092406991550448, 35.092681999728498 ], [ -77.092543991786883, 35.091812999948829 ], [ -77.090664991539043, 35.091048999807668 ], [ -77.090763991212725, 35.089791999576285 ], [ -77.095809991138083, 35.089237000049337 ], [ -77.097370991361217, 35.089770999974512 ], [ -77.100942991147562, 35.088090999900864 ], [ -77.102740990895455, 35.084334999912201 ], [ -77.105145991533263, 35.085748999983849 ], [ -77.10812699076412, 35.086069999464755 ], [ -77.11056699171975, 35.084681000128434 ], [ -77.112671990874503, 35.084921999694707 ], [ -77.115066991712737, 35.086914999762826 ], [ -77.115364991619856, 35.09091700020177 ], [ -77.121023991580358, 35.088349999756296 ] ] ] } },
{ "type": "Feature", "properties": { "county": null, "precinct": null, "enr_desc": "Truitt-Ernul", "winner": null, "winner_votes": null, "winner_share": null, "runner_up": null, "runner_up_votes": null, "runner_up_share": null, "contest_votes": null, "margin_of_victory": null, "is_tie": false, "results": null, "participated": false, "map_key": null }, "geometry": { "type": "Polygon", "coordinates": [ [ [ -77.122692991232469, 35.2108159998267 ], [ -77.120762991505359, 35.214211999819199 ], [ -77.119191990764037, 35.227114999755244 ], [ -77.117351991720042, 35.229298999768993 ], [ -77.113822991465838, 35.230957999883671 ], [ -77.123085991532747, 35.237500000066419 ], [ -77.129332991145489, 35.240389000178773 ], [ -77.129717990737092, 35.24890499969252 ], [ -77.127672991689053, 35.251974000090605 ], [ -77.124287991248494, 35.251556999424331 ], [ -77.123456991556267, 35.253205999579514 ], [ -77.120750991107641, 35.254603999879677 ], [ -77.120472991056872, 35.256230000275565 ], [ -77.116315991166772, 35.258200000210657 ], [ -77.110146991179406, 35.25751599948866 ], [ -77.108054990889414, 35.258294999805898 ], [ -77.108214991200626, 35.264526999800871 ], [ -77.111000991144579, 35.267916999828863 ], [ -77.10753399068517, 35.27112400013413 ], [ -77.108430991111263, 35.274993999438962 ], [ -77.106642991130059, 35.278945999500323 ], [ -77.109100991485377, 35.281417000289736 ], [ -77.109017990847263, 35.284011999477038 ], [ -77.105446991438555, 35.290990999744871 ], [ -77.10486599155756, 35.296276999443009 ], [ -77.099811991262982, 35.297674999689427 ], [ -77.093922991206071, 35.296191000025992 ], [ -77.083528991310629, 35.300032999683886 ], [ -77.081621991142512, 35.297845999985825 ], [ -77.084133990900895, 35.301218999828997 ], [ -77.097988991445348, 35.305719999501228 ], [ -77.093998991124096, 35.311253000274576 ], [ -77.092728991206073, 35.315419000157242 ], [ -77.094821990732811, 35.315304999762589 ], [ -77.096832990783128, 35.316357000055525 ], [ -77.101107990795569, 35.320041999483379 ], [ -77.105438991651283, 35.321460000026001 ], [ -77.107479990909738, 35.323495999504203 ], [ -77.105163991741492, 35.327549999772032 ], [ -77.10251099162825, 35.329405999868705 ], [ -77.099774990857426, 35.332841000173339 ], [ -77.096869991567885, 35.334673000287559 ], [ -77.097831991020499, 35.337628999696648 ], [ -77.083687991584839, 35.347589000046 ], [ -77.085281991284788, 35.352326999774988 ], [ -77.084026991209271, 35.358783000233466 ], [ -77.08271399170269, 35.360271999467642 ], [ -77.081942991301801, 35.36383199951787 ], [ -76.958886991695167, 35.301012999494056 ], [ -76.895918991539062, 35.253888999866831 ], [ -76.906080991086498, 35.235944999677542 ], [ -76.932589990802768, 35.230286000036912 ], [ -76.942547991754608, 35.219687999737744 ], [ -76.942628991483744, 35.213324000264066 ], [ -76.944510990960282, 35.210902999936366 ], [ -76.947056991712131, 35.209049000061057 ], [ -76.952408991606973, 35.207810999949103 ], [ -76.952807991124416, 35.206632999454591 ], [ -76.955520991178034, 35.205850999978225 ], [ -76.95948099114581, 35.202843000201987 ], [ -76.962929991389487, 35.197856999692718 ], [ -76.963419990937041, 35.194023000067808 ], [ -76.965732990954706, 35.188517999768052 ], [ -76.966291991706612, 35.182669999641206 ], [ -76.968166991216904, 35.17953899941277 ], [ -76.970330990866614, 35.179183999492082 ], [ -76.970287991221156, 35.177497000291019 ], [ -76.971404991158821, 35.176645999665347 ], [ -76.971375991602699, 35.175097000114775 ], [ -76.969241991701722, 35.171084000133682 ], [ -76.97175899130626, 35.166434000139496 ], [ -76.97019399153001, 35.162149000006259 ], [ -76.971260991002509, 35.161552000151389 ], [ -76.972112991426997, 35.159430999748459 ], [ -76.976876991526396, 35.155472000069679 ], [ -76.98643099118587, 35.155137999433641 ], [ -76.988615991712891, 35.158302000157526 ], [ -76.993315991622595, 35.16041099975682 ], [ -76.994280991170811, 35.161781000236338 ], [ -76.992728991445404, 35.163552999589143 ], [ -76.99237899137276, 35.165235999539192 ], [ -76.99398499071043, 35.167991000096755 ], [ -76.996687991152896, 35.171886999729985 ], [ -76.999667991477196, 35.172913000072434 ], [ -77.000386991427249, 35.174758999865205 ], [ -77.003760990785494, 35.17801499960072 ], [ -77.007951991340036, 35.183823999491715 ], [ -77.008966990927135, 35.188813999924854 ], [ -77.010403991183566, 35.19155099941954 ], [ -77.010558991005823, 35.194448000149848 ], [ -77.015717991144626, 35.195474999585173 ], [ -77.021971990979765, 35.193138999642251 ], [ -77.028701991442119, 35.195653999569934 ], [ -77.033799990977911, 35.199001999731387 ], [ -77.037320991778259, 35.205839999540657 ], [ -77.037943991061994, 35.209929000262491 ], [ -77.0407549914367, 35.213544000060054 ], [ -77.044462991573823, 35.216349999438087 ], [ -77.050301991143044, 35.218399999980882 ], [ -77.055636990810669, 35.221961999895861 ], [ -77.053950991443955, 35.222416000309906 ], [ -77.052511990697894, 35.224896000281831 ], [ -77.061014991177856, 35.235209999585081 ], [ -77.061785991544923, 35.233612999626338 ], [ -77.063596991716935, 35.23454099973285 ], [ -77.065514991407156, 35.233163999692017 ], [ -77.069956990903862, 35.232983999487146 ], [ -77.07492399116353, 35.230797000237601 ], [ -77.075834990784799, 35.22745500018285 ], [ -77.072772991367842, 35.225245999561132 ], [ -77.073720990995, 35.223047999856142 ], [ -77.076482991630996, 35.222979000057265 ], [ -77.079803991621603, 35.221306999683357 ], [ -77.082005991715334, 35.216222999482355 ], [ -77.086886991613298, 35.21514599947912 ], [ -77.087137991202667, 35.214367999824262 ], [ -77.092911990820596, 35.214159999714973 ], [ -77.092854991189355, 35.211870999494991 ], [ -77.091460991244475, 35.211595999510159 ], [ -77.09120999109129, 35.212717999641946 ], [ -77.09017699083995, 35.210750000066028 ], [ -77.092101991651816, 35.210108000001711 ], [ -77.091821991463007, 35.208710999739971 ], [ -77.093187991326616, 35.207291999857894 ], [ -77.092963991282375, 35.205757999700651 ], [ -77.095250991654709, 35.203674000006906 ], [ -77.096282990812696, 35.203741999627596 ], [ -77.097902991437039, 35.206946999665078 ], [ -77.099347991184075, 35.207049999610739 ], [ -77.09937399157117, 35.202724000110862 ], [ -77.095972991621792, 35.198722000009148 ], [ -77.085010991326726, 35.195048999735747 ], [ -77.083825991645497, 35.193857999777748 ], [ -77.08429999125633, 35.191606999836388 ], [ -77.08722399084931, 35.191087999537551 ], [ -77.095757991567083, 35.196716999739195 ], [ -77.097815990969039, 35.196169999531428 ], [ -77.100508990906704, 35.192009000148524 ], [ -77.106484991485701, 35.192263999678424 ], [ -77.109930990745553, 35.195305999773701 ], [ -77.118329991278486, 35.203538000032268 ], [ -77.12066499148392, 35.209100000091802 ], [ -77.122692991232469, 35.2108159998267 ] ] ] } },
{ "type": "Feature", "properties": { "county": null, "precinct": null, "enr_desc": "Van-Ep", "winner": null, "winner_votes": null, "winner_share": null, "runner_up": null, "runner_up_votes": null, "runner_up_share": null, "contest_votes": null, "margin_of_victory": null, "is_tie": false, "results": null, "participated": false, "map_key": null }, "geometry": { "type": "Polygon", "coordinates": [ [ [ -77.28468499167117, 35.291628000182961 ], [ -77.285429991297747, 35.295695999539355 ], [ -77.28828999146711, 35.298154999692187 ], [ -77.291743991065289, 35.297139999598109 ], [ -77.29387199115601, 35.297843999955489 ], [ -77.297455991646018, 35.307759999553518 ], [ -77.302189991383003, 35.312523999652164 ], [ -77.306239991720446, 35.315876999932314 ], [ -77.321539991256557, 35.318326999700609 ], [ -77.333299991062177, 35.318869999981708 ], [ -77.334805991394148, 35.319394999950916 ], [ -77.336954991622122, 35.322450999742671 ], [ -77.346744991308199, 35.325034999820588 ], [ -77.352549991088765, 35.327735999825705 ], [ -77.350783990913982, 35.329136000029472 ], [ -77.350379991677769, 35.32843099958702 ], [ -77.294339991472981, 35.379136999807677 ], [ -77.287402990685436, 35.37657099963743 ], [ -77.279379991638166, 35.37566000029689 ], [ -77.269291990869078, 35.369153000049266 ], [ -77.267899990885425, 35.365995999442212 ], [ -77.270352990933532, 35.360115000028372 ], [ -77.267956991090131, 35.355173999793216 ], [ -77.266558991688072, 35.353873000270092 ], [ -77.259421991331664, 35.351591999745843 ], [ -77.252763991695119, 35.354194000082011 ], [ -77.247216991149301, 35.354711999577532 ], [ -77.237943991614259, 35.361541999589519 ], [ -77.238064991671934, 35.364752999548095 ], [ -77.239351991430482, 35.366388999654006 ], [ -77.238466990913949, 35.370018999551881 ], [ -77.236809991137136, 35.371786999797273 ], [ -77.238466991652373, 35.375555000240283 ], [ -77.237484991233771, 35.377286000173299 ], [ -77.238122991425442, 35.380079000304434 ], [ -77.239648991586876, 35.381361000300451 ], [ -77.238841990901719, 35.382781999485815 ], [ -77.237255990989595, 35.383400999883186 ], [ -77.23626699085689, 35.386108999499534 ], [ -77.236486990982471, 35.388853999962073 ], [ -77.23459799153683, 35.391091999960494 ], [ -77.228436990792332, 35.392020000099485 ], [ -77.227105991569502, 35.393202999565816 ], [ -77.22850899071473, 35.395258000094792 ], [ -77.227126991655382, 35.399845000183468 ], [ -77.221911991162074, 35.40032700026385 ], [ -77.220054991596569, 35.402041000160445 ], [ -77.217875991274852, 35.401642999647564 ], [ -77.216902991567679, 35.400529999840366 ], [ -77.215592991406623, 35.400945000137845 ], [ -77.215387991286647, 35.398978000265856 ], [ -77.211215991688348, 35.398184000271897 ], [ -77.206866991536685, 35.398937999923433 ], [ -77.201558991376928, 35.398663999724938 ], [ -77.199222991134334, 35.400510999865503 ], [ -77.199394991698526, 35.402233999988397 ], [ -77.196649991353368, 35.404748000265101 ], [ -77.196343990838045, 35.407316999742264 ], [ -77.194730991183235, 35.409363999550145 ], [ -77.195166991120942, 35.409872999584479 ], [ -77.193936991702628, 35.410617999694132 ], [ -77.192786991616558, 35.413850000192639 ], [ -77.189416991413168, 35.41631399995628 ], [ -77.189114991216314, 35.418361999900533 ], [ -77.081942991301801, 35.36383199951787 ], [ -77.08271399170269, 35.360271999467642 ], [ -77.084026991209271, 35.358783000233466 ], [ -77.085281991284788, 35.352326999774988 ], [ -77.083687991584839, 35.347589000046 ], [ -77.097831991020499, 35.337628999696648 ], [ -77.096869991567885, 35.334673000287559 ], [ -77.099774990857426, 35.332841000173339 ], [ -77.10251099162825, 35.329405999868705 ], [ -77.105163991741492, 35.327549999772032 ], [ -77.107479990909738, 35.323495999504203 ], [ -77.105438991651283, 35.321460000026001 ], [ -77.101107990795569, 35.320041999483379 ], [ -77.096832990783128, 35.316357000055525 ], [ -77.094821990732811, 35.315304999762589 ], [ -77.092728991206073, 35.315419000157242 ], [ -77.093998991124096, 35.311253000274576 ], [ -77.097988991445348, 35.305719999501228 ], [ -77.084133990900895, 35.301218999828997 ], [ -77.081621991142512, 35.297845999985825 ], [ -77.083528991310629, 35.300032999683886 ], [ -77.093922991206071, 35.296191000025992 ], [ -77.099811991262982, 35.297674999689427 ], [ -77.10486599155756, 35.296276999443009 ], [ -77.105446991438555, 35.290990999744871 ], [ -77.109017990847263, 35.284011999477038 ], [ -77.109100991485377, 35.281417000289736 ], [ -77.106642991130059, 35.278945999500323 ], [ -77.108430991111263, 35.274993999438962 ], [ -77.10753399068517, 35.27112400013413 ], [ -77.111000991144579, 35.267916999828863 ], [ -77.108214991200626, 35.264526999800871 ], [ -77.108054990889414, 35.258294999805898 ], [ -77.110146991179406, 35.25751599948866 ], [ -77.116315991166772, 35.258200000210657 ], [ -77.120472991056872, 35.256230000275565 ], [ -77.120750991107641, 35.254603999879677 ], [ -77.123456991556267, 35.253205999579514 ], [ -77.124287991248494, 35.251556999424331 ], [ -77.127672991689053, 35.251974000090605 ], [ -77.129717990737092, 35.24890499969252 ], [ -77.129332991145489, 35.240389000178773 ], [ -77.123085991532747, 35.237500000066419 ], [ -77.113822991465838, 35.230957999883671 ], [ -77.117351991720042, 35.229298999768993 ], [ -77.119191990764037, 35.227114999755244 ], [ -77.120762991505359, 35.214211999819199 ], [ -77.122692991232469, 35.2108159998267 ], [ -77.12452699095833, 35.210490999750782 ], [ -77.134623990942387, 35.215162000246131 ], [ -77.139062991732558, 35.215640999725224 ], [ -77.145541990919142, 35.218910000029474 ], [ -77.152215991665713, 35.220295999610549 ], [ -77.151787991310854, 35.222936999768336 ], [ -77.153524991651196, 35.224224000037623 ], [ -77.160956990959946, 35.224034999946397 ], [ -77.164883990773774, 35.225616000090632 ], [ -77.16573499108793, 35.227336999974426 ], [ -77.164178991592905, 35.231566000000619 ], [ -77.166123990987188, 35.236986000242922 ], [ -77.167149990712701, 35.237960999968301 ], [ -77.174299990827336, 35.237880999837472 ], [ -77.177327991705198, 35.239526999590076 ], [ -77.179492990880178, 35.239183000153581 ], [ -77.181988991398597, 35.236874000031499 ], [ -77.183573991711, 35.236414999702056 ], [ -77.18758199072694, 35.23792600028068 ], [ -77.192354991638823, 35.236009000100175 ], [ -77.199485991505824, 35.237477999447123 ], [ -77.200902991629746, 35.238943000257414 ], [ -77.201384991386078, 35.242697000014253 ], [ -77.206594990768991, 35.24342399984284 ], [ -77.208646990924294, 35.248369000153112 ], [ -77.212931991490521, 35.248589000135162 ], [ -77.216882991218625, 35.252674999753204 ], [ -77.220566991089015, 35.252952999641344 ], [ -77.223603990819697, 35.254170999719186 ], [ -77.225434991354376, 35.257108999873289 ], [ -77.228489991250555, 35.256544999652945 ], [ -77.237861991603467, 35.261407000174067 ], [ -77.242053991663639, 35.261406000153585 ], [ -77.249677991744676, 35.263773999901872 ], [ -77.2512489915553, 35.265701999679813 ], [ -77.252727990777586, 35.272538000047597 ], [ -77.25237099089918, 35.276778000195485 ], [ -77.254264991251659, 35.279742000218498 ], [ -77.25735499103736, 35.281795000122358 ], [ -77.259650991206783, 35.2825639997031 ], [ -77.260325990887679, 35.280998999553752 ], [ -77.262359991733518, 35.280432999651651 ], [ -77.278498991103021, 35.284534999782402 ], [ -77.28210899161985, 35.287176000050714 ], [ -77.28468499167117, 35.291628000182961 ] ] ] } }
]
}
