{
"type": "FeatureCollection",
"name": "currituck_county_board_of_commissioners_at_large_rep",
"crs": { "type": "name", "properties": { "name": "urn:ogc:def:crs:OGC:1.3:CRS84" } },
"features": [
{ "type": "Feature", "properties": { "county": "CURRITUCK", "precinct": "CB", "enr_desc": "Carova Beach", "winner": "Matt Beickert", "winner_votes": 31, "winner_share": 54.385964912280706, "runner_up": "Denise Hall", "runner_up_votes": 26, "runner_up_share": 45.614035087719294, "contest_votes": 57, "margin_of_victory": 8.7719298245614112, "is_tie": false, "results": [ { "candidate": "Matt Beickert", "votes": 31, "share": 54.385964912280706 }, { "candidate": "Denise Hall", "votes": 26, "share": 45.614035087719294 } ], "participated": true, "map_key": "CURRITUCK_CB" }, "geometry": { "type": "Polygon", "coordinates": [ [ [ -75.917513990800941, 36.466769999784646 ], [ -75.908045990742224, 36.475508999951728 ], [ -75.897901990857946, 36.487076999402639 ], [ -75.896102991484298, 36.489767999849875 ], [ -75.894160990842295, 36.496465999374976 ], [ -75.89466199097356, 36.499976999452329 ], [ -75.907084991384338, 36.512009999856041 ], [ -75.9077249906464, 36.520661999550313 ], [ -75.906946990582526, 36.525280999372598 ], [ -75.904737991106018, 36.529250999932486 ], [ -75.904581990941722, 36.531895999486849 ], [ -75.905105990735194, 36.542010000149396 ], [ -75.907513990549333, 36.543961999674828 ], [ -75.908440991250401, 36.546083999922203 ], [ -75.906879990736329, 36.550553000093601 ], [ -75.797496990659866, 36.550915999692663 ], [ -75.790557990598742, 36.500156000138219 ], [ -75.769833990623027, 36.426163000100793 ], [ -75.852534991186715, 36.413145999539999 ], [ -75.87589799075846, 36.417301000062757 ], [ -75.885412991478816, 36.422600999703754 ], [ -75.894402991112585, 36.431536999778395 ], [ -75.900030990708331, 36.438931999332631 ], [ -75.904202990632783, 36.450367999551275 ], [ -75.908468990976786, 36.458562999379566 ], [ -75.912794991211584, 36.464092999850642 ], [ -75.917513990800941, 36.466769999784646 ] ] ] } },
{ "type": "Feature", "properties": { "county": "CURRITUCK", "precinct": "GW", "enr_desc": "Gibbs Woods", "winner": "Matt Beickert", "winner_votes": 29, "winner_share": 54.716981132075468, "runner_up": "Denise Hall", "runner_up_votes": 24, "runner_up_share": 45.283018867924532, "contest_votes": 53, "margin_of_victory": 9.4339622641509351, "is_tie": false, "results": [ { "candidate": "Matt Beickert", "votes": 29, "share": 54.71698113207547 }, { "candidate": "Denise Hall", "votes": 24, "share": 45.28301886792453 } ], "participated": true, "map_key": "CURRITUCK_GW" }, "geometry": { "type": "Polygon", "coordinates": [ [ [ -76.02672099122347, 36.550469999348103 ], [ -76.011168991234015, 36.505593999634357 ], [ -76.072326991110856, 36.503922999692996 ], [ -76.073303991421639, 36.509579999924675 ], [ -76.07623499092486, 36.5126439997887 ], [ -76.086870990753283, 36.512981999588249 ], [ -76.094711991525571, 36.518097999760862 ], [ -76.09180399143861, 36.522917999970815 ], [ -76.091891990874331, 36.524882999654828 ], [ -76.094123990744421, 36.52610299991715 ], [ -76.100585991639178, 36.525961000227447 ], [ -76.101900990959891, 36.529536999933072 ], [ -76.103970991536428, 36.53196500012146 ], [ -76.112595991600656, 36.531466000055033 ], [ -76.117785990878474, 36.52710599987563 ], [ -76.121622991122322, 36.526409999609477 ], [ -76.123829990556615, 36.527095000117043 ], [ -76.124929991288084, 36.528926999448487 ], [ -76.121746990560467, 36.532395000219203 ], [ -76.123737991355242, 36.534577999750532 ], [ -76.128638990907334, 36.53721699984807 ], [ -76.131559990697454, 36.537380000202695 ], [ -76.133929991525378, 36.533682000119022 ], [ -76.135903991119477, 36.532723999971857 ], [ -76.136941991204424, 36.532829999525717 ], [ -76.139899991264016, 36.535814999842898 ], [ -76.1474739916614, 36.53487299939448 ], [ -76.150063991188418, 36.537526999855608 ], [ -76.154505991096428, 36.539939999877902 ], [ -76.151718991139475, 36.54314699950389 ], [ -76.151313990877412, 36.546432999681024 ], [ -76.152838990979149, 36.548182999738124 ], [ -76.151730991512323, 36.550501000160139 ], [ -76.02672099122347, 36.550469999348103 ] ] ] } },
{ "type": "Feature", "properties": { "county": "CURRITUCK", "precinct": "CH", "enr_desc": "Courthouse", "winner": "Matt Beickert", "winner_votes": 599, "winner_share": 76.015228426395936, "runner_up": "Denise Hall", "runner_up_votes": 189, "runner_up_share": 23.984771573604061, "contest_votes": 788, "margin_of_victory": 52.030456852791872, "is_tie": false, "results": [ { "candidate": "Matt Beickert", "votes": 599, "share": 76.01522842639594 }, { "candidate": "Denise Hall", "votes": 189, "share": 23.98477157360406 } ], "participated": true, "map_key": "CURRITUCK_CH" }, "geometry": { "type": "Polygon", "coordinates": [ [ [ -75.953424991177798, 36.41952099934479 ], [ -75.953339991372061, 36.407801999922555 ], [ -75.971702990875528, 36.407712000066098 ], [ -75.976360990942581, 36.408943000098496 ], [ -75.982077991422344, 36.414065000023939 ], [ -75.994945991096671, 36.407452999380084 ], [ -76.003273991365418, 36.413603000201078 ], [ -76.008643991169677, 36.412658000120764 ], [ -76.018314990961272, 36.406558999811374 ], [ -76.0198129909042, 36.402492999815955 ], [ -76.019868991368938, 36.39688899951387 ], [ -76.026945990731321, 36.389452999393718 ], [ -76.053856991508511, 36.391410999824586 ], [ -76.057364990756042, 36.390672000038656 ], [ -76.072790991013477, 36.383686999573243 ], [ -76.080107991449054, 36.385383000075315 ], [ -76.079812990705165, 36.392160999397639 ], [ -76.080769991548024, 36.406844999865633 ], [ -76.06971999062381, 36.406994000056002 ], [ -76.067567991191567, 36.407867999510032 ], [ -76.063298990578332, 36.407932999439161 ], [ -76.061730991409021, 36.411654999391764 ], [ -76.062504990806815, 36.420427999571132 ], [ -76.06338299148949, 36.421243999609082 ], [ -76.051716990697912, 36.421780999959154 ], [ -76.057229991576335, 36.443677000204438 ], [ -76.059218991103137, 36.446889999470265 ], [ -76.064726991503079, 36.448335000070948 ], [ -76.068490991392167, 36.451023999593403 ], [ -76.06958199089037, 36.453579999452941 ], [ -76.071599990889567, 36.45487200017326 ], [ -76.074507991140237, 36.454982999589745 ], [ -76.075747990871562, 36.456256999679532 ], [ -76.075675990661196, 36.457321999554445 ], [ -76.077151991074018, 36.457699000062284 ], [ -76.078036990779765, 36.458949999734585 ], [ -76.078910990854496, 36.465151999412335 ], [ -76.080119990591953, 36.46677999935298 ], [ -76.082817990731982, 36.466668000039036 ], [ -76.085240990925541, 36.468489000051562 ], [ -76.085222991421986, 36.470361999954619 ], [ -76.087277990632771, 36.471600999539589 ], [ -76.092692990580005, 36.473096000125707 ], [ -76.094053991004472, 36.472444999945388 ], [ -76.095133990789321, 36.473481999453512 ], [ -76.095653991036841, 36.475942999822649 ], [ -76.09802399158832, 36.4779029994776 ], [ -76.094811991410623, 36.479121000227508 ], [ -76.095132990897696, 36.481413999777018 ], [ -76.098321990851986, 36.483771000058063 ], [ -76.094349991254447, 36.488108999640211 ], [ -76.096522991191307, 36.488448999509203 ], [ -76.098814991269094, 36.491337999490213 ], [ -76.095183991206255, 36.491337000102583 ], [ -76.094132990766781, 36.493972999832536 ], [ -76.091607991099153, 36.49452799960364 ], [ -76.09033599088589, 36.492709999524891 ], [ -76.08696499087732, 36.491826000005844 ], [ -76.087778991588763, 36.49503699952767 ], [ -76.08385599128458, 36.496605999919232 ], [ -76.083087990734882, 36.5001529996646 ], [ -76.080848990887105, 36.500152999363671 ], [ -76.075502991493593, 36.503853999540937 ], [ -76.072326991110856, 36.503922999692996 ], [ -76.011168991234015, 36.505593999634357 ], [ -76.001857991410645, 36.478067000057919 ], [ -75.965869990667343, 36.450669999982857 ], [ -75.953424991177798, 36.41952099934479 ] ] ] } },
{ "type": "Feature", "properties": { "county": "CURRITUCK", "precinct": "IR", "enr_desc": "Indian Ridge", "winner": "Matt Beickert", "winner_votes": 202, "winner_share": 77.992277992277991, "runner_up": "Denise Hall", "runner_up_votes": 57, "runner_up_share": 22.007722007722009, "contest_votes": 259, "margin_of_victory": 55.984555984555982, "is_tie": false, "results": [ { "candidate": "Matt Beickert", "votes": 202, "share": 77.99227799227799 }, { "candidate": "Denise Hall", "votes": 57, "share": 22.00772200772201 } ], "participated": true, "map_key": "CURRITUCK_IR" }, "geometry": { "type": "Polygon", "coordinates": [ [ [ -76.045964990978149, 36.358338999440122 ], [ -76.049047991137797, 36.356397000036964 ], [ -76.050290990795574, 36.357161999988264 ], [ -76.050111990790498, 36.359095999433798 ], [ -76.050754991393831, 36.359818999836662 ], [ -76.053953990704912, 36.36002499946354 ], [ -76.055996990832753, 36.358189999365322 ], [ -76.055555990812493, 36.355359000114213 ], [ -76.058178990638822, 36.354548999498242 ], [ -76.059208991656746, 36.352000999967679 ], [ -76.060651991358185, 36.351502999551677 ], [ -76.063601991245122, 36.352144000182548 ], [ -76.064710991293964, 36.351297000029348 ], [ -76.062819991307848, 36.349174999624758 ], [ -76.063688990817923, 36.347450999680234 ], [ -76.068927991633217, 36.347869999743772 ], [ -76.069376990760603, 36.348330999877362 ], [ -76.068265991336361, 36.349525999680417 ], [ -76.071875991227643, 36.349970999699359 ], [ -76.073182991047105, 36.349284999760137 ], [ -76.073038990711268, 36.346571999880048 ], [ -76.073917991429681, 36.346124000062389 ], [ -76.07599099117256, 36.346843999671847 ], [ -76.074874991441334, 36.348599999705975 ], [ -76.077070991616964, 36.348285000210439 ], [ -76.078283990803939, 36.347063999909238 ], [ -76.079479990890405, 36.347175000001783 ], [ -76.078968990776715, 36.348132999927493 ], [ -76.07989299123274, 36.348879999417839 ], [ -76.081449991075772, 36.348103999448348 ], [ -76.082697991672063, 36.350457999551836 ], [ -76.083965991420513, 36.349596999678475 ], [ -76.084886991401774, 36.352132000229034 ], [ -76.086128991541571, 36.351692999680751 ], [ -76.085387990728506, 36.350678999525108 ], [ -76.086426991604753, 36.349664999854369 ], [ -76.088418990561749, 36.350209000181977 ], [ -76.09054899137891, 36.352123999744606 ], [ -76.093209991334348, 36.350739999927576 ], [ -76.093173990808381, 36.351643999609188 ], [ -76.095551991642722, 36.351239999400995 ], [ -76.09569899073783, 36.351950999410867 ], [ -76.096872990873877, 36.351993999525746 ], [ -76.09773099109789, 36.353521999993781 ], [ -76.099160991261627, 36.3527510001392 ], [ -76.099139991501389, 36.353821999422301 ], [ -76.101290991574501, 36.35347600021224 ], [ -76.101671990712404, 36.354178999346097 ], [ -76.106652991586543, 36.354531000247256 ], [ -76.114360991563203, 36.357582999693271 ], [ -76.12180999105226, 36.37108799963999 ], [ -76.147625991217311, 36.394462999952943 ], [ -76.157471991016436, 36.398177999609281 ], [ -76.158531991284875, 36.425332999783883 ], [ -76.164865991398244, 36.430503999498661 ], [ -76.13361199085368, 36.450213000073802 ], [ -76.105411990893316, 36.46672699970798 ], [ -76.104161990589148, 36.467806999404019 ], [ -76.103968991374799, 36.469389999396149 ], [ -76.104728991193099, 36.470115999912359 ], [ -76.103884991277582, 36.470462999433039 ], [ -76.104614991446539, 36.471187999959717 ], [ -76.103826990981247, 36.47165800000527 ], [ -76.104427990775662, 36.4730039995761 ], [ -76.10379999142036, 36.473233000058663 ], [ -76.104638991496103, 36.473863999381422 ], [ -76.103852991302816, 36.474699999616277 ], [ -76.104826991640664, 36.475357999388088 ], [ -76.103584990653061, 36.475830000199785 ], [ -76.103398990937208, 36.478469999861055 ], [ -76.099819991569092, 36.479087999624809 ], [ -76.09802399158832, 36.4779029994776 ], [ -76.095653991036841, 36.475942999822649 ], [ -76.095133990789321, 36.473481999453512 ], [ -76.094053991004472, 36.472444999945388 ], [ -76.092692990580005, 36.473096000125707 ], [ -76.087277990632771, 36.471600999539589 ], [ -76.085222991421986, 36.470361999954619 ], [ -76.085240990925541, 36.468489000051562 ], [ -76.082817990731982, 36.466668000039036 ], [ -76.080119990591953, 36.46677999935298 ], [ -76.078910990854496, 36.465151999412335 ], [ -76.078036990779765, 36.458949999734585 ], [ -76.077151991074018, 36.457699000062284 ], [ -76.075675990661196, 36.457321999554445 ], [ -76.075747990871562, 36.456256999679532 ], [ -76.074507991140237, 36.454982999589745 ], [ -76.071599990889567, 36.45487200017326 ], [ -76.06958199089037, 36.453579999452941 ], [ -76.068490991392167, 36.451023999593403 ], [ -76.064726991503079, 36.448335000070948 ], [ -76.059218991103137, 36.446889999470265 ], [ -76.057229991576335, 36.443677000204438 ], [ -76.051716990697912, 36.421780999959154 ], [ -76.06338299148949, 36.421243999609082 ], [ -76.062504990806815, 36.420427999571132 ], [ -76.061730991409021, 36.411654999391764 ], [ -76.063298990578332, 36.407932999439161 ], [ -76.067567991191567, 36.407867999510032 ], [ -76.06971999062381, 36.406994000056002 ], [ -76.080769991548024, 36.406844999865633 ], [ -76.079812990705165, 36.392160999397639 ], [ -76.080107991449054, 36.385383000075315 ], [ -76.072790991013477, 36.383686999573243 ], [ -76.057364990756042, 36.390672000038656 ], [ -76.053856991508511, 36.391410999824586 ], [ -76.026945990731321, 36.389452999393718 ], [ -76.028117991002063, 36.387901999634366 ], [ -76.028387991382488, 36.388997999567103 ], [ -76.032510991278244, 36.388814000007407 ], [ -76.037861990646817, 36.386799000214317 ], [ -76.039307991571278, 36.380677999826418 ], [ -76.037899990657905, 36.376318999632005 ], [ -76.039291991527719, 36.373184999723954 ], [ -76.038526991178585, 36.370194999889911 ], [ -76.039073990900306, 36.368842000215146 ], [ -76.041384990974748, 36.36759599977114 ], [ -76.043488991367795, 36.367662999535938 ], [ -76.041697990851773, 36.366108999715799 ], [ -76.041815991121396, 36.363460999594615 ], [ -76.044602991381467, 36.362772999858322 ], [ -76.045964990978149, 36.358338999440122 ] ] ] } },
{ "type": "Feature", "properties": { "county": "CURRITUCK", "precinct": "KI", "enr_desc": "Knotts Island", "winner": "Matt Beickert", "winner_votes": 113, "winner_share": 63.483146067415731, "runner_up": "Denise Hall", "runner_up_votes": 65, "runner_up_share": 36.516853932584269, "contest_votes": 178, "margin_of_victory": 26.966292134831463, "is_tie": false, "results": [ { "candidate": "Matt Beickert", "votes": 113, "share": 63.48314606741573 }, { "candidate": "Denise Hall", "votes": 65, "share": 36.51685393258427 } ], "participated": true, "map_key": "CURRITUCK_KI" }, "geometry": { "type": "Polygon", "coordinates": [ [ [ -75.917513990800941, 36.466769999784646 ], [ -75.927443991655849, 36.470741999983431 ], [ -75.932321991428282, 36.471738000132206 ], [ -75.935916990651876, 36.472097999800518 ], [ -75.941786991126676, 36.471233999590446 ], [ -75.950127990537027, 36.466788000186462 ], [ -75.965869990667343, 36.450669999982857 ], [ -76.001857991410645, 36.478067000057919 ], [ -76.011168991234015, 36.505593999634357 ], [ -76.02672099122347, 36.550469999348103 ], [ -75.906879990736329, 36.550553000093601 ], [ -75.908440991250401, 36.546083999922203 ], [ -75.907513990549333, 36.543961999674828 ], [ -75.905105990735194, 36.542010000149396 ], [ -75.904581990941722, 36.531895999486849 ], [ -75.904737991106018, 36.529250999932486 ], [ -75.906946990582526, 36.525280999372598 ], [ -75.9077249906464, 36.520661999550313 ], [ -75.907084991384338, 36.512009999856041 ], [ -75.89466199097356, 36.499976999452329 ], [ -75.894160990842295, 36.496465999374976 ], [ -75.896102991484298, 36.489767999849875 ], [ -75.897901990857946, 36.487076999402639 ], [ -75.908045990742224, 36.475508999951728 ], [ -75.917513990800941, 36.466769999784646 ] ] ] } },
{ "type": "Feature", "properties": { "county": "CURRITUCK", "precinct": "PB", "enr_desc": "Poplar Branch", "winner": "Matt Beickert", "winner_votes": 501, "winner_share": 71.879483500717356, "runner_up": "Denise Hall", "runner_up_votes": 196, "runner_up_share": 28.120516499282637, "contest_votes": 697, "margin_of_victory": 43.758967001434719, "is_tie": false, "results": [ { "candidate": "Matt Beickert", "votes": 501, "share": 71.87948350071736 }, { "candidate": "Denise Hall", "votes": 196, "share": 28.120516499282637 } ], "participated": true, "map_key": "CURRITUCK_PB" }, "geometry": { "type": "Polygon", "coordinates": [ [ [ -75.887157991293577, 36.157978000050704 ], [ -75.887983991574302, 36.163310999832049 ], [ -75.889857991634372, 36.168399999448134 ], [ -75.892789990715244, 36.173506999514927 ], [ -75.897125990629192, 36.178690000009738 ], [ -75.903386991183368, 36.183830999822412 ], [ -75.918963990889068, 36.192417999759286 ], [ -75.924157991364396, 36.197160999712125 ], [ -75.926990991129387, 36.201080000200122 ], [ -75.929763991574404, 36.208361999948856 ], [ -75.929566990826729, 36.219418999391166 ], [ -75.931526991336938, 36.230354999653009 ], [ -75.934511991016493, 36.237939000185264 ], [ -75.942489991501958, 36.24302699972602 ], [ -75.946112991337458, 36.2474069998595 ], [ -75.952869991560902, 36.253197000208907 ], [ -75.960042991063048, 36.255883000161319 ], [ -75.963008991320336, 36.258063999903349 ], [ -75.963742990882935, 36.263959999753631 ], [ -75.962264991371214, 36.26716499963802 ], [ -75.959048990623643, 36.269221000174817 ], [ -75.95166599137265, 36.271490999973004 ], [ -75.948979991430846, 36.274035999991959 ], [ -75.950424990986818, 36.280355999826526 ], [ -75.948320991284234, 36.284892999341601 ], [ -75.950915991618103, 36.28747799954558 ], [ -75.955097991560223, 36.289322999529709 ], [ -75.961468990581182, 36.287435999550652 ], [ -75.966630990786697, 36.289557000036957 ], [ -75.969742991221395, 36.295705999694455 ], [ -75.969509990643587, 36.305652000086383 ], [ -75.97107599146787, 36.308359000169858 ], [ -75.972253991122372, 36.316277999903221 ], [ -75.966409990846017, 36.322472000031894 ], [ -75.952869991144638, 36.343232999608489 ], [ -75.952209990740442, 36.342160000125908 ], [ -75.945682990784618, 36.351849000155887 ], [ -75.944606991492776, 36.358469999588124 ], [ -75.928809991110072, 36.373454000012885 ], [ -75.926754990813606, 36.371062999645254 ], [ -75.924262991452622, 36.370695000124535 ], [ -75.924602990727905, 36.369251999470379 ], [ -75.92075299075573, 36.370691999572919 ], [ -75.920311991584398, 36.375195999363626 ], [ -75.919247991053837, 36.377077999325849 ], [ -75.919162991504791, 36.381219999846373 ], [ -75.9184539909905, 36.382798999690728 ], [ -75.916273991114394, 36.383987000103645 ], [ -75.915592990838732, 36.386252999849113 ], [ -75.922330990598127, 36.399684999946501 ], [ -75.921960990891009, 36.405885999590836 ], [ -75.920430990676394, 36.409021000108098 ], [ -75.923601991678481, 36.418173999479556 ], [ -75.92314899165514, 36.420279999353895 ], [ -75.92439399123171, 36.425588999845274 ], [ -75.929239990833267, 36.426593999530148 ], [ -75.931902990980362, 36.429041999616942 ], [ -75.937795991405309, 36.429086000174706 ], [ -75.940600990828571, 36.43007099987237 ], [ -75.945247991212838, 36.429315000196524 ], [ -75.945488991099793, 36.429954999519232 ], [ -75.953424991177798, 36.41952099934479 ], [ -75.965869990667343, 36.450669999982857 ], [ -75.950127990537027, 36.466788000186462 ], [ -75.941786991126676, 36.471233999590446 ], [ -75.935916990651876, 36.472097999800518 ], [ -75.932321991428282, 36.471738000132206 ], [ -75.927443991655849, 36.470741999983431 ], [ -75.917513990800941, 36.466769999784646 ], [ -75.916880991464737, 36.46273100020781 ], [ -75.886899991376438, 36.375157999539439 ], [ -75.858917991535407, 36.307522999576747 ], [ -75.856096991467766, 36.297119999495614 ], [ -75.843635991484774, 36.269525999979052 ], [ -75.813107991060832, 36.223559999743756 ], [ -75.818792991352851, 36.216049000119902 ], [ -75.821941990961847, 36.2056240000408 ], [ -75.824390991502625, 36.190778000148704 ], [ -75.825498991155754, 36.189362999678863 ], [ -75.829607991183352, 36.188404999763463 ], [ -75.838738991105842, 36.192488000181541 ], [ -75.84491299110023, 36.19276999946095 ], [ -75.844280990905787, 36.19188599943061 ], [ -75.842105991163237, 36.191817999748963 ], [ -75.84007099138185, 36.188062999570043 ], [ -75.839985990742761, 36.186002000195892 ], [ -75.841367990860235, 36.182498999391846 ], [ -75.841112991106115, 36.180461000128524 ], [ -75.838652990996238, 36.17489699938951 ], [ -75.834387991522505, 36.171805999375842 ], [ -75.83444299165852, 36.168828999538007 ], [ -75.836447990928278, 36.168027999373507 ], [ -75.83731799147084, 36.16649499979389 ], [ -75.838075991618425, 36.167890000168946 ], [ -75.846814991602997, 36.170475000019934 ], [ -75.846139991333715, 36.164768000016934 ], [ -75.847509990880837, 36.160614999481552 ], [ -75.849194990969721, 36.15937100005246 ], [ -75.857932990588949, 36.156491000205975 ], [ -75.859146991403307, 36.159425999800696 ], [ -75.858907991588552, 36.162041999751715 ], [ -75.863270991628752, 36.159821000115883 ], [ -75.861742990864443, 36.153822000154676 ], [ -75.86410199164591, 36.151569000183457 ], [ -75.887157991293577, 36.157978000050704 ] ] ] } },
{ "type": "Feature", "properties": { "county": "CURRITUCK", "precinct": "PP", "enr_desc": "Powells Point", "winner": "Matt Beickert", "winner_votes": 208, "winner_share": 69.798657718120808, "runner_up": "Denise Hall", "runner_up_votes": 90, "runner_up_share": 30.201342281879196, "contest_votes": 298, "margin_of_victory": 39.597315436241615, "is_tie": false, "results": [ { "candidate": "Matt Beickert", "votes": 208, "share": 69.79865771812081 }, { "candidate": "Denise Hall", "votes": 90, "share": 30.201342281879196 } ], "participated": true, "map_key": "CURRITUCK_PP" }, "geometry": { "type": "Polygon", "coordinates": [ [ [ -75.887157991293577, 36.157978000050704 ], [ -75.86410199164591, 36.151569000183457 ], [ -75.861742990864443, 36.153822000154676 ], [ -75.863270991628752, 36.159821000115883 ], [ -75.858907991588552, 36.162041999751715 ], [ -75.859146991403307, 36.159425999800696 ], [ -75.857932990588949, 36.156491000205975 ], [ -75.849194990969721, 36.15937100005246 ], [ -75.847509990880837, 36.160614999481552 ], [ -75.846139991333715, 36.164768000016934 ], [ -75.846814991602997, 36.170475000019934 ], [ -75.838075991618425, 36.167890000168946 ], [ -75.83731799147084, 36.16649499979389 ], [ -75.836447990928278, 36.168027999373507 ], [ -75.83444299165852, 36.168828999538007 ], [ -75.834387991522505, 36.171805999375842 ], [ -75.838652990996238, 36.17489699938951 ], [ -75.841112991106115, 36.180461000128524 ], [ -75.841367990860235, 36.182498999391846 ], [ -75.839985990742761, 36.186002000195892 ], [ -75.84007099138185, 36.188062999570043 ], [ -75.842105991163237, 36.191817999748963 ], [ -75.844280990905787, 36.19188599943061 ], [ -75.84491299110023, 36.19276999946095 ], [ -75.838738991105842, 36.192488000181541 ], [ -75.829607991183352, 36.188404999763463 ], [ -75.825498991155754, 36.189362999678863 ], [ -75.824390991502625, 36.190778000148704 ], [ -75.821941990961847, 36.2056240000408 ], [ -75.818792991352851, 36.216049000119902 ], [ -75.813107991060832, 36.223559999743756 ], [ -75.803879991334938, 36.210455999468977 ], [ -75.799429991227967, 36.202217999993465 ], [ -75.79883899088955, 36.199164999565994 ], [ -75.801796990576378, 36.191877999992457 ], [ -75.801871991630421, 36.188448999987536 ], [ -75.798677990590846, 36.182528999728298 ], [ -75.789136991687769, 36.172042999542477 ], [ -75.788804990650576, 36.169179999900948 ], [ -75.790399991411249, 36.159600999886486 ], [ -75.789370990767594, 36.154763999740339 ], [ -75.78607199083892, 36.149849999598054 ], [ -75.779792991286399, 36.143720999720067 ], [ -75.776902991081585, 36.137163999508253 ], [ -75.775554990793623, 36.122753000075249 ], [ -75.773805991144343, 36.115049999641514 ], [ -75.774936991494513, 36.110235999498002 ], [ -75.774592991678674, 36.10505499987454 ], [ -75.765491991631492, 36.083551999979115 ], [ -75.763324991565923, 36.073002999991786 ], [ -75.763645991312586, 36.063869999366375 ], [ -75.764726990967745, 36.060138999485346 ], [ -75.767681990996266, 36.055259999950685 ], [ -75.773634991542821, 36.050713999694452 ], [ -75.780291991285651, 36.047553999618337 ], [ -75.840045990914859, 36.028833999742901 ], [ -75.864668991319249, 36.03616399982085 ], [ -75.874805990613737, 36.041788999773765 ], [ -75.889533991025047, 36.05533899932442 ], [ -75.901959990638346, 36.074107999369097 ], [ -75.906294991383689, 36.085876999638892 ], [ -75.896710991392865, 36.125162999616045 ], [ -75.887754991644272, 36.149352000124424 ], [ -75.887157991293577, 36.157978000050704 ] ] ] } },
{ "type": "Feature", "properties": { "county": "CURRITUCK", "precinct": "WH", "enr_desc": "Whalehead", "winner": "Matt Beickert", "winner_votes": 76, "winner_share": 55.474452554744524, "runner_up": "Denise Hall", "runner_up_votes": 61, "runner_up_share": 44.525547445255476, "contest_votes": 137, "margin_of_victory": 10.948905109489047, "is_tie": false, "results": [ { "candidate": "Matt Beickert", "votes": 76, "share": 55.47445255474452 }, { "candidate": "Denise Hall", "votes": 61, "share": 44.52554744525548 } ], "participated": true, "map_key": "CURRITUCK_WH" }, "geometry": { "type": "Polygon", "coordinates": [ [ [ -75.813107991060832, 36.223559999743756 ], [ -75.843635991484774, 36.269525999979052 ], [ -75.856096991467766, 36.297119999495614 ], [ -75.858917991535407, 36.307522999576747 ], [ -75.886899991376438, 36.375157999539439 ], [ -75.916880991464737, 36.46273100020781 ], [ -75.917513990800941, 36.466769999784646 ], [ -75.912794991211584, 36.464092999850642 ], [ -75.908468990976786, 36.458562999379566 ], [ -75.904202990632783, 36.450367999551275 ], [ -75.900030990708331, 36.438931999332631 ], [ -75.894402991112585, 36.431536999778395 ], [ -75.885412991478816, 36.422600999703754 ], [ -75.87589799075846, 36.417301000062757 ], [ -75.852534991186715, 36.413145999539999 ], [ -75.769833990623027, 36.426163000100793 ], [ -75.749634991355663, 36.353605999692732 ], [ -75.709077991552675, 36.244983999502637 ], [ -75.813107991060832, 36.223559999743756 ] ] ] } },
{ "type": "Feature", "properties": { "county": "CURRITUCK", "precinct": "WM", "enr_desc": "West Moyock", "winner": "Matt Beickert", "winner_votes": 348, "winner_share": 71.020408163265301, "runner_up": "Denise Hall", "runner_up_votes": 142, "runner_up_share": 28.979591836734691, "contest_votes": 490, "margin_of_victory": 42.04081632653061, "is_tie": false, "results": [ { "candidate": "Matt Beickert", "votes": 348, "share": 71.0204081632653 }, { "candidate": "Denise Hall", "votes": 142, "share": 28.97959183673469 } ], "participated": true, "map_key": "CURRITUCK_WM" }, "geometry": { "type": "Polygon", "coordinates": [ [ [ -76.192786991050468, 36.5504730001281 ], [ -76.188976990620219, 36.545307000040275 ], [ -76.182930990778814, 36.528777999870776 ], [ -76.160916990800644, 36.509634000070953 ], [ -76.139672990649743, 36.496798999950663 ], [ -76.13807099098149, 36.491642999648015 ], [ -76.129837991213265, 36.479387999817959 ], [ -76.105411990893316, 36.46672699970798 ], [ -76.13361199085368, 36.450213000073802 ], [ -76.164865991398244, 36.430503999498661 ], [ -76.31330299076771, 36.550519999402546 ], [ -76.192786991050468, 36.5504730001281 ] ] ] } },
{ "type": "Feature", "properties": { "county": "CURRITUCK", "precinct": "CO", "enr_desc": "Coinjock", "winner": "Matt Beickert", "winner_votes": 142, "winner_share": 81.609195402298852, "runner_up": "Denise Hall", "runner_up_votes": 32, "runner_up_share": 18.390804597701148, "contest_votes": 174, "margin_of_victory": 63.218390804597703, "is_tie": false, "results": [ { "candidate": "Matt Beickert", "votes": 142, "share": 81.60919540229885 }, { "candidate": "Denise Hall", "votes": 32, "share": 18.39080459770115 } ], "participated": true, "map_key": "CURRITUCK_CO" }, "geometry": { "type": "Polygon", "coordinates": [ [ [ -76.026945990731321, 36.389452999393718 ], [ -76.019868991368938, 36.39688899951387 ], [ -76.0198129909042, 36.402492999815955 ], [ -76.018314990961272, 36.406558999811374 ], [ -76.008643991169677, 36.412658000120764 ], [ -76.003273991365418, 36.413603000201078 ], [ -75.994945991096671, 36.407452999380084 ], [ -75.982077991422344, 36.414065000023939 ], [ -75.976360990942581, 36.408943000098496 ], [ -75.971702990875528, 36.407712000066098 ], [ -75.953339991372061, 36.407801999922555 ], [ -75.953424991177798, 36.41952099934479 ], [ -75.945488991099793, 36.429954999519232 ], [ -75.945247991212838, 36.429315000196524 ], [ -75.940600990828571, 36.43007099987237 ], [ -75.937795991405309, 36.429086000174706 ], [ -75.931902990980362, 36.429041999616942 ], [ -75.929239990833267, 36.426593999530148 ], [ -75.92439399123171, 36.425588999845274 ], [ -75.92314899165514, 36.420279999353895 ], [ -75.923601991678481, 36.418173999479556 ], [ -75.920430990676394, 36.409021000108098 ], [ -75.921960990891009, 36.405885999590836 ], [ -75.922330990598127, 36.399684999946501 ], [ -75.915592990838732, 36.386252999849113 ], [ -75.916273991114394, 36.383987000103645 ], [ -75.9184539909905, 36.382798999690728 ], [ -75.919162991504791, 36.381219999846373 ], [ -75.919247991053837, 36.377077999325849 ], [ -75.920311991584398, 36.375195999363626 ], [ -75.92075299075573, 36.370691999572919 ], [ -75.924602990727905, 36.369251999470379 ], [ -75.924262991452622, 36.370695000124535 ], [ -75.926754990813606, 36.371062999645254 ], [ -75.928809991110072, 36.373454000012885 ], [ -75.944606991492776, 36.358469999588124 ], [ -75.945682990784618, 36.351849000155887 ], [ -75.952209990740442, 36.342160000125908 ], [ -75.952869991144638, 36.343232999608489 ], [ -75.966409990846017, 36.322472000031894 ], [ -75.972253991122372, 36.316277999903221 ], [ -75.97107599146787, 36.308359000169858 ], [ -75.973300990702811, 36.30985499989324 ], [ -75.975848991571539, 36.310344999932717 ], [ -75.983593990597257, 36.308619999518385 ], [ -75.992521991309729, 36.308429000086186 ], [ -75.999650991401921, 36.311174000228519 ], [ -76.001871991329907, 36.315127000018748 ], [ -76.001285990643169, 36.321716999432176 ], [ -76.002360990632326, 36.324206000220869 ], [ -76.007913991319427, 36.328647999586394 ], [ -76.009964991580006, 36.328516999413807 ], [ -76.013293991227215, 36.326841999746684 ], [ -76.0163899911622, 36.327255999565388 ], [ -76.018238991549268, 36.330825999412269 ], [ -76.020426990861324, 36.332802000150132 ], [ -76.020223990782213, 36.334537999964581 ], [ -76.016926990997391, 36.33821300015326 ], [ -76.016979990906407, 36.344629999961533 ], [ -76.01958599122166, 36.345889999772631 ], [ -76.022846991481998, 36.345194000103348 ], [ -76.024334991324537, 36.344163999946829 ], [ -76.025477991338263, 36.340573999528161 ], [ -76.03167399165217, 36.338597000183782 ], [ -76.033445990854503, 36.341311999347354 ], [ -76.028457991044036, 36.344437000127868 ], [ -76.028795991343998, 36.34912999999802 ], [ -76.032399990841029, 36.350574999642831 ], [ -76.036412990992815, 36.355174000116023 ], [ -76.04177499105397, 36.355386000215219 ], [ -76.045964990978149, 36.358338999440122 ], [ -76.044602991381467, 36.362772999858322 ], [ -76.041815991121396, 36.363460999594615 ], [ -76.041697990851773, 36.366108999715799 ], [ -76.043488991367795, 36.367662999535938 ], [ -76.041384990974748, 36.36759599977114 ], [ -76.039073990900306, 36.368842000215146 ], [ -76.038526991178585, 36.370194999889911 ], [ -76.039291991527719, 36.373184999723954 ], [ -76.037899990657905, 36.376318999632005 ], [ -76.039307991571278, 36.380677999826418 ], [ -76.037861990646817, 36.386799000214317 ], [ -76.032510991278244, 36.388814000007407 ], [ -76.028387991382488, 36.388997999567103 ], [ -76.028117991002063, 36.387901999634366 ], [ -76.026945990731321, 36.389452999393718 ] ] ] } },
{ "type": "Feature", "properties": { "county": "CURRITUCK", "precinct": "EM", "enr_desc": "East Moyock", "winner": "Matt Beickert", "winner_votes": 305, "winner_share": 70.114942528735639, "runner_up": "Denise Hall", "runner_up_votes": 130, "runner_up_share": 29.885057471264371, "contest_votes": 435, "margin_of_victory": 40.229885057471265, "is_tie": false, "results": [ { "candidate": "Matt Beickert", "votes": 305, "share": 70.11494252873564 }, { "candidate": "Denise Hall", "votes": 130, "share": 29.88505747126437 } ], "participated": true, "map_key": "CURRITUCK_EM" }, "geometry": { "type": "Polygon", "coordinates": [ [ [ -76.192786991050468, 36.5504730001281 ], [ -76.151730991512323, 36.550501000160139 ], [ -76.152838990979149, 36.548182999738124 ], [ -76.151313990877412, 36.546432999681024 ], [ -76.151718991139475, 36.54314699950389 ], [ -76.154505991096428, 36.539939999877902 ], [ -76.150063991188418, 36.537526999855608 ], [ -76.1474739916614, 36.53487299939448 ], [ -76.139899991264016, 36.535814999842898 ], [ -76.136941991204424, 36.532829999525717 ], [ -76.135903991119477, 36.532723999971857 ], [ -76.133929991525378, 36.533682000119022 ], [ -76.131559990697454, 36.537380000202695 ], [ -76.128638990907334, 36.53721699984807 ], [ -76.123737991355242, 36.534577999750532 ], [ -76.121746990560467, 36.532395000219203 ], [ -76.124929991288084, 36.528926999448487 ], [ -76.123829990556615, 36.527095000117043 ], [ -76.121622991122322, 36.526409999609477 ], [ -76.117785990878474, 36.52710599987563 ], [ -76.112595991600656, 36.531466000055033 ], [ -76.103970991536428, 36.53196500012146 ], [ -76.101900990959891, 36.529536999933072 ], [ -76.100585991639178, 36.525961000227447 ], [ -76.094123990744421, 36.52610299991715 ], [ -76.091891990874331, 36.524882999654828 ], [ -76.09180399143861, 36.522917999970815 ], [ -76.094711991525571, 36.518097999760862 ], [ -76.086870990753283, 36.512981999588249 ], [ -76.07623499092486, 36.5126439997887 ], [ -76.073303991421639, 36.509579999924675 ], [ -76.072326991110856, 36.503922999692996 ], [ -76.075502991493593, 36.503853999540937 ], [ -76.080848990887105, 36.500152999363671 ], [ -76.083087990734882, 36.5001529996646 ], [ -76.08385599128458, 36.496605999919232 ], [ -76.087778991588763, 36.49503699952767 ], [ -76.08696499087732, 36.491826000005844 ], [ -76.09033599088589, 36.492709999524891 ], [ -76.091607991099153, 36.49452799960364 ], [ -76.094132990766781, 36.493972999832536 ], [ -76.095183991206255, 36.491337000102583 ], [ -76.098814991269094, 36.491337999490213 ], [ -76.096522991191307, 36.488448999509203 ], [ -76.094349991254447, 36.488108999640211 ], [ -76.098321990851986, 36.483771000058063 ], [ -76.095132990897696, 36.481413999777018 ], [ -76.094811991410623, 36.479121000227508 ], [ -76.09802399158832, 36.4779029994776 ], [ -76.099819991569092, 36.479087999624809 ], [ -76.103398990937208, 36.478469999861055 ], [ -76.103584990653061, 36.475830000199785 ], [ -76.104826991640664, 36.475357999388088 ], [ -76.103852991302816, 36.474699999616277 ], [ -76.104638991496103, 36.473863999381422 ], [ -76.10379999142036, 36.473233000058663 ], [ -76.104427990775662, 36.4730039995761 ], [ -76.103826990981247, 36.47165800000527 ], [ -76.104614991446539, 36.471187999959717 ], [ -76.103884991277582, 36.470462999433039 ], [ -76.104728991193099, 36.470115999912359 ], [ -76.103968991374799, 36.469389999396149 ], [ -76.104161990589148, 36.467806999404019 ], [ -76.105411990893316, 36.46672699970798 ], [ -76.129837991213265, 36.479387999817959 ], [ -76.13807099098149, 36.491642999648015 ], [ -76.139672990649743, 36.496798999950663 ], [ -76.160916990800644, 36.509634000070953 ], [ -76.182930990778814, 36.528777999870776 ], [ -76.188976990620219, 36.545307000040275 ], [ -76.192786991050468, 36.5504730001281 ] ] ] } }
]
}
