{
"type": "FeatureCollection",
"name": "dare_county_sheriff_rep",
"crs": { "type": "name", "properties": { "name": "urn:ogc:def:crs:OGC:1.3:CRS84" } },
"features": [
{ "type": "Feature", "properties": { "county": "DARE", "precinct": "AVON", "enr_desc": "Avon", "winner": "Rodney Rawls", "winner_votes": 40, "winner_share": 34.188034188034187, "runner_up": "Teddy Daniels", "runner_up_votes": 33, "runner_up_share": 28.205128205128204, "contest_votes": 117, "margin_of_victory": 5.982905982905983, "is_tie": false, "results": [ { "candidate": "Rodney Rawls", "votes": 40, "share": 34.18803418803419 }, { "candidate": "Teddy Daniels", "votes": 33, "share": 28.205128205128204 }, { "candidate": "Jimmy Pierce", "votes": 32, "share": 27.350427350427353 }, { "candidate": "Jeff Deringer", "votes": 12, "share": 10.256410256410255 } ], "participated": true, "map_key": "DARE_AVON" }, "geometry": { "type": "Polygon", "coordinates": [ [ [ -75.588841991251172, 35.29056100002736 ], [ -75.598053991299679, 35.285373000011681 ], [ -75.602728990783859, 35.283783000186183 ], [ -75.662488991553289, 35.267448999874752 ], [ -75.680255991508233, 35.262496000118034 ], [ -75.763843991108672, 35.233885999862949 ], [ -75.768899991698319, 35.249538999838705 ], [ -75.814020991761936, 35.500181999785084 ], [ -75.8213349911004, 35.51060699990397 ], [ -75.511963991538309, 35.530693999907925 ], [ -75.511734990767977, 35.540343000025189 ], [ -75.467001991751147, 35.535829999369156 ], [ -75.407331991465412, 35.52823000010288 ], [ -75.415088991368791, 35.50017999971687 ], [ -75.418125990979348, 35.46571299988959 ], [ -75.421764991164679, 35.444851999698642 ], [ -75.423495991285819, 35.427651999448926 ], [ -75.423750990832133, 35.410626999436509 ], [ -75.426134991584377, 35.386922999357097 ], [ -75.438534991205756, 35.343837999872655 ], [ -75.446345991418596, 35.314676999670432 ], [ -75.446493991640423, 35.311089999330832 ], [ -75.447750991669736, 35.309793999905658 ], [ -75.454165991524917, 35.280214999840233 ], [ -75.45556099139371, 35.267794999796457 ], [ -75.519469991139985, 35.267834000092165 ], [ -75.520599991503914, 35.269661000195654 ], [ -75.521919991126055, 35.269707999655864 ], [ -75.57572999170408, 35.299170000036476 ], [ -75.588841991251172, 35.29056100002736 ] ] ] } },
{ "type": "Feature", "properties": { "county": "DARE", "precinct": "BUX", "enr_desc": "Buxton", "winner": "Rodney Rawls", "winner_votes": 57, "winner_share": 37.254901960784316, "runner_up": "Jimmy Pierce", "runner_up_votes": 56, "runner_up_share": 36.601307189542482, "contest_votes": 153, "margin_of_victory": 0.65359477124183485, "is_tie": false, "results": [ { "candidate": "Rodney Rawls", "votes": 57, "share": 37.254901960784316 }, { "candidate": "Jimmy Pierce", "votes": 56, "share": 36.60130718954248 }, { "candidate": "Jeff Deringer", "votes": 22, "share": 14.37908496732026 }, { "candidate": "Teddy Daniels", "votes": 18, "share": 11.76470588235294 } ], "participated": true, "map_key": "DARE_BUX" }, "geometry": { "type": "Polygon", "coordinates": [ [ [ -75.45556099139371, 35.267794999796457 ], [ -75.459333991394388, 35.246552000026632 ], [ -75.468163990748863, 35.219715999420728 ], [ -75.468476990731162, 35.215189999384052 ], [ -75.470858991013159, 35.208728000119891 ], [ -75.47459999110427, 35.202028999751811 ], [ -75.484570991239238, 35.187576999909957 ], [ -75.50132399121523, 35.176133999760189 ], [ -75.519212991718149, 35.169082999451874 ], [ -75.532175991320969, 35.167148999524741 ], [ -75.548002991612563, 35.168183999863693 ], [ -75.557583991348409, 35.17053499991404 ], [ -75.56932499155144, 35.175532999959316 ], [ -75.581107991667423, 35.183783999458797 ], [ -75.582592991598474, 35.184059999740342 ], [ -75.590219991206908, 35.183756999833605 ], [ -75.611366991735096, 35.179151999379556 ], [ -75.64041199096819, 35.224923999551699 ], [ -75.623242991565903, 35.229484999705569 ], [ -75.62630899077115, 35.232588999302031 ], [ -75.618922991547663, 35.236778999989113 ], [ -75.599936990970761, 35.242963000196013 ], [ -75.59852899112235, 35.244162999759844 ], [ -75.590292990876833, 35.24618799949382 ], [ -75.588133990709238, 35.243685999757375 ], [ -75.583340991041027, 35.244543999951802 ], [ -75.586603991337867, 35.259717999696534 ], [ -75.583185991053568, 35.260649999603856 ], [ -75.583428991218568, 35.261730999390664 ], [ -75.581793991636715, 35.262136999642685 ], [ -75.582065991398153, 35.263706000089599 ], [ -75.584367990700301, 35.263615999919814 ], [ -75.588060991688451, 35.265780999440956 ], [ -75.588841991251172, 35.29056100002736 ], [ -75.57572999170408, 35.299170000036476 ], [ -75.521919991126055, 35.269707999655864 ], [ -75.520599991503914, 35.269661000195654 ], [ -75.519469991139985, 35.267834000092165 ], [ -75.45556099139371, 35.267794999796457 ] ] ] } },
{ "type": "Feature", "properties": { "county": "DARE", "precinct": "KTHK", "enr_desc": "Kitty Hawk", "winner": "Rodney Rawls", "winner_votes": 223, "winner_share": 47.446808510638299, "runner_up": "Jimmy Pierce", "runner_up_votes": 139, "runner_up_share": 29.574468085106382, "contest_votes": 470, "margin_of_victory": 17.872340425531917, "is_tie": false, "results": [ { "candidate": "Rodney Rawls", "votes": 223, "share": 47.4468085106383 }, { "candidate": "Jimmy Pierce", "votes": 139, "share": 29.574468085106382 }, { "candidate": "Jeff Deringer", "votes": 66, "share": 14.042553191489363 }, { "candidate": "Teddy Daniels", "votes": 42, "share": 8.936170212765958 } ], "participated": true, "map_key": "DARE_KTHK" }, "geometry": { "type": "Polygon", "coordinates": [ [ [ -75.685545997652611, 36.054713999570652 ], [ -75.685778000261649, 36.054419000175137 ], [ -75.691754999668476, 36.052784000022527 ], [ -75.692116999694633, 36.052670000434247 ], [ -75.692618999921152, 36.052523000113574 ], [ -75.694163718730479, 36.051735124618865 ], [ -75.697448991004805, 36.04886199955795 ], [ -75.70352299142472, 36.046941999341001 ], [ -75.707944991429656, 36.047439999611882 ], [ -75.734230991304912, 36.035707000121405 ], [ -75.763426991267266, 36.025093999814374 ], [ -75.766058991103321, 36.035321999746266 ], [ -75.773634991542821, 36.050713999694452 ], [ -75.766279991113279, 36.056955999860214 ], [ -75.763353991402425, 36.065326999932324 ], [ -75.763668990974267, 36.075502999380916 ], [ -75.766725991164151, 36.086574999660684 ], [ -75.714434991626462, 36.100395999612893 ], [ -75.649512990667588, 36.118866000130502 ], [ -75.621460991632233, 36.070690000012057 ], [ -75.685545997652611, 36.054713999570652 ] ] ] } },
{ "type": "Feature", "properties": { "county": "DARE", "precinct": "CHCA", "enr_desc": "Chicamacomico", "winner": "Rodney Rawls", "winner_votes": 36, "winner_share": 40.0, "runner_up": "Jimmy Pierce", "runner_up_votes": 25, "runner_up_share": 27.777777777777779, "contest_votes": 90, "margin_of_victory": 12.222222222222221, "is_tie": false, "results": [ { "candidate": "Rodney Rawls", "votes": 36, "share": 40.0 }, { "candidate": "Jimmy Pierce", "votes": 25, "share": 27.77777777777778 }, { "candidate": "Teddy Daniels", "votes": 18, "share": 20.0 }, { "candidate": "Jeff Deringer", "votes": 11, "share": 12.222222222222221 } ], "participated": true, "map_key": "DARE_CHCA" }, "geometry": { "type": "Polygon", "coordinates": [ [ [ -75.737268990664234, 35.750172999370058 ], [ -75.623798990983204, 35.750176999630774 ], [ -75.621165991230527, 35.747214999514611 ], [ -75.557176991532856, 35.768239999388896 ], [ -75.544420990767307, 35.773235999563418 ], [ -75.5326249915597, 35.777031999319419 ], [ -75.527573991357343, 35.780685999615095 ], [ -75.471815991399296, 35.806984999467311 ], [ -75.466236991147071, 35.801314999364905 ], [ -75.461123990939555, 35.790171000003113 ], [ -75.46081499078602, 35.784523999321003 ], [ -75.451629990969309, 35.771556999896575 ], [ -75.437616991262885, 35.746959999950349 ], [ -75.417819991069891, 35.686081999430485 ], [ -75.411352991195329, 35.660061000061276 ], [ -75.406814991721845, 35.63697199992847 ], [ -75.400389991049508, 35.593511999932566 ], [ -75.400118991145703, 35.575410999585671 ], [ -75.40084899080199, 35.55871800011257 ], [ -75.402421990758754, 35.544210000089819 ], [ -75.407331991465412, 35.52823000010288 ], [ -75.467001991751147, 35.535829999369156 ], [ -75.511734990767977, 35.540343000025189 ], [ -75.511963991538309, 35.530693999907925 ], [ -75.8213349911004, 35.51060699990397 ], [ -75.868392990891152, 35.578104000025256 ], [ -75.87196899146204, 35.589024999779959 ], [ -75.8776879909569, 35.600125000009875 ], [ -75.879819991083323, 35.606855999366033 ], [ -75.87974599108172, 35.614095000026161 ], [ -75.876702991146587, 35.625176999638512 ], [ -75.87683299134541, 35.628117000172992 ], [ -75.879063991380505, 35.630992000205993 ], [ -75.882915990900599, 35.631833000141292 ], [ -75.883952990888446, 35.632783999661022 ], [ -75.88706999068512, 35.63832199973298 ], [ -75.889015991247703, 35.639881999935696 ], [ -75.889063991511279, 35.641939999906178 ], [ -75.89219099119174, 35.643757000143523 ], [ -75.891049991039267, 35.645645999661873 ], [ -75.891686991135401, 35.643779999755729 ], [ -75.888252990907219, 35.642470999381572 ], [ -75.888335990824899, 35.640206999655312 ], [ -75.885488991364795, 35.638248999398606 ], [ -75.884659991203691, 35.638408999462754 ], [ -75.884950991730904, 35.637170999692515 ], [ -75.882487991049814, 35.634471000115646 ], [ -75.882198990989295, 35.633117999661692 ], [ -75.88116899130145, 35.634180999749994 ], [ -75.879115990809623, 35.634569999453277 ], [ -75.873394990780241, 35.634258000145088 ], [ -75.871919991057709, 35.633576999383216 ], [ -75.870584991238459, 35.630885999411284 ], [ -75.868719991684387, 35.630186999408878 ], [ -75.868953991221488, 35.62862800004136 ], [ -75.867471991047537, 35.628027999336489 ], [ -75.865258991283469, 35.629195999536869 ], [ -75.864536991730162, 35.628562999780009 ], [ -75.863871991453294, 35.629568999870692 ], [ -75.857080991523659, 35.632255000043386 ], [ -75.862915991159042, 35.629311999807442 ], [ -75.863440991634633, 35.628878000030156 ], [ -75.862646990668949, 35.628745999366323 ], [ -75.864159991613789, 35.627706999464877 ], [ -75.865842991452539, 35.627843999925169 ], [ -75.86654899085552, 35.626869000049069 ], [ -75.867869990681427, 35.626830000053772 ], [ -75.863256991516238, 35.622798999509101 ], [ -75.871860991624516, 35.62801699993836 ], [ -75.870217991509122, 35.624301999871193 ], [ -75.869683990655815, 35.620981999812756 ], [ -75.870483991176854, 35.619942999582356 ], [ -75.869485991067336, 35.617630000080936 ], [ -75.872901991713775, 35.613494999922665 ], [ -75.87163999085034, 35.609341000086232 ], [ -75.86907399125775, 35.607198000050523 ], [ -75.867660991533498, 35.607132999970133 ], [ -75.866658990679426, 35.608617999958362 ], [ -75.86460099125064, 35.6097229997768 ], [ -75.863556990668712, 35.609471000137475 ], [ -75.863456990832262, 35.610069999484459 ], [ -75.863018990691629, 35.609509999816346 ], [ -75.863038991498101, 35.608849999417153 ], [ -75.860305991189051, 35.608643000040367 ], [ -75.860426990703587, 35.608488999383503 ], [ -75.860621991234581, 35.608423000150687 ], [ -75.861685991543567, 35.608663999501488 ], [ -75.861037991200689, 35.607010000198343 ], [ -75.863899990747115, 35.608168000008298 ], [ -75.86500799098701, 35.605067999740548 ], [ -75.866655991288852, 35.603517000213039 ], [ -75.866305991710618, 35.604401999604455 ], [ -75.868782991011798, 35.604548999469394 ], [ -75.8681369908345, 35.605109999483012 ], [ -75.869717991297435, 35.604302000099295 ], [ -75.869226991140366, 35.603773999694504 ], [ -75.868116990885483, 35.604329999571206 ], [ -75.867058990836682, 35.603082999648549 ], [ -75.865295990841076, 35.603331000097725 ], [ -75.861423991565374, 35.600380999958773 ], [ -75.857026990868931, 35.5954310000456 ], [ -75.857613991329217, 35.587208999370631 ], [ -75.855277991416415, 35.584730999430803 ], [ -75.852666991121552, 35.583775999936968 ], [ -75.850359991310981, 35.585183999494923 ], [ -75.838470991135708, 35.586462000094755 ], [ -75.8354369912701, 35.587600999856406 ], [ -75.833909991099773, 35.589969999727018 ], [ -75.828318990703522, 35.5931590001179 ], [ -75.825485991014233, 35.593049000127643 ], [ -75.822221991242259, 35.590356999797265 ], [ -75.819490991001544, 35.590429000140233 ], [ -75.817714991456526, 35.593605999425463 ], [ -75.818151991718636, 35.599030000011403 ], [ -75.819538990946484, 35.601255999443573 ], [ -75.819155991063894, 35.602651999328877 ], [ -75.816739990731676, 35.604075999435544 ], [ -75.81661899099123, 35.603542999712467 ], [ -75.818885991147852, 35.602629999924424 ], [ -75.819276991261773, 35.601189999464879 ], [ -75.817095990912378, 35.597342999480205 ], [ -75.817196991013475, 35.595462999998119 ], [ -75.813669991492517, 35.591907999674831 ], [ -75.812094991440034, 35.585916999818124 ], [ -75.811482991426715, 35.585839999761234 ], [ -75.811852990943123, 35.584311999843585 ], [ -75.81962999117566, 35.580277000039146 ], [ -75.825382990734155, 35.580627999890304 ], [ -75.823982991094056, 35.577522999788194 ], [ -75.825993990980834, 35.574680999599863 ], [ -75.832909990925842, 35.574059000017513 ], [ -75.837327991298508, 35.570545999693174 ], [ -75.823019991574085, 35.570289999434138 ], [ -75.815612991149862, 35.572181999662142 ], [ -75.800852991621213, 35.573368999741682 ], [ -75.791164991732217, 35.575318999384002 ], [ -75.787087991586503, 35.575136999518328 ], [ -75.786320991729767, 35.576180999364276 ], [ -75.789059990702086, 35.575539000087879 ], [ -75.786549990864685, 35.576544000019133 ], [ -75.778664990879278, 35.577476999375449 ], [ -75.778414991538625, 35.579295999415109 ], [ -75.775897991395482, 35.581124999907814 ], [ -75.779623991449895, 35.583830999756657 ], [ -75.783114991468608, 35.588019000053379 ], [ -75.784170991274522, 35.590437999941159 ], [ -75.78453999135634, 35.594686999868181 ], [ -75.78398099068896, 35.59580199957297 ], [ -75.782358991302118, 35.596510999741859 ], [ -75.780661991307184, 35.598660000048788 ], [ -75.776932991240429, 35.60007699946145 ], [ -75.76977999155055, 35.599278000136771 ], [ -75.768204990994789, 35.600249999969115 ], [ -75.766306991556334, 35.600248999996531 ], [ -75.763329990968117, 35.603781999624708 ], [ -75.758765991614752, 35.605747999619751 ], [ -75.748866991555005, 35.606780000209362 ], [ -75.749480991386505, 35.609929999395895 ], [ -75.748952991259131, 35.614245000001922 ], [ -75.744082991070826, 35.620354999433331 ], [ -75.737273991171776, 35.624291999407284 ], [ -75.729257991727877, 35.626569999961447 ], [ -75.733211991026465, 35.630733999990561 ], [ -75.737309990770029, 35.638262000177043 ], [ -75.73775599098839, 35.639943999977461 ], [ -75.737035991265017, 35.641423000030699 ], [ -75.737804991045167, 35.64403299959416 ], [ -75.741626990809678, 35.648890999652245 ], [ -75.741997990972408, 35.650770000077536 ], [ -75.746629990988851, 35.648854999559951 ], [ -75.753079991412775, 35.650071000212648 ], [ -75.761063991147068, 35.655519999463209 ], [ -75.767603991703936, 35.664514999682325 ], [ -75.769002991153883, 35.669119999397346 ], [ -75.768205991608198, 35.672550999940874 ], [ -75.766992991088429, 35.673230999805789 ], [ -75.765455991640266, 35.676067000120483 ], [ -75.760867991003522, 35.677538999315431 ], [ -75.761809991343753, 35.678176000083539 ], [ -75.765198991451584, 35.677902000173937 ], [ -75.77315999075212, 35.680475999958865 ], [ -75.778412991712813, 35.683420000101094 ], [ -75.779954990769937, 35.686292999729652 ], [ -75.777263991661968, 35.693080999491521 ], [ -75.775156990949426, 35.695597000177948 ], [ -75.773360991556046, 35.69583899933027 ], [ -75.773529990693106, 35.696718999503801 ], [ -75.774750991557326, 35.695933999357671 ], [ -75.772106991258752, 35.699180999980861 ], [ -75.771574991351443, 35.698445000050924 ], [ -75.772565990674238, 35.697432999717932 ], [ -75.771488991578721, 35.696068999828256 ], [ -75.769397990858849, 35.699937000124677 ], [ -75.768985991256628, 35.703284999847277 ], [ -75.767494991571638, 35.705642999660839 ], [ -75.76595799170714, 35.706432999403617 ], [ -75.758282991010859, 35.706078999580242 ], [ -75.752359991586488, 35.70469099976026 ], [ -75.741189991045729, 35.69848199958389 ], [ -75.738984990899112, 35.69642299995018 ], [ -75.736927991508225, 35.692752999391438 ], [ -75.738438990852757, 35.686047000000627 ], [ -75.740970991628316, 35.683163999806503 ], [ -75.739021991328897, 35.681802999700729 ], [ -75.731860990999849, 35.681348999849092 ], [ -75.727644991058327, 35.683203000065539 ], [ -75.721549991696619, 35.688394999995502 ], [ -75.720445991247303, 35.690289999784014 ], [ -75.715320991637995, 35.693183999407594 ], [ -75.716056991249957, 35.696627999788312 ], [ -75.714648991550746, 35.69892199980788 ], [ -75.714759990824746, 35.706967999737422 ], [ -75.716788990687675, 35.711258999997142 ], [ -75.721361991325878, 35.716742999738578 ], [ -75.720986990843841, 35.722994000007105 ], [ -75.723232990665366, 35.726004999395919 ], [ -75.724961991726374, 35.731207999808696 ], [ -75.724470991492865, 35.73535199995645 ], [ -75.722947991137332, 35.736787999993787 ], [ -75.722962991454395, 35.739040999449344 ], [ -75.732533991571728, 35.746714999912939 ], [ -75.736526991545418, 35.748839999841074 ], [ -75.737268990664234, 35.750172999370058 ] ] ] } },
{ "type": "Feature", "properties": { "county": "DARE", "precinct": "COL", "enr_desc": "Colington", "winner": "Rodney Rawls", "winner_votes": 178, "winner_share": 46.354166666666671, "runner_up": "Jimmy Pierce", "runner_up_votes": 121, "runner_up_share": 31.510416666666668, "contest_votes": 384, "margin_of_victory": 14.84375, "is_tie": false, "results": [ { "candidate": "Rodney Rawls", "votes": 178, "share": 46.35416666666667 }, { "candidate": "Jimmy Pierce", "votes": 121, "share": 31.510416666666668 }, { "candidate": "Teddy Daniels", "votes": 47, "share": 12.239583333333332 }, { "candidate": "Jeff Deringer", "votes": 38, "share": 9.895833333333332 } ], "participated": true, "map_key": "DARE_COL" }, "geometry": { "type": "Polygon", "coordinates": [ [ [ -75.694163718730479, 36.051735124618865 ], [ -75.692618999921152, 36.052523000113574 ], [ -75.69254999408156, 36.052405000177508 ], [ -75.692231991521609, 36.051509999847468 ], [ -75.690525990725405, 36.047574999330166 ], [ -75.690904990898801, 36.045360000195437 ], [ -75.687588991133751, 36.038885999557195 ], [ -75.688020991347429, 36.037995999483648 ], [ -75.687310991402441, 36.037659999756393 ], [ -75.686410991375993, 36.033526999322426 ], [ -75.685172991354406, 36.03151599959893 ], [ -75.685246991634244, 36.029723999424206 ], [ -75.684211991498827, 36.028630999908806 ], [ -75.684826991401295, 36.027652000072322 ], [ -75.683683990936345, 36.027684999540206 ], [ -75.683872991622849, 36.026349999651416 ], [ -75.684833991664178, 36.025981999485886 ], [ -75.684251990697902, 36.025101999520842 ], [ -75.684705991527409, 36.023370999537633 ], [ -75.681187990880233, 36.01989799946962 ], [ -75.680355991479146, 36.016016999838492 ], [ -75.678747991007768, 36.016439999594347 ], [ -75.674395991429265, 36.007833000152281 ], [ -75.682981991453758, 36.004832999616639 ], [ -75.683231991640852, 35.995557999701795 ], [ -75.683219991091491, 35.992175999698269 ], [ -75.674471990983534, 35.983237999305217 ], [ -75.691453991394425, 35.978908000137672 ], [ -75.758738991578326, 35.961433999755869 ], [ -75.761827990737046, 35.990735999603473 ], [ -75.762313990926287, 36.018104999587351 ], [ -75.763426991267266, 36.025093999814374 ], [ -75.734230991304912, 36.035707000121405 ], [ -75.707944991429656, 36.047439999611882 ], [ -75.70352299142472, 36.046941999341001 ], [ -75.697448991004805, 36.04886199955795 ], [ -75.694163718730479, 36.051735124618865 ] ] ] } },
{ "type": "Feature", "properties": { "county": "DARE", "precinct": "DUCK", "enr_desc": "Duck", "winner": "Rodney Rawls", "winner_votes": 35, "winner_share": 31.531531531531531, "runner_up": "Jimmy Pierce", "runner_up_votes": 30, "runner_up_share": 27.027027027027028, "contest_votes": 111, "margin_of_victory": 4.5045045045045029, "is_tie": false, "results": [ { "candidate": "Rodney Rawls", "votes": 35, "share": 31.53153153153153 }, { "candidate": "Jimmy Pierce", "votes": 30, "share": 27.027027027027028 }, { "candidate": "Jeff Deringer", "votes": 27, "share": 24.324324324324326 }, { "candidate": "Teddy Daniels", "votes": 19, "share": 17.117117117117118 } ], "participated": true, "map_key": "DARE_DUCK" }, "geometry": { "type": "Polygon", "coordinates": [ [ [ -75.779792991286399, 36.143720999720067 ], [ -75.78607199083892, 36.149849999598054 ], [ -75.789370990767594, 36.154763999740339 ], [ -75.790399991411249, 36.159600999886486 ], [ -75.788804990650576, 36.169179999900948 ], [ -75.789136991687769, 36.172042999542477 ], [ -75.798677990590846, 36.182528999728298 ], [ -75.801871991630421, 36.188448999987536 ], [ -75.801796990576378, 36.191877999992457 ], [ -75.79883899088955, 36.199164999565994 ], [ -75.799429991227967, 36.202217999993465 ], [ -75.803879991334938, 36.210455999468977 ], [ -75.813107991060832, 36.223559999743756 ], [ -75.709077991552675, 36.244983999502637 ], [ -75.673064991488246, 36.162408999925475 ], [ -75.733288990857787, 36.150990999954047 ], [ -75.7487619911183, 36.151146999567608 ], [ -75.779792991286399, 36.143720999720067 ] ] ] } },
{ "type": "Feature", "properties": { "county": "DARE", "precinct": "EL", "enr_desc": "East Lake", "winner": "Jimmy Pierce", "winner_votes": 15, "winner_share": 51.724137931034484, "runner_up": "Jeff Deringer", "runner_up_votes": 8, "runner_up_share": 27.586206896551722, "contest_votes": 29, "margin_of_victory": 24.137931034482762, "is_tie": false, "results": [ { "candidate": "Jimmy Pierce", "votes": 15, "share": 51.724137931034484 }, { "candidate": "Jeff Deringer", "votes": 8, "share": 27.586206896551722 }, { "candidate": "Rodney Rawls", "votes": 6, "share": 20.689655172413794 }, { "candidate": "Teddy Daniels", "votes": 0, "share": 0.0 } ], "participated": true, "map_key": "DARE_EL" }, "geometry": { "type": "Polygon", "coordinates": [ [ [ -75.901341990700459, 35.668951999640377 ], [ -76.027478991447055, 35.66884899938438 ], [ -76.021398990952321, 35.682644999865154 ], [ -76.020501991422805, 35.687349999827958 ], [ -76.022572991178706, 35.699926999720482 ], [ -76.027414990923162, 35.71889399997179 ], [ -76.026297991633456, 35.72761199998839 ], [ -76.022077990650715, 35.740144999720094 ], [ -76.019275991127927, 35.752762999355227 ], [ -76.022389991233837, 35.810659999538352 ], [ -76.021662990870396, 35.831843000002316 ], [ -76.017693991614152, 35.865355999537648 ], [ -76.009880991488444, 35.892855000102074 ], [ -76.008347991025616, 35.895801999626634 ], [ -75.992283990968701, 35.909854999505612 ], [ -75.987465991606513, 35.916452999965145 ], [ -75.985773991116929, 35.922018999351053 ], [ -75.980720991315494, 35.959652999391771 ], [ -75.973151990887203, 35.976642999611812 ], [ -75.965581990687895, 35.983411999907538 ], [ -75.954373990970467, 35.990064000171522 ], [ -75.934691991171647, 35.996831999380689 ], [ -75.92750699126988, 36.000158999949825 ], [ -75.881243990849342, 36.015827999583053 ], [ -75.87570799078587, 35.999503000021413 ], [ -75.870532991314704, 35.987724999650069 ], [ -75.861179991349942, 35.972579999485319 ], [ -75.86091699136918, 35.967982999997325 ], [ -75.863176990970402, 35.959118999378532 ], [ -75.867332991224117, 35.953503999669728 ], [ -75.871257991085258, 35.950929999387739 ], [ -75.879770991020763, 35.949877999887967 ], [ -75.884900990762176, 35.948021000131142 ], [ -75.886490990809165, 35.945988999482054 ], [ -75.886426990659785, 35.943485999951484 ], [ -75.884181990722084, 35.940422999724667 ], [ -75.879069991411043, 35.937631999736247 ], [ -75.866248991617397, 35.934203999887274 ], [ -75.859267991227256, 35.933481999957358 ], [ -75.84585799126873, 35.934258999499036 ], [ -75.824254990852737, 35.928393999904237 ], [ -75.818060991086199, 35.926259999840447 ], [ -75.811369990736765, 35.922532000208584 ], [ -75.830456990849044, 35.866535999970523 ], [ -75.901341990700459, 35.668951999640377 ] ] ] } },
{ "type": "Feature", "properties": { "county": "DARE", "precinct": "FRCO", "enr_desc": "Frisco", "winner": "Rodney Rawls", "winner_votes": 40, "winner_share": 41.666666666666671, "runner_up": "Jimmy Pierce", "runner_up_votes": 24, "runner_up_share": 25.0, "contest_votes": 96, "margin_of_victory": 16.666666666666671, "is_tie": false, "results": [ { "candidate": "Rodney Rawls", "votes": 40, "share": 41.66666666666667 }, { "candidate": "Jimmy Pierce", "votes": 24, "share": 25.0 }, { "candidate": "Jeff Deringer", "votes": 17, "share": 17.708333333333336 }, { "candidate": "Teddy Daniels", "votes": 15, "share": 15.625 } ], "participated": true, "map_key": "DARE_FRCO" }, "geometry": { "type": "Polygon", "coordinates": [ [ [ -75.64041199096819, 35.224923999551699 ], [ -75.641732991460088, 35.224595999435024 ], [ -75.643474991738231, 35.228557999712855 ], [ -75.642536990746507, 35.228624999860102 ], [ -75.662488991553289, 35.267448999874752 ], [ -75.602728990783859, 35.283783000186183 ], [ -75.598053991299679, 35.285373000011681 ], [ -75.588841991251172, 35.29056100002736 ], [ -75.588060991688451, 35.265780999440956 ], [ -75.584367990700301, 35.263615999919814 ], [ -75.582065991398153, 35.263706000089599 ], [ -75.581793991636715, 35.262136999642685 ], [ -75.583428991218568, 35.261730999390664 ], [ -75.583185991053568, 35.260649999603856 ], [ -75.586603991337867, 35.259717999696534 ], [ -75.583340991041027, 35.244543999951802 ], [ -75.588133990709238, 35.243685999757375 ], [ -75.590292990876833, 35.24618799949382 ], [ -75.59852899112235, 35.244162999759844 ], [ -75.599936990970761, 35.242963000196013 ], [ -75.618922991547663, 35.236778999989113 ], [ -75.62630899077115, 35.232588999302031 ], [ -75.623242991565903, 35.229484999705569 ], [ -75.64041199096819, 35.224923999551699 ] ] ] } },
{ "type": "Feature", "properties": { "county": "DARE", "precinct": "HAT", "enr_desc": "Hatteras", "winner": "Rodney Rawls", "winner_votes": 69, "winner_share": 59.482758620689658, "runner_up": "Jimmy Pierce", "runner_up_votes": 32, "runner_up_share": 27.586206896551722, "contest_votes": 116, "margin_of_victory": 31.896551724137936, "is_tie": false, "results": [ { "candidate": "Rodney Rawls", "votes": 69, "share": 59.48275862068966 }, { "candidate": "Jimmy Pierce", "votes": 32, "share": 27.586206896551722 }, { "candidate": "Teddy Daniels", "votes": 11, "share": 9.482758620689655 }, { "candidate": "Jeff Deringer", "votes": 4, "share": 3.4482758620689653 } ], "participated": true, "map_key": "DARE_HAT" }, "geometry": { "type": "Polygon", "coordinates": [ [ [ -75.611366991735096, 35.179151999379556 ], [ -75.624599991574129, 35.175824000093598 ], [ -75.672378990904832, 35.160210000129453 ], [ -75.707369991083098, 35.146110999557891 ], [ -75.728898990821222, 35.141100000102618 ], [ -75.736619991680058, 35.140565000013673 ], [ -75.763843991108672, 35.233885999862949 ], [ -75.680255991508233, 35.262496000118034 ], [ -75.662488991553289, 35.267448999874752 ], [ -75.642536990746507, 35.228624999860102 ], [ -75.643474991738231, 35.228557999712855 ], [ -75.641732991460088, 35.224595999435024 ], [ -75.64041199096819, 35.224923999551699 ], [ -75.611366991735096, 35.179151999379556 ] ] ] } },
{ "type": "Feature", "properties": { "county": "DARE", "precinct": "KDH", "enr_desc": "Kill Devil Hills", "winner": "Rodney Rawls", "winner_votes": 295, "winner_share": 51.66374781085814, "runner_up": "Jimmy Pierce", "runner_up_votes": 158, "runner_up_share": 27.670753064798596, "contest_votes": 571, "margin_of_victory": 23.992994746059544, "is_tie": false, "results": [ { "candidate": "Rodney Rawls", "votes": 295, "share": 51.66374781085814 }, { "candidate": "Jimmy Pierce", "votes": 158, "share": 27.670753064798596 }, { "candidate": "Teddy Daniels", "votes": 71, "share": 12.43432574430823 }, { "candidate": "Jeff Deringer", "votes": 47, "share": 8.231173380035026 } ], "participated": true, "map_key": "DARE_KDH" }, "geometry": { "type": "Polygon", "coordinates": [ [ [ -75.621460991632233, 36.070690000012057 ], [ -75.586163990877495, 36.008226000081287 ], [ -75.643976990813954, 35.994945999859581 ], [ -75.674471990983534, 35.983237999305217 ], [ -75.683219991091491, 35.992175999698269 ], [ -75.683231991640852, 35.995557999701795 ], [ -75.682981991453758, 36.004832999616639 ], [ -75.674395991429265, 36.007833000152281 ], [ -75.678747991007768, 36.016439999594347 ], [ -75.680355991479146, 36.016016999838492 ], [ -75.681187990880233, 36.01989799946962 ], [ -75.684705991527409, 36.023370999537633 ], [ -75.684251990697902, 36.025101999520842 ], [ -75.684833991664178, 36.025981999485886 ], [ -75.683872991622849, 36.026349999651416 ], [ -75.683683990936345, 36.027684999540206 ], [ -75.684826991401295, 36.027652000072322 ], [ -75.684211991498827, 36.028630999908806 ], [ -75.685246991634244, 36.029723999424206 ], [ -75.685172991354406, 36.03151599959893 ], [ -75.686410991375993, 36.033526999322426 ], [ -75.687310991402441, 36.037659999756393 ], [ -75.688020991347429, 36.037995999483648 ], [ -75.687588991133751, 36.038885999557195 ], [ -75.690904990898801, 36.045360000195437 ], [ -75.690525990725405, 36.047574999330166 ], [ -75.692231991521609, 36.051509999847468 ], [ -75.69254999408156, 36.052405000177508 ], [ -75.692618999921152, 36.052523000113574 ], [ -75.692116999694633, 36.052670000434247 ], [ -75.691754999668476, 36.052784000022527 ], [ -75.685778000261649, 36.054419000175137 ], [ -75.685545997652611, 36.054713999570652 ], [ -75.621460991632233, 36.070690000012057 ] ] ] } },
{ "type": "Feature", "properties": { "county": "DARE", "precinct": "MATO", "enr_desc": "Manteo", "winner": "Jimmy Pierce", "winner_votes": 212, "winner_share": 38.405797101449274, "runner_up": "Rodney Rawls", "runner_up_votes": 202, "runner_up_share": 36.594202898550726, "contest_votes": 552, "margin_of_victory": 1.8115942028985472, "is_tie": false, "results": [ { "candidate": "Jimmy Pierce", "votes": 212, "share": 38.405797101449274 }, { "candidate": "Rodney Rawls", "votes": 202, "share": 36.594202898550726 }, { "candidate": "Jeff Deringer", "votes": 73, "share": 13.22463768115942 }, { "candidate": "Teddy Daniels", "votes": 65, "share": 11.77536231884058 } ], "participated": true, "map_key": "DARE_MATO" }, "geometry": { "type": "Polygon", "coordinates": [ [ [ -75.701735991102353, 35.845838999933655 ], [ -75.747412990962346, 35.916907999817973 ], [ -75.750831991654195, 35.926250999978549 ], [ -75.753790991205975, 35.937824999927372 ], [ -75.758738991578326, 35.961433999755869 ], [ -75.691453991394425, 35.978908000137672 ], [ -75.683506990893946, 35.9626799998709 ], [ -75.662263990675299, 35.942144999497422 ], [ -75.64142699156865, 35.926855000173035 ], [ -75.632672991355363, 35.916136999385444 ], [ -75.628031991220141, 35.906798999899124 ], [ -75.619653991345032, 35.885475999456169 ], [ -75.603370990611396, 35.852147000183201 ], [ -75.618995990674279, 35.848294000150908 ], [ -75.624477990912723, 35.853159000064359 ], [ -75.635066991549039, 35.860339000016587 ], [ -75.656826991128298, 35.854193000120397 ], [ -75.660013991164405, 35.854511999674216 ], [ -75.701735991102353, 35.845838999933655 ] ] ] } },
{ "type": "Feature", "properties": { "county": "DARE", "precinct": "MH", "enr_desc": "Manns Harbor", "winner": "Jimmy Pierce", "winner_votes": 46, "winner_share": 37.704918032786885, "runner_up": "Rodney Rawls", "runner_up_votes": 37, "runner_up_share": 30.327868852459016, "contest_votes": 122, "margin_of_victory": 7.3770491803278695, "is_tie": false, "results": [ { "candidate": "Jimmy Pierce", "votes": 46, "share": 37.704918032786885 }, { "candidate": "Rodney Rawls", "votes": 37, "share": 30.327868852459016 }, { "candidate": "Jeff Deringer", "votes": 35, "share": 28.688524590163933 }, { "candidate": "Teddy Daniels", "votes": 4, "share": 3.278688524590164 } ], "participated": true, "map_key": "DARE_MH" }, "geometry": { "type": "Polygon", "coordinates": [ [ [ -75.623798990983204, 35.750176999630774 ], [ -75.737268990664234, 35.750172999370058 ], [ -75.737517991318398, 35.752323999441167 ], [ -75.73310099077851, 35.760365999847011 ], [ -75.734369991251285, 35.764108999711098 ], [ -75.739642990799652, 35.769772999619342 ], [ -75.746646991439135, 35.768827999795889 ], [ -75.769160990810818, 35.769337999408002 ], [ -75.769940991249683, 35.787645999838901 ], [ -75.810299990629133, 35.83203299991979 ], [ -75.811241990818388, 35.842014999956646 ], [ -75.784814990736749, 35.871244999521309 ], [ -75.830456990849044, 35.866535999970523 ], [ -75.811369990736765, 35.922532000208584 ], [ -75.818060991086199, 35.926259999840447 ], [ -75.824254990852737, 35.928393999904237 ], [ -75.84585799126873, 35.934258999499036 ], [ -75.859267991227256, 35.933481999957358 ], [ -75.866248991617397, 35.934203999887274 ], [ -75.879069991411043, 35.937631999736247 ], [ -75.884181990722084, 35.940422999724667 ], [ -75.886426990659785, 35.943485999951484 ], [ -75.886490990809165, 35.945988999482054 ], [ -75.884900990762176, 35.948021000131142 ], [ -75.879770991020763, 35.949877999887967 ], [ -75.871257991085258, 35.950929999387739 ], [ -75.867332991224117, 35.953503999669728 ], [ -75.863176990970402, 35.959118999378532 ], [ -75.86091699136918, 35.967982999997325 ], [ -75.861179991349942, 35.972579999485319 ], [ -75.870532991314704, 35.987724999650069 ], [ -75.87570799078587, 35.999503000021413 ], [ -75.881243990849342, 36.015827999583053 ], [ -75.781918991261989, 36.046981999676994 ], [ -75.773634991542821, 36.050713999694452 ], [ -75.766058991103321, 36.035321999746266 ], [ -75.763426991267266, 36.025093999814374 ], [ -75.762313990926287, 36.018104999587351 ], [ -75.761827990737046, 35.990735999603473 ], [ -75.758738991578326, 35.961433999755869 ], [ -75.753790991205975, 35.937824999927372 ], [ -75.750831991654195, 35.926250999978549 ], [ -75.747412990962346, 35.916907999817973 ], [ -75.701735991102353, 35.845838999933655 ], [ -75.684799991535556, 35.818682999964047 ], [ -75.623798990983204, 35.750176999630774 ] ] ] } },
{ "type": "Feature", "properties": { "county": "DARE", "precinct": "WAN", "enr_desc": "Wanchese", "winner": "Jimmy Pierce", "winner_votes": 119, "winner_share": 46.8503937007874, "runner_up": "Rodney Rawls", "runner_up_votes": 87, "runner_up_share": 34.251968503937007, "contest_votes": 254, "margin_of_victory": 12.598425196850393, "is_tie": false, "results": [ { "candidate": "Jimmy Pierce", "votes": 119, "share": 46.8503937007874 }, { "candidate": "Rodney Rawls", "votes": 87, "share": 34.25196850393701 }, { "candidate": "Jeff Deringer", "votes": 34, "share": 13.385826771653544 }, { "candidate": "Teddy Daniels", "votes": 14, "share": 5.511811023622047 } ], "participated": true, "map_key": "DARE_WAN" }, "geometry": { "type": "Polygon", "coordinates": [ [ [ -75.544420990767307, 35.773235999563418 ], [ -75.557176991532856, 35.768239999388896 ], [ -75.621165991230527, 35.747214999514611 ], [ -75.623798990983204, 35.750176999630774 ], [ -75.684799991535556, 35.818682999964047 ], [ -75.701735991102353, 35.845838999933655 ], [ -75.660013991164405, 35.854511999674216 ], [ -75.656826991128298, 35.854193000120397 ], [ -75.635066991549039, 35.860339000016587 ], [ -75.624477990912723, 35.853159000064359 ], [ -75.618995990674279, 35.848294000150908 ], [ -75.603370990611396, 35.852147000183201 ], [ -75.599743991222169, 35.844717999346166 ], [ -75.544420990767307, 35.773235999563418 ] ] ] } },
{ "type": "Feature", "properties": { "county": "DARE", "precinct": "NGHD", "enr_desc": "Nags Head", "winner": "Jimmy Pierce", "winner_votes": 171, "winner_share": 47.368421052631575, "runner_up": "Rodney Rawls", "runner_up_votes": 124, "runner_up_share": 34.34903047091413, "contest_votes": 361, "margin_of_victory": 13.019390581717445, "is_tie": false, "results": [ { "candidate": "Jimmy Pierce", "votes": 171, "share": 47.368421052631575 }, { "candidate": "Rodney Rawls", "votes": 124, "share": 34.34903047091413 }, { "candidate": "Jeff Deringer", "votes": 33, "share": 9.141274238227147 }, { "candidate": "Teddy Daniels", "votes": 33, "share": 9.141274238227147 } ], "participated": true, "map_key": "DARE_NGHD" }, "geometry": { "type": "Polygon", "coordinates": [ [ [ -75.544420990767307, 35.773235999563418 ], [ -75.599743991222169, 35.844717999346166 ], [ -75.603370990611396, 35.852147000183201 ], [ -75.619653991345032, 35.885475999456169 ], [ -75.628031991220141, 35.906798999899124 ], [ -75.632672991355363, 35.916136999385444 ], [ -75.64142699156865, 35.926855000173035 ], [ -75.662263990675299, 35.942144999497422 ], [ -75.683506990893946, 35.9626799998709 ], [ -75.691453991394425, 35.978908000137672 ], [ -75.674471990983534, 35.983237999305217 ], [ -75.643976990813954, 35.994945999859581 ], [ -75.586163990877495, 36.008226000081287 ], [ -75.566046990669264, 35.975614000166381 ], [ -75.511513990663119, 35.875174999668829 ], [ -75.480500990947661, 35.814207000126693 ], [ -75.471815991399296, 35.806984999467311 ], [ -75.527573991357343, 35.780685999615095 ], [ -75.5326249915597, 35.777031999319419 ], [ -75.544420990767307, 35.773235999563418 ] ] ] } },
{ "type": "Feature", "properties": { "county": "DARE", "precinct": "SOSH", "enr_desc": "Southern Shores", "winner": "Jimmy Pierce", "winner_votes": 196, "winner_share": 40.918580375782881, "runner_up": "Rodney Rawls", "runner_up_votes": 156, "runner_up_share": 32.567849686847602, "contest_votes": 479, "margin_of_victory": 8.350730688935279, "is_tie": false, "results": [ { "candidate": "Jimmy Pierce", "votes": 196, "share": 40.91858037578288 }, { "candidate": "Rodney Rawls", "votes": 156, "share": 32.5678496868476 }, { "candidate": "Jeff Deringer", "votes": 78, "share": 16.2839248434238 }, { "candidate": "Teddy Daniels", "votes": 49, "share": 10.22964509394572 } ], "participated": true, "map_key": "DARE_SOSH" }, "geometry": { "type": "Polygon", "coordinates": [ [ [ -75.766725991164151, 36.086574999660684 ], [ -75.774592991678674, 36.10505499987454 ], [ -75.774936991494513, 36.110235999498002 ], [ -75.773805991144343, 36.115049999641514 ], [ -75.775554990793623, 36.122753000075249 ], [ -75.776022991150555, 36.13288299992017 ], [ -75.777300990769746, 36.138482999425669 ], [ -75.779792991286399, 36.143720999720067 ], [ -75.7487619911183, 36.151146999567608 ], [ -75.733288990857787, 36.150990999954047 ], [ -75.673064991488246, 36.162408999925475 ], [ -75.649512990667588, 36.118866000130502 ], [ -75.714434991626462, 36.100395999612893 ], [ -75.766725991164151, 36.086574999660684 ] ] ] } },
{ "type": "Feature", "properties": { "county": "DARE", "precinct": "STPT", "enr_desc": "Stumpy Point", "winner": "Jimmy Pierce", "winner_votes": 21, "winner_share": 50.0, "runner_up": "Rodney Rawls", "runner_up_votes": 15, "runner_up_share": 35.714285714285715, "contest_votes": 42, "margin_of_victory": 14.285714285714285, "is_tie": false, "results": [ { "candidate": "Jimmy Pierce", "votes": 21, "share": 50.0 }, { "candidate": "Rodney Rawls", "votes": 15, "share": 35.714285714285715 }, { "candidate": "Jeff Deringer", "votes": 5, "share": 11.904761904761903 }, { "candidate": "Teddy Daniels", "votes": 1, "share": 2.380952380952381 } ], "participated": true, "map_key": "DARE_STPT" }, "geometry": { "type": "Polygon", "coordinates": [ [ [ -75.891049991039267, 35.645645999661873 ], [ -75.890078991379497, 35.647318999589309 ], [ -75.890495991419783, 35.652258999857501 ], [ -75.898013991626613, 35.660417000066246 ], [ -75.90142099169384, 35.666885999491356 ], [ -75.901341990700459, 35.668951999640377 ], [ -75.830456990849044, 35.866535999970523 ], [ -75.784814990736749, 35.871244999521309 ], [ -75.811241990818388, 35.842014999956646 ], [ -75.810299990629133, 35.83203299991979 ], [ -75.769940991249683, 35.787645999838901 ], [ -75.769160990810818, 35.769337999408002 ], [ -75.746646991439135, 35.768827999795889 ], [ -75.739642990799652, 35.769772999619342 ], [ -75.734369991251285, 35.764108999711098 ], [ -75.73310099077851, 35.760365999847011 ], [ -75.737517991318398, 35.752323999441167 ], [ -75.737268990664234, 35.750172999370058 ], [ -75.736526991545418, 35.748839999841074 ], [ -75.732533991571728, 35.746714999912939 ], [ -75.722962991454395, 35.739040999449344 ], [ -75.722947991137332, 35.736787999993787 ], [ -75.724470991492865, 35.73535199995645 ], [ -75.724961991726374, 35.731207999808696 ], [ -75.723232990665366, 35.726004999395919 ], [ -75.720986990843841, 35.722994000007105 ], [ -75.721361991325878, 35.716742999738578 ], [ -75.716788990687675, 35.711258999997142 ], [ -75.714759990824746, 35.706967999737422 ], [ -75.714648991550746, 35.69892199980788 ], [ -75.716056991249957, 35.696627999788312 ], [ -75.715320991637995, 35.693183999407594 ], [ -75.720445991247303, 35.690289999784014 ], [ -75.721549991696619, 35.688394999995502 ], [ -75.727644991058327, 35.683203000065539 ], [ -75.731860990999849, 35.681348999849092 ], [ -75.739021991328897, 35.681802999700729 ], [ -75.740970991628316, 35.683163999806503 ], [ -75.738438990852757, 35.686047000000627 ], [ -75.736927991508225, 35.692752999391438 ], [ -75.738984990899112, 35.69642299995018 ], [ -75.741189991045729, 35.69848199958389 ], [ -75.752359991586488, 35.70469099976026 ], [ -75.758282991010859, 35.706078999580242 ], [ -75.76595799170714, 35.706432999403617 ], [ -75.767494991571638, 35.705642999660839 ], [ -75.768985991256628, 35.703284999847277 ], [ -75.769397990858849, 35.699937000124677 ], [ -75.771488991578721, 35.696068999828256 ], [ -75.772565990674238, 35.697432999717932 ], [ -75.771574991351443, 35.698445000050924 ], [ -75.772106991258752, 35.699180999980861 ], [ -75.774750991557326, 35.695933999357671 ], [ -75.773529990693106, 35.696718999503801 ], [ -75.773360991556046, 35.69583899933027 ], [ -75.775156990949426, 35.695597000177948 ], [ -75.777263991661968, 35.693080999491521 ], [ -75.779954990769937, 35.686292999729652 ], [ -75.778412991712813, 35.683420000101094 ], [ -75.77315999075212, 35.680475999958865 ], [ -75.765198991451584, 35.677902000173937 ], [ -75.761809991343753, 35.678176000083539 ], [ -75.760867991003522, 35.677538999315431 ], [ -75.765455991640266, 35.676067000120483 ], [ -75.766992991088429, 35.673230999805789 ], [ -75.768205991608198, 35.672550999940874 ], [ -75.769002991153883, 35.669119999397346 ], [ -75.767603991703936, 35.664514999682325 ], [ -75.761063991147068, 35.655519999463209 ], [ -75.753079991412775, 35.650071000212648 ], [ -75.746629990988851, 35.648854999559951 ], [ -75.741997990972408, 35.650770000077536 ], [ -75.741626990809678, 35.648890999652245 ], [ -75.737804991045167, 35.64403299959416 ], [ -75.737035991265017, 35.641423000030699 ], [ -75.73775599098839, 35.639943999977461 ], [ -75.737309990770029, 35.638262000177043 ], [ -75.733211991026465, 35.630733999990561 ], [ -75.729257991727877, 35.626569999961447 ], [ -75.737273991171776, 35.624291999407284 ], [ -75.744082991070826, 35.620354999433331 ], [ -75.748952991259131, 35.614245000001922 ], [ -75.749480991386505, 35.609929999395895 ], [ -75.748866991555005, 35.606780000209362 ], [ -75.758765991614752, 35.605747999619751 ], [ -75.763329990968117, 35.603781999624708 ], [ -75.766306991556334, 35.600248999996531 ], [ -75.768204990994789, 35.600249999969115 ], [ -75.76977999155055, 35.599278000136771 ], [ -75.776932991240429, 35.60007699946145 ], [ -75.780661991307184, 35.598660000048788 ], [ -75.782358991302118, 35.596510999741859 ], [ -75.78398099068896, 35.59580199957297 ], [ -75.78453999135634, 35.594686999868181 ], [ -75.784170991274522, 35.590437999941159 ], [ -75.783114991468608, 35.588019000053379 ], [ -75.779623991449895, 35.583830999756657 ], [ -75.775897991395482, 35.581124999907814 ], [ -75.778414991538625, 35.579295999415109 ], [ -75.778664990879278, 35.577476999375449 ], [ -75.786549990864685, 35.576544000019133 ], [ -75.789059990702086, 35.575539000087879 ], [ -75.786320991729767, 35.576180999364276 ], [ -75.787087991586503, 35.575136999518328 ], [ -75.791164991732217, 35.575318999384002 ], [ -75.800852991621213, 35.573368999741682 ], [ -75.815612991149862, 35.572181999662142 ], [ -75.823019991574085, 35.570289999434138 ], [ -75.837327991298508, 35.570545999693174 ], [ -75.832909990925842, 35.574059000017513 ], [ -75.825993990980834, 35.574680999599863 ], [ -75.823982991094056, 35.577522999788194 ], [ -75.825382990734155, 35.580627999890304 ], [ -75.81962999117566, 35.580277000039146 ], [ -75.811852990943123, 35.584311999843585 ], [ -75.811482991426715, 35.585839999761234 ], [ -75.812094991440034, 35.585916999818124 ], [ -75.813669991492517, 35.591907999674831 ], [ -75.817196991013475, 35.595462999998119 ], [ -75.817095990912378, 35.597342999480205 ], [ -75.819276991261773, 35.601189999464879 ], [ -75.818885991147852, 35.602629999924424 ], [ -75.81661899099123, 35.603542999712467 ], [ -75.816739990731676, 35.604075999435544 ], [ -75.819155991063894, 35.602651999328877 ], [ -75.819538990946484, 35.601255999443573 ], [ -75.818151991718636, 35.599030000011403 ], [ -75.817714991456526, 35.593605999425463 ], [ -75.819490991001544, 35.590429000140233 ], [ -75.822221991242259, 35.590356999797265 ], [ -75.825485991014233, 35.593049000127643 ], [ -75.828318990703522, 35.5931590001179 ], [ -75.833909991099773, 35.589969999727018 ], [ -75.8354369912701, 35.587600999856406 ], [ -75.838470991135708, 35.586462000094755 ], [ -75.850359991310981, 35.585183999494923 ], [ -75.852666991121552, 35.583775999936968 ], [ -75.855277991416415, 35.584730999430803 ], [ -75.857613991329217, 35.587208999370631 ], [ -75.857026990868931, 35.5954310000456 ], [ -75.861423991565374, 35.600380999958773 ], [ -75.865295990841076, 35.603331000097725 ], [ -75.867058990836682, 35.603082999648549 ], [ -75.868116990885483, 35.604329999571206 ], [ -75.869226991140366, 35.603773999694504 ], [ -75.869717991297435, 35.604302000099295 ], [ -75.8681369908345, 35.605109999483012 ], [ -75.868782991011798, 35.604548999469394 ], [ -75.866305991710618, 35.604401999604455 ], [ -75.866655991288852, 35.603517000213039 ], [ -75.86500799098701, 35.605067999740548 ], [ -75.863899990747115, 35.608168000008298 ], [ -75.861037991200689, 35.607010000198343 ], [ -75.861685991543567, 35.608663999501488 ], [ -75.860621991234581, 35.608423000150687 ], [ -75.860426990703587, 35.608488999383503 ], [ -75.860305991189051, 35.608643000040367 ], [ -75.863038991498101, 35.608849999417153 ], [ -75.863018990691629, 35.609509999816346 ], [ -75.863456990832262, 35.610069999484459 ], [ -75.863556990668712, 35.609471000137475 ], [ -75.86460099125064, 35.6097229997768 ], [ -75.866658990679426, 35.608617999958362 ], [ -75.867660991533498, 35.607132999970133 ], [ -75.86907399125775, 35.607198000050523 ], [ -75.87163999085034, 35.609341000086232 ], [ -75.872901991713775, 35.613494999922665 ], [ -75.869485991067336, 35.617630000080936 ], [ -75.870483991176854, 35.619942999582356 ], [ -75.869683990655815, 35.620981999812756 ], [ -75.870217991509122, 35.624301999871193 ], [ -75.871860991624516, 35.62801699993836 ], [ -75.863256991516238, 35.622798999509101 ], [ -75.867869990681427, 35.626830000053772 ], [ -75.86654899085552, 35.626869000049069 ], [ -75.865842991452539, 35.627843999925169 ], [ -75.864159991613789, 35.627706999464877 ], [ -75.862646990668949, 35.628745999366323 ], [ -75.863440991634633, 35.628878000030156 ], [ -75.862915991159042, 35.629311999807442 ], [ -75.857080991523659, 35.632255000043386 ], [ -75.863871991453294, 35.629568999870692 ], [ -75.864536991730162, 35.628562999780009 ], [ -75.865258991283469, 35.629195999536869 ], [ -75.867471991047537, 35.628027999336489 ], [ -75.868953991221488, 35.62862800004136 ], [ -75.868719991684387, 35.630186999408878 ], [ -75.870584991238459, 35.630885999411284 ], [ -75.871919991057709, 35.633576999383216 ], [ -75.873394990780241, 35.634258000145088 ], [ -75.879115990809623, 35.634569999453277 ], [ -75.88116899130145, 35.634180999749994 ], [ -75.882198990989295, 35.633117999661692 ], [ -75.882487991049814, 35.634471000115646 ], [ -75.884950991730904, 35.637170999692515 ], [ -75.884659991203691, 35.638408999462754 ], [ -75.885488991364795, 35.638248999398606 ], [ -75.888335990824899, 35.640206999655312 ], [ -75.888252990907219, 35.642470999381572 ], [ -75.891686991135401, 35.643779999755729 ], [ -75.891049991039267, 35.645645999661873 ] ] ] } }
]
}
