{
"type": "FeatureCollection",
"name": "duplin_county_board_of_commissioners_district_02_rep",
"crs": { "type": "name", "properties": { "name": "urn:ogc:def:crs:OGC:1.3:CRS84" } },
"features": [
{ "type": "Feature", "properties": { "county": "DUPLIN", "precinct": "ALBE", "enr_desc": "Albertson", "winner": "Dexter Edwards", "winner_votes": 136.0, "winner_share": 76.404494382022463, "runner_up": "Tiffany Ferrell", "runner_up_votes": 42.0, "runner_up_share": 23.595505617977526, "contest_votes": 178.0, "margin_of_victory": 52.80898876404494, "is_tie": false, "results": [ { "candidate": "Dexter Edwards", "votes": 136, "share": 76.40449438202246 }, { "candidate": "Tiffany Ferrell", "votes": 42, "share": 23.595505617977526 } ], "participated": true, "map_key": "DUPLIN_ALBE" }, "geometry": { "type": "Polygon", "coordinates": [ [ [ -77.89168899134647, 35.14661799960934 ], [ -77.891282991097953, 35.146957999752971 ], [ -77.893694991054971, 35.150237000119716 ], [ -77.893907991130703, 35.154197000175103 ], [ -77.892962990722125, 35.156381999867399 ], [ -77.890113991796511, 35.157314999485024 ], [ -77.889310991325829, 35.159461999595621 ], [ -77.887396991232777, 35.16070800036902 ], [ -77.834261991076829, 35.177852999594201 ], [ -77.76917699144569, 35.145576000182785 ], [ -77.749571991791328, 35.108610000019759 ], [ -77.748039990847388, 35.071255999628072 ], [ -77.758210991296352, 35.069871000057375 ], [ -77.769245991599803, 35.070686999841449 ], [ -77.774159991734749, 35.069564999574354 ], [ -77.779378991122542, 35.065568000199896 ], [ -77.781574991486551, 35.062495000262317 ], [ -77.784201991728352, 35.061016999766167 ], [ -77.783668991407879, 35.059014999624026 ], [ -77.802173991112454, 35.056894999638615 ], [ -77.822268990710171, 35.057598000094686 ], [ -77.821976990982904, 35.056607000203897 ], [ -77.82447399134432, 35.056127999537672 ], [ -77.828218990884409, 35.051296999579478 ], [ -77.835963990919922, 35.049684000283705 ], [ -77.836852991719269, 35.048182000339224 ], [ -77.837677991692573, 35.051310999852639 ], [ -77.835813991469166, 35.051966999591166 ], [ -77.834283991283556, 35.053826999792264 ], [ -77.833679991452968, 35.059016999724413 ], [ -77.834787990872712, 35.059618000258531 ], [ -77.835095991706211, 35.060949999919792 ], [ -77.833973991734169, 35.062208000283171 ], [ -77.834422991451305, 35.064513999672648 ], [ -77.834168990991444, 35.065028999501536 ], [ -77.83416199092899, 35.063557000079626 ], [ -77.832205990986452, 35.069115999807913 ], [ -77.832717991678777, 35.070954999559007 ], [ -77.828885991590539, 35.075236000206047 ], [ -77.829191991714708, 35.07698400001938 ], [ -77.830492991799744, 35.077384999672446 ], [ -77.830702991180232, 35.078749000325132 ], [ -77.833507991105307, 35.080106999866167 ], [ -77.829052991141054, 35.083882999640707 ], [ -77.828620990771014, 35.085200000295096 ], [ -77.830838991239375, 35.091626000033919 ], [ -77.829867991536133, 35.092739999897226 ], [ -77.829618991620791, 35.098159999503288 ], [ -77.831574990734737, 35.09933100010371 ], [ -77.831619991421974, 35.102210999615771 ], [ -77.837328991117502, 35.109501999549444 ], [ -77.857175991767505, 35.126539999784676 ], [ -77.860204991506322, 35.133753999806274 ], [ -77.862999990835974, 35.136715000021312 ], [ -77.86819499075466, 35.137180000284161 ], [ -77.869067991323291, 35.138829999719647 ], [ -77.877891991743198, 35.14238900010659 ], [ -77.880999991492942, 35.144964000130713 ], [ -77.886952990718285, 35.144866000020556 ], [ -77.889507991262249, 35.146676999873854 ], [ -77.89168899134647, 35.14661799960934 ] ] ] } },
{ "type": "Feature", "properties": { "county": "DUPLIN", "precinct": "BEUL", "enr_desc": "Beulaville", "winner": "Dexter Edwards", "winner_votes": 379.0, "winner_share": 77.663934426229503, "runner_up": "Tiffany Ferrell", "runner_up_votes": 109.0, "runner_up_share": 22.33606557377049, "contest_votes": 488.0, "margin_of_victory": 55.327868852459012, "is_tie": false, "results": [ { "candidate": "Dexter Edwards", "votes": 379, "share": 77.6639344262295 }, { "candidate": "Tiffany Ferrell", "votes": 109, "share": 22.33606557377049 } ], "participated": true, "map_key": "DUPLIN_BEUL" }, "geometry": { "type": "Polygon", "coordinates": [ [ [ -77.746694991728702, 34.857742000210528 ], [ -77.75792899075816, 34.856796999964395 ], [ -77.759597991093358, 34.858061000311523 ], [ -77.760289991163518, 34.860675999615552 ], [ -77.763719990853687, 34.859202999493789 ], [ -77.767412990828831, 34.859638999722797 ], [ -77.770680991641129, 34.857381000079677 ], [ -77.774230991262428, 34.858397000356817 ], [ -77.777087991123111, 34.853742999990459 ], [ -77.780590990894581, 34.852598000150749 ], [ -77.779964990914081, 34.848829999504538 ], [ -77.782395991327689, 34.846004999988871 ], [ -77.786335991813729, 34.84415899959356 ], [ -77.790881991318557, 34.844278999994287 ], [ -77.797312990994826, 34.842649999766792 ], [ -77.797507991371759, 34.846346999694909 ], [ -77.792272991567899, 34.848766999901379 ], [ -77.787689991448531, 34.849730999810284 ], [ -77.784131990890273, 34.85318999964413 ], [ -77.781233991425694, 34.862057999979534 ], [ -77.782235991171348, 34.867035000277227 ], [ -77.780963991222265, 34.870798999528958 ], [ -77.787282991339566, 34.873139999599239 ], [ -77.791157990805999, 34.873149999794592 ], [ -77.789069990842151, 34.881391999843189 ], [ -77.784768991422581, 34.887068000102992 ], [ -77.807085991160079, 34.898418000189523 ], [ -77.806610991231665, 34.900243999835538 ], [ -77.805206991237881, 34.901430999709746 ], [ -77.798987991344745, 34.901988999655771 ], [ -77.798940991795334, 34.906668999639862 ], [ -77.796795990813536, 34.909649000347621 ], [ -77.795245991447658, 34.91592799954612 ], [ -77.796568991536745, 34.92715099977061 ], [ -77.802052990737579, 34.928013000346184 ], [ -77.802208991783615, 34.928857000288104 ], [ -77.800854991424899, 34.930665000006108 ], [ -77.801249991380402, 34.93171499957905 ], [ -77.79923699166045, 34.933241000026449 ], [ -77.798559991121323, 34.937382000229086 ], [ -77.797205991103553, 34.939015999561178 ], [ -77.798109991722583, 34.940733000214891 ], [ -77.797665991805403, 34.94424900010668 ], [ -77.799173990826191, 34.949086000203955 ], [ -77.800921990841715, 34.950589000127387 ], [ -77.8015389912579, 34.95272999957664 ], [ -77.801212991688914, 34.957336000134667 ], [ -77.805965991063985, 34.959760000042195 ], [ -77.802139991502429, 34.964356999498733 ], [ -77.794492991591838, 34.964512000183468 ], [ -77.783092991413, 34.959566999632322 ], [ -77.778632991087022, 34.959186999703675 ], [ -77.770526991606758, 34.955438999985454 ], [ -77.766118991477384, 34.95451899955043 ], [ -77.760116991643457, 34.979675000041169 ], [ -77.754955990875615, 34.983132000151485 ], [ -77.748623990722649, 34.984907000000973 ], [ -77.745307991745705, 34.987730000169087 ], [ -77.743278991203113, 34.991233999684752 ], [ -77.739156991666547, 34.992259000098734 ], [ -77.737167991673687, 34.994037000084646 ], [ -77.736275991060879, 35.003027999919588 ], [ -77.738672990861332, 35.009687999607941 ], [ -77.739642991610353, 35.016291999780194 ], [ -77.731025991489489, 35.008138000189732 ], [ -77.67480499114518, 34.973900000241109 ], [ -77.680080991209906, 34.971141000002 ], [ -77.653351991650879, 34.940534999804981 ], [ -77.651092991299137, 34.923678999825796 ], [ -77.695447990833401, 34.914745999529273 ], [ -77.727562991692864, 34.918074000166726 ], [ -77.730533991398005, 34.909139999959692 ], [ -77.729997991113464, 34.902573000337519 ], [ -77.734040991547459, 34.893065999648826 ], [ -77.732415991669839, 34.889897000161987 ], [ -77.733954991795102, 34.882032999859874 ], [ -77.736259990837979, 34.87917200008792 ], [ -77.741391991678938, 34.875064000137364 ], [ -77.741681990937337, 34.866487999491383 ], [ -77.745194991646756, 34.861980999552031 ], [ -77.746694991728702, 34.857742000210528 ] ] ] } },
{ "type": "Feature", "properties": { "county": null, "precinct": null, "enr_desc": "Calypso", "winner": null, "winner_votes": null, "winner_share": null, "runner_up": null, "runner_up_votes": null, "runner_up_share": null, "contest_votes": null, "margin_of_victory": null, "is_tie": false, "results": null, "participated": false, "map_key": null }, "geometry": { "type": "Polygon", "coordinates": [ [ [ -78.055500991067859, 35.104470999568001 ], [ -78.058329991736088, 35.107931999546366 ], [ -78.063512990781433, 35.109711999905642 ], [ -78.064709990949865, 35.111449999575015 ], [ -78.069698990882486, 35.114828000194322 ], [ -78.074187991422519, 35.116093999629051 ], [ -78.076375990752396, 35.117928999684338 ], [ -78.088468990755999, 35.123292000174722 ], [ -78.09940799144222, 35.121764000110538 ], [ -78.105581990866199, 35.123860000098517 ], [ -78.109740990967296, 35.126771999496924 ], [ -78.120563991261406, 35.131672000297392 ], [ -78.123680991167518, 35.136286999930221 ], [ -78.124352991594833, 35.1414459997672 ], [ -78.125393991426577, 35.14296899984285 ], [ -78.125047990716681, 35.144209000176275 ], [ -78.126737990860647, 35.146712000193169 ], [ -78.127111991313924, 35.151107999658976 ], [ -78.128751991727398, 35.155572000224367 ], [ -78.131260991704792, 35.160550999894625 ], [ -78.134506991248642, 35.162945999571818 ], [ -78.136371991624173, 35.166485000091683 ], [ -78.14089299148003, 35.169549999628956 ], [ -78.152365990925034, 35.175087999761693 ], [ -78.155800990778715, 35.176407999972504 ], [ -78.158733990893197, 35.17619899975724 ], [ -78.161005990964057, 35.177874000121285 ], [ -78.16406599101974, 35.178657999866076 ], [ -78.163419991181684, 35.18971599958023 ], [ -78.077388990834109, 35.175134999629897 ], [ -78.052112991770514, 35.188416000169148 ], [ -78.047553990977391, 35.185196999623408 ], [ -78.042669991489376, 35.183667999952874 ], [ -78.03285799120323, 35.17525299982907 ], [ -78.02548999130849, 35.173190999720767 ], [ -78.024072991334791, 35.170186999642304 ], [ -78.019583991385517, 35.165361999514907 ], [ -78.021438991663871, 35.163865000149016 ], [ -78.02311399155785, 35.156522000013659 ], [ -78.025715990723015, 35.149781999939044 ], [ -78.028195991525905, 35.149051999932944 ], [ -78.037214991734871, 35.150213000142742 ], [ -78.040987991248173, 35.147823999504851 ], [ -78.043396991637536, 35.143296999693014 ], [ -78.043804990737769, 35.138091999611397 ], [ -78.043551991078644, 35.13636499965164 ], [ -78.040884990703461, 35.13366499990952 ], [ -78.040625991381248, 35.131634000237959 ], [ -78.044258990987728, 35.127890999906967 ], [ -78.046598990853894, 35.120993999723638 ], [ -78.050102990857582, 35.118040999913745 ], [ -78.051841991382901, 35.115193000044684 ], [ -78.053233991320809, 35.110672999788072 ], [ -78.052976990896212, 35.108501999667205 ], [ -78.054216991439773, 35.107527999825621 ], [ -78.055500991067859, 35.104470999568001 ] ] ] } },
{ "type": "Feature", "properties": { "county": "DUPLIN", "precinct": "CFRK", "enr_desc": "Cedar Fork", "winner": "Dexter Edwards", "winner_votes": 0.0, "winner_share": null, "runner_up": "Tiffany Ferrell", "runner_up_votes": 0.0, "runner_up_share": null, "contest_votes": 0.0, "margin_of_victory": null, "is_tie": false, "results": [ { "candidate": "Dexter Edwards", "votes": 0, "share": "0" }, { "candidate": "Tiffany Ferrell", "votes": 0, "share": "0" } ], "participated": true, "map_key": "DUPLIN_CFRK" }, "geometry": { "type": "Polygon", "coordinates": [ [ [ -77.746694991728702, 34.857742000210528 ], [ -77.745194991646756, 34.861980999552031 ], [ -77.741681990937337, 34.866487999491383 ], [ -77.741391991678938, 34.875064000137364 ], [ -77.736259990837979, 34.87917200008792 ], [ -77.733954991795102, 34.882032999859874 ], [ -77.732415991669839, 34.889897000161987 ], [ -77.734040991547459, 34.893065999648826 ], [ -77.729997991113464, 34.902573000337519 ], [ -77.730533991398005, 34.909139999959692 ], [ -77.727562991692864, 34.918074000166726 ], [ -77.695447990833401, 34.914745999529273 ], [ -77.651092991299137, 34.923678999825796 ], [ -77.666059991705396, 34.839651000194706 ], [ -77.680276991285268, 34.844173999860097 ], [ -77.684804991548148, 34.844519999763584 ], [ -77.722248991765653, 34.85601000034336 ], [ -77.746694991728702, 34.857742000210528 ] ] ] } },
{ "type": "Feature", "properties": { "county": null, "precinct": null, "enr_desc": "Charity", "winner": null, "winner_votes": null, "winner_share": null, "runner_up": null, "runner_up_votes": null, "runner_up_share": null, "contest_votes": null, "margin_of_victory": null, "is_tie": false, "results": null, "participated": false, "map_key": null }, "geometry": { "type": "Polygon", "coordinates": [ [ [ -77.972810991193512, 34.808075000093559 ], [ -77.975490991743939, 34.810009000021957 ], [ -77.975285991543146, 34.812352999596101 ], [ -77.973015991378276, 34.813501999528711 ], [ -77.97259699100556, 34.814644000090709 ], [ -77.974002991140352, 34.815514000183576 ], [ -77.973531991071724, 34.816153999762143 ], [ -77.974141991701401, 34.817222999760602 ], [ -77.975375991184038, 34.817781999622021 ], [ -77.9747399912482, 34.81848399967862 ], [ -77.976748991795944, 34.820300999562946 ], [ -77.976204990897614, 34.821375999611952 ], [ -77.97677499075634, 34.824129999806082 ], [ -77.982662991404126, 34.828468999553259 ], [ -77.98127099158603, 34.831063999996061 ], [ -77.981826991434431, 34.832837999843768 ], [ -77.980587991536609, 34.834668999731306 ], [ -77.981020991132098, 34.837015999586818 ], [ -77.980327990734978, 34.837769000159625 ], [ -77.972781990952129, 34.837119000019705 ], [ -77.971117991294719, 34.847063999627856 ], [ -77.972467991742008, 34.849916000008086 ], [ -77.972611990790909, 34.852246999741396 ], [ -77.975593990895234, 34.856297999908868 ], [ -77.974594991511708, 34.859222999702105 ], [ -77.976415990990688, 34.862346999528256 ], [ -77.980531991603456, 34.865282000213838 ], [ -77.981315991705799, 34.867004999765626 ], [ -77.976443991242959, 34.864769999851312 ], [ -77.973205991097529, 34.864416999926021 ], [ -77.96672099077594, 34.867905999921675 ], [ -77.963168991796806, 34.867611000162597 ], [ -77.961623991138921, 34.866439999534947 ], [ -77.960396991784023, 34.867436000265549 ], [ -77.95394699080984, 34.86653299991093 ], [ -77.953387990811038, 34.867280000272984 ], [ -77.951728991334505, 34.867039999499774 ], [ -77.951521991581842, 34.868672000329333 ], [ -77.946915991577868, 34.869508999931142 ], [ -77.943850991343098, 34.86912100004978 ], [ -77.939843991522736, 34.867333999563428 ], [ -77.937772991159875, 34.865301999569233 ], [ -77.930566990856448, 34.863085999709831 ], [ -77.925256991805909, 34.857908000052845 ], [ -77.920137990983406, 34.859140999738074 ], [ -77.914533991091787, 34.866949999836123 ], [ -77.911754991347749, 34.867178000064861 ], [ -77.910337991577478, 34.869162000040014 ], [ -77.904075991050803, 34.872462999509736 ], [ -77.903164991281173, 34.87471499957217 ], [ -77.892564991811355, 34.878507000058754 ], [ -77.887326991113056, 34.877972000302705 ], [ -77.884869991581994, 34.87599900000464 ], [ -77.879586991599254, 34.8737329996694 ], [ -77.876826991501474, 34.874167000253003 ], [ -77.873919990954221, 34.873543999828577 ], [ -77.871083991015212, 34.874540999652396 ], [ -77.868306991531853, 34.873523000289644 ], [ -77.86531499081822, 34.870363999475551 ], [ -77.862709991485076, 34.86975199971846 ], [ -77.860523991026355, 34.86769299953373 ], [ -77.860395991801568, 34.866689999637906 ], [ -77.855638991398521, 34.863786000017541 ], [ -77.854223991518097, 34.863786000316551 ], [ -77.853838991461089, 34.862730000365765 ], [ -77.854609991365663, 34.857451000358971 ], [ -77.856730991019944, 34.85634199956413 ], [ -77.858949991605925, 34.851625999603534 ], [ -77.858477990804658, 34.846806999501695 ], [ -77.854043991745314, 34.844246000260505 ], [ -77.853237990891515, 34.842455000334709 ], [ -77.851183991281317, 34.840720000227655 ], [ -77.850712991373683, 34.838485000307344 ], [ -77.846747991635283, 34.837371999793234 ], [ -77.842354990760057, 34.834557999934745 ], [ -77.840737991150277, 34.83227599977949 ], [ -77.839238991467028, 34.832478999740765 ], [ -77.837393991505323, 34.830458999492279 ], [ -77.860780991080446, 34.796615999513406 ], [ -77.894405991471302, 34.796297999634568 ], [ -77.906412991149949, 34.795403999519195 ], [ -77.907831991778963, 34.794272999574666 ], [ -77.910979991459058, 34.794618999574233 ], [ -77.917256991554396, 34.786626999794017 ], [ -77.918751991217775, 34.785987999944155 ], [ -77.922911991774342, 34.781619999709761 ], [ -77.925235991350021, 34.777677999670253 ], [ -77.92593099104667, 34.77386999951478 ], [ -77.929791991547134, 34.770245999959556 ], [ -77.926167990826812, 34.769545999693314 ], [ -77.935250991236117, 34.763964999569616 ], [ -77.936251991641242, 34.763884000028163 ], [ -77.936744991733264, 34.768903999812913 ], [ -77.935700991798683, 34.771290999890866 ], [ -77.936487991661323, 34.774599999851581 ], [ -77.947639990801065, 34.783892000019428 ], [ -77.951243991812419, 34.789560999490988 ], [ -77.958854991473814, 34.790079999993317 ], [ -77.968463991004612, 34.794709999633028 ], [ -77.973414990849378, 34.802725000168969 ], [ -77.971039991700209, 34.8056889995717 ], [ -77.972810991193512, 34.808075000093559 ] ] ] } },
{ "type": "Feature", "properties": { "county": null, "precinct": null, "enr_desc": "Chinquapin", "winner": null, "winner_votes": null, "winner_share": null, "runner_up": null, "runner_up_votes": null, "runner_up_share": null, "contest_votes": null, "margin_of_victory": null, "is_tie": false, "results": null, "participated": false, "map_key": null }, "geometry": { "type": "Polygon", "coordinates": [ [ [ -77.666059991705396, 34.839651000194706 ], [ -77.673210990999095, 34.813577000249232 ], [ -77.674561991290005, 34.815922999658426 ], [ -77.678264991664562, 34.818893999732964 ], [ -77.687673990987648, 34.815717999477584 ], [ -77.695904991227934, 34.811395000139221 ], [ -77.702701991157326, 34.813514999961235 ], [ -77.715584991126207, 34.811870000123299 ], [ -77.721633990781555, 34.818036999625583 ], [ -77.734494991705105, 34.826068999912735 ], [ -77.761912991500282, 34.829946000197417 ], [ -77.768271991569932, 34.828308999777043 ], [ -77.765028991731597, 34.821507000114892 ], [ -77.773593991496782, 34.821271999820105 ], [ -77.779974990835598, 34.817315999963803 ], [ -77.781028990969233, 34.814241999939085 ], [ -77.780476991064631, 34.812018000326574 ], [ -77.787845991807941, 34.806191000307713 ], [ -77.78329699151719, 34.802933999524065 ], [ -77.784682990893444, 34.799510000242933 ], [ -77.786912990764662, 34.797224000059984 ], [ -77.789156990900779, 34.798166000179179 ], [ -77.790470991053837, 34.797767000151872 ], [ -77.795342991096916, 34.798820000274553 ], [ -77.797310991581327, 34.800521000107423 ], [ -77.799953990845779, 34.800213999904976 ], [ -77.803278991592109, 34.801299999575448 ], [ -77.803738991766281, 34.802092999479882 ], [ -77.806076991218674, 34.801488999531792 ], [ -77.808507990912801, 34.803955000306935 ], [ -77.810573991537851, 34.803111999656075 ], [ -77.812578991039075, 34.804785000324465 ], [ -77.812447991374242, 34.805476000226093 ], [ -77.814493991069085, 34.806079000167877 ], [ -77.814734991340259, 34.807097999469512 ], [ -77.815848990943408, 34.806404000077492 ], [ -77.818015991465813, 34.806606000182867 ], [ -77.820108991014521, 34.807831999864099 ], [ -77.821228991125366, 34.806963999983033 ], [ -77.826218991368364, 34.807643999869128 ], [ -77.826626991757223, 34.806149999930881 ], [ -77.829044991110123, 34.80713899995645 ], [ -77.830401990754368, 34.80558299949373 ], [ -77.831745991060686, 34.805299999473355 ], [ -77.83171799164117, 34.804199999910786 ], [ -77.835286990947054, 34.800762999730026 ], [ -77.835392990932775, 34.799752000351546 ], [ -77.838565991098349, 34.805520999747472 ], [ -77.837310991682827, 34.807026000192181 ], [ -77.838061991324551, 34.808252999543747 ], [ -77.836929991550193, 34.808618000353277 ], [ -77.837027990874546, 34.809542999561259 ], [ -77.835071991496321, 34.809866000285034 ], [ -77.835002991529947, 34.810982999725454 ], [ -77.833740991405946, 34.811961000044455 ], [ -77.832407991251799, 34.811310999542506 ], [ -77.831383991576487, 34.814424000074673 ], [ -77.831568991187737, 34.816536999748429 ], [ -77.833968991065731, 34.819892000308023 ], [ -77.831880991149177, 34.82855500033854 ], [ -77.832860991746401, 34.830875000003395 ], [ -77.837393991505323, 34.830458999492279 ], [ -77.839238991467028, 34.832478999740765 ], [ -77.838961991150327, 34.834170999798339 ], [ -77.837022991408418, 34.83490799998377 ], [ -77.835320990840344, 34.837752999828702 ], [ -77.833446991565935, 34.837966999534622 ], [ -77.832998991163961, 34.83896799971901 ], [ -77.830194991800226, 34.838520000347422 ], [ -77.82680199157592, 34.839181000295525 ], [ -77.825374991261455, 34.838430999845457 ], [ -77.822641991439184, 34.839672999564414 ], [ -77.818119991700684, 34.836466999722354 ], [ -77.813779990787282, 34.835838999665761 ], [ -77.81201699079844, 34.833957000067983 ], [ -77.808245991441268, 34.83439200016781 ], [ -77.807688991715722, 34.833666999858522 ], [ -77.804921990924427, 34.8352069998069 ], [ -77.803776991537333, 34.83681499971248 ], [ -77.804335990923391, 34.838818000199041 ], [ -77.805276991120095, 34.839218000293002 ], [ -77.805259991282298, 34.840830999641391 ], [ -77.80197599133345, 34.841007000077269 ], [ -77.799295991146607, 34.843226000197362 ], [ -77.797312990994826, 34.842649999766792 ], [ -77.790881991318557, 34.844278999994287 ], [ -77.786335991813729, 34.84415899959356 ], [ -77.782395991327689, 34.846004999988871 ], [ -77.779964990914081, 34.848829999504538 ], [ -77.780590990894581, 34.852598000150749 ], [ -77.777087991123111, 34.853742999990459 ], [ -77.774230991262428, 34.858397000356817 ], [ -77.770680991641129, 34.857381000079677 ], [ -77.767412990828831, 34.859638999722797 ], [ -77.763719990853687, 34.859202999493789 ], [ -77.760289991163518, 34.860675999615552 ], [ -77.759597991093358, 34.858061000311523 ], [ -77.75792899075816, 34.856796999964395 ], [ -77.746694991728702, 34.857742000210528 ], [ -77.722248991765653, 34.85601000034336 ], [ -77.684804991548148, 34.844519999763584 ], [ -77.680276991285268, 34.844173999860097 ], [ -77.666059991705396, 34.839651000194706 ] ] ] } },
{ "type": "Feature", "properties": { "county": null, "precinct": null, "enr_desc": "Cypress Creek", "winner": null, "winner_votes": null, "winner_share": null, "runner_up": null, "runner_up_votes": null, "runner_up_share": null, "contest_votes": null, "margin_of_victory": null, "is_tie": false, "results": null, "participated": false, "map_key": null }, "geometry": { "type": "Polygon", "coordinates": [ [ [ -77.835392990932775, 34.799752000351546 ], [ -77.835286990947054, 34.800762999730026 ], [ -77.83171799164117, 34.804199999910786 ], [ -77.831745991060686, 34.805299999473355 ], [ -77.830401990754368, 34.80558299949373 ], [ -77.829044991110123, 34.80713899995645 ], [ -77.826626991757223, 34.806149999930881 ], [ -77.826218991368364, 34.807643999869128 ], [ -77.821228991125366, 34.806963999983033 ], [ -77.820108991014521, 34.807831999864099 ], [ -77.818015991465813, 34.806606000182867 ], [ -77.815848990943408, 34.806404000077492 ], [ -77.814734991340259, 34.807097999469512 ], [ -77.814493991069085, 34.806079000167877 ], [ -77.812447991374242, 34.805476000226093 ], [ -77.812578991039075, 34.804785000324465 ], [ -77.810573991537851, 34.803111999656075 ], [ -77.808507990912801, 34.803955000306935 ], [ -77.806076991218674, 34.801488999531792 ], [ -77.803738991766281, 34.802092999479882 ], [ -77.803278991592109, 34.801299999575448 ], [ -77.799953990845779, 34.800213999904976 ], [ -77.797310991581327, 34.800521000107423 ], [ -77.795342991096916, 34.798820000274553 ], [ -77.790470991053837, 34.797767000151872 ], [ -77.789156990900779, 34.798166000179179 ], [ -77.786912990764662, 34.797224000059984 ], [ -77.784682990893444, 34.799510000242933 ], [ -77.78329699151719, 34.802933999524065 ], [ -77.787845991807941, 34.806191000307713 ], [ -77.780476991064631, 34.812018000326574 ], [ -77.781028990969233, 34.814241999939085 ], [ -77.779974990835598, 34.817315999963803 ], [ -77.773593991496782, 34.821271999820105 ], [ -77.765028991731597, 34.821507000114892 ], [ -77.768271991569932, 34.828308999777043 ], [ -77.761912991500282, 34.829946000197417 ], [ -77.734494991705105, 34.826068999912735 ], [ -77.721633990781555, 34.818036999625583 ], [ -77.715584991126207, 34.811870000123299 ], [ -77.702701991157326, 34.813514999961235 ], [ -77.695904991227934, 34.811395000139221 ], [ -77.687673990987648, 34.815717999477584 ], [ -77.678264991664562, 34.818893999732964 ], [ -77.674561991290005, 34.815922999658426 ], [ -77.673210990999095, 34.813577000249232 ], [ -77.677049991312757, 34.799624999633217 ], [ -77.678848991494462, 34.785078999545597 ], [ -77.680126991242076, 34.720594999912521 ], [ -77.921537991655114, 34.719746000338525 ], [ -77.919527991456633, 34.723532999623082 ], [ -77.917344990946688, 34.724575999907351 ], [ -77.917928991818926, 34.727637000111208 ], [ -77.920875991396542, 34.73064799966955 ], [ -77.923343991713693, 34.73134199961018 ], [ -77.925570991825523, 34.733126999910986 ], [ -77.931830991452998, 34.733778999746235 ], [ -77.932274990996589, 34.735244999558311 ], [ -77.930713991234882, 34.737895999902939 ], [ -77.924662991175907, 34.741474999759852 ], [ -77.924368991178284, 34.74295100030298 ], [ -77.922135991458376, 34.745657000278541 ], [ -77.920874991378426, 34.745002999598128 ], [ -77.920943991106427, 34.740448000028366 ], [ -77.918488991131625, 34.738520000322794 ], [ -77.916648991364127, 34.73792400004011 ], [ -77.91535699090268, 34.738714999496658 ], [ -77.913507991567243, 34.738365999627092 ], [ -77.911872990895034, 34.739422000308387 ], [ -77.911549991464454, 34.740045999823373 ], [ -77.915304991582786, 34.742775999843325 ], [ -77.914250991189434, 34.74563100020891 ], [ -77.915635991325885, 34.748630000010948 ], [ -77.918159991590855, 34.750504999554529 ], [ -77.916770990986137, 34.752089000017229 ], [ -77.914914991684356, 34.752508999661082 ], [ -77.915689991362299, 34.756124000058605 ], [ -77.913284991673024, 34.755513999973658 ], [ -77.914253991831131, 34.754496000038102 ], [ -77.913874991542599, 34.753964999791052 ], [ -77.910810991116364, 34.753200999912188 ], [ -77.911440991475288, 34.755905999768011 ], [ -77.910647991568453, 34.756654999581336 ], [ -77.908646991359845, 34.755847999519609 ], [ -77.906768991208679, 34.759025999937691 ], [ -77.904905991413699, 34.757249999844603 ], [ -77.902027991222397, 34.757752999715223 ], [ -77.902113991526747, 34.758990000351538 ], [ -77.900663991435565, 34.75952999994589 ], [ -77.902244991518131, 34.764538000041426 ], [ -77.895978991149178, 34.76862100034063 ], [ -77.866092991809722, 34.77174600018202 ], [ -77.851180991205226, 34.771596000021468 ], [ -77.839271991753705, 34.775615000145208 ], [ -77.835016990862371, 34.774542000095551 ], [ -77.833384991490973, 34.775561999765237 ], [ -77.833235990841416, 34.778515000108712 ], [ -77.833695990852902, 34.779338000159996 ], [ -77.835813990923768, 34.779857999473975 ], [ -77.835132990915426, 34.780634000298598 ], [ -77.837418991666496, 34.784049999573519 ], [ -77.836985991147486, 34.786373999697012 ], [ -77.835544991772991, 34.787865000036071 ], [ -77.835778990912203, 34.788727999645197 ], [ -77.838393991797687, 34.789098000226772 ], [ -77.837082991272212, 34.791084000182131 ], [ -77.837210991278042, 34.792194000092863 ], [ -77.834867991442636, 34.792765999984205 ], [ -77.834733991109616, 34.796792999696159 ], [ -77.833661991434582, 34.797687000350869 ], [ -77.834864991778687, 34.79824500012397 ], [ -77.833837990852146, 34.799338000071785 ], [ -77.835392990932775, 34.799752000351546 ] ] ] } },
{ "type": "Feature", "properties": { "county": null, "precinct": null, "enr_desc": "Faison", "winner": null, "winner_votes": null, "winner_share": null, "runner_up": null, "runner_up_votes": null, "runner_up_share": null, "contest_votes": null, "margin_of_victory": null, "is_tie": false, "results": null, "participated": false, "map_key": null }, "geometry": { "type": "Polygon", "coordinates": [ [ [ -78.157056991151492, 35.040380000324106 ], [ -78.159817991601997, 35.079799999796322 ], [ -78.171844991357432, 35.09352799972654 ], [ -78.170713991208927, 35.114874000097146 ], [ -78.163012991268616, 35.137266000317105 ], [ -78.164627991299866, 35.169056999771257 ], [ -78.16406599101974, 35.178657999866076 ], [ -78.161005990964057, 35.177874000121285 ], [ -78.158733990893197, 35.17619899975724 ], [ -78.155800990778715, 35.176407999972504 ], [ -78.152365990925034, 35.175087999761693 ], [ -78.14089299148003, 35.169549999628956 ], [ -78.136371991624173, 35.166485000091683 ], [ -78.134506991248642, 35.162945999571818 ], [ -78.131260991704792, 35.160550999894625 ], [ -78.128751991727398, 35.155572000224367 ], [ -78.127111991313924, 35.151107999658976 ], [ -78.126737990860647, 35.146712000193169 ], [ -78.125047990716681, 35.144209000176275 ], [ -78.125393991426577, 35.14296899984285 ], [ -78.124352991594833, 35.1414459997672 ], [ -78.123680991167518, 35.136286999930221 ], [ -78.120563991261406, 35.131672000297392 ], [ -78.109740990967296, 35.126771999496924 ], [ -78.105581990866199, 35.123860000098517 ], [ -78.09940799144222, 35.121764000110538 ], [ -78.088468990755999, 35.123292000174722 ], [ -78.076375990752396, 35.117928999684338 ], [ -78.074187991422519, 35.116093999629051 ], [ -78.069698990882486, 35.114828000194322 ], [ -78.064709990949865, 35.111449999575015 ], [ -78.063512990781433, 35.109711999905642 ], [ -78.058329991736088, 35.107931999546366 ], [ -78.055500991067859, 35.104470999568001 ], [ -78.055376991702616, 35.102317000068709 ], [ -78.053733990940785, 35.100430000229871 ], [ -78.050106991351157, 35.100507000238217 ], [ -78.043918991207605, 35.098121999650211 ], [ -78.040584990879836, 35.09845400008269 ], [ -78.038632991604374, 35.097689999756859 ], [ -78.035402990847231, 35.095156999559912 ], [ -78.035258990721843, 35.093421999807802 ], [ -78.034036991476185, 35.092116999819943 ], [ -78.031072991048802, 35.091326999510791 ], [ -78.028987991263349, 35.088678999924909 ], [ -78.026998991024428, 35.088027000023864 ], [ -78.022653991619066, 35.088812000264362 ], [ -78.016802991486401, 35.087411999713723 ], [ -78.015223991068126, 35.085636999756886 ], [ -78.012116990725957, 35.085239000294202 ], [ -78.008965991377451, 35.078508000326543 ], [ -78.006477991746792, 35.07650200007533 ], [ -78.004361991197257, 35.076237999824826 ], [ -78.004421991287515, 35.0746620003071 ], [ -78.001775991712876, 35.072432000211073 ], [ -77.999823990912546, 35.074462999660305 ], [ -77.995797991231584, 35.071077999810953 ], [ -77.991303991411229, 35.069702999720718 ], [ -77.989193991405656, 35.067972000110082 ], [ -77.987939991597287, 35.068048999590523 ], [ -77.985548991510015, 35.065625000261122 ], [ -77.982339991119815, 35.065129999752443 ], [ -77.981547990923033, 35.0639729998314 ], [ -77.978910991395821, 35.064321999518135 ], [ -77.975564991772146, 35.062814999541338 ], [ -77.971377991389105, 35.062961999767332 ], [ -77.970303990862888, 35.062320999969259 ], [ -77.96587899121964, 35.063090999610978 ], [ -77.961982990801957, 35.060886000293117 ], [ -77.959101991430302, 35.061649000296697 ], [ -77.956544990843071, 35.059671000267514 ], [ -77.952741991207276, 35.059924000021404 ], [ -77.948588991072995, 35.057980000205013 ], [ -77.95448999164357, 35.053858999854086 ], [ -77.954314991046303, 35.050494999618145 ], [ -77.953406991646276, 35.048718999479419 ], [ -77.9558079909919, 35.046973999961089 ], [ -77.961187991623419, 35.04587599950618 ], [ -77.962510991528248, 35.044480000088321 ], [ -77.967500990798783, 35.044380000229673 ], [ -77.973209991686076, 35.042495999574406 ], [ -77.979657991028759, 35.041739999513155 ], [ -77.979729991084341, 35.04059500035622 ], [ -77.983455991018914, 35.037168000321046 ], [ -77.984970991402633, 35.031956999715121 ], [ -77.987294991059613, 35.02930499977851 ], [ -77.986693991519971, 35.02865599985104 ], [ -77.987514990895903, 35.02789999987337 ], [ -77.990984990891164, 35.026378000068746 ], [ -77.996985990881228, 35.026524000069614 ], [ -78.000945991713166, 35.025173000158809 ], [ -78.008632991253009, 35.027905999639664 ], [ -78.011042991605422, 35.026740999919944 ], [ -78.014079991126849, 35.028758000186521 ], [ -78.05883099099367, 35.042112999567159 ], [ -78.082197990865723, 35.053106999808747 ], [ -78.087122991645643, 35.057592999846115 ], [ -78.09358799075244, 35.060864000031479 ], [ -78.101310991533097, 35.060038000211918 ], [ -78.107771990844611, 35.05623799963962 ], [ -78.115292991007095, 35.057196999614625 ], [ -78.123548990720039, 35.055103999890676 ], [ -78.131394991511385, 35.044053999869121 ], [ -78.148304991167635, 35.042196999838673 ], [ -78.149993991252387, 35.042802000098362 ], [ -78.150869991573529, 35.044365999571106 ], [ -78.157056991151492, 35.040380000324106 ] ] ] } },
{ "type": "Feature", "properties": { "county": "DUPLIN", "precinct": "GLIS", "enr_desc": "Glisson", "winner": "Tiffany Ferrell", "winner_votes": 2.0, "winner_share": 100.0, "runner_up": "Dexter Edwards", "runner_up_votes": 0.0, "runner_up_share": 0.0, "contest_votes": 2.0, "margin_of_victory": 100.0, "is_tie": false, "results": [ { "candidate": "Tiffany Ferrell", "votes": 2, "share": 100.0 }, { "candidate": "Dexter Edwards", "votes": 0, "share": 0.0 } ], "participated": true, "map_key": "DUPLIN_GLIS" }, "geometry": { "type": "Polygon", "coordinates": [ [ [ -77.836852991719269, 35.048182000339224 ], [ -77.838507991779082, 35.047747999772149 ], [ -77.840473991537024, 35.044685000320179 ], [ -77.840586991674854, 35.042109999676839 ], [ -77.842302991289472, 35.039445000296766 ], [ -77.841766990763674, 35.038096999753492 ], [ -77.842292991040622, 35.03496999968884 ], [ -77.845453991418637, 35.028108000262179 ], [ -77.844704991744436, 35.026916000033061 ], [ -77.84610099083983, 35.025097999903714 ], [ -77.848143991578524, 35.025180000010671 ], [ -77.850305991725463, 35.027686000314809 ], [ -77.851892991788475, 35.027648999862578 ], [ -77.852930991118157, 35.030458999571024 ], [ -77.851781991324344, 35.03182499984603 ], [ -77.852242990828131, 35.032255999922015 ], [ -77.854172990962198, 35.033686999732687 ], [ -77.858238991410516, 35.034755000093178 ], [ -77.860160991674718, 35.038088999952947 ], [ -77.864075991672337, 35.038081999702101 ], [ -77.865844990853162, 35.04016699977187 ], [ -77.871736991090216, 35.040609999764044 ], [ -77.879235991057413, 35.039317999681217 ], [ -77.884521990866688, 35.043981999784968 ], [ -77.889267991611277, 35.040566999579525 ], [ -77.892698991747551, 35.042076999514229 ], [ -77.896003991263115, 35.040850999509914 ], [ -77.898541990793788, 35.041149999781965 ], [ -77.899968991411157, 35.042944999714472 ], [ -77.904092991035256, 35.044933999606123 ], [ -77.904098990803874, 35.047127000280973 ], [ -77.910179991415902, 35.044789000088208 ], [ -77.911990991662009, 35.04606199981729 ], [ -77.918263990976612, 35.044825999514956 ], [ -77.925581991200858, 35.05146699959672 ], [ -77.927265991762724, 35.054201999552824 ], [ -77.933397991050299, 35.053072000163446 ], [ -77.93481299128382, 35.056480000093252 ], [ -77.938413991323088, 35.060108999652577 ], [ -77.940815991482495, 35.05633599996272 ], [ -77.9408889913596, 35.054476999496138 ], [ -77.944178991512501, 35.053551999755932 ], [ -77.94516899170641, 35.055264999872847 ], [ -77.946553991726333, 35.055735999899582 ], [ -77.948495991604773, 35.060286999989131 ], [ -77.944436990971823, 35.06408300009177 ], [ -77.934049991077032, 35.064991999666482 ], [ -77.930329991278796, 35.066117000054284 ], [ -77.922530991102391, 35.071035000039871 ], [ -77.919053991423056, 35.076070000084997 ], [ -77.911682991766597, 35.074710999506749 ], [ -77.907301991234405, 35.081728000172632 ], [ -77.90603199132758, 35.085011000181701 ], [ -77.905663991067613, 35.089658999745559 ], [ -77.908627991635868, 35.099481000107971 ], [ -77.908911990845425, 35.106236000248408 ], [ -77.907312990718395, 35.118900999928769 ], [ -77.90977099178896, 35.125369999846782 ], [ -77.902023991693525, 35.134905999973221 ], [ -77.90031399077651, 35.143856999714657 ], [ -77.897100990882663, 35.148377999760754 ], [ -77.895561991080399, 35.148486000253591 ], [ -77.893709990943051, 35.146809999891836 ], [ -77.89168899134647, 35.14661799960934 ], [ -77.889507991262249, 35.146676999873854 ], [ -77.886952990718285, 35.144866000020556 ], [ -77.880999991492942, 35.144964000130713 ], [ -77.877891991743198, 35.14238900010659 ], [ -77.869067991323291, 35.138829999719647 ], [ -77.86819499075466, 35.137180000284161 ], [ -77.862999990835974, 35.136715000021312 ], [ -77.860204991506322, 35.133753999806274 ], [ -77.857175991767505, 35.126539999784676 ], [ -77.837328991117502, 35.109501999549444 ], [ -77.831619991421974, 35.102210999615771 ], [ -77.831574990734737, 35.09933100010371 ], [ -77.829618991620791, 35.098159999503288 ], [ -77.829867991536133, 35.092739999897226 ], [ -77.830838991239375, 35.091626000033919 ], [ -77.828620990771014, 35.085200000295096 ], [ -77.829052991141054, 35.083882999640707 ], [ -77.833507991105307, 35.080106999866167 ], [ -77.830702991180232, 35.078749000325132 ], [ -77.830492991799744, 35.077384999672446 ], [ -77.829191991714708, 35.07698400001938 ], [ -77.828885991590539, 35.075236000206047 ], [ -77.832717991678777, 35.070954999559007 ], [ -77.832205990986452, 35.069115999807913 ], [ -77.83416199092899, 35.063557000079626 ], [ -77.834168990991444, 35.065028999501536 ], [ -77.834422991451305, 35.064513999672648 ], [ -77.833973991734169, 35.062208000283171 ], [ -77.835095991706211, 35.060949999919792 ], [ -77.834787990872712, 35.059618000258531 ], [ -77.833679991452968, 35.059016999724413 ], [ -77.834283991283556, 35.053826999792264 ], [ -77.835813991469166, 35.051966999591166 ], [ -77.837677991692573, 35.051310999852639 ], [ -77.836852991719269, 35.048182000339224 ] ] ] } },
{ "type": "Feature", "properties": { "county": "DUPLIN", "precinct": "HALL", "enr_desc": "Hallsville", "winner": "Dexter Edwards", "winner_votes": 89.0, "winner_share": 68.992248062015506, "runner_up": "Tiffany Ferrell", "runner_up_votes": 40.0, "runner_up_share": 31.007751937984494, "contest_votes": 129.0, "margin_of_victory": 37.984496124031011, "is_tie": false, "results": [ { "candidate": "Dexter Edwards", "votes": 89, "share": 68.9922480620155 }, { "candidate": "Tiffany Ferrell", "votes": 40, "share": 31.007751937984494 } ], "participated": true, "map_key": "DUPLIN_HALL" }, "geometry": { "type": "Polygon", "coordinates": [ [ [ -77.86531499081822, 34.870363999475551 ], [ -77.863259991403339, 34.873237999940621 ], [ -77.864057991464108, 34.875897000125711 ], [ -77.86957399155321, 34.878419999598172 ], [ -77.882226991747032, 34.880353000333692 ], [ -77.889271991185183, 34.889645000148064 ], [ -77.881251991615528, 34.896396999716117 ], [ -77.871968991541763, 34.901675000024746 ], [ -77.869587991489055, 34.901602999884553 ], [ -77.862119991685958, 34.897871000163995 ], [ -77.860131991316592, 34.897584000255527 ], [ -77.858067991096277, 34.898573000159573 ], [ -77.853731991431687, 34.903726000012831 ], [ -77.843376991006224, 34.904858999700153 ], [ -77.840839991155931, 34.905987000142282 ], [ -77.843389991746065, 34.907748000341755 ], [ -77.844172991126825, 34.909578000007812 ], [ -77.845374990938026, 34.909643999952443 ], [ -77.845352991008667, 34.908553999908413 ], [ -77.84678199105538, 34.908538999501687 ], [ -77.847561991763612, 34.910222999988385 ], [ -77.849626991567916, 34.909420999556524 ], [ -77.848847990912176, 34.911096999493658 ], [ -77.852579991293737, 34.910814000183194 ], [ -77.853443991800773, 34.911082999949443 ], [ -77.853792991173847, 34.912550000361101 ], [ -77.85503999174378, 34.911645999734851 ], [ -77.858395991438115, 34.911845999565728 ], [ -77.8600759917462, 34.914137000052065 ], [ -77.861624991446618, 34.914300999542803 ], [ -77.861093991352845, 34.915714999851467 ], [ -77.863389991491132, 34.916527000160997 ], [ -77.862830991556194, 34.918314999684981 ], [ -77.864057991385963, 34.918331999620008 ], [ -77.863919990947309, 34.919631999550589 ], [ -77.866393991419102, 34.920606999808584 ], [ -77.867486991518689, 34.922905999813779 ], [ -77.866805991651717, 34.923236999759659 ], [ -77.867214991609941, 34.923956000308849 ], [ -77.865482991652172, 34.924629999830202 ], [ -77.866269991510364, 34.925842000198045 ], [ -77.865525991581947, 34.926586999798289 ], [ -77.864428991718768, 34.926144999765107 ], [ -77.863352991739831, 34.927467000362128 ], [ -77.862473991501616, 34.930822000291997 ], [ -77.863228991479829, 34.932604999917977 ], [ -77.861615991572563, 34.935363000092359 ], [ -77.859775991481328, 34.935629999584762 ], [ -77.859414990980056, 34.937822000017178 ], [ -77.860303990968688, 34.938158999508282 ], [ -77.861641991058761, 34.941837999828309 ], [ -77.860404990802337, 34.942042999792825 ], [ -77.859873991702443, 34.94344499973942 ], [ -77.86117199170863, 34.94396199956585 ], [ -77.859118991127474, 34.944078000298454 ], [ -77.859373991733335, 34.945142000301878 ], [ -77.858611991372328, 34.94600999984074 ], [ -77.861751991590211, 34.947263000182168 ], [ -77.86169599175156, 34.948511000284348 ], [ -77.862754991694402, 34.948334999766828 ], [ -77.862709991320543, 34.950960999709316 ], [ -77.864817991400557, 34.952675999942706 ], [ -77.863867990816274, 34.953550000117339 ], [ -77.864513991750968, 34.955352999797832 ], [ -77.863139990889565, 34.95591999974878 ], [ -77.86457499082951, 34.956364000278413 ], [ -77.86197499105927, 34.956840999645273 ], [ -77.863649990912663, 34.957595000074321 ], [ -77.864144990910702, 34.960829999805476 ], [ -77.865888991411069, 34.961647999679222 ], [ -77.865046991020932, 34.96267999968881 ], [ -77.865684990844386, 34.964254000034209 ], [ -77.867360990736074, 34.965431999737703 ], [ -77.867303991553612, 34.966207000088978 ], [ -77.869929990835359, 34.966814000334139 ], [ -77.86875099075813, 34.96873899949464 ], [ -77.869385991688247, 34.9696330000301 ], [ -77.868446990807584, 34.970248999606454 ], [ -77.868572991061171, 34.971601000116152 ], [ -77.869159991681016, 34.971965000291632 ], [ -77.87079599165439, 34.970264999492876 ], [ -77.871817991472255, 34.970661999903129 ], [ -77.87053299120366, 34.975540999617351 ], [ -77.868422990838909, 34.976275999596517 ], [ -77.867798991005273, 34.977943999705523 ], [ -77.862539991747596, 34.980095999648228 ], [ -77.86001999149255, 34.97914800001881 ], [ -77.856573991528066, 34.979346999557364 ], [ -77.84617799167826, 34.974655000334188 ], [ -77.837264991023019, 34.974664999904313 ], [ -77.826229990849555, 34.972403000049439 ], [ -77.811262990827245, 34.96515700025823 ], [ -77.802139991502429, 34.964356999498733 ], [ -77.805965991063985, 34.959760000042195 ], [ -77.801212991688914, 34.957336000134667 ], [ -77.8015389912579, 34.95272999957664 ], [ -77.800921990841715, 34.950589000127387 ], [ -77.799173990826191, 34.949086000203955 ], [ -77.797665991805403, 34.94424900010668 ], [ -77.798109991722583, 34.940733000214891 ], [ -77.797205991103553, 34.939015999561178 ], [ -77.798559991121323, 34.937382000229086 ], [ -77.79923699166045, 34.933241000026449 ], [ -77.801249991380402, 34.93171499957905 ], [ -77.800854991424899, 34.930665000006108 ], [ -77.802208991783615, 34.928857000288104 ], [ -77.802052990737579, 34.928013000346184 ], [ -77.796568991536745, 34.92715099977061 ], [ -77.795245991447658, 34.91592799954612 ], [ -77.796795990813536, 34.909649000347621 ], [ -77.798940991795334, 34.906668999639862 ], [ -77.798987991344745, 34.901988999655771 ], [ -77.805206991237881, 34.901430999709746 ], [ -77.806610991231665, 34.900243999835538 ], [ -77.807085991160079, 34.898418000189523 ], [ -77.784768991422581, 34.887068000102992 ], [ -77.789069990842151, 34.881391999843189 ], [ -77.791157990805999, 34.873149999794592 ], [ -77.787282991339566, 34.873139999599239 ], [ -77.780963991222265, 34.870798999528958 ], [ -77.782235991171348, 34.867035000277227 ], [ -77.781233991425694, 34.862057999979534 ], [ -77.784131990890273, 34.85318999964413 ], [ -77.787689991448531, 34.849730999810284 ], [ -77.792272991567899, 34.848766999901379 ], [ -77.797507991371759, 34.846346999694909 ], [ -77.797312990994826, 34.842649999766792 ], [ -77.799295991146607, 34.843226000197362 ], [ -77.80197599133345, 34.841007000077269 ], [ -77.805259991282298, 34.840830999641391 ], [ -77.805276991120095, 34.839218000293002 ], [ -77.804335990923391, 34.838818000199041 ], [ -77.803776991537333, 34.83681499971248 ], [ -77.804921990924427, 34.8352069998069 ], [ -77.807688991715722, 34.833666999858522 ], [ -77.808245991441268, 34.83439200016781 ], [ -77.81201699079844, 34.833957000067983 ], [ -77.813779990787282, 34.835838999665761 ], [ -77.818119991700684, 34.836466999722354 ], [ -77.822641991439184, 34.839672999564414 ], [ -77.825374991261455, 34.838430999845457 ], [ -77.82680199157592, 34.839181000295525 ], [ -77.830194991800226, 34.838520000347422 ], [ -77.832998991163961, 34.83896799971901 ], [ -77.833446991565935, 34.837966999534622 ], [ -77.835320990840344, 34.837752999828702 ], [ -77.837022991408418, 34.83490799998377 ], [ -77.838961991150327, 34.834170999798339 ], [ -77.839238991467028, 34.832478999740765 ], [ -77.840737991150277, 34.83227599977949 ], [ -77.842354990760057, 34.834557999934745 ], [ -77.846747991635283, 34.837371999793234 ], [ -77.850712991373683, 34.838485000307344 ], [ -77.851183991281317, 34.840720000227655 ], [ -77.853237990891515, 34.842455000334709 ], [ -77.854043991745314, 34.844246000260505 ], [ -77.858477990804658, 34.846806999501695 ], [ -77.858949991605925, 34.851625999603534 ], [ -77.856730991019944, 34.85634199956413 ], [ -77.854609991365663, 34.857451000358971 ], [ -77.853838991461089, 34.862730000365765 ], [ -77.854223991518097, 34.863786000316551 ], [ -77.855638991398521, 34.863786000017541 ], [ -77.860395991801568, 34.866689999637906 ], [ -77.860523991026355, 34.86769299953373 ], [ -77.862709991485076, 34.86975199971846 ], [ -77.86531499081822, 34.870363999475551 ] ] ] } },
{ "type": "Feature", "properties": { "county": null, "precinct": null, "enr_desc": "Kenansville", "winner": null, "winner_votes": null, "winner_share": null, "runner_up": null, "runner_up_votes": null, "runner_up_share": null, "contest_votes": null, "margin_of_victory": null, "is_tie": false, "results": null, "participated": false, "map_key": null }, "geometry": { "type": "Polygon", "coordinates": [ [ [ -77.86531499081822, 34.870363999475551 ], [ -77.868306991531853, 34.873523000289644 ], [ -77.871083991015212, 34.874540999652396 ], [ -77.873919990954221, 34.873543999828577 ], [ -77.876826991501474, 34.874167000253003 ], [ -77.879586991599254, 34.8737329996694 ], [ -77.884869991581994, 34.87599900000464 ], [ -77.887326991113056, 34.877972000302705 ], [ -77.892564991811355, 34.878507000058754 ], [ -77.903164991281173, 34.87471499957217 ], [ -77.904075991050803, 34.872462999509736 ], [ -77.910337991577478, 34.869162000040014 ], [ -77.911754991347749, 34.867178000064861 ], [ -77.914533991091787, 34.866949999836123 ], [ -77.920137990983406, 34.859140999738074 ], [ -77.925256991805909, 34.857908000052845 ], [ -77.930566990856448, 34.863085999709831 ], [ -77.937772991159875, 34.865301999569233 ], [ -77.939843991522736, 34.867333999563428 ], [ -77.943850991343098, 34.86912100004978 ], [ -77.946915991577868, 34.869508999931142 ], [ -77.951521991581842, 34.868672000329333 ], [ -77.951728991334505, 34.867039999499774 ], [ -77.953387990811038, 34.867280000272984 ], [ -77.95394699080984, 34.86653299991093 ], [ -77.960396991784023, 34.867436000265549 ], [ -77.961623991138921, 34.866439999534947 ], [ -77.963168991796806, 34.867611000162597 ], [ -77.96672099077594, 34.867905999921675 ], [ -77.973205991097529, 34.864416999926021 ], [ -77.976443991242959, 34.864769999851312 ], [ -77.981315991705799, 34.867004999765626 ], [ -77.984573991588547, 34.863310999512279 ], [ -77.99051599087116, 34.864958999560201 ], [ -77.992317991355193, 34.866418999940322 ], [ -77.994680991641559, 34.866959999503081 ], [ -77.997838991116538, 34.871887999725253 ], [ -78.000316991109671, 34.871778999726509 ], [ -78.002050991235024, 34.87401800001885 ], [ -78.004802991126596, 34.874552000071169 ], [ -78.009307990817902, 34.881346000301768 ], [ -78.012482991221177, 34.882449999605136 ], [ -78.014936990907913, 34.885372999532194 ], [ -78.018338991255533, 34.887508000346429 ], [ -78.018826991639543, 34.888546999882237 ], [ -78.018247991742172, 34.891883000365993 ], [ -78.020965991067129, 34.895004999585581 ], [ -78.021095991409453, 34.896604999936955 ], [ -78.02444499093086, 34.901197999504419 ], [ -78.028640991369514, 34.903087999543501 ], [ -78.030929991538159, 34.907768999977947 ], [ -78.03457299075842, 34.910445000349441 ], [ -78.036476990935967, 34.917999999935461 ], [ -78.04646599103279, 34.926698999508616 ], [ -78.047320991050228, 34.928238999759223 ], [ -78.047000991498095, 34.933910999600464 ], [ -78.050111991597518, 34.935581000347646 ], [ -78.038576991544616, 34.939780000241292 ], [ -78.043842991584015, 34.945152999595223 ], [ -78.043924991076153, 34.947494999533347 ], [ -78.039853990877504, 34.95157599962161 ], [ -78.038704990940374, 34.955112999907293 ], [ -78.03342699138544, 34.951349000194064 ], [ -78.032267991314441, 34.95541300004313 ], [ -78.028422991410238, 34.960028000178518 ], [ -78.028788991379187, 34.961909999835974 ], [ -78.031200991628381, 34.963868999668179 ], [ -78.035886991252113, 34.964607000187712 ], [ -78.046062991204238, 34.969270999971108 ], [ -78.04031799177838, 34.975121000279827 ], [ -78.039367991241704, 34.977718999964566 ], [ -78.019285990929092, 34.973343999647469 ], [ -78.015840991757386, 34.973247000185332 ], [ -78.020657991330324, 34.975425999630161 ], [ -78.015088991728518, 34.982568999964329 ], [ -78.010148991681987, 34.987238999621695 ], [ -78.009882991670352, 34.989340000300317 ], [ -78.017954991079748, 34.999650999644963 ], [ -78.019820990930455, 35.000379999845521 ], [ -78.025452990763654, 35.000087999652933 ], [ -78.029366991098854, 35.0046460001508 ], [ -78.029703990845718, 35.006132000282655 ], [ -78.028485991686821, 35.011067000340361 ], [ -78.020435991678994, 35.012309000319917 ], [ -78.003926990774247, 35.012282999544915 ], [ -78.011042991605422, 35.026740999919944 ], [ -78.008632991253009, 35.027905999639664 ], [ -78.000945991713166, 35.025173000158809 ], [ -77.996985990881228, 35.026524000069614 ], [ -77.990984990891164, 35.026378000068746 ], [ -77.987514990895903, 35.02789999987337 ], [ -77.986693991519971, 35.02865599985104 ], [ -77.987294991059613, 35.02930499977851 ], [ -77.984970991402633, 35.031956999715121 ], [ -77.983455991018914, 35.037168000321046 ], [ -77.979729991084341, 35.04059500035622 ], [ -77.979657991028759, 35.041739999513155 ], [ -77.973209991686076, 35.042495999574406 ], [ -77.967500990798783, 35.044380000229673 ], [ -77.962510991528248, 35.044480000088321 ], [ -77.961187991623419, 35.04587599950618 ], [ -77.9558079909919, 35.046973999961089 ], [ -77.953406991646276, 35.048718999479419 ], [ -77.954314991046303, 35.050494999618145 ], [ -77.95448999164357, 35.053858999854086 ], [ -77.948588991072995, 35.057980000205013 ], [ -77.946553991726333, 35.055735999899582 ], [ -77.94516899170641, 35.055264999872847 ], [ -77.944178991512501, 35.053551999755932 ], [ -77.9408889913596, 35.054476999496138 ], [ -77.940815991482495, 35.05633599996272 ], [ -77.938413991323088, 35.060108999652577 ], [ -77.93481299128382, 35.056480000093252 ], [ -77.933397991050299, 35.053072000163446 ], [ -77.927265991762724, 35.054201999552824 ], [ -77.925581991200858, 35.05146699959672 ], [ -77.918263990976612, 35.044825999514956 ], [ -77.911990991662009, 35.04606199981729 ], [ -77.910179991415902, 35.044789000088208 ], [ -77.904098990803874, 35.047127000280973 ], [ -77.904092991035256, 35.044933999606123 ], [ -77.899968991411157, 35.042944999714472 ], [ -77.898541990793788, 35.041149999781965 ], [ -77.896003991263115, 35.040850999509914 ], [ -77.892698991747551, 35.042076999514229 ], [ -77.889267991611277, 35.040566999579525 ], [ -77.884521990866688, 35.043981999784968 ], [ -77.879235991057413, 35.039317999681217 ], [ -77.871736991090216, 35.040609999764044 ], [ -77.865844990853162, 35.04016699977187 ], [ -77.864075991672337, 35.038081999702101 ], [ -77.860160991674718, 35.038088999952947 ], [ -77.858238991410516, 35.034755000093178 ], [ -77.854172990962198, 35.033686999732687 ], [ -77.852242990828131, 35.032255999922015 ], [ -77.851781991324344, 35.03182499984603 ], [ -77.852930991118157, 35.030458999571024 ], [ -77.851892991788475, 35.027648999862578 ], [ -77.850305991725463, 35.027686000314809 ], [ -77.848143991578524, 35.025180000010671 ], [ -77.84610099083983, 35.025097999903714 ], [ -77.846801991729137, 35.014479999907394 ], [ -77.844581991560489, 35.009702000183403 ], [ -77.847241990936325, 35.007577999478208 ], [ -77.846269991105856, 35.006651999633313 ], [ -77.846743991038608, 35.006082999708795 ], [ -77.848053991530705, 35.005786000352153 ], [ -77.848186991355661, 35.004751999677715 ], [ -77.84918499075421, 35.005312000186343 ], [ -77.850584990837262, 35.003642999816613 ], [ -77.850924991118418, 34.999564999663747 ], [ -77.852140991392531, 34.99673500032349 ], [ -77.853449991496461, 34.995320000338758 ], [ -77.855156991541151, 34.995319999469288 ], [ -77.854835991467041, 34.991593000364666 ], [ -77.861476991236799, 34.985425000085613 ], [ -77.859667991590669, 34.984130000002658 ], [ -77.861825991311576, 34.98270199990359 ], [ -77.860831991223435, 34.981922999888809 ], [ -77.862539991747596, 34.980095999648228 ], [ -77.867798991005273, 34.977943999705523 ], [ -77.868422990838909, 34.976275999596517 ], [ -77.87053299120366, 34.975540999617351 ], [ -77.871817991472255, 34.970661999903129 ], [ -77.87079599165439, 34.970264999492876 ], [ -77.869159991681016, 34.971965000291632 ], [ -77.868572991061171, 34.971601000116152 ], [ -77.868446990807584, 34.970248999606454 ], [ -77.869385991688247, 34.9696330000301 ], [ -77.86875099075813, 34.96873899949464 ], [ -77.869929990835359, 34.966814000334139 ], [ -77.867303991553612, 34.966207000088978 ], [ -77.867360990736074, 34.965431999737703 ], [ -77.865684990844386, 34.964254000034209 ], [ -77.865046991020932, 34.96267999968881 ], [ -77.865888991411069, 34.961647999679222 ], [ -77.864144990910702, 34.960829999805476 ], [ -77.863649990912663, 34.957595000074321 ], [ -77.86197499105927, 34.956840999645273 ], [ -77.86457499082951, 34.956364000278413 ], [ -77.863139990889565, 34.95591999974878 ], [ -77.864513991750968, 34.955352999797832 ], [ -77.863867990816274, 34.953550000117339 ], [ -77.864817991400557, 34.952675999942706 ], [ -77.862709991320543, 34.950960999709316 ], [ -77.862754991694402, 34.948334999766828 ], [ -77.86169599175156, 34.948511000284348 ], [ -77.861751991590211, 34.947263000182168 ], [ -77.858611991372328, 34.94600999984074 ], [ -77.859373991733335, 34.945142000301878 ], [ -77.859118991127474, 34.944078000298454 ], [ -77.86117199170863, 34.94396199956585 ], [ -77.859873991702443, 34.94344499973942 ], [ -77.860404990802337, 34.942042999792825 ], [ -77.861641991058761, 34.941837999828309 ], [ -77.860303990968688, 34.938158999508282 ], [ -77.859414990980056, 34.937822000017178 ], [ -77.859775991481328, 34.935629999584762 ], [ -77.861615991572563, 34.935363000092359 ], [ -77.863228991479829, 34.932604999917977 ], [ -77.862473991501616, 34.930822000291997 ], [ -77.863352991739831, 34.927467000362128 ], [ -77.864428991718768, 34.926144999765107 ], [ -77.865525991581947, 34.926586999798289 ], [ -77.866269991510364, 34.925842000198045 ], [ -77.865482991652172, 34.924629999830202 ], [ -77.867214991609941, 34.923956000308849 ], [ -77.866805991651717, 34.923236999759659 ], [ -77.867486991518689, 34.922905999813779 ], [ -77.866393991419102, 34.920606999808584 ], [ -77.863919990947309, 34.919631999550589 ], [ -77.864057991385963, 34.918331999620008 ], [ -77.862830991556194, 34.918314999684981 ], [ -77.863389991491132, 34.916527000160997 ], [ -77.861093991352845, 34.915714999851467 ], [ -77.861624991446618, 34.914300999542803 ], [ -77.8600759917462, 34.914137000052065 ], [ -77.858395991438115, 34.911845999565728 ], [ -77.85503999174378, 34.911645999734851 ], [ -77.853792991173847, 34.912550000361101 ], [ -77.853443991800773, 34.911082999949443 ], [ -77.852579991293737, 34.910814000183194 ], [ -77.848847990912176, 34.911096999493658 ], [ -77.849626991567916, 34.909420999556524 ], [ -77.847561991763612, 34.910222999988385 ], [ -77.84678199105538, 34.908538999501687 ], [ -77.845352991008667, 34.908553999908413 ], [ -77.845374990938026, 34.909643999952443 ], [ -77.844172991126825, 34.909578000007812 ], [ -77.843389991746065, 34.907748000341755 ], [ -77.840839991155931, 34.905987000142282 ], [ -77.843376991006224, 34.904858999700153 ], [ -77.853731991431687, 34.903726000012831 ], [ -77.858067991096277, 34.898573000159573 ], [ -77.860131991316592, 34.897584000255527 ], [ -77.862119991685958, 34.897871000163995 ], [ -77.869587991489055, 34.901602999884553 ], [ -77.871968991541763, 34.901675000024746 ], [ -77.881251991615528, 34.896396999716117 ], [ -77.889271991185183, 34.889645000148064 ], [ -77.882226991747032, 34.880353000333692 ], [ -77.86957399155321, 34.878419999598172 ], [ -77.864057991464108, 34.875897000125711 ], [ -77.863259991403339, 34.873237999940621 ], [ -77.86531499081822, 34.870363999475551 ] ] ] } },
{ "type": "Feature", "properties": { "county": null, "precinct": null, "enr_desc": "Magnolia", "winner": null, "winner_votes": null, "winner_share": null, "runner_up": null, "runner_up_votes": null, "runner_up_share": null, "contest_votes": null, "margin_of_victory": null, "is_tie": false, "results": null, "participated": false, "map_key": null }, "geometry": { "type": "Polygon", "coordinates": [ [ [ -78.176773991513826, 34.811325999989336 ], [ -78.147165991552228, 34.902390999988313 ], [ -78.143385991708385, 34.906466999958546 ], [ -78.141431990911784, 34.909961999757485 ], [ -78.142166991137699, 34.915744000303896 ], [ -78.141144990929689, 34.920863000114693 ], [ -78.135715991245121, 34.927593000040517 ], [ -78.135434990898062, 34.932461000028191 ], [ -78.133470991301721, 34.935026000373334 ], [ -78.133138991381912, 34.936956999988034 ], [ -78.125588991142109, 34.942795999893505 ], [ -78.119331991088288, 34.942568999817475 ], [ -78.114227991756209, 34.944088000159603 ], [ -78.107783991620636, 34.947528999904627 ], [ -78.103248991591101, 34.947167999945911 ], [ -78.101913991563492, 34.949202000351555 ], [ -78.094152991531232, 34.950922999708496 ], [ -78.091179990961876, 34.950788000218196 ], [ -78.089883991198576, 34.951796000311816 ], [ -78.08288299120305, 34.948691000192767 ], [ -78.063435991237625, 34.944259999867803 ], [ -78.050111991597518, 34.935581000347646 ], [ -78.047000991498095, 34.933910999600464 ], [ -78.047320991050228, 34.928238999759223 ], [ -78.04646599103279, 34.926698999508616 ], [ -78.036476990935967, 34.917999999935461 ], [ -78.03457299075842, 34.910445000349441 ], [ -78.030929991538159, 34.907768999977947 ], [ -78.028640991369514, 34.903087999543501 ], [ -78.02444499093086, 34.901197999504419 ], [ -78.021095991409453, 34.896604999936955 ], [ -78.020965991067129, 34.895004999585581 ], [ -78.018247991742172, 34.891883000365993 ], [ -78.018826991639543, 34.888546999882237 ], [ -78.018338991255533, 34.887508000346429 ], [ -78.014936990907913, 34.885372999532194 ], [ -78.012482991221177, 34.882449999605136 ], [ -78.009307990817902, 34.881346000301768 ], [ -78.004802991126596, 34.874552000071169 ], [ -78.002050991235024, 34.87401800001885 ], [ -78.000316991109671, 34.871778999726509 ], [ -77.997838991116538, 34.871887999725253 ], [ -77.994680991641559, 34.866959999503081 ], [ -77.992317991355193, 34.866418999940322 ], [ -77.99051599087116, 34.864958999560201 ], [ -77.992041991275343, 34.862801000306035 ], [ -77.99613099099237, 34.864301000222028 ], [ -78.002440991807873, 34.864815000299551 ], [ -78.003584991450921, 34.866206000041686 ], [ -78.004889991605765, 34.866168999628876 ], [ -78.006528991207944, 34.867421999874139 ], [ -78.009560991433887, 34.866204000188702 ], [ -78.012413991103813, 34.867610999488626 ], [ -78.017213991317973, 34.867823000001884 ], [ -78.022725991037262, 34.863510999764166 ], [ -78.024303990761837, 34.863892999815732 ], [ -78.033407991281649, 34.862438999810614 ], [ -78.035522991648094, 34.861996000026188 ], [ -78.035235991393094, 34.861265000333312 ], [ -78.042778990988182, 34.860509999717479 ], [ -78.050344991420374, 34.861795999915671 ], [ -78.06244399167521, 34.860750999508241 ], [ -78.073964991571415, 34.841433999737099 ], [ -78.075787991259432, 34.841382999723919 ], [ -78.076942991382339, 34.835649999624735 ], [ -78.080090990837064, 34.834532999591652 ], [ -78.084813991240139, 34.83052600032179 ], [ -78.087063991416954, 34.824830999901181 ], [ -78.08441799118674, 34.821303999822419 ], [ -78.084907991324144, 34.818761000175485 ], [ -78.090418991463864, 34.819533999702173 ], [ -78.101034990854473, 34.819293999971499 ], [ -78.108079991085191, 34.822935000279706 ], [ -78.113058991798056, 34.829739999633539 ], [ -78.115448990850311, 34.824604999511635 ], [ -78.114933991751499, 34.81840499990097 ], [ -78.116743991727887, 34.816843999759662 ], [ -78.121619991814072, 34.819793999570344 ], [ -78.131495991471269, 34.820018999744789 ], [ -78.134570991594146, 34.818664999875026 ], [ -78.140125991523419, 34.818005000031263 ], [ -78.143341991598589, 34.815302000043204 ], [ -78.150114991324699, 34.814313999785227 ], [ -78.154120991297702, 34.811936000242696 ], [ -78.158139991710613, 34.811814000259226 ], [ -78.161932990857053, 34.813762999498657 ], [ -78.167215990782196, 34.811008000087114 ], [ -78.176773991513826, 34.811325999989336 ] ] ] } },
{ "type": "Feature", "properties": { "county": null, "precinct": null, "enr_desc": "Warsaw", "winner": null, "winner_votes": null, "winner_share": null, "runner_up": null, "runner_up_votes": null, "runner_up_share": null, "contest_votes": null, "margin_of_victory": null, "is_tie": false, "results": null, "participated": false, "map_key": null }, "geometry": { "type": "Polygon", "coordinates": [ [ [ -78.050111991597518, 34.935581000347646 ], [ -78.063435991237625, 34.944259999867803 ], [ -78.08288299120305, 34.948691000192767 ], [ -78.089883991198576, 34.951796000311816 ], [ -78.091179990961876, 34.950788000218196 ], [ -78.094152991531232, 34.950922999708496 ], [ -78.101913991563492, 34.949202000351555 ], [ -78.103248991591101, 34.947167999945911 ], [ -78.107783991620636, 34.947528999904627 ], [ -78.114227991756209, 34.944088000159603 ], [ -78.119331991088288, 34.942568999817475 ], [ -78.125588991142109, 34.942795999893505 ], [ -78.133138991381912, 34.936956999988034 ], [ -78.133470991301721, 34.935026000373334 ], [ -78.135434990898062, 34.932461000028191 ], [ -78.135715991245121, 34.927593000040517 ], [ -78.141144990929689, 34.920863000114693 ], [ -78.142166991137699, 34.915744000303896 ], [ -78.141431990911784, 34.909961999757485 ], [ -78.143385991708385, 34.906466999958546 ], [ -78.147165991552228, 34.902390999988313 ], [ -78.157056991151492, 35.040380000324106 ], [ -78.150869991573529, 35.044365999571106 ], [ -78.149993991252387, 35.042802000098362 ], [ -78.148304991167635, 35.042196999838673 ], [ -78.131394991511385, 35.044053999869121 ], [ -78.123548990720039, 35.055103999890676 ], [ -78.115292991007095, 35.057196999614625 ], [ -78.107771990844611, 35.05623799963962 ], [ -78.101310991533097, 35.060038000211918 ], [ -78.09358799075244, 35.060864000031479 ], [ -78.087122991645643, 35.057592999846115 ], [ -78.082197990865723, 35.053106999808747 ], [ -78.05883099099367, 35.042112999567159 ], [ -78.014079991126849, 35.028758000186521 ], [ -78.011042991605422, 35.026740999919944 ], [ -78.003926990774247, 35.012282999544915 ], [ -78.020435991678994, 35.012309000319917 ], [ -78.028485991686821, 35.011067000340361 ], [ -78.029703990845718, 35.006132000282655 ], [ -78.029366991098854, 35.0046460001508 ], [ -78.025452990763654, 35.000087999652933 ], [ -78.019820990930455, 35.000379999845521 ], [ -78.017954991079748, 34.999650999644963 ], [ -78.009882991670352, 34.989340000300317 ], [ -78.010148991681987, 34.987238999621695 ], [ -78.015088991728518, 34.982568999964329 ], [ -78.020657991330324, 34.975425999630161 ], [ -78.015840991757386, 34.973247000185332 ], [ -78.019285990929092, 34.973343999647469 ], [ -78.039367991241704, 34.977718999964566 ], [ -78.04031799177838, 34.975121000279827 ], [ -78.046062991204238, 34.969270999971108 ], [ -78.035886991252113, 34.964607000187712 ], [ -78.031200991628381, 34.963868999668179 ], [ -78.028788991379187, 34.961909999835974 ], [ -78.028422991410238, 34.960028000178518 ], [ -78.032267991314441, 34.95541300004313 ], [ -78.03342699138544, 34.951349000194064 ], [ -78.038704990940374, 34.955112999907293 ], [ -78.039853990877504, 34.95157599962161 ], [ -78.043924991076153, 34.947494999533347 ], [ -78.043842991584015, 34.945152999595223 ], [ -78.038576991544616, 34.939780000241292 ], [ -78.050111991597518, 34.935581000347646 ] ] ] } },
{ "type": "Feature", "properties": { "county": null, "precinct": null, "enr_desc": "Rose Hill", "winner": null, "winner_votes": null, "winner_share": null, "runner_up": null, "runner_up_votes": null, "runner_up_share": null, "contest_votes": null, "margin_of_victory": null, "is_tie": false, "results": null, "participated": false, "map_key": null }, "geometry": { "type": "Polygon", "coordinates": [ [ [ -78.084907991324144, 34.818761000175485 ], [ -78.08441799118674, 34.821303999822419 ], [ -78.087063991416954, 34.824830999901181 ], [ -78.084813991240139, 34.83052600032179 ], [ -78.080090990837064, 34.834532999591652 ], [ -78.076942991382339, 34.835649999624735 ], [ -78.075787991259432, 34.841382999723919 ], [ -78.073964991571415, 34.841433999737099 ], [ -78.06244399167521, 34.860750999508241 ], [ -78.050344991420374, 34.861795999915671 ], [ -78.042778990988182, 34.860509999717479 ], [ -78.035235991393094, 34.861265000333312 ], [ -78.035522991648094, 34.861996000026188 ], [ -78.033407991281649, 34.862438999810614 ], [ -78.024303990761837, 34.863892999815732 ], [ -78.022725991037262, 34.863510999764166 ], [ -78.017213991317973, 34.867823000001884 ], [ -78.012413991103813, 34.867610999488626 ], [ -78.009560991433887, 34.866204000188702 ], [ -78.006528991207944, 34.867421999874139 ], [ -78.004889991605765, 34.866168999628876 ], [ -78.003584991450921, 34.866206000041686 ], [ -78.002440991807873, 34.864815000299551 ], [ -77.99613099099237, 34.864301000222028 ], [ -77.992041991275343, 34.862801000306035 ], [ -77.99051599087116, 34.864958999560201 ], [ -77.984573991588547, 34.863310999512279 ], [ -77.981315991705799, 34.867004999765626 ], [ -77.980531991603456, 34.865282000213838 ], [ -77.976415990990688, 34.862346999528256 ], [ -77.974594991511708, 34.859222999702105 ], [ -77.975593990895234, 34.856297999908868 ], [ -77.972611990790909, 34.852246999741396 ], [ -77.972467991742008, 34.849916000008086 ], [ -77.971117991294719, 34.847063999627856 ], [ -77.972781990952129, 34.837119000019705 ], [ -77.980327990734978, 34.837769000159625 ], [ -77.981020991132098, 34.837015999586818 ], [ -77.980587991536609, 34.834668999731306 ], [ -77.981826991434431, 34.832837999843768 ], [ -77.98127099158603, 34.831063999996061 ], [ -77.982662991404126, 34.828468999553259 ], [ -77.97677499075634, 34.824129999806082 ], [ -77.976204990897614, 34.821375999611952 ], [ -77.976748991795944, 34.820300999562946 ], [ -77.9747399912482, 34.81848399967862 ], [ -77.975375991184038, 34.817781999622021 ], [ -77.974141991701401, 34.817222999760602 ], [ -77.973531991071724, 34.816153999762143 ], [ -77.974002991140352, 34.815514000183576 ], [ -77.97259699100556, 34.814644000090709 ], [ -77.973015991378276, 34.813501999528711 ], [ -77.975285991543146, 34.812352999596101 ], [ -77.975490991743939, 34.810009000021957 ], [ -77.972810991193512, 34.808075000093559 ], [ -77.984993991166533, 34.81096199990705 ], [ -77.991243991503254, 34.809648999478142 ], [ -77.996122991047358, 34.810071999888208 ], [ -78.006032991498827, 34.808231000362035 ], [ -78.01894699142666, 34.808727999524656 ], [ -78.026459991370842, 34.80382700004813 ], [ -78.031799991408292, 34.801659999804748 ], [ -78.034979991414275, 34.801488000312183 ], [ -78.036068991175227, 34.793644000173934 ], [ -78.044920991820646, 34.789891999910743 ], [ -78.04538799082701, 34.786287999961694 ], [ -78.048443990984708, 34.783785999942936 ], [ -78.048318991734462, 34.782184999589255 ], [ -78.05103799105737, 34.778486000267662 ], [ -78.051082991659328, 34.775705999993896 ], [ -78.053909991009803, 34.774240999702371 ], [ -78.059111991247903, 34.776963000285015 ], [ -78.060471991693333, 34.779533999974412 ], [ -78.062845991139781, 34.779488000310785 ], [ -78.072178991321707, 34.785263999978007 ], [ -78.072037991029617, 34.786191000171364 ], [ -78.074259991217247, 34.787011999706444 ], [ -78.078110990839917, 34.79135599983524 ], [ -78.082699990922066, 34.793690999941795 ], [ -78.085206990790368, 34.797072999617512 ], [ -78.086907990988124, 34.808096999499988 ], [ -78.085640991432726, 34.810678000005993 ], [ -78.086184991767652, 34.813336000030944 ], [ -78.084907991324144, 34.818761000175485 ] ] ] } },
{ "type": "Feature", "properties": { "county": "DUPLIN", "precinct": "SMCA", "enr_desc": "Smith/Cabin", "winner": "Dexter Edwards", "winner_votes": 150.0, "winner_share": 67.567567567567565, "runner_up": "Tiffany Ferrell", "runner_up_votes": 72.0, "runner_up_share": 32.432432432432435, "contest_votes": 222.0, "margin_of_victory": 35.13513513513513, "is_tie": false, "results": [ { "candidate": "Dexter Edwards", "votes": 150, "share": 67.56756756756756 }, { "candidate": "Tiffany Ferrell", "votes": 72, "share": 32.432432432432435 } ], "participated": true, "map_key": "DUPLIN_SMCA" }, "geometry": { "type": "Polygon", "coordinates": [ [ [ -77.862539991747596, 34.980095999648228 ], [ -77.860831991223435, 34.981922999888809 ], [ -77.861825991311576, 34.98270199990359 ], [ -77.859667991590669, 34.984130000002658 ], [ -77.861476991236799, 34.985425000085613 ], [ -77.854835991467041, 34.991593000364666 ], [ -77.855156991541151, 34.995319999469288 ], [ -77.853449991496461, 34.995320000338758 ], [ -77.852140991392531, 34.99673500032349 ], [ -77.850924991118418, 34.999564999663747 ], [ -77.850584990837262, 35.003642999816613 ], [ -77.84918499075421, 35.005312000186343 ], [ -77.848186991355661, 35.004751999677715 ], [ -77.848053991530705, 35.005786000352153 ], [ -77.846743991038608, 35.006082999708795 ], [ -77.846269991105856, 35.006651999633313 ], [ -77.847241990936325, 35.007577999478208 ], [ -77.844581991560489, 35.009702000183403 ], [ -77.846801991729137, 35.014479999907394 ], [ -77.84610099083983, 35.025097999903714 ], [ -77.844704991744436, 35.026916000033061 ], [ -77.845453991418637, 35.028108000262179 ], [ -77.842292991040622, 35.03496999968884 ], [ -77.841766990763674, 35.038096999753492 ], [ -77.842302991289472, 35.039445000296766 ], [ -77.840586991674854, 35.042109999676839 ], [ -77.840473991537024, 35.044685000320179 ], [ -77.838507991779082, 35.047747999772149 ], [ -77.836852991719269, 35.048182000339224 ], [ -77.835963990919922, 35.049684000283705 ], [ -77.828218990884409, 35.051296999579478 ], [ -77.82447399134432, 35.056127999537672 ], [ -77.821976990982904, 35.056607000203897 ], [ -77.822268990710171, 35.057598000094686 ], [ -77.802173991112454, 35.056894999638615 ], [ -77.783668991407879, 35.059014999624026 ], [ -77.784201991728352, 35.061016999766167 ], [ -77.781574991486551, 35.062495000262317 ], [ -77.779378991122542, 35.065568000199896 ], [ -77.774159991734749, 35.069564999574354 ], [ -77.769245991599803, 35.070686999841449 ], [ -77.758210991296352, 35.069871000057375 ], [ -77.748039990847388, 35.071255999628072 ], [ -77.747506991243483, 35.058225000107967 ], [ -77.749179991103816, 35.058106000088088 ], [ -77.748899991491641, 35.051331000330464 ], [ -77.747225990806427, 35.051377000088507 ], [ -77.74603699111529, 35.02233999971196 ], [ -77.739642991610353, 35.016291999780194 ], [ -77.738672990861332, 35.009687999607941 ], [ -77.736275991060879, 35.003027999919588 ], [ -77.737167991673687, 34.994037000084646 ], [ -77.739156991666547, 34.992259000098734 ], [ -77.743278991203113, 34.991233999684752 ], [ -77.745307991745705, 34.987730000169087 ], [ -77.748623990722649, 34.984907000000973 ], [ -77.754955990875615, 34.983132000151485 ], [ -77.760116991643457, 34.979675000041169 ], [ -77.766118991477384, 34.95451899955043 ], [ -77.770526991606758, 34.955438999985454 ], [ -77.778632991087022, 34.959186999703675 ], [ -77.783092991413, 34.959566999632322 ], [ -77.794492991591838, 34.964512000183468 ], [ -77.802139991502429, 34.964356999498733 ], [ -77.811262990827245, 34.96515700025823 ], [ -77.826229990849555, 34.972403000049439 ], [ -77.837264991023019, 34.974664999904313 ], [ -77.84617799167826, 34.974655000334188 ], [ -77.856573991528066, 34.979346999557364 ], [ -77.86001999149255, 34.97914800001881 ], [ -77.862539991747596, 34.980095999648228 ] ] ] } },
{ "type": "Feature", "properties": { "county": null, "precinct": null, "enr_desc": "Wolfscrape", "winner": null, "winner_votes": null, "winner_share": null, "runner_up": null, "runner_up_votes": null, "runner_up_share": null, "contest_votes": null, "margin_of_victory": null, "is_tie": false, "results": null, "participated": false, "map_key": null }, "geometry": { "type": "Polygon", "coordinates": [ [ [ -77.946553991726333, 35.055735999899582 ], [ -77.948588991072995, 35.057980000205013 ], [ -77.952741991207276, 35.059924000021404 ], [ -77.956544990843071, 35.059671000267514 ], [ -77.959101991430302, 35.061649000296697 ], [ -77.961982990801957, 35.060886000293117 ], [ -77.96587899121964, 35.063090999610978 ], [ -77.970303990862888, 35.062320999969259 ], [ -77.971377991389105, 35.062961999767332 ], [ -77.975564991772146, 35.062814999541338 ], [ -77.978910991395821, 35.064321999518135 ], [ -77.981547990923033, 35.0639729998314 ], [ -77.982339991119815, 35.065129999752443 ], [ -77.985548991510015, 35.065625000261122 ], [ -77.987939991597287, 35.068048999590523 ], [ -77.989193991405656, 35.067972000110082 ], [ -77.991303991411229, 35.069702999720718 ], [ -77.995797991231584, 35.071077999810953 ], [ -77.999823990912546, 35.074462999660305 ], [ -78.001775991712876, 35.072432000211073 ], [ -78.004421991287515, 35.0746620003071 ], [ -78.004361991197257, 35.076237999824826 ], [ -78.006477991746792, 35.07650200007533 ], [ -78.008965991377451, 35.078508000326543 ], [ -78.012116990725957, 35.085239000294202 ], [ -78.015223991068126, 35.085636999756886 ], [ -78.016802991486401, 35.087411999713723 ], [ -78.022653991619066, 35.088812000264362 ], [ -78.026998991024428, 35.088027000023864 ], [ -78.028987991263349, 35.088678999924909 ], [ -78.031072991048802, 35.091326999510791 ], [ -78.034036991476185, 35.092116999819943 ], [ -78.035258990721843, 35.093421999807802 ], [ -78.035402990847231, 35.095156999559912 ], [ -78.038632991604374, 35.097689999756859 ], [ -78.040584990879836, 35.09845400008269 ], [ -78.043918991207605, 35.098121999650211 ], [ -78.050106991351157, 35.100507000238217 ], [ -78.053733990940785, 35.100430000229871 ], [ -78.055376991702616, 35.102317000068709 ], [ -78.055500991067859, 35.104470999568001 ], [ -78.054216991439773, 35.107527999825621 ], [ -78.052976990896212, 35.108501999667205 ], [ -78.053233991320809, 35.110672999788072 ], [ -78.051841991382901, 35.115193000044684 ], [ -78.050102990857582, 35.118040999913745 ], [ -78.046598990853894, 35.120993999723638 ], [ -78.044258990987728, 35.127890999906967 ], [ -78.040625991381248, 35.131634000237959 ], [ -78.040884990703461, 35.13366499990952 ], [ -78.043551991078644, 35.13636499965164 ], [ -78.043804990737769, 35.138091999611397 ], [ -78.043396991637536, 35.143296999693014 ], [ -78.040987991248173, 35.147823999504851 ], [ -78.037214991734871, 35.150213000142742 ], [ -78.028195991525905, 35.149051999932944 ], [ -78.025715990723015, 35.149781999939044 ], [ -78.02311399155785, 35.156522000013659 ], [ -78.021438991663871, 35.163865000149016 ], [ -78.019583991385517, 35.165361999514907 ], [ -78.024072991334791, 35.170186999642304 ], [ -78.02548999130849, 35.173190999720767 ], [ -78.03285799120323, 35.17525299982907 ], [ -78.042669991489376, 35.183667999952874 ], [ -78.047553990977391, 35.185196999623408 ], [ -78.052112991770514, 35.188416000169148 ], [ -78.04425099152661, 35.192584999961959 ], [ -78.033793990934569, 35.191808000159504 ], [ -78.026032991569068, 35.193655999960811 ], [ -78.020632990832809, 35.193967000342575 ], [ -78.017088991228164, 35.190884999745627 ], [ -78.006443991143897, 35.190791999640496 ], [ -77.99882699175096, 35.18789399960734 ], [ -77.994634991359092, 35.18315699992656 ], [ -77.984272990922818, 35.183886999896636 ], [ -77.981500991272, 35.180258000090355 ], [ -77.978324990739964, 35.170785000054025 ], [ -77.970108991091536, 35.165922000001352 ], [ -77.95345499088765, 35.165514999842372 ], [ -77.952304991651204, 35.166180000328822 ], [ -77.952331990706853, 35.167151000298816 ], [ -77.950304991499763, 35.167903999999815 ], [ -77.947034991563854, 35.171375999857027 ], [ -77.945061991569872, 35.17239699987212 ], [ -77.936038991316735, 35.170980999928062 ], [ -77.93003199152065, 35.173557000077075 ], [ -77.925670991305608, 35.172920000349208 ], [ -77.923450991783042, 35.171063000184759 ], [ -77.918888990964874, 35.169509000143591 ], [ -77.916701991688598, 35.167449000153383 ], [ -77.913223991526849, 35.16614699993238 ], [ -77.913163990819044, 35.165334000164222 ], [ -77.90960699114531, 35.162317999755018 ], [ -77.90927399096239, 35.157429999555639 ], [ -77.903964990929651, 35.154600999583771 ], [ -77.897100990882663, 35.148377999760754 ], [ -77.90031399077651, 35.143856999714657 ], [ -77.902023991693525, 35.134905999973221 ], [ -77.90977099178896, 35.125369999846782 ], [ -77.907312990718395, 35.118900999928769 ], [ -77.908911990845425, 35.106236000248408 ], [ -77.908627991635868, 35.099481000107971 ], [ -77.905663991067613, 35.089658999745559 ], [ -77.90603199132758, 35.085011000181701 ], [ -77.907301991234405, 35.081728000172632 ], [ -77.911682991766597, 35.074710999506749 ], [ -77.919053991423056, 35.076070000084997 ], [ -77.922530991102391, 35.071035000039871 ], [ -77.930329991278796, 35.066117000054284 ], [ -77.934049991077032, 35.064991999666482 ], [ -77.944436990971823, 35.06408300009177 ], [ -77.948495991604773, 35.060286999989131 ], [ -77.946553991726333, 35.055735999899582 ] ] ] } },
{ "type": "Feature", "properties": { "county": null, "precinct": null, "enr_desc": "Wallace", "winner": null, "winner_votes": null, "winner_share": null, "runner_up": null, "runner_up_votes": null, "runner_up_share": null, "contest_votes": null, "margin_of_victory": null, "is_tie": false, "results": null, "participated": false, "map_key": null }, "geometry": { "type": "Polygon", "coordinates": [ [ [ -77.835392990932775, 34.799752000351546 ], [ -77.833837990852146, 34.799338000071785 ], [ -77.834864991778687, 34.79824500012397 ], [ -77.833661991434582, 34.797687000350869 ], [ -77.834733991109616, 34.796792999696159 ], [ -77.834867991442636, 34.792765999984205 ], [ -77.837210991278042, 34.792194000092863 ], [ -77.837082991272212, 34.791084000182131 ], [ -77.838393991797687, 34.789098000226772 ], [ -77.835778990912203, 34.788727999645197 ], [ -77.835544991772991, 34.787865000036071 ], [ -77.836985991147486, 34.786373999697012 ], [ -77.837418991666496, 34.784049999573519 ], [ -77.835132990915426, 34.780634000298598 ], [ -77.835813990923768, 34.779857999473975 ], [ -77.833695990852902, 34.779338000159996 ], [ -77.833235990841416, 34.778515000108712 ], [ -77.833384991490973, 34.775561999765237 ], [ -77.835016990862371, 34.774542000095551 ], [ -77.839271991753705, 34.775615000145208 ], [ -77.851180991205226, 34.771596000021468 ], [ -77.866092991809722, 34.77174600018202 ], [ -77.895978991149178, 34.76862100034063 ], [ -77.902244991518131, 34.764538000041426 ], [ -77.900663991435565, 34.75952999994589 ], [ -77.902113991526747, 34.758990000351538 ], [ -77.902027991222397, 34.757752999715223 ], [ -77.904905991413699, 34.757249999844603 ], [ -77.906768991208679, 34.759025999937691 ], [ -77.908646991359845, 34.755847999519609 ], [ -77.910647991568453, 34.756654999581336 ], [ -77.911440991475288, 34.755905999768011 ], [ -77.910810991116364, 34.753200999912188 ], [ -77.913874991542599, 34.753964999791052 ], [ -77.914253991831131, 34.754496000038102 ], [ -77.913284991673024, 34.755513999973658 ], [ -77.915689991362299, 34.756124000058605 ], [ -77.914914991684356, 34.752508999661082 ], [ -77.916770990986137, 34.752089000017229 ], [ -77.918159991590855, 34.750504999554529 ], [ -77.915635991325885, 34.748630000010948 ], [ -77.914250991189434, 34.74563100020891 ], [ -77.915304991582786, 34.742775999843325 ], [ -77.911549991464454, 34.740045999823373 ], [ -77.911872990895034, 34.739422000308387 ], [ -77.913507991567243, 34.738365999627092 ], [ -77.91535699090268, 34.738714999496658 ], [ -77.916648991364127, 34.73792400004011 ], [ -77.918488991131625, 34.738520000322794 ], [ -77.920943991106427, 34.740448000028366 ], [ -77.920874991378426, 34.745002999598128 ], [ -77.922135991458376, 34.745657000278541 ], [ -77.924368991178284, 34.74295100030298 ], [ -77.924662991175907, 34.741474999759852 ], [ -77.930713991234882, 34.737895999902939 ], [ -77.932274990996589, 34.735244999558311 ], [ -77.931830991452998, 34.733778999746235 ], [ -77.925570991825523, 34.733126999910986 ], [ -77.923343991713693, 34.73134199961018 ], [ -77.920875991396542, 34.73064799966955 ], [ -77.917928991818926, 34.727637000111208 ], [ -77.917344990946688, 34.724575999907351 ], [ -77.919527991456633, 34.723532999623082 ], [ -77.921537991655114, 34.719746000338525 ], [ -77.930557991765951, 34.722991999926194 ], [ -77.933054991115412, 34.721994000061244 ], [ -77.935912991083924, 34.722403999672323 ], [ -77.935393991824014, 34.720745999769669 ], [ -77.937577991597976, 34.720230999902583 ], [ -77.93844599177892, 34.723386000223961 ], [ -77.940934991503724, 34.721024999668074 ], [ -77.939699991813526, 34.720058000262298 ], [ -77.944188991499985, 34.718870000216256 ], [ -77.946394991309987, 34.719109999478157 ], [ -77.949993991222883, 34.717595999818812 ], [ -77.95160699162561, 34.717860999647847 ], [ -77.952299990983946, 34.716503999663885 ], [ -77.951994991467245, 34.714718000009007 ], [ -77.956010991292416, 34.715145000091532 ], [ -77.956082991650675, 34.716452999910445 ], [ -77.95881299149535, 34.715863000119541 ], [ -77.95938299100078, 34.716400000168981 ], [ -77.958861991112499, 34.717376999599807 ], [ -77.961535990957017, 34.719957000181999 ], [ -77.962704991632748, 34.719138999899279 ], [ -77.96714299123002, 34.719125000211193 ], [ -77.970054991292471, 34.717735000202097 ], [ -77.970245990844745, 34.71945000033142 ], [ -77.974053990931196, 34.71914199954854 ], [ -77.975433991136484, 34.718464000040463 ], [ -77.973213991336195, 34.717720000339042 ], [ -77.974619991822081, 34.714585999662049 ], [ -77.975977990910621, 34.714486000268188 ], [ -77.976626991038273, 34.71654400024012 ], [ -77.979396991188437, 34.716933000269321 ], [ -77.97966799112433, 34.716061000072607 ], [ -77.978671991132742, 34.715093000372093 ], [ -77.980982991047938, 34.713890999692211 ], [ -77.981895991165118, 34.714455000052446 ], [ -77.981591990973968, 34.715927000105467 ], [ -77.983411991713012, 34.716262999502248 ], [ -77.984763990793795, 34.7148960003288 ], [ -77.987272990769938, 34.717458999894205 ], [ -77.991946990913377, 34.715979999575275 ], [ -77.994468991051079, 34.717125999734904 ], [ -77.996270991353242, 34.718449000042931 ], [ -77.995812991784021, 34.719761000083835 ], [ -77.997908991559086, 34.721758000237976 ], [ -78.003061991058388, 34.724027000209297 ], [ -78.002091991145434, 34.725151000245511 ], [ -78.002631991292247, 34.726107999482963 ], [ -78.004719991743897, 34.727016000368828 ], [ -78.006207991650101, 34.726055999781828 ], [ -78.008192991071041, 34.726473999762817 ], [ -78.00754799088925, 34.728665000310691 ], [ -78.008310991822626, 34.729194999588103 ], [ -78.009152991547595, 34.728705999813364 ], [ -78.010475991630116, 34.729800999849438 ], [ -78.009529991708007, 34.731525999668754 ], [ -78.012680990863217, 34.732630000201219 ], [ -78.014330991524147, 34.731187999753224 ], [ -78.016072991587336, 34.732556000120326 ], [ -78.01604399158424, 34.731645999650723 ], [ -78.017751990758953, 34.732321999940659 ], [ -78.021056991534053, 34.730497999667442 ], [ -78.021530991686888, 34.731015000217049 ], [ -78.023518990925268, 34.730444999491297 ], [ -78.025250991649358, 34.726319999567345 ], [ -78.026121991658471, 34.725892000247889 ], [ -78.028822991579204, 34.726777999978907 ], [ -78.029695991509001, 34.724756000148957 ], [ -78.030934991408103, 34.724951999571481 ], [ -78.031063991312436, 34.726751999613136 ], [ -78.032435991622194, 34.72754699968656 ], [ -78.03601699166046, 34.725805999871042 ], [ -78.036963991031541, 34.726129000281134 ], [ -78.036712990916968, 34.727400000010299 ], [ -78.039226991751306, 34.726142999498286 ], [ -78.040610991491903, 34.727616000139541 ], [ -78.041389991442244, 34.726759000159326 ], [ -78.045453991064079, 34.725759999723451 ], [ -78.052000991155907, 34.725120999722954 ], [ -78.054761990856719, 34.725600000168249 ], [ -78.056324990808491, 34.727019999852324 ], [ -78.062165991367024, 34.727849999846249 ], [ -78.06449399077556, 34.727096999597094 ], [ -78.066196990850827, 34.72786699987487 ], [ -78.069929991584928, 34.727042999837082 ], [ -78.070866991736906, 34.725455000337519 ], [ -78.074512991290007, 34.725280000110239 ], [ -78.081566991009055, 34.72257900004734 ], [ -78.087132991253782, 34.726068999995739 ], [ -78.091087991705393, 34.724379999543537 ], [ -78.094096990980987, 34.7240139998895 ], [ -78.097456991089516, 34.725594999888891 ], [ -78.10200199127118, 34.725604999487174 ], [ -78.10477599183217, 34.724098000248901 ], [ -78.113885991179046, 34.721886999919647 ], [ -78.117282991601456, 34.719619999811243 ], [ -78.120602991600748, 34.715882000357979 ], [ -78.128597991452267, 34.711318000084162 ], [ -78.135193990761636, 34.710200999512161 ], [ -78.150552991009704, 34.721964000367564 ], [ -78.198641991241516, 34.741636999748529 ], [ -78.176773991513826, 34.811325999989336 ], [ -78.167215990782196, 34.811008000087114 ], [ -78.161932990857053, 34.813762999498657 ], [ -78.158139991710613, 34.811814000259226 ], [ -78.154120991297702, 34.811936000242696 ], [ -78.150114991324699, 34.814313999785227 ], [ -78.143341991598589, 34.815302000043204 ], [ -78.140125991523419, 34.818005000031263 ], [ -78.134570991594146, 34.818664999875026 ], [ -78.131495991471269, 34.820018999744789 ], [ -78.121619991814072, 34.819793999570344 ], [ -78.116743991727887, 34.816843999759662 ], [ -78.114933991751499, 34.81840499990097 ], [ -78.115448990850311, 34.824604999511635 ], [ -78.113058991798056, 34.829739999633539 ], [ -78.108079991085191, 34.822935000279706 ], [ -78.101034990854473, 34.819293999971499 ], [ -78.090418991463864, 34.819533999702173 ], [ -78.084907991324144, 34.818761000175485 ], [ -78.086184991767652, 34.813336000030944 ], [ -78.085640991432726, 34.810678000005993 ], [ -78.086907990988124, 34.808096999499988 ], [ -78.085206990790368, 34.797072999617512 ], [ -78.082699990922066, 34.793690999941795 ], [ -78.078110990839917, 34.79135599983524 ], [ -78.074259991217247, 34.787011999706444 ], [ -78.072037991029617, 34.786191000171364 ], [ -78.072178991321707, 34.785263999978007 ], [ -78.062845991139781, 34.779488000310785 ], [ -78.060471991693333, 34.779533999974412 ], [ -78.059111991247903, 34.776963000285015 ], [ -78.053909991009803, 34.774240999702371 ], [ -78.051082991659328, 34.775705999993896 ], [ -78.05103799105737, 34.778486000267662 ], [ -78.048318991734462, 34.782184999589255 ], [ -78.048443990984708, 34.783785999942936 ], [ -78.04538799082701, 34.786287999961694 ], [ -78.044920991820646, 34.789891999910743 ], [ -78.036068991175227, 34.793644000173934 ], [ -78.034979991414275, 34.801488000312183 ], [ -78.031799991408292, 34.801659999804748 ], [ -78.026459991370842, 34.80382700004813 ], [ -78.01894699142666, 34.808727999524656 ], [ -78.006032991498827, 34.808231000362035 ], [ -77.996122991047358, 34.810071999888208 ], [ -77.991243991503254, 34.809648999478142 ], [ -77.984993991166533, 34.81096199990705 ], [ -77.972810991193512, 34.808075000093559 ], [ -77.971039991700209, 34.8056889995717 ], [ -77.973414990849378, 34.802725000168969 ], [ -77.968463991004612, 34.794709999633028 ], [ -77.958854991473814, 34.790079999993317 ], [ -77.951243991812419, 34.789560999490988 ], [ -77.947639990801065, 34.783892000019428 ], [ -77.936487991661323, 34.774599999851581 ], [ -77.935700991798683, 34.771290999890866 ], [ -77.936744991733264, 34.768903999812913 ], [ -77.936251991641242, 34.763884000028163 ], [ -77.935250991236117, 34.763964999569616 ], [ -77.926167990826812, 34.769545999693314 ], [ -77.929791991547134, 34.770245999959556 ], [ -77.92593099104667, 34.77386999951478 ], [ -77.925235991350021, 34.777677999670253 ], [ -77.922911991774342, 34.781619999709761 ], [ -77.918751991217775, 34.785987999944155 ], [ -77.917256991554396, 34.786626999794017 ], [ -77.910979991459058, 34.794618999574233 ], [ -77.907831991778963, 34.794272999574666 ], [ -77.906412991149949, 34.795403999519195 ], [ -77.894405991471302, 34.796297999634568 ], [ -77.860780991080446, 34.796615999513406 ], [ -77.837393991505323, 34.830458999492279 ], [ -77.832860991746401, 34.830875000003395 ], [ -77.831880991149177, 34.82855500033854 ], [ -77.833968991065731, 34.819892000308023 ], [ -77.831568991187737, 34.816536999748429 ], [ -77.831383991576487, 34.814424000074673 ], [ -77.832407991251799, 34.811310999542506 ], [ -77.833740991405946, 34.811961000044455 ], [ -77.835002991529947, 34.810982999725454 ], [ -77.835071991496321, 34.809866000285034 ], [ -77.837027990874546, 34.809542999561259 ], [ -77.836929991550193, 34.808618000353277 ], [ -77.838061991324551, 34.808252999543747 ], [ -77.837310991682827, 34.807026000192181 ], [ -77.838565991098349, 34.805520999747472 ], [ -77.835392990932775, 34.799752000351546 ] ] ] } }
]
}
