{
"type": "FeatureCollection",
"name": "franklin_county_board_of_education_district_05",
"crs": { "type": "name", "properties": { "name": "urn:ogc:def:crs:OGC:1.3:CRS84" } },
"features": [
{ "type": "Feature", "properties": { "county": null, "precinct": null, "enr_desc": "Louisburg City", "winner": null, "winner_votes": null, "winner_share": null, "runner_up": null, "runner_up_votes": null, "runner_up_share": null, "contest_votes": null, "margin_of_victory": null, "is_tie": false, "results": null, "participated": false, "map_key": null }, "geometry": { "type": "Polygon", "coordinates": [ [ [ -78.293899991137522, 36.11676600016434 ], [ -78.293596991670142, 36.115675999901775 ], [ -78.289672991373351, 36.116082999907661 ], [ -78.287948990941402, 36.115255999739105 ], [ -78.28733799144851, 36.112275999855413 ], [ -78.283307990953674, 36.112841999983161 ], [ -78.283420991566842, 36.113678999678314 ], [ -78.281255991535261, 36.114703999732285 ], [ -78.280500990593254, 36.11045999965215 ], [ -78.2775389913174, 36.110016000216817 ], [ -78.278747991297706, 36.108891000026496 ], [ -78.282641991166088, 36.109599999770026 ], [ -78.282813991390256, 36.111046000253502 ], [ -78.284180991092555, 36.111546999563537 ], [ -78.285390991384688, 36.110820000342066 ], [ -78.287356990690782, 36.111069999793891 ], [ -78.288072991075339, 36.110024999862503 ], [ -78.289742991026486, 36.109707999592032 ], [ -78.290186991651694, 36.107693000170379 ], [ -78.289000991265539, 36.106490999713564 ], [ -78.287755991247181, 36.102955000186704 ], [ -78.289603990830088, 36.102633999960723 ], [ -78.289626991566138, 36.103560999502747 ], [ -78.290909991241492, 36.103929000073308 ], [ -78.291362991515896, 36.101733000294523 ], [ -78.289527991016612, 36.100891999651097 ], [ -78.290477991194393, 36.098612999623683 ], [ -78.290412991122793, 36.09589299978061 ], [ -78.291992991180607, 36.092828999883203 ], [ -78.291371991262949, 36.090724000004343 ], [ -78.292643991222434, 36.088499000133652 ], [ -78.29610199091367, 36.092376999738548 ], [ -78.298322990677477, 36.088026000368103 ], [ -78.300783991120085, 36.086040999975744 ], [ -78.302742991101468, 36.085640999659354 ], [ -78.302480991071931, 36.083960000379292 ], [ -78.303269990845678, 36.083885999723805 ], [ -78.303429990935214, 36.081787000302505 ], [ -78.302921990818732, 36.081784000248625 ], [ -78.304935991216297, 36.080453999599037 ], [ -78.306340990836716, 36.080517000276771 ], [ -78.307033990849732, 36.082744999576882 ], [ -78.307802991633693, 36.082829000186294 ], [ -78.311403990723463, 36.081744999640257 ], [ -78.311464991493452, 36.082479000331226 ], [ -78.314578991464202, 36.0820559999041 ], [ -78.31298199070774, 36.080910000086192 ], [ -78.313708991092483, 36.080386000157247 ], [ -78.316386990730535, 36.082095000041839 ], [ -78.317407990684501, 36.081089999571546 ], [ -78.317723991558282, 36.084964000036969 ], [ -78.320975990609725, 36.086322000077615 ], [ -78.318408991695648, 36.093152999858276 ], [ -78.315174991346893, 36.093049999561842 ], [ -78.3150969909114, 36.091130999752757 ], [ -78.316521991287701, 36.088165000126132 ], [ -78.318738991118067, 36.085898000219807 ], [ -78.314516991454823, 36.085181999898133 ], [ -78.312698991229936, 36.086970000225854 ], [ -78.314539991567088, 36.087317000360791 ], [ -78.314717990650067, 36.089379999658831 ], [ -78.309803991240315, 36.089049000158589 ], [ -78.310421991037927, 36.091546999904658 ], [ -78.31207699101553, 36.091964000035453 ], [ -78.31031599169269, 36.095588999856353 ], [ -78.314247991182683, 36.099713000066536 ], [ -78.31207799141859, 36.100537000187494 ], [ -78.311643991389886, 36.100201000049871 ], [ -78.312843991271762, 36.099445000200262 ], [ -78.312292991204146, 36.098913000138332 ], [ -78.310916991537539, 36.09959600017698 ], [ -78.309061991095618, 36.097806999596116 ], [ -78.303360991693054, 36.105992000381505 ], [ -78.3007089906299, 36.11125999974378 ], [ -78.302927991594657, 36.111334999590454 ], [ -78.303741991335542, 36.113592000397695 ], [ -78.304626991097606, 36.113559000084202 ], [ -78.304756991562741, 36.114836000263416 ], [ -78.303707990928089, 36.115157999939917 ], [ -78.30509299148234, 36.116720000378059 ], [ -78.302742991113959, 36.116717000023087 ], [ -78.302665990651519, 36.115469999600656 ], [ -78.299372991404582, 36.114506999757232 ], [ -78.29891699093811, 36.115883999852528 ], [ -78.295927991326138, 36.115182000377253 ], [ -78.295341991254219, 36.116449000068556 ], [ -78.294416991085271, 36.11613099966781 ], [ -78.293899991137522, 36.11676600016434 ] ] ] } },
{ "type": "Feature", "properties": { "county": null, "precinct": null, "enr_desc": "Hayesville", "winner": null, "winner_votes": null, "winner_share": null, "runner_up": null, "runner_up_votes": null, "runner_up_share": null, "contest_votes": null, "margin_of_victory": null, "is_tie": false, "results": null, "participated": false, "map_key": null }, "geometry": { "type": "Polygon", "coordinates": [ [ [ -78.301544990705636, 36.177660000179671 ], [ -78.303187990648709, 36.17432499954711 ], [ -78.332799991106526, 36.172469000388901 ], [ -78.334082991222118, 36.167624999877354 ], [ -78.336057990826305, 36.165882999694965 ], [ -78.336818990954271, 36.16405299993702 ], [ -78.345371990664958, 36.164430999526701 ], [ -78.411411991492159, 36.170915999909148 ], [ -78.37813999146357, 36.235064999521057 ], [ -78.338134991190614, 36.234447999920583 ], [ -78.332566990951264, 36.241677000049101 ], [ -78.314800990802567, 36.256171000225748 ], [ -78.306964991064575, 36.26619099956541 ], [ -78.261026991285433, 36.260592000368781 ], [ -78.301544990705636, 36.177660000179671 ] ] ] } },
{ "type": "Feature", "properties": { "county": null, "precinct": null, "enr_desc": "West Louisburg Country", "winner": null, "winner_votes": null, "winner_share": null, "runner_up": null, "runner_up_votes": null, "runner_up_share": null, "contest_votes": null, "margin_of_victory": null, "is_tie": false, "results": null, "participated": false, "map_key": null }, "geometry": { "type": "Polygon", "coordinates": [ [ [ -78.359087991685968, 36.060044999915341 ], [ -78.33472699162148, 36.112018000183689 ], [ -78.326035991619747, 36.128887999614058 ], [ -78.32831899091731, 36.130408000306787 ], [ -78.3321819906147, 36.130024999629129 ], [ -78.331730991560121, 36.131420999526597 ], [ -78.335485991578736, 36.133866000165533 ], [ -78.335737990921814, 36.134898999844097 ], [ -78.33398899127765, 36.136383000101212 ], [ -78.336471991216854, 36.137024999789915 ], [ -78.337433990756793, 36.139930000163083 ], [ -78.338928991248878, 36.141396000178673 ], [ -78.338109990686945, 36.142973000145396 ], [ -78.338084991117555, 36.146063999764806 ], [ -78.340154991617112, 36.147301999732477 ], [ -78.339318991579361, 36.149046999911135 ], [ -78.340722990965418, 36.149040999588472 ], [ -78.340438991479147, 36.151627000205281 ], [ -78.342204991232464, 36.154192999659507 ], [ -78.345371990664958, 36.164430999526701 ], [ -78.336818990954271, 36.16405299993702 ], [ -78.336057990826305, 36.165882999694965 ], [ -78.334082991222118, 36.167624999877354 ], [ -78.332799991106526, 36.172469000388901 ], [ -78.303187990648709, 36.17432499954711 ], [ -78.301544990705636, 36.177660000179671 ], [ -78.295929990876047, 36.178952999760192 ], [ -78.29469799146419, 36.165714999765278 ], [ -78.294170991086602, 36.14410600005067 ], [ -78.293173991663707, 36.139539999784461 ], [ -78.296301991484938, 36.129948999962416 ], [ -78.293899991137522, 36.11676600016434 ], [ -78.294416991085271, 36.11613099966781 ], [ -78.295341991254219, 36.116449000068556 ], [ -78.295927991326138, 36.115182000377253 ], [ -78.29891699093811, 36.115883999852528 ], [ -78.299372991404582, 36.114506999757232 ], [ -78.302665990651519, 36.115469999600656 ], [ -78.302742991113959, 36.116717000023087 ], [ -78.30509299148234, 36.116720000378059 ], [ -78.303707990928089, 36.115157999939917 ], [ -78.304756991562741, 36.114836000263416 ], [ -78.304626991097606, 36.113559000084202 ], [ -78.303741991335542, 36.113592000397695 ], [ -78.302927991594657, 36.111334999590454 ], [ -78.3007089906299, 36.11125999974378 ], [ -78.303360991693054, 36.105992000381505 ], [ -78.309061991095618, 36.097806999596116 ], [ -78.310916991537539, 36.09959600017698 ], [ -78.312292991204146, 36.098913000138332 ], [ -78.312843991271762, 36.099445000200262 ], [ -78.311643991389886, 36.100201000049871 ], [ -78.31207799141859, 36.100537000187494 ], [ -78.314247991182683, 36.099713000066536 ], [ -78.31031599169269, 36.095588999856353 ], [ -78.31207699101553, 36.091964000035453 ], [ -78.310421991037927, 36.091546999904658 ], [ -78.309803991240315, 36.089049000158589 ], [ -78.314717990650067, 36.089379999658831 ], [ -78.314539991567088, 36.087317000360791 ], [ -78.312698991229936, 36.086970000225854 ], [ -78.314516991454823, 36.085181999898133 ], [ -78.318738991118067, 36.085898000219807 ], [ -78.316521991287701, 36.088165000126132 ], [ -78.3150969909114, 36.091130999752757 ], [ -78.315174991346893, 36.093049999561842 ], [ -78.318408991695648, 36.093152999858276 ], [ -78.320975990609725, 36.086322000077615 ], [ -78.317723991558282, 36.084964000036969 ], [ -78.317407990684501, 36.081089999571546 ], [ -78.316386990730535, 36.082095000041839 ], [ -78.313708991092483, 36.080386000157247 ], [ -78.31298199070774, 36.080910000086192 ], [ -78.314578991464202, 36.0820559999041 ], [ -78.311464991493452, 36.082479000331226 ], [ -78.311403990723463, 36.081744999640257 ], [ -78.307802991633693, 36.082829000186294 ], [ -78.307033990849732, 36.082744999576882 ], [ -78.306340990836716, 36.080517000276771 ], [ -78.304935991216297, 36.080453999599037 ], [ -78.302921990818732, 36.081784000248625 ], [ -78.303429990935214, 36.081787000302505 ], [ -78.303269990845678, 36.083885999723805 ], [ -78.302480991071931, 36.083960000379292 ], [ -78.302742991101468, 36.085640999659354 ], [ -78.300783991120085, 36.086040999975744 ], [ -78.298322990677477, 36.088026000368103 ], [ -78.29610199091367, 36.092376999738548 ], [ -78.292643991222434, 36.088499000133652 ], [ -78.292615991227592, 36.083974000378824 ], [ -78.29041499122566, 36.08331100001395 ], [ -78.290275990801149, 36.081748999496391 ], [ -78.284890990875752, 36.081455999697695 ], [ -78.28043799126533, 36.08332900023462 ], [ -78.274575990713586, 36.082293999860468 ], [ -78.272121991663496, 36.083437000393054 ], [ -78.27149999124309, 36.082908999933089 ], [ -78.271474991429528, 36.081285999958624 ], [ -78.272883991535565, 36.079551999599232 ], [ -78.275759990912277, 36.079003999937399 ], [ -78.278129991207834, 36.077283000249189 ], [ -78.27759499062023, 36.074585000294512 ], [ -78.280019991245055, 36.072593999766639 ], [ -78.280020990684648, 36.071701999737009 ], [ -78.278187991525243, 36.066576999860118 ], [ -78.275878991066591, 36.06875100038247 ], [ -78.273791990807851, 36.069298000122721 ], [ -78.27105699149503, 36.072038999897345 ], [ -78.26984499149988, 36.071768000265799 ], [ -78.267056990736194, 36.068811000266258 ], [ -78.265394991457967, 36.063230000004616 ], [ -78.268045991671229, 36.058152999841163 ], [ -78.26988099166681, 36.057049999822532 ], [ -78.269176991131943, 36.055133000233916 ], [ -78.269825990830284, 36.052307999610228 ], [ -78.329310990750599, 36.057410000370751 ], [ -78.359087991685968, 36.060044999915341 ] ] ] } },
{ "type": "Feature", "properties": { "county": null, "precinct": null, "enr_desc": "West Franklinton", "winner": null, "winner_votes": null, "winner_share": null, "runner_up": null, "runner_up_votes": null, "runner_up_share": null, "contest_votes": null, "margin_of_victory": null, "is_tie": false, "results": null, "participated": false, "map_key": null }, "geometry": { "type": "Polygon", "coordinates": [ [ [ -78.480655990829121, 36.071167000070673 ], [ -78.544930991276743, 36.077247000396 ], [ -78.544811990663419, 36.080845999771626 ], [ -78.496613991276391, 36.175198999631682 ], [ -78.495549991457395, 36.175520000406408 ], [ -78.495931991577464, 36.179658000384521 ], [ -78.493114991547742, 36.183721999729478 ], [ -78.492349991269236, 36.183941999983787 ], [ -78.487580990728176, 36.179984999839519 ], [ -78.484575990943256, 36.17906099995362 ], [ -78.485607991342022, 36.175094000070565 ], [ -78.476206990670946, 36.173664999822186 ], [ -78.473962991237627, 36.172581999875909 ], [ -78.466801990650566, 36.172556999607295 ], [ -78.460811991277637, 36.170043999772055 ], [ -78.460415990755962, 36.165947999816979 ], [ -78.458115990971393, 36.163723000314398 ], [ -78.455420991021583, 36.165082999671817 ], [ -78.45401299112369, 36.167996999675488 ], [ -78.44970699094263, 36.169087999759498 ], [ -78.453722991684742, 36.159145999848761 ], [ -78.450310991508815, 36.138970000023768 ], [ -78.450280990975415, 36.134191999603836 ], [ -78.454675990657663, 36.116156999588178 ], [ -78.458299991312046, 36.111752000397424 ], [ -78.456637990966314, 36.111835999945008 ], [ -78.454781991187929, 36.110401999537729 ], [ -78.453696991496173, 36.110935999754666 ], [ -78.453708991381774, 36.109757999660616 ], [ -78.449441991306031, 36.108481999867358 ], [ -78.447778990868954, 36.109025000385074 ], [ -78.447776990682982, 36.108056000102771 ], [ -78.445222991608759, 36.107310000235827 ], [ -78.445579991529144, 36.106469999783712 ], [ -78.439650991102724, 36.105066999975705 ], [ -78.439489991440041, 36.109494999988236 ], [ -78.43667599077726, 36.110199999676965 ], [ -78.437252990779612, 36.107381999578635 ], [ -78.432641990893387, 36.106454999656272 ], [ -78.432613991125393, 36.103871999597111 ], [ -78.433311991238767, 36.103329000314673 ], [ -78.428311991407242, 36.100883000272454 ], [ -78.42918399147392, 36.099178999679381 ], [ -78.435456990660398, 36.100922999800929 ], [ -78.435098991582208, 36.096715999565966 ], [ -78.436817991053431, 36.095984999974554 ], [ -78.437910990858754, 36.097970000154895 ], [ -78.442647991593972, 36.098148000001125 ], [ -78.442948991532504, 36.100728999839781 ], [ -78.447390991323473, 36.100960999857968 ], [ -78.447439990791025, 36.100325999576064 ], [ -78.448291991097761, 36.100414999802112 ], [ -78.447744991071872, 36.099025999627727 ], [ -78.449219991460623, 36.09892700031039 ], [ -78.448384990845426, 36.097180000217598 ], [ -78.449337991222478, 36.097814999628106 ], [ -78.450177990802899, 36.096856000301138 ], [ -78.453618991564781, 36.097334999770986 ], [ -78.454281990709063, 36.098329000332676 ], [ -78.45396099149248, 36.096337999972818 ], [ -78.458524991285998, 36.096748999994247 ], [ -78.45895099157363, 36.094603000158578 ], [ -78.459712990888292, 36.095814999780373 ], [ -78.457939991236458, 36.099177999660789 ], [ -78.460186991359706, 36.099484999794157 ], [ -78.461514990942192, 36.094687999516346 ], [ -78.463769991311082, 36.095831000064756 ], [ -78.464072991134429, 36.092416000158003 ], [ -78.463510991067224, 36.091933000098273 ], [ -78.464813991001634, 36.091774999924546 ], [ -78.46477299114683, 36.097934999957786 ], [ -78.463664990860423, 36.098454999667958 ], [ -78.46308999100259, 36.096739000012889 ], [ -78.461809990809826, 36.098902999992362 ], [ -78.462591990984848, 36.099254999627675 ], [ -78.463438990785718, 36.098563000109145 ], [ -78.464280991540761, 36.099907000124617 ], [ -78.466758991058882, 36.100783999779679 ], [ -78.473243990929504, 36.08885000029084 ], [ -78.476964991619553, 36.07844799986308 ], [ -78.480655990829121, 36.071167000070673 ] ] ] } },
{ "type": "Feature", "properties": { "county": "FRANKLIN", "precinct": "5", "enr_desc": "East Harris", "winner": "Chris Perry", "winner_votes": 177.0, "winner_share": 44.029850746268657, "runner_up": "Jonathan Vanderford", "runner_up_votes": 143.0, "runner_up_share": 35.572139303482587, "contest_votes": 402.0, "margin_of_victory": 8.4577114427860707, "is_tie": false, "results": [ { "candidate": "Chris Perry", "votes": 177, "share": 44.02985074626866 }, { "candidate": "Jonathan Vanderford", "votes": 143, "share": 35.57213930348259 }, { "candidate": "D. Ashley Cooper", "votes": 82, "share": 20.398009950248756 } ], "participated": true, "map_key": "FRANKLIN_5" }, "geometry": { "type": "Polygon", "coordinates": [ [ [ -78.314238991687304, 35.948536999780927 ], [ -78.32085299082253, 35.947246999974659 ], [ -78.324869991388411, 35.943113000267225 ], [ -78.339558991406108, 35.93736199958601 ], [ -78.346510991186406, 35.933213999691205 ], [ -78.353006991453043, 35.931612999992211 ], [ -78.353274990842323, 35.934085999793837 ], [ -78.356481990640646, 35.941994000252343 ], [ -78.356256991295965, 35.945188999642582 ], [ -78.357586990842464, 35.948457000391628 ], [ -78.357054991063805, 35.957514000112461 ], [ -78.358714991211784, 35.960719999606546 ], [ -78.356637991061092, 35.966506000291368 ], [ -78.35736599092013, 35.970889999808172 ], [ -78.349245991478966, 35.977574000303669 ], [ -78.347692991264722, 35.980777000236536 ], [ -78.348313991025989, 35.985460000341696 ], [ -78.344657991624231, 35.989541999777181 ], [ -78.343362991153867, 35.992413000049773 ], [ -78.345237990626401, 35.996006999966212 ], [ -78.347843991684286, 35.997893000274047 ], [ -78.346484991634441, 36.005206000294777 ], [ -78.347718991239347, 36.010655999720996 ], [ -78.349967991582716, 36.012719000344305 ], [ -78.347635990765923, 36.014716999998605 ], [ -78.343606991030384, 36.016484000192044 ], [ -78.340679990871692, 36.017121999953147 ], [ -78.338742990686214, 36.016432999830414 ], [ -78.334672991325604, 36.020761999690123 ], [ -78.334105991669944, 36.024599999742925 ], [ -78.330022991016222, 36.029027999826994 ], [ -78.33144899147932, 36.033868000015971 ], [ -78.330018990975873, 36.041687000054573 ], [ -78.333229991598685, 36.042593999875074 ], [ -78.335364991125616, 36.044737000018614 ], [ -78.333033991477137, 36.048801999622739 ], [ -78.328020990875842, 36.052186999750937 ], [ -78.329310990750599, 36.057410000370751 ], [ -78.269825990830284, 36.052307999610228 ], [ -78.267884991107906, 36.045675999942006 ], [ -78.264532990803119, 36.045292999581577 ], [ -78.259405991449654, 36.041443999937876 ], [ -78.260337991218108, 36.039906999889382 ], [ -78.259832990612779, 36.035902000125084 ], [ -78.251550990723047, 36.034297999803911 ], [ -78.244733991168346, 36.031256999862528 ], [ -78.247351991178093, 36.028352000344469 ], [ -78.255474991272095, 36.025491999855049 ], [ -78.253899990913268, 36.022743000135378 ], [ -78.25480199066152, 36.020781000023597 ], [ -78.255652990728322, 36.013769999502756 ], [ -78.252412991140829, 36.011281000365905 ], [ -78.251771991670452, 36.006425999718175 ], [ -78.247671990974524, 36.002772000312042 ], [ -78.241754991523152, 36.002383999809503 ], [ -78.236235990780429, 36.000373000244892 ], [ -78.232460990815198, 36.000898999512067 ], [ -78.230735990678284, 36.00016000012976 ], [ -78.230872991478691, 35.998694999769683 ], [ -78.232505991308557, 35.996822999737574 ], [ -78.241710991689118, 35.992951999613574 ], [ -78.240276990901677, 35.991277999588355 ], [ -78.240447990668713, 35.99036599952985 ], [ -78.288717991187838, 35.953467000058765 ], [ -78.314238991687304, 35.948536999780927 ] ] ] } },
{ "type": "Feature", "properties": { "county": null, "precinct": null, "enr_desc": "Bunn", "winner": null, "winner_votes": null, "winner_share": null, "runner_up": null, "runner_up_votes": null, "runner_up_share": null, "contest_votes": null, "margin_of_victory": null, "is_tie": false, "results": null, "participated": false, "map_key": null }, "geometry": { "type": "Polygon", "coordinates": [ [ [ -78.200228991591771, 35.909507000094962 ], [ -78.20282399078873, 35.912495000359385 ], [ -78.221804990756141, 35.907413999794592 ], [ -78.223200991359221, 35.909904999678695 ], [ -78.235183990880159, 35.911921000130128 ], [ -78.247825990989071, 35.911364999846896 ], [ -78.254508991184125, 35.913694000265338 ], [ -78.258222990905907, 35.917325000247523 ], [ -78.263268991475144, 35.917019999723351 ], [ -78.261389991094987, 35.927564999985691 ], [ -78.264259991313892, 35.927381999569917 ], [ -78.270371991519241, 35.932011999601244 ], [ -78.281880991656536, 35.934957999809704 ], [ -78.299200990691887, 35.943313999628735 ], [ -78.307423991136488, 35.945903000080094 ], [ -78.310410990959227, 35.947932999800251 ], [ -78.314238991687304, 35.948536999780927 ], [ -78.288717991187838, 35.953467000058765 ], [ -78.240447990668713, 35.99036599952985 ], [ -78.240751990838874, 35.988216000280744 ], [ -78.237455991280385, 35.983616000175623 ], [ -78.233118990837397, 35.981216999676036 ], [ -78.224867991183189, 35.979430999570226 ], [ -78.222670991253025, 35.977668000119614 ], [ -78.222448991271634, 35.976572000229616 ], [ -78.223883991645096, 35.973621999911487 ], [ -78.222921990808544, 35.969571999646533 ], [ -78.22061499165828, 35.966021000175836 ], [ -78.2219629917048, 35.96424100005531 ], [ -78.222637991530277, 35.958811999621169 ], [ -78.219005991573383, 35.955592000002639 ], [ -78.218640991075233, 35.952798000302558 ], [ -78.210868991621425, 35.946985000229098 ], [ -78.20642399070347, 35.946556999630708 ], [ -78.202737991051279, 35.945137000190108 ], [ -78.202229990861667, 35.94428700019391 ], [ -78.203018991678405, 35.939619000293582 ], [ -78.201580991489138, 35.936439999696425 ], [ -78.200230991665464, 35.935317999583006 ], [ -78.19510699106084, 35.933819999600622 ], [ -78.191067991699569, 35.938515999995211 ], [ -78.188239991357122, 35.939259000305803 ], [ -78.186336990841426, 35.938634999739214 ], [ -78.184196990915979, 35.935488999791865 ], [ -78.200228991591771, 35.909507000094962 ] ] ] } },
{ "type": "Feature", "properties": { "county": null, "precinct": null, "enr_desc": "Pearces", "winner": null, "winner_votes": null, "winner_share": null, "runner_up": null, "runner_up_votes": null, "runner_up_share": null, "contest_votes": null, "margin_of_victory": null, "is_tie": false, "results": null, "participated": false, "map_key": null }, "geometry": { "type": "Polygon", "coordinates": [ [ [ -78.298881990856287, 35.886897000075678 ], [ -78.302416991690492, 35.888699999602338 ], [ -78.303022991444692, 35.890588000149073 ], [ -78.305071991615549, 35.891047999781883 ], [ -78.303655991612885, 35.892144000048859 ], [ -78.307726990666779, 35.894805000105819 ], [ -78.307124990618021, 35.8967180000936 ], [ -78.308890990984921, 35.895929999748894 ], [ -78.312989991349752, 35.89732100004769 ], [ -78.317455991047581, 35.894562999667222 ], [ -78.319520991405341, 35.8942700003713 ], [ -78.319331990718823, 35.895331999561272 ], [ -78.320621991207489, 35.89600199994932 ], [ -78.328499990887508, 35.896726000324513 ], [ -78.331520990755976, 35.897934000100214 ], [ -78.332072991189818, 35.901008000089014 ], [ -78.33550799076761, 35.905819000208126 ], [ -78.338337991677179, 35.905850999683572 ], [ -78.340797991180935, 35.907406999750371 ], [ -78.343903991236942, 35.906797999968106 ], [ -78.350374991582541, 35.909516999940863 ], [ -78.351205990874959, 35.910844999884553 ], [ -78.35327699170594, 35.931055999683466 ], [ -78.354267991168527, 35.931196000298065 ], [ -78.353006991453043, 35.931612999992211 ], [ -78.346510991186406, 35.933213999691205 ], [ -78.339558991406108, 35.93736199958601 ], [ -78.324869991388411, 35.943113000267225 ], [ -78.32085299082253, 35.947246999974659 ], [ -78.314238991687304, 35.948536999780927 ], [ -78.310410990959227, 35.947932999800251 ], [ -78.307423991136488, 35.945903000080094 ], [ -78.299200990691887, 35.943313999628735 ], [ -78.281880991656536, 35.934957999809704 ], [ -78.270371991519241, 35.932011999601244 ], [ -78.264259991313892, 35.927381999569917 ], [ -78.261389991094987, 35.927564999985691 ], [ -78.263268991475144, 35.917019999723351 ], [ -78.266591991574771, 35.917200000017409 ], [ -78.269599991131429, 35.914587999684564 ], [ -78.272820991358898, 35.914678999660538 ], [ -78.278563990717174, 35.912591000216416 ], [ -78.282143990796371, 35.913572000104224 ], [ -78.283999990961846, 35.909116000338848 ], [ -78.290235991103728, 35.906314999716727 ], [ -78.289691991531384, 35.895042999758935 ], [ -78.294633990614699, 35.889724000256933 ], [ -78.298881990856287, 35.886897000075678 ] ] ] } },
{ "type": "Feature", "properties": { "county": null, "precinct": null, "enr_desc": "Cypress Creek", "winner": null, "winner_votes": null, "winner_share": null, "runner_up": null, "runner_up_votes": null, "runner_up_share": null, "contest_votes": null, "margin_of_victory": null, "is_tie": false, "results": null, "participated": false, "map_key": null }, "geometry": { "type": "Polygon", "coordinates": [ [ [ -78.240447990668713, 35.99036599952985 ], [ -78.240276990901677, 35.991277999588355 ], [ -78.241710991689118, 35.992951999613574 ], [ -78.232505991308557, 35.996822999737574 ], [ -78.230872991478691, 35.998694999769683 ], [ -78.230735990678284, 36.00016000012976 ], [ -78.232460990815198, 36.000898999512067 ], [ -78.236235990780429, 36.000373000244892 ], [ -78.241754991523152, 36.002383999809503 ], [ -78.247671990974524, 36.002772000312042 ], [ -78.251771991670452, 36.006425999718175 ], [ -78.252412991140829, 36.011281000365905 ], [ -78.255652990728322, 36.013769999502756 ], [ -78.25480199066152, 36.020781000023597 ], [ -78.253899990913268, 36.022743000135378 ], [ -78.255474991272095, 36.025491999855049 ], [ -78.247351991178093, 36.028352000344469 ], [ -78.244733991168346, 36.031256999862528 ], [ -78.251550990723047, 36.034297999803911 ], [ -78.259832990612779, 36.035902000125084 ], [ -78.260337991218108, 36.039906999889382 ], [ -78.259405991449654, 36.041443999937876 ], [ -78.264532990803119, 36.045292999581577 ], [ -78.267884991107906, 36.045675999942006 ], [ -78.269825990830284, 36.052307999610228 ], [ -78.224692990823726, 36.048343999534666 ], [ -78.127324991046009, 36.039144999694486 ], [ -78.117288990857389, 36.03751699965445 ], [ -78.184196990915979, 35.935488999791865 ], [ -78.186336990841426, 35.938634999739214 ], [ -78.188239991357122, 35.939259000305803 ], [ -78.191067991699569, 35.938515999995211 ], [ -78.19510699106084, 35.933819999600622 ], [ -78.200230991665464, 35.935317999583006 ], [ -78.201580991489138, 35.936439999696425 ], [ -78.203018991678405, 35.939619000293582 ], [ -78.202229990861667, 35.94428700019391 ], [ -78.202737991051279, 35.945137000190108 ], [ -78.20642399070347, 35.946556999630708 ], [ -78.210868991621425, 35.946985000229098 ], [ -78.218640991075233, 35.952798000302558 ], [ -78.219005991573383, 35.955592000002639 ], [ -78.222637991530277, 35.958811999621169 ], [ -78.2219629917048, 35.96424100005531 ], [ -78.22061499165828, 35.966021000175836 ], [ -78.222921990808544, 35.969571999646533 ], [ -78.223883991645096, 35.973621999911487 ], [ -78.222448991271634, 35.976572000229616 ], [ -78.222670991253025, 35.977668000119614 ], [ -78.224867991183189, 35.979430999570226 ], [ -78.233118990837397, 35.981216999676036 ], [ -78.237455991280385, 35.983616000175623 ], [ -78.240751990838874, 35.988216000280744 ], [ -78.240447990668713, 35.99036599952985 ] ] ] } },
{ "type": "Feature", "properties": { "county": null, "precinct": null, "enr_desc": "Cedar Rock", "winner": null, "winner_votes": null, "winner_share": null, "runner_up": null, "runner_up_votes": null, "runner_up_share": null, "contest_votes": null, "margin_of_victory": null, "is_tie": false, "results": null, "participated": false, "map_key": null }, "geometry": { "type": "Polygon", "coordinates": [ [ [ -78.224692990823726, 36.048343999534666 ], [ -78.189337991681299, 36.119600999594965 ], [ -78.176014990821997, 36.146600999947246 ], [ -78.052672990628324, 36.133857999877293 ], [ -78.117288990857389, 36.03751699965445 ], [ -78.127324991046009, 36.039144999694486 ], [ -78.224692990823726, 36.048343999534666 ] ] ] } },
{ "type": "Feature", "properties": { "county": null, "precinct": null, "enr_desc": "Gold Mine", "winner": null, "winner_votes": null, "winner_share": null, "runner_up": null, "runner_up_votes": null, "runner_up_share": null, "contest_votes": null, "margin_of_victory": null, "is_tie": false, "results": null, "participated": false, "map_key": null }, "geometry": { "type": "Polygon", "coordinates": [ [ [ -78.176014990821997, 36.146600999947246 ], [ -78.129692991574032, 36.239551000285438 ], [ -78.126768991339034, 36.236014000218702 ], [ -78.124969990934289, 36.235241999882113 ], [ -78.126619991619222, 36.23328099977951 ], [ -78.126138990805373, 36.232074999725008 ], [ -78.126801991148781, 36.229771000174019 ], [ -78.125133990935907, 36.228888000363675 ], [ -78.126207990650045, 36.228675999821107 ], [ -78.125240991636105, 36.227104999786434 ], [ -78.125703991681391, 36.226325000249489 ], [ -78.124640991149391, 36.225647999606572 ], [ -78.123795991503854, 36.226566999745899 ], [ -78.123024990793596, 36.2262589999903 ], [ -78.121699991584265, 36.223994000200264 ], [ -78.118906990707558, 36.22416100013951 ], [ -78.118844991076529, 36.223176000275814 ], [ -78.117346990993497, 36.222584999968952 ], [ -78.116492990660348, 36.218603999886852 ], [ -78.114838991551537, 36.216692999948563 ], [ -78.114213991658488, 36.216186999751024 ], [ -78.113349990948919, 36.217430000004029 ], [ -78.112026991478118, 36.217498999585921 ], [ -78.112351991132087, 36.216645999558466 ], [ -78.111667990579605, 36.215962000355212 ], [ -78.110549991404568, 36.216071999787339 ], [ -78.110412991010676, 36.213966000073967 ], [ -78.109367991611961, 36.213200000107236 ], [ -78.110765991213327, 36.211901000318846 ], [ -78.110068991530184, 36.210203999824252 ], [ -78.106991991482332, 36.209797999667103 ], [ -78.104906990863327, 36.210680999875244 ], [ -78.102681991439866, 36.208939999754172 ], [ -78.099420991288568, 36.209762000106544 ], [ -78.099860991039051, 36.210503000199218 ], [ -78.098364991104575, 36.210827000346036 ], [ -78.097427991661633, 36.208921000058204 ], [ -78.094269991150497, 36.21031499962757 ], [ -78.091854991250983, 36.209243999772333 ], [ -78.091605991037326, 36.207687999669453 ], [ -78.090459990991164, 36.20811200002067 ], [ -78.090548991159963, 36.208859999942128 ], [ -78.089438990854489, 36.208290999535564 ], [ -78.086958991502627, 36.208745000201603 ], [ -78.086379991058593, 36.209517999718805 ], [ -78.08491499091285, 36.209231999780485 ], [ -78.085427990783174, 36.209915000312982 ], [ -78.084283991039655, 36.210275000332388 ], [ -78.084503990938387, 36.211196000191308 ], [ -78.0839829916669, 36.210921999728761 ], [ -78.084048990963709, 36.211783000007628 ], [ -78.082787991549864, 36.212757999767568 ], [ -78.078872990738574, 36.211282000066262 ], [ -78.077013991613725, 36.211465000142582 ], [ -78.076384991463428, 36.213447999737618 ], [ -78.075245990699827, 36.213311000370425 ], [ -78.074717990935881, 36.214890999716104 ], [ -78.073848990971513, 36.214490999794528 ], [ -78.074019990650001, 36.215417000328209 ], [ -78.072254991573672, 36.215905999505786 ], [ -78.071327990605198, 36.215278999976022 ], [ -78.0718399910984, 36.216109000021177 ], [ -78.071009990626223, 36.216584999691129 ], [ -78.070788990828561, 36.215717000213395 ], [ -78.068770990737661, 36.215018000029794 ], [ -78.066146991409681, 36.216463999792921 ], [ -78.065150990662715, 36.215430999754972 ], [ -78.064200991363748, 36.215651999557771 ], [ -78.064271990900494, 36.214718000034026 ], [ -78.06336499070612, 36.214464999526697 ], [ -78.063735991551667, 36.213906999755295 ], [ -78.060916990789337, 36.214240000329468 ], [ -78.05996699127553, 36.212481000379405 ], [ -78.058144991080866, 36.21263499957459 ], [ -78.05847799066467, 36.211122000354102 ], [ -78.056975990982181, 36.211897999679842 ], [ -78.05679999081157, 36.210920999809261 ], [ -78.051114991289239, 36.214016999703183 ], [ -78.049230991479106, 36.213244999883372 ], [ -78.047984991354426, 36.214986000228485 ], [ -78.046534990965398, 36.214482999754559 ], [ -78.044714991187874, 36.215453000254648 ], [ -78.043337991348011, 36.213877999646378 ], [ -78.045428990644709, 36.212546000276753 ], [ -78.043947991531752, 36.211569999746253 ], [ -78.037201990694797, 36.21050399986084 ], [ -78.038945990979911, 36.208828000023473 ], [ -78.037640990975973, 36.208333000173887 ], [ -78.037124990825163, 36.208835999984785 ], [ -78.035594990998703, 36.206973999545404 ], [ -78.032898991616378, 36.207168999578357 ], [ -78.03241799157, 36.208818000274839 ], [ -78.031177990611795, 36.20900499962417 ], [ -78.030254991004, 36.211035000050757 ], [ -78.031561991166001, 36.213336999861824 ], [ -78.030467991226814, 36.2145390002364 ], [ -78.029036991399906, 36.212476000077224 ], [ -78.02875999102217, 36.210279999824692 ], [ -78.027866991304734, 36.210862999806331 ], [ -78.024692990825457, 36.20947999998733 ], [ -78.025169990581432, 36.208126000143125 ], [ -78.02383299122863, 36.208322000142751 ], [ -78.021421991625715, 36.205026000021121 ], [ -78.018557990669322, 36.205062999891631 ], [ -78.01849599130837, 36.206212999485246 ], [ -78.016158991569441, 36.207817999942804 ], [ -78.016019990764747, 36.20628200018772 ], [ -78.015251990618964, 36.207544999945291 ], [ -78.014287991295888, 36.207025999773258 ], [ -78.014091991269481, 36.20515999991278 ], [ -78.011665991567952, 36.20609399990888 ], [ -78.011666991032371, 36.20508600001093 ], [ -78.008719990590876, 36.204982999474183 ], [ -78.008322991327773, 36.203680999646593 ], [ -78.007720991199861, 36.204325999902878 ], [ -78.006550991054425, 36.202632999816117 ], [ -78.052672990628324, 36.133857999877293 ], [ -78.176014990821997, 36.146600999947246 ] ] ] } },
{ "type": "Feature", "properties": { "county": null, "precinct": null, "enr_desc": "Sandy Creek", "winner": null, "winner_votes": null, "winner_share": null, "runner_up": null, "runner_up_votes": null, "runner_up_share": null, "contest_votes": null, "margin_of_victory": null, "is_tie": false, "results": null, "participated": false, "map_key": null }, "geometry": { "type": "Polygon", "coordinates": [ [ [ -78.295929990876047, 36.178952999760192 ], [ -78.301544990705636, 36.177660000179671 ], [ -78.261026991285433, 36.260592000368781 ], [ -78.240425991350349, 36.257818999640328 ], [ -78.235704991154535, 36.258281000274302 ], [ -78.231954990955728, 36.257455999833525 ], [ -78.230257990921686, 36.255934999771881 ], [ -78.22478899123827, 36.256546999934493 ], [ -78.218910991544604, 36.25426200031297 ], [ -78.215728991487381, 36.251899999619134 ], [ -78.210338991219231, 36.252552000150281 ], [ -78.200655990973644, 36.250731000305976 ], [ -78.198795990941946, 36.251692000038133 ], [ -78.197666991544637, 36.24939699958648 ], [ -78.193921990993914, 36.246773000027453 ], [ -78.188941991156142, 36.24772399972985 ], [ -78.182961991085406, 36.251107000248759 ], [ -78.180915991432713, 36.251425999551294 ], [ -78.179522991430801, 36.25289999976409 ], [ -78.178368990681548, 36.2523629999733 ], [ -78.176497991511866, 36.253152999979179 ], [ -78.173171991464656, 36.255492000193598 ], [ -78.171524991610895, 36.253928000125931 ], [ -78.167920991072805, 36.252555999997611 ], [ -78.16194799105287, 36.247857999829456 ], [ -78.160873990655247, 36.245602999880177 ], [ -78.15955899089073, 36.245731999707381 ], [ -78.156982990668624, 36.244415999873169 ], [ -78.151093990995264, 36.245465000223952 ], [ -78.148726991363034, 36.24691699995423 ], [ -78.142340991547997, 36.24603799987262 ], [ -78.140651990959029, 36.247126000155241 ], [ -78.137640990990619, 36.247569999746098 ], [ -78.136256991214054, 36.245918999855604 ], [ -78.132960990901637, 36.246381999895341 ], [ -78.132375991409305, 36.245898999780479 ], [ -78.132688991358478, 36.244313999565662 ], [ -78.131320990703344, 36.243368999634299 ], [ -78.130759991348569, 36.240424999907233 ], [ -78.129692991574032, 36.239551000285438 ], [ -78.176014990821997, 36.146600999947246 ], [ -78.189337991681299, 36.119600999594965 ], [ -78.214143991053177, 36.15047700027943 ], [ -78.250400990678912, 36.153682999597557 ], [ -78.275100991430762, 36.154437000381726 ], [ -78.275542991650767, 36.183555000038936 ], [ -78.295929990876047, 36.178952999760192 ] ] ] } },
{ "type": "Feature", "properties": { "county": null, "precinct": null, "enr_desc": "Pilot", "winner": null, "winner_votes": null, "winner_share": null, "runner_up": null, "runner_up_votes": null, "runner_up_share": null, "contest_votes": null, "margin_of_victory": null, "is_tie": false, "results": null, "participated": false, "map_key": null }, "geometry": { "type": "Polygon", "coordinates": [ [ [ -78.298881990856287, 35.886897000075678 ], [ -78.294633990614699, 35.889724000256933 ], [ -78.289691991531384, 35.895042999758935 ], [ -78.290235991103728, 35.906314999716727 ], [ -78.283999990961846, 35.909116000338848 ], [ -78.282143990796371, 35.913572000104224 ], [ -78.278563990717174, 35.912591000216416 ], [ -78.272820991358898, 35.914678999660538 ], [ -78.269599991131429, 35.914587999684564 ], [ -78.266591991574771, 35.917200000017409 ], [ -78.263268991475144, 35.917019999723351 ], [ -78.258222990905907, 35.917325000247523 ], [ -78.254508991184125, 35.913694000265338 ], [ -78.247825990989071, 35.911364999846896 ], [ -78.235183990880159, 35.911921000130128 ], [ -78.223200991359221, 35.909904999678695 ], [ -78.221804990756141, 35.907413999794592 ], [ -78.20282399078873, 35.912495000359385 ], [ -78.200228991591771, 35.909507000094962 ], [ -78.255972991154451, 35.818119999910898 ], [ -78.256429991719727, 35.820961000343047 ], [ -78.255132991177234, 35.822453000076166 ], [ -78.25691499097303, 35.823591999537577 ], [ -78.254711990633865, 35.824362999963526 ], [ -78.254794990893586, 35.82639999964789 ], [ -78.253910991134006, 35.828118999837187 ], [ -78.255907990984426, 35.830219000083737 ], [ -78.258191990775757, 35.831038999977949 ], [ -78.260160990662911, 35.834256999815381 ], [ -78.262581991079642, 35.835945000151817 ], [ -78.262525990808285, 35.83753499999596 ], [ -78.264371991132634, 35.838466000297224 ], [ -78.264518991273604, 35.839335000291022 ], [ -78.26599299131334, 35.839619999724768 ], [ -78.267332991152529, 35.841592999616232 ], [ -78.267399991684144, 35.843220000224434 ], [ -78.268593991208661, 35.843361000337502 ], [ -78.269823990735219, 35.844989999651752 ], [ -78.269422990859738, 35.84568599976604 ], [ -78.270668990904113, 35.849352000138403 ], [ -78.270173990771781, 35.850856999916147 ], [ -78.271594991390089, 35.852905000243389 ], [ -78.272810990706645, 35.857499999993657 ], [ -78.275093990950836, 35.859089999733456 ], [ -78.275285990976627, 35.862283999977684 ], [ -78.278013991667422, 35.86733499991422 ], [ -78.278890990617313, 35.868098999974002 ], [ -78.281104991644966, 35.8681289996942 ], [ -78.281606990958579, 35.871161999838769 ], [ -78.284315991015845, 35.874577999901227 ], [ -78.289940991108764, 35.876596999765702 ], [ -78.291080991364566, 35.880565000143584 ], [ -78.295372991612822, 35.881384999891459 ], [ -78.296171991672182, 35.8837299997383 ], [ -78.295801991376834, 35.884877999693266 ], [ -78.297693990629355, 35.886282999543496 ], [ -78.297028990967348, 35.886834000062159 ], [ -78.298881990856287, 35.886897000075678 ] ] ] } },
{ "type": "Feature", "properties": { "county": "FRANKLIN", "precinct": "14", "enr_desc": "East Youngsville", "winner": "Jonathan Vanderford", "winner_votes": 338.0, "winner_share": 44.415243101182654, "runner_up": "Chris Perry", "runner_up_votes": 233.0, "runner_up_share": 30.617608409986858, "contest_votes": 761.0, "margin_of_victory": 13.797634691195796, "is_tie": false, "results": [ { "candidate": "Jonathan Vanderford", "votes": 338, "share": 44.415243101182654 }, { "candidate": "Chris Perry", "votes": 233, "share": 30.617608409986858 }, { "candidate": "D. Ashley Cooper", "votes": 190, "share": 24.96714848883049 } ], "participated": true, "map_key": "FRANKLIN_14" }, "geometry": { "type": "Polygon", "coordinates": [ [ [ -78.435072991616451, 35.978430000065451 ], [ -78.4480649909801, 35.983831999568956 ], [ -78.453436990677474, 35.991942000110633 ], [ -78.457668990658817, 36.010011000245051 ], [ -78.459990990854237, 36.012684000287329 ], [ -78.47052799062844, 36.019257000128491 ], [ -78.470014990985945, 36.019271999633467 ], [ -78.470225990848832, 36.025232999791704 ], [ -78.463971991201674, 36.02450300002009 ], [ -78.458906991471622, 36.027392999792283 ], [ -78.457749991630223, 36.028509999757823 ], [ -78.456661991007621, 36.032700999600003 ], [ -78.447044991569044, 36.041700000217716 ], [ -78.438889991653141, 36.043730000402526 ], [ -78.437303990775149, 36.047221999790352 ], [ -78.437183991314384, 36.050841999964753 ], [ -78.431671991109098, 36.060208000089766 ], [ -78.431246990864366, 36.066527000384319 ], [ -78.359087991685968, 36.060044999915341 ], [ -78.39349899080743, 35.990962999689714 ], [ -78.435072991616451, 35.978430000065451 ] ] ] } },
{ "type": "Feature", "properties": { "county": null, "precinct": null, "enr_desc": "East Franklinton", "winner": null, "winner_votes": null, "winner_share": null, "runner_up": null, "runner_up_votes": null, "runner_up_share": null, "contest_votes": null, "margin_of_victory": null, "is_tie": false, "results": null, "participated": false, "map_key": null }, "geometry": { "type": "Polygon", "coordinates": [ [ [ -78.431246990864366, 36.066527000384319 ], [ -78.458621991178816, 36.069662000261403 ], [ -78.480655990829121, 36.071167000070673 ], [ -78.476964991619553, 36.07844799986308 ], [ -78.473243990929504, 36.08885000029084 ], [ -78.466758991058882, 36.100783999779679 ], [ -78.464280991540761, 36.099907000124617 ], [ -78.463438990785718, 36.098563000109145 ], [ -78.462591990984848, 36.099254999627675 ], [ -78.461809990809826, 36.098902999992362 ], [ -78.46308999100259, 36.096739000012889 ], [ -78.463664990860423, 36.098454999667958 ], [ -78.46477299114683, 36.097934999957786 ], [ -78.464813991001634, 36.091774999924546 ], [ -78.463510991067224, 36.091933000098273 ], [ -78.464072991134429, 36.092416000158003 ], [ -78.463769991311082, 36.095831000064756 ], [ -78.461514990942192, 36.094687999516346 ], [ -78.460186991359706, 36.099484999794157 ], [ -78.457939991236458, 36.099177999660789 ], [ -78.459712990888292, 36.095814999780373 ], [ -78.45895099157363, 36.094603000158578 ], [ -78.458524991285998, 36.096748999994247 ], [ -78.45396099149248, 36.096337999972818 ], [ -78.454281990709063, 36.098329000332676 ], [ -78.453618991564781, 36.097334999770986 ], [ -78.450177990802899, 36.096856000301138 ], [ -78.449337991222478, 36.097814999628106 ], [ -78.448384990845426, 36.097180000217598 ], [ -78.449219991460623, 36.09892700031039 ], [ -78.447744991071872, 36.099025999627727 ], [ -78.448291991097761, 36.100414999802112 ], [ -78.447439990791025, 36.100325999576064 ], [ -78.447390991323473, 36.100960999857968 ], [ -78.442948991532504, 36.100728999839781 ], [ -78.442647991593972, 36.098148000001125 ], [ -78.437910990858754, 36.097970000154895 ], [ -78.436817991053431, 36.095984999974554 ], [ -78.435098991582208, 36.096715999565966 ], [ -78.435456990660398, 36.100922999800929 ], [ -78.42918399147392, 36.099178999679381 ], [ -78.428311991407242, 36.100883000272454 ], [ -78.433311991238767, 36.103329000314673 ], [ -78.432613991125393, 36.103871999597111 ], [ -78.432641990893387, 36.106454999656272 ], [ -78.437252990779612, 36.107381999578635 ], [ -78.43667599077726, 36.110199999676965 ], [ -78.439489991440041, 36.109494999988236 ], [ -78.439650991102724, 36.105066999975705 ], [ -78.445579991529144, 36.106469999783712 ], [ -78.445222991608759, 36.107310000235827 ], [ -78.447776990682982, 36.108056000102771 ], [ -78.447778990868954, 36.109025000385074 ], [ -78.449441991306031, 36.108481999867358 ], [ -78.453708991381774, 36.109757999660616 ], [ -78.453696991496173, 36.110935999754666 ], [ -78.454781991187929, 36.110401999537729 ], [ -78.456637990966314, 36.111835999945008 ], [ -78.458299991312046, 36.111752000397424 ], [ -78.454675990657663, 36.116156999588178 ], [ -78.450280990975415, 36.134191999603836 ], [ -78.450310991508815, 36.138970000023768 ], [ -78.453722991684742, 36.159145999848761 ], [ -78.44970699094263, 36.169087999759498 ], [ -78.448079991182453, 36.168162999657689 ], [ -78.440761991223695, 36.167798999632282 ], [ -78.435926990657492, 36.166290000361819 ], [ -78.431816991382988, 36.166685999926237 ], [ -78.431316990760777, 36.166141999770396 ], [ -78.432504991603565, 36.164424999512136 ], [ -78.424930991299817, 36.163637000336024 ], [ -78.421336991489255, 36.164572000031875 ], [ -78.422227991263497, 36.165999999727006 ], [ -78.42200899157227, 36.168091000197784 ], [ -78.417942991541196, 36.167505999962898 ], [ -78.416716991312498, 36.169269999523976 ], [ -78.412094990788262, 36.169596999857056 ], [ -78.411411991492159, 36.170915999909148 ], [ -78.345371990664958, 36.164430999526701 ], [ -78.342204991232464, 36.154192999659507 ], [ -78.340438991479147, 36.151627000205281 ], [ -78.340722990965418, 36.149040999588472 ], [ -78.339318991579361, 36.149046999911135 ], [ -78.340154991617112, 36.147301999732477 ], [ -78.338084991117555, 36.146063999764806 ], [ -78.338109990686945, 36.142973000145396 ], [ -78.338928991248878, 36.141396000178673 ], [ -78.337433990756793, 36.139930000163083 ], [ -78.336471991216854, 36.137024999789915 ], [ -78.33398899127765, 36.136383000101212 ], [ -78.335737990921814, 36.134898999844097 ], [ -78.335485991578736, 36.133866000165533 ], [ -78.331730991560121, 36.131420999526597 ], [ -78.3321819906147, 36.130024999629129 ], [ -78.32831899091731, 36.130408000306787 ], [ -78.326035991619747, 36.128887999614058 ], [ -78.33472699162148, 36.112018000183689 ], [ -78.359087991685968, 36.060044999915341 ], [ -78.431246990864366, 36.066527000384319 ] ] ] } },
{ "type": "Feature", "properties": { "county": null, "precinct": null, "enr_desc": "East  Louisburg Country", "winner": null, "winner_votes": null, "winner_share": null, "runner_up": null, "runner_up_votes": null, "runner_up_share": null, "contest_votes": null, "margin_of_victory": null, "is_tie": false, "results": null, "participated": false, "map_key": null }, "geometry": { "type": "Polygon", "coordinates": [ [ [ -78.293899991137522, 36.11676600016434 ], [ -78.296301991484938, 36.129948999962416 ], [ -78.293173991663707, 36.139539999784461 ], [ -78.294170991086602, 36.14410600005067 ], [ -78.29469799146419, 36.165714999765278 ], [ -78.295929990876047, 36.178952999760192 ], [ -78.275542991650767, 36.183555000038936 ], [ -78.275100991430762, 36.154437000381726 ], [ -78.250400990678912, 36.153682999597557 ], [ -78.214143991053177, 36.15047700027943 ], [ -78.189337991681299, 36.119600999594965 ], [ -78.224692990823726, 36.048343999534666 ], [ -78.269825990830284, 36.052307999610228 ], [ -78.269176991131943, 36.055133000233916 ], [ -78.26988099166681, 36.057049999822532 ], [ -78.268045991671229, 36.058152999841163 ], [ -78.265394991457967, 36.063230000004616 ], [ -78.267056990736194, 36.068811000266258 ], [ -78.26984499149988, 36.071768000265799 ], [ -78.27105699149503, 36.072038999897345 ], [ -78.273791990807851, 36.069298000122721 ], [ -78.275878991066591, 36.06875100038247 ], [ -78.278187991525243, 36.066576999860118 ], [ -78.280020990684648, 36.071701999737009 ], [ -78.280019991245055, 36.072593999766639 ], [ -78.27759499062023, 36.074585000294512 ], [ -78.278129991207834, 36.077283000249189 ], [ -78.275759990912277, 36.079003999937399 ], [ -78.272883991535565, 36.079551999599232 ], [ -78.271474991429528, 36.081285999958624 ], [ -78.27149999124309, 36.082908999933089 ], [ -78.272121991663496, 36.083437000393054 ], [ -78.274575990713586, 36.082293999860468 ], [ -78.28043799126533, 36.08332900023462 ], [ -78.284890990875752, 36.081455999697695 ], [ -78.290275990801149, 36.081748999496391 ], [ -78.29041499122566, 36.08331100001395 ], [ -78.292615991227592, 36.083974000378824 ], [ -78.292643991222434, 36.088499000133652 ], [ -78.291371991262949, 36.090724000004343 ], [ -78.291992991180607, 36.092828999883203 ], [ -78.290412991122793, 36.09589299978061 ], [ -78.290477991194393, 36.098612999623683 ], [ -78.289527991016612, 36.100891999651097 ], [ -78.291362991515896, 36.101733000294523 ], [ -78.290909991241492, 36.103929000073308 ], [ -78.289626991566138, 36.103560999502747 ], [ -78.289603990830088, 36.102633999960723 ], [ -78.287755991247181, 36.102955000186704 ], [ -78.289000991265539, 36.106490999713564 ], [ -78.290186991651694, 36.107693000170379 ], [ -78.289742991026486, 36.109707999592032 ], [ -78.288072991075339, 36.110024999862503 ], [ -78.287356990690782, 36.111069999793891 ], [ -78.285390991384688, 36.110820000342066 ], [ -78.284180991092555, 36.111546999563537 ], [ -78.282813991390256, 36.111046000253502 ], [ -78.282641991166088, 36.109599999770026 ], [ -78.278747991297706, 36.108891000026496 ], [ -78.2775389913174, 36.110016000216817 ], [ -78.280500990593254, 36.11045999965215 ], [ -78.281255991535261, 36.114703999732285 ], [ -78.283420991566842, 36.113678999678314 ], [ -78.283307990953674, 36.112841999983161 ], [ -78.28733799144851, 36.112275999855413 ], [ -78.287948990941402, 36.115255999739105 ], [ -78.289672991373351, 36.116082999907661 ], [ -78.293596991670142, 36.115675999901775 ], [ -78.293899991137522, 36.11676600016434 ] ] ] } },
{ "type": "Feature", "properties": { "county": "FRANKLIN", "precinct": "17", "enr_desc": "West Harris", "winner": "Jonathan Vanderford", "winner_votes": 348.0, "winner_share": 45.077720207253883, "runner_up": "D. Ashley Cooper", "runner_up_votes": 215.0, "runner_up_share": 27.849740932642487, "contest_votes": 772.0, "margin_of_victory": 17.227979274611396, "is_tie": false, "results": [ { "candidate": "Jonathan Vanderford", "votes": 348, "share": 45.07772020725388 }, { "candidate": "D. Ashley Cooper", "votes": 215, "share": 27.849740932642487 }, { "candidate": "Chris Perry", "votes": 209, "share": 27.072538860103627 } ], "participated": true, "map_key": "FRANKLIN_17" }, "geometry": { "type": "Polygon", "coordinates": [ [ [ -78.435072991616451, 35.978430000065451 ], [ -78.39349899080743, 35.990962999689714 ], [ -78.359087991685968, 36.060044999915341 ], [ -78.329310990750599, 36.057410000370751 ], [ -78.328020990875842, 36.052186999750937 ], [ -78.333033991477137, 36.048801999622739 ], [ -78.335364991125616, 36.044737000018614 ], [ -78.333229991598685, 36.042593999875074 ], [ -78.330018990975873, 36.041687000054573 ], [ -78.33144899147932, 36.033868000015971 ], [ -78.330022991016222, 36.029027999826994 ], [ -78.334105991669944, 36.024599999742925 ], [ -78.334672991325604, 36.020761999690123 ], [ -78.338742990686214, 36.016432999830414 ], [ -78.340679990871692, 36.017121999953147 ], [ -78.343606991030384, 36.016484000192044 ], [ -78.347635990765923, 36.014716999998605 ], [ -78.349967991582716, 36.012719000344305 ], [ -78.347718991239347, 36.010655999720996 ], [ -78.346484991634441, 36.005206000294777 ], [ -78.347843991684286, 35.997893000274047 ], [ -78.345237990626401, 35.996006999966212 ], [ -78.343362991153867, 35.992413000049773 ], [ -78.344657991624231, 35.989541999777181 ], [ -78.348313991025989, 35.985460000341696 ], [ -78.347692991264722, 35.980777000236536 ], [ -78.349245991478966, 35.977574000303669 ], [ -78.35736599092013, 35.970889999808172 ], [ -78.356637991061092, 35.966506000291368 ], [ -78.358714991211784, 35.960719999606546 ], [ -78.357054991063805, 35.957514000112461 ], [ -78.357586990842464, 35.948457000391628 ], [ -78.356256991295965, 35.945188999642582 ], [ -78.356481990640646, 35.941994000252343 ], [ -78.353274990842323, 35.934085999793837 ], [ -78.353006991453043, 35.931612999992211 ], [ -78.354267991168527, 35.931196000298065 ], [ -78.394330990684637, 35.936875999770727 ], [ -78.426863991663296, 35.975011999683034 ], [ -78.435072991616451, 35.978430000065451 ] ] ] } },
{ "type": "Feature", "properties": { "county": null, "precinct": null, "enr_desc": "West Youngsville 1", "winner": null, "winner_votes": null, "winner_share": null, "runner_up": null, "runner_up_votes": null, "runner_up_share": null, "contest_votes": null, "margin_of_victory": null, "is_tie": false, "results": null, "participated": false, "map_key": null }, "geometry": { "type": "Polygon", "coordinates": [ [ [ -78.4480649909801, 35.983831999568956 ], [ -78.493541991346291, 36.002668000001229 ], [ -78.490474991289787, 36.006976000294898 ], [ -78.491234991015361, 36.015094999681921 ], [ -78.485906991358632, 36.018983999619188 ], [ -78.483309990826015, 36.02250099962589 ], [ -78.479548990839206, 36.024492000325267 ], [ -78.479580991689005, 36.028037999536977 ], [ -78.484463990609555, 36.034272999805175 ], [ -78.487004991409421, 36.041598999943119 ], [ -78.488222991214258, 36.054492000088153 ], [ -78.481996991201356, 36.066898999796734 ], [ -78.480655990829121, 36.071167000070673 ], [ -78.458621991178816, 36.069662000261403 ], [ -78.431246990864366, 36.066527000384319 ], [ -78.431671991109098, 36.060208000089766 ], [ -78.437183991314384, 36.050841999964753 ], [ -78.437303990775149, 36.047221999790352 ], [ -78.438889991653141, 36.043730000402526 ], [ -78.447044991569044, 36.041700000217716 ], [ -78.456661991007621, 36.032700999600003 ], [ -78.457749991630223, 36.028509999757823 ], [ -78.458906991471622, 36.027392999792283 ], [ -78.463971991201674, 36.02450300002009 ], [ -78.470225990848832, 36.025232999791704 ], [ -78.470014990985945, 36.019271999633467 ], [ -78.47052799062844, 36.019257000128491 ], [ -78.459990990854237, 36.012684000287329 ], [ -78.457668990658817, 36.010011000245051 ], [ -78.453436990677474, 35.991942000110633 ], [ -78.4480649909801, 35.983831999568956 ] ] ] } },
{ "type": "Feature", "properties": { "county": null, "precinct": null, "enr_desc": "West Youngsville 2", "winner": null, "winner_votes": null, "winner_share": null, "runner_up": null, "runner_up_votes": null, "runner_up_share": null, "contest_votes": null, "margin_of_victory": null, "is_tie": false, "results": null, "participated": false, "map_key": null }, "geometry": { "type": "Polygon", "coordinates": [ [ [ -78.544930991276743, 36.077247000396 ], [ -78.480655990829121, 36.071167000070673 ], [ -78.481996991201356, 36.066898999796734 ], [ -78.488222991214258, 36.054492000088153 ], [ -78.487004991409421, 36.041598999943119 ], [ -78.484463990609555, 36.034272999805175 ], [ -78.479580991689005, 36.028037999536977 ], [ -78.479548990839206, 36.024492000325267 ], [ -78.483309990826015, 36.02250099962589 ], [ -78.485906991358632, 36.018983999619188 ], [ -78.491234991015361, 36.015094999681921 ], [ -78.490474991289787, 36.006976000294898 ], [ -78.493541991346291, 36.002668000001229 ], [ -78.546413991026085, 36.021826000381765 ], [ -78.544930991276743, 36.077247000396 ] ] ] } }
]
}
