{
"type": "FeatureCollection",
"name": "gates_county_board_of_education_district_02_unexpired",
"crs": { "type": "name", "properties": { "name": "urn:ogc:def:crs:OGC:1.3:CRS84" } },
"features": [
{ "type": "Feature", "properties": { "county": "GATES", "precinct": "1", "enr_desc": "Precinct  1", "winner": "Angela (JoJo) Legg", "winner_votes": 212, "winner_share": 47.321428571428569, "runner_up": "Adam Williams", "runner_up_votes": 160, "runner_up_share": 35.714285714285715, "contest_votes": 448, "margin_of_victory": 11.607142857142854, "is_tie": false, "results": [ { "candidate": "Angela (JoJo) Legg", "votes": 212, "share": 47.32142857142857 }, { "candidate": "Adam Williams", "votes": 160, "share": 35.714285714285715 }, { "candidate": "Shari Earhart", "votes": 76, "share": 16.964285714285715 }, { "candidate": "Write-In (Miscellaneous)", "votes": 0, "share": 0.0 } ], "participated": true, "map_key": "GATES_1" }, "geometry": { "type": "Polygon", "coordinates": [ [ [ -76.775746991374035, 36.360463000036113 ], [ -76.770696990819232, 36.362515999897226 ], [ -76.769590991296354, 36.364775999689549 ], [ -76.771694991100276, 36.365726000229138 ], [ -76.771476991455799, 36.367768000109521 ], [ -76.769543991130476, 36.366785999933676 ], [ -76.768783991091368, 36.367255999855885 ], [ -76.770112991458092, 36.370011999785028 ], [ -76.771712990925337, 36.37055400016299 ], [ -76.773952990948715, 36.373580999469482 ], [ -76.774100991614858, 36.375377999615054 ], [ -76.775429991400088, 36.376263999942019 ], [ -76.772204990668627, 36.377100999687642 ], [ -76.771210990685589, 36.380050000183367 ], [ -76.771776991668077, 36.38202299947941 ], [ -76.769284991332583, 36.382804999719767 ], [ -76.767188990662689, 36.385145000001557 ], [ -76.76817899130927, 36.386431000172607 ], [ -76.772198991109278, 36.387011000249466 ], [ -76.777379990664002, 36.38638099988566 ], [ -76.781853991669834, 36.388014999423334 ], [ -76.782787991485947, 36.390058000038898 ], [ -76.782814991330383, 36.393727999639623 ], [ -76.785645991509512, 36.39542800011494 ], [ -76.785502991296966, 36.399694999972056 ], [ -76.784284990805574, 36.401760000139618 ], [ -76.785670991264737, 36.40490399969751 ], [ -76.784480990757572, 36.40669300017268 ], [ -76.784251991624075, 36.411959999771412 ], [ -76.779804991597487, 36.414224999472317 ], [ -76.781814990722154, 36.416446000136823 ], [ -76.778952991289017, 36.418230999833128 ], [ -76.778839990564819, 36.41900899976492 ], [ -76.788694990606345, 36.426588999684846 ], [ -76.789628990819722, 36.429953999752044 ], [ -76.786568990789931, 36.432311999909089 ], [ -76.785973990678769, 36.434027999761803 ], [ -76.782160991352413, 36.436791000164668 ], [ -76.780828990654399, 36.439358999934527 ], [ -76.776431990933645, 36.440766999624586 ], [ -76.779673991516361, 36.443790999673695 ], [ -76.787261991043991, 36.44610700002508 ], [ -76.781975990736242, 36.447635999382435 ], [ -76.780053991002205, 36.450556999720717 ], [ -76.77478499131324, 36.45570800025321 ], [ -76.774607991353804, 36.457428000223587 ], [ -76.77645099157057, 36.46137100008017 ], [ -76.775364990675186, 36.463765999589143 ], [ -76.772443991575557, 36.466119999504606 ], [ -76.774625990745506, 36.469759000083378 ], [ -76.770971990947302, 36.472960000138087 ], [ -76.766876991002491, 36.473786999447668 ], [ -76.765489990861454, 36.475969999731554 ], [ -76.763200991062689, 36.476826000286287 ], [ -76.762258990559431, 36.475751999627683 ], [ -76.757004991198073, 36.47798800014602 ], [ -76.745916991076626, 36.479302999388771 ], [ -76.741051990841498, 36.481083999785376 ], [ -76.732281990771043, 36.482672000270334 ], [ -76.721816990805081, 36.48642700024466 ], [ -76.73053799085136, 36.498932999421491 ], [ -76.733173990716509, 36.505012000148007 ], [ -76.716304991056091, 36.51044299948375 ], [ -76.699184991364717, 36.518215000010628 ], [ -76.698613990600435, 36.516333000201499 ], [ -76.692817990771232, 36.509002000125335 ], [ -76.682054991190839, 36.501982999616246 ], [ -76.677802991052815, 36.491064999577844 ], [ -76.680131991191359, 36.486048999830132 ], [ -76.67980499058055, 36.484764999910496 ], [ -76.678456991290432, 36.48412999968636 ], [ -76.672096991137934, 36.484222999697039 ], [ -76.665876990850776, 36.481969999985466 ], [ -76.667305990799377, 36.479838999746299 ], [ -76.668664990825562, 36.472986999538215 ], [ -76.672210991493358, 36.468826999961834 ], [ -76.675906991505499, 36.462007999468973 ], [ -76.683917991038413, 36.457834999981344 ], [ -76.69316299077019, 36.45175199953303 ], [ -76.699530991017895, 36.4497219997074 ], [ -76.698657990784781, 36.446446999630965 ], [ -76.702013990654208, 36.434804000272095 ], [ -76.70141299079765, 36.433360999626103 ], [ -76.698163990965938, 36.430453999875887 ], [ -76.700586991473543, 36.416751999885278 ], [ -76.700237990668285, 36.409969999462561 ], [ -76.697314990943568, 36.395991999517619 ], [ -76.700693990559003, 36.387963999973287 ], [ -76.699316991436177, 36.385516999811394 ], [ -76.702402991507881, 36.385613999466891 ], [ -76.704995990721514, 36.379991999482961 ], [ -76.705155991168638, 36.371376999917352 ], [ -76.700853990861134, 36.368839999992865 ], [ -76.699874991068597, 36.361874000275733 ], [ -76.689022991119927, 36.35931999985327 ], [ -76.669141990918149, 36.349144999538105 ], [ -76.662923991165812, 36.347232000052671 ], [ -76.663209990995171, 36.345623999844726 ], [ -76.664907991453049, 36.3443839999575 ], [ -76.666155990583647, 36.341745000026911 ], [ -76.662733990694491, 36.339378999812162 ], [ -76.662424991619915, 36.335569999919372 ], [ -76.66050199118358, 36.333295999803461 ], [ -76.661323990919016, 36.331643999389613 ], [ -76.662399990787506, 36.330747999708478 ], [ -76.663531990617344, 36.330928999985368 ], [ -76.664720991203794, 36.329482999592308 ], [ -76.662996991005429, 36.327439999713988 ], [ -76.665175991221545, 36.327664999605446 ], [ -76.66752699157658, 36.32536899992121 ], [ -76.667073991160848, 36.323510000050639 ], [ -76.669083990715095, 36.322773999554727 ], [ -76.667161990966989, 36.32196700001051 ], [ -76.667501991026086, 36.320408000037432 ], [ -76.666851991522222, 36.31946599980845 ], [ -76.668917991004832, 36.318477999911551 ], [ -76.669625990663562, 36.320419000055821 ], [ -76.672682991515416, 36.321945999936958 ], [ -76.67214599058417, 36.320041999919994 ], [ -76.670788991625116, 36.319351999865511 ], [ -76.673448991103484, 36.317558999822374 ], [ -76.671440991097896, 36.316548000059377 ], [ -76.672742991133632, 36.315605999387117 ], [ -76.670304991512268, 36.314748999868279 ], [ -76.672335990968719, 36.312448999859839 ], [ -76.672075990812559, 36.310519999424564 ], [ -76.67374199088178, 36.311074000208791 ], [ -76.674905991416153, 36.308953999849521 ], [ -76.672314990718121, 36.307785999525692 ], [ -76.672268991164216, 36.30699100004216 ], [ -76.675945990625621, 36.306259999528415 ], [ -76.675489991002223, 36.304438999748413 ], [ -76.672277990942092, 36.303780999760498 ], [ -76.673485990903856, 36.303055000028621 ], [ -76.675827991029365, 36.30323600015933 ], [ -76.675171991554649, 36.30139600025047 ], [ -76.677018991259686, 36.301588000140818 ], [ -76.677737991360345, 36.300704999909136 ], [ -76.679573991644233, 36.30129700023825 ], [ -76.68060199074543, 36.300010000129113 ], [ -76.683321991277694, 36.301468999828273 ], [ -76.684216991207947, 36.300533999923097 ], [ -76.696570991449718, 36.296137999761385 ], [ -76.69958999130813, 36.2996690000802 ], [ -76.710200991570474, 36.303602000158122 ], [ -76.715400991320564, 36.307233000286033 ], [ -76.725942990952447, 36.318289999853221 ], [ -76.736476991614609, 36.324834999559585 ], [ -76.741037991066008, 36.331194999832682 ], [ -76.753540990662117, 36.343745999622634 ], [ -76.758491990884195, 36.350226000136551 ], [ -76.761313990914203, 36.352411999821527 ], [ -76.768544991030495, 36.353747000058036 ], [ -76.775746991374035, 36.360463000036113 ] ] ] } },
{ "type": "Feature", "properties": { "county": "GATES", "precinct": "2", "enr_desc": "Precinct  2", "winner": "Angela (JoJo) Legg", "winner_votes": 226, "winner_share": 69.753086419753089, "runner_up": "Adam Williams", "runner_up_votes": 58, "runner_up_share": 17.901234567901234, "contest_votes": 324, "margin_of_victory": 51.851851851851855, "is_tie": false, "results": [ { "candidate": "Angela (JoJo) Legg", "votes": 226, "share": 69.75308641975309 }, { "candidate": "Adam Williams", "votes": 58, "share": 17.901234567901234 }, { "candidate": "Shari Earhart", "votes": 39, "share": 12.037037037037036 }, { "candidate": "Write-In (Miscellaneous)", "votes": 1, "share": 0.30864197530864196 } ], "participated": true, "map_key": "GATES_2" }, "geometry": { "type": "Polygon", "coordinates": [ [ [ -76.775746991374035, 36.360463000036113 ], [ -76.779466991603442, 36.362468999825623 ], [ -76.782765991283, 36.362950999806749 ], [ -76.7867729911368, 36.362253999394362 ], [ -76.789930991582494, 36.36007700026893 ], [ -76.795408990597736, 36.359716999486828 ], [ -76.807343991260893, 36.362597999930607 ], [ -76.822690991230061, 36.364446999442308 ], [ -76.831733991539039, 36.371455999675028 ], [ -76.836655991676963, 36.373597999427759 ], [ -76.841276991122797, 36.374739000113571 ], [ -76.85214399137493, 36.375611999582809 ], [ -76.871710991297647, 36.382715000089327 ], [ -76.882839991568531, 36.383018999629194 ], [ -76.893604990680444, 36.390127999814851 ], [ -76.906122991258059, 36.390131000189314 ], [ -76.918827990906394, 36.395955000107882 ], [ -76.93001699134885, 36.399927999736839 ], [ -76.93878799139847, 36.405623999812555 ], [ -76.943201991252863, 36.40948099968459 ], [ -76.947236991496652, 36.416073999599455 ], [ -76.946164991017383, 36.426374999513662 ], [ -76.946614991413924, 36.433763999607606 ], [ -76.945157991228214, 36.441080999551723 ], [ -76.946643991367068, 36.450475999609708 ], [ -76.94838599119656, 36.453848999688546 ], [ -76.949031991297076, 36.457282999718259 ], [ -76.946741991502194, 36.465763000174348 ], [ -76.950661990775444, 36.470418999752447 ], [ -76.949580990855225, 36.471858000102628 ], [ -76.947456990593665, 36.472338000285227 ], [ -76.937386991113897, 36.470698999555999 ], [ -76.934846990899871, 36.470929000184427 ], [ -76.933355990685328, 36.47345799942466 ], [ -76.936043991104697, 36.478399999728794 ], [ -76.925842990661536, 36.477049999685818 ], [ -76.927534991312058, 36.471301999918914 ], [ -76.893883991495613, 36.466395999482401 ], [ -76.891356990838744, 36.462898999879464 ], [ -76.879476991220088, 36.457564999653215 ], [ -76.869447990815985, 36.446351999791283 ], [ -76.855273991335352, 36.456980999941102 ], [ -76.815757991071237, 36.463465999835641 ], [ -76.813845991466494, 36.462865000072284 ], [ -76.7990799906826, 36.451360999734973 ], [ -76.787261991043991, 36.44610700002508 ], [ -76.779673991516361, 36.443790999673695 ], [ -76.776431990933645, 36.440766999624586 ], [ -76.780828990654399, 36.439358999934527 ], [ -76.782160991352413, 36.436791000164668 ], [ -76.785973990678769, 36.434027999761803 ], [ -76.786568990789931, 36.432311999909089 ], [ -76.789628990819722, 36.429953999752044 ], [ -76.788694990606345, 36.426588999684846 ], [ -76.778839990564819, 36.41900899976492 ], [ -76.778952991289017, 36.418230999833128 ], [ -76.781814990722154, 36.416446000136823 ], [ -76.779804991597487, 36.414224999472317 ], [ -76.784251991624075, 36.411959999771412 ], [ -76.784480990757572, 36.40669300017268 ], [ -76.785670991264737, 36.40490399969751 ], [ -76.784284990805574, 36.401760000139618 ], [ -76.785502991296966, 36.399694999972056 ], [ -76.785645991509512, 36.39542800011494 ], [ -76.782814991330383, 36.393727999639623 ], [ -76.782787991485947, 36.390058000038898 ], [ -76.781853991669834, 36.388014999423334 ], [ -76.777379990664002, 36.38638099988566 ], [ -76.772198991109278, 36.387011000249466 ], [ -76.76817899130927, 36.386431000172607 ], [ -76.767188990662689, 36.385145000001557 ], [ -76.769284991332583, 36.382804999719767 ], [ -76.771776991668077, 36.38202299947941 ], [ -76.771210990685589, 36.380050000183367 ], [ -76.772204990668627, 36.377100999687642 ], [ -76.775429991400088, 36.376263999942019 ], [ -76.774100991614858, 36.375377999615054 ], [ -76.773952990948715, 36.373580999469482 ], [ -76.771712990925337, 36.37055400016299 ], [ -76.770112991458092, 36.370011999785028 ], [ -76.768783991091368, 36.367255999855885 ], [ -76.769543991130476, 36.366785999933676 ], [ -76.771476991455799, 36.367768000109521 ], [ -76.771694991100276, 36.365726000229138 ], [ -76.769590991296354, 36.364775999689549 ], [ -76.770696990819232, 36.362515999897226 ], [ -76.775746991374035, 36.360463000036113 ] ] ] } },
{ "type": "Feature", "properties": { "county": "GATES", "precinct": "3", "enr_desc": "Precinct  3", "winner": "Angela (JoJo) Legg", "winner_votes": 271, "winner_share": 50.559701492537314, "runner_up": "Adam Williams", "runner_up_votes": 182, "runner_up_share": 33.955223880597011, "contest_votes": 536, "margin_of_victory": 16.604477611940304, "is_tie": false, "results": [ { "candidate": "Angela (JoJo) Legg", "votes": 271, "share": 50.559701492537314 }, { "candidate": "Adam Williams", "votes": 182, "share": 33.95522388059701 }, { "candidate": "Shari Earhart", "votes": 82, "share": 15.298507462686567 }, { "candidate": "Write-In (Miscellaneous)", "votes": 1, "share": 0.18656716417910446 } ], "participated": true, "map_key": "GATES_3" }, "geometry": { "type": "Polygon", "coordinates": [ [ [ -76.787261991043991, 36.44610700002508 ], [ -76.7990799906826, 36.451360999734973 ], [ -76.813845991466494, 36.462865000072284 ], [ -76.815757991071237, 36.463465999835641 ], [ -76.855273991335352, 36.456980999941102 ], [ -76.869447990815985, 36.446351999791283 ], [ -76.879476991220088, 36.457564999653215 ], [ -76.891356990838744, 36.462898999879464 ], [ -76.893883991495613, 36.466395999482401 ], [ -76.927534991312058, 36.471301999918914 ], [ -76.925842990661536, 36.477049999685818 ], [ -76.936043991104697, 36.478399999728794 ], [ -76.936312990780024, 36.480804999733046 ], [ -76.934852990806988, 36.484402999570229 ], [ -76.928456990695835, 36.485839999399623 ], [ -76.92479799121412, 36.488973000104231 ], [ -76.920430990705611, 36.504375999949254 ], [ -76.918704991194062, 36.505569999694956 ], [ -76.913343991001923, 36.504113999820703 ], [ -76.909979991282384, 36.505643000186197 ], [ -76.906461990868607, 36.510691999463823 ], [ -76.906330990560093, 36.516178999790448 ], [ -76.903271991439794, 36.518576999739828 ], [ -76.903391990647378, 36.52042799966118 ], [ -76.905062991096088, 36.522566999707848 ], [ -76.910282991514407, 36.526889000073695 ], [ -76.914286991067584, 36.52818099960966 ], [ -76.916223990641839, 36.530745999775561 ], [ -76.922153990670125, 36.528787000122051 ], [ -76.923608990821847, 36.529000999603419 ], [ -76.92487899159218, 36.530332999821063 ], [ -76.924894991239782, 36.531475000039556 ], [ -76.923915990623257, 36.532318000033904 ], [ -76.920007991268676, 36.532339000067147 ], [ -76.921463991379937, 36.538449000058925 ], [ -76.916745990678578, 36.53854199976535 ], [ -76.914314991288663, 36.541672999944453 ], [ -76.914143990947537, 36.543464000244761 ], [ -76.915976991043181, 36.54388399978685 ], [ -76.917225991389074, 36.546252999613976 ], [ -76.917058990701761, 36.551059000027131 ], [ -76.915898990624171, 36.552148999968907 ], [ -76.738114991127205, 36.550783000182172 ], [ -76.733965990776468, 36.545753999883196 ], [ -76.72903299130104, 36.542577000068619 ], [ -76.717597991333378, 36.539957000024806 ], [ -76.717530991129124, 36.534045999646509 ], [ -76.699960991272079, 36.522500000259363 ], [ -76.697413991451413, 36.519022999486644 ], [ -76.699184991364717, 36.518215000010628 ], [ -76.716304991056091, 36.51044299948375 ], [ -76.733173990716509, 36.505012000148007 ], [ -76.73053799085136, 36.498932999421491 ], [ -76.721816990805081, 36.48642700024466 ], [ -76.732281990771043, 36.482672000270334 ], [ -76.741051990841498, 36.481083999785376 ], [ -76.745916991076626, 36.479302999388771 ], [ -76.757004991198073, 36.47798800014602 ], [ -76.762258990559431, 36.475751999627683 ], [ -76.763200991062689, 36.476826000286287 ], [ -76.765489990861454, 36.475969999731554 ], [ -76.766876991002491, 36.473786999447668 ], [ -76.770971990947302, 36.472960000138087 ], [ -76.774625990745506, 36.469759000083378 ], [ -76.772443991575557, 36.466119999504606 ], [ -76.775364990675186, 36.463765999589143 ], [ -76.77645099157057, 36.46137100008017 ], [ -76.774607991353804, 36.457428000223587 ], [ -76.77478499131324, 36.45570800025321 ], [ -76.780053991002205, 36.450556999720717 ], [ -76.781975990736242, 36.447635999382435 ], [ -76.787261991043991, 36.44610700002508 ] ] ] } },
{ "type": "Feature", "properties": { "county": "GATES", "precinct": "4N", "enr_desc": "Precinct  4 North", "winner": "Angela (JoJo) Legg", "winner_votes": 178, "winner_share": 51.296829971181559, "runner_up": "Adam Williams", "runner_up_votes": 105, "runner_up_share": 30.259365994236308, "contest_votes": 347, "margin_of_victory": 21.037463976945251, "is_tie": false, "results": [ { "candidate": "Angela (JoJo) Legg", "votes": 178, "share": 51.29682997118156 }, { "candidate": "Adam Williams", "votes": 105, "share": 30.25936599423631 }, { "candidate": "Shari Earhart", "votes": 63, "share": 18.155619596541786 }, { "candidate": "Write-In (Miscellaneous)", "votes": 1, "share": 0.2881844380403458 } ], "participated": true, "map_key": "GATES_4N" }, "geometry": { "type": "Polygon", "coordinates": [ [ [ -76.699184991364717, 36.518215000010628 ], [ -76.697413991451413, 36.519022999486644 ], [ -76.699960991272079, 36.522500000259363 ], [ -76.717530991129124, 36.534045999646509 ], [ -76.717597991333378, 36.539957000024806 ], [ -76.72903299130104, 36.542577000068619 ], [ -76.733965990776468, 36.545753999883196 ], [ -76.738114991127205, 36.550783000182172 ], [ -76.54196599062297, 36.550653000136073 ], [ -76.491335991215024, 36.510677000086339 ], [ -76.491404991296292, 36.46864799998594 ], [ -76.476472991006034, 36.432780999653268 ], [ -76.54692699071424, 36.442854000234327 ], [ -76.551753991585571, 36.453403999882269 ], [ -76.555683990984363, 36.457488999982466 ], [ -76.556652990936769, 36.460813000182021 ], [ -76.563866990627048, 36.470462000227592 ], [ -76.566024990625948, 36.474524999720593 ], [ -76.567027990746098, 36.478564999979703 ], [ -76.576561990771822, 36.485618999712557 ], [ -76.592372990888649, 36.473611999427774 ], [ -76.603666991293082, 36.455899999433655 ], [ -76.611617991560081, 36.458029999426209 ], [ -76.620056991285537, 36.468439999536713 ], [ -76.623312990655222, 36.471303000167559 ], [ -76.626457991490085, 36.472466999439042 ], [ -76.633598991226378, 36.47277899993275 ], [ -76.63561099075639, 36.469958000096369 ], [ -76.638358990872547, 36.468286000180854 ], [ -76.659133991140678, 36.466052999422274 ], [ -76.672210991493358, 36.468826999961834 ], [ -76.668664990825562, 36.472986999538215 ], [ -76.667305990799377, 36.479838999746299 ], [ -76.665876990850776, 36.481969999985466 ], [ -76.672096991137934, 36.484222999697039 ], [ -76.678456991290432, 36.48412999968636 ], [ -76.67980499058055, 36.484764999910496 ], [ -76.680131991191359, 36.486048999830132 ], [ -76.677802991052815, 36.491064999577844 ], [ -76.682054991190839, 36.501982999616246 ], [ -76.692817990771232, 36.509002000125335 ], [ -76.698613990600435, 36.516333000201499 ], [ -76.699184991364717, 36.518215000010628 ] ] ] } },
{ "type": "Feature", "properties": { "county": "GATES", "precinct": "4S", "enr_desc": "Precinct  4 South", "winner": "Angela (JoJo) Legg", "winner_votes": 118, "winner_share": 45.038167938931295, "runner_up": "Adam Williams", "runner_up_votes": 114, "runner_up_share": 43.511450381679388, "contest_votes": 262, "margin_of_victory": 1.5267175572519065, "is_tie": false, "results": [ { "candidate": "Angela (JoJo) Legg", "votes": 118, "share": 45.038167938931295 }, { "candidate": "Adam Williams", "votes": 114, "share": 43.51145038167939 }, { "candidate": "Shari Earhart", "votes": 30, "share": 11.450381679389313 }, { "candidate": "Write-In (Miscellaneous)", "votes": 0, "share": 0.0 } ], "participated": true, "map_key": "GATES_4S" }, "geometry": { "type": "Polygon", "coordinates": [ [ [ -76.700586991473543, 36.416751999885278 ], [ -76.698163990965938, 36.430453999875887 ], [ -76.70141299079765, 36.433360999626103 ], [ -76.702013990654208, 36.434804000272095 ], [ -76.698657990784781, 36.446446999630965 ], [ -76.699530991017895, 36.4497219997074 ], [ -76.69316299077019, 36.45175199953303 ], [ -76.683917991038413, 36.457834999981344 ], [ -76.675906991505499, 36.462007999468973 ], [ -76.672210991493358, 36.468826999961834 ], [ -76.659133991140678, 36.466052999422274 ], [ -76.638358990872547, 36.468286000180854 ], [ -76.63561099075639, 36.469958000096369 ], [ -76.633598991226378, 36.47277899993275 ], [ -76.626457991490085, 36.472466999439042 ], [ -76.623312990655222, 36.471303000167559 ], [ -76.620056991285537, 36.468439999536713 ], [ -76.611617991560081, 36.458029999426209 ], [ -76.603666991293082, 36.455899999433655 ], [ -76.592372990888649, 36.473611999427774 ], [ -76.576561990771822, 36.485618999712557 ], [ -76.567027990746098, 36.478564999979703 ], [ -76.566024990625948, 36.474524999720593 ], [ -76.563866990627048, 36.470462000227592 ], [ -76.556652990936769, 36.460813000182021 ], [ -76.555683990984363, 36.457488999982466 ], [ -76.551753991585571, 36.453403999882269 ], [ -76.54692699071424, 36.442854000234327 ], [ -76.551459990637355, 36.443404999841611 ], [ -76.560034991553437, 36.442440999871394 ], [ -76.566203990988896, 36.443861999490267 ], [ -76.584874990771226, 36.439051000153178 ], [ -76.592303990628452, 36.43874099988107 ], [ -76.592816991196372, 36.435347999476832 ], [ -76.595955991557517, 36.43258099991175 ], [ -76.597020991576954, 36.426798000114175 ], [ -76.59399799166107, 36.421841999946686 ], [ -76.592496990790096, 36.417063999994042 ], [ -76.592861991566906, 36.416067000207455 ], [ -76.595833991338665, 36.415023999496164 ], [ -76.597954991646205, 36.412550000246704 ], [ -76.59961999074531, 36.413446999393841 ], [ -76.611659991532022, 36.411277999405172 ], [ -76.622435991442657, 36.405055000030977 ], [ -76.629917991099063, 36.403744999564793 ], [ -76.629925991642708, 36.399664999666697 ], [ -76.634193991362608, 36.397385999706962 ], [ -76.637544991480539, 36.399061999393794 ], [ -76.638955991443822, 36.398452999486175 ], [ -76.645440991082964, 36.402952999913069 ], [ -76.647989990843442, 36.406090999588322 ], [ -76.652263990953898, 36.408339999528621 ], [ -76.662829991420551, 36.409948999565813 ], [ -76.67215399165606, 36.418119999817186 ], [ -76.674385991057207, 36.416681000179878 ], [ -76.679677991600315, 36.415245000043157 ], [ -76.694589990666131, 36.418278999514932 ], [ -76.700586991473543, 36.416751999885278 ] ] ] } },
{ "type": "Feature", "properties": { "county": "GATES", "precinct": "5", "enr_desc": "Precinct  5", "winner": "Angela (JoJo) Legg", "winner_votes": 206, "winner_share": 59.883720930232556, "runner_up": "Adam Williams", "runner_up_votes": 105, "runner_up_share": 30.523255813953487, "contest_votes": 344, "margin_of_victory": 29.36046511627907, "is_tie": false, "results": [ { "candidate": "Angela (JoJo) Legg", "votes": 206, "share": 59.883720930232556 }, { "candidate": "Adam Williams", "votes": 105, "share": 30.523255813953487 }, { "candidate": "Shari Earhart", "votes": 33, "share": 9.593023255813954 }, { "candidate": "Write-In (Miscellaneous)", "votes": 0, "share": 0.0 } ], "participated": true, "map_key": "GATES_5" }, "geometry": { "type": "Polygon", "coordinates": [ [ [ -76.670304991512268, 36.314748999868279 ], [ -76.672742991133632, 36.315605999387117 ], [ -76.671440991097896, 36.316548000059377 ], [ -76.673448991103484, 36.317558999822374 ], [ -76.670788991625116, 36.319351999865511 ], [ -76.67214599058417, 36.320041999919994 ], [ -76.672682991515416, 36.321945999936958 ], [ -76.669625990663562, 36.320419000055821 ], [ -76.668917991004832, 36.318477999911551 ], [ -76.666851991522222, 36.31946599980845 ], [ -76.667501991026086, 36.320408000037432 ], [ -76.667161990966989, 36.32196700001051 ], [ -76.669083990715095, 36.322773999554727 ], [ -76.667073991160848, 36.323510000050639 ], [ -76.66752699157658, 36.32536899992121 ], [ -76.665175991221545, 36.327664999605446 ], [ -76.662996991005429, 36.327439999713988 ], [ -76.664720991203794, 36.329482999592308 ], [ -76.663531990617344, 36.330928999985368 ], [ -76.662399990787506, 36.330747999708478 ], [ -76.661323990919016, 36.331643999389613 ], [ -76.66050199118358, 36.333295999803461 ], [ -76.662424991619915, 36.335569999919372 ], [ -76.662733990694491, 36.339378999812162 ], [ -76.666155990583647, 36.341745000026911 ], [ -76.664907991453049, 36.3443839999575 ], [ -76.663209990995171, 36.345623999844726 ], [ -76.662923991165812, 36.347232000052671 ], [ -76.669141990918149, 36.349144999538105 ], [ -76.689022991119927, 36.35931999985327 ], [ -76.699874991068597, 36.361874000275733 ], [ -76.700853990861134, 36.368839999992865 ], [ -76.705155991168638, 36.371376999917352 ], [ -76.704995990721514, 36.379991999482961 ], [ -76.702402991507881, 36.385613999466891 ], [ -76.699316991436177, 36.385516999811394 ], [ -76.700693990559003, 36.387963999973287 ], [ -76.697314990943568, 36.395991999517619 ], [ -76.700237990668285, 36.409969999462561 ], [ -76.700586991473543, 36.416751999885278 ], [ -76.694589990666131, 36.418278999514932 ], [ -76.679677991600315, 36.415245000043157 ], [ -76.674385991057207, 36.416681000179878 ], [ -76.67215399165606, 36.418119999817186 ], [ -76.662829991420551, 36.409948999565813 ], [ -76.652263990953898, 36.408339999528621 ], [ -76.647989990843442, 36.406090999588322 ], [ -76.645440991082964, 36.402952999913069 ], [ -76.638955991443822, 36.398452999486175 ], [ -76.637544991480539, 36.399061999393794 ], [ -76.634193991362608, 36.397385999706962 ], [ -76.629925991642708, 36.399664999666697 ], [ -76.629917991099063, 36.403744999564793 ], [ -76.622435991442657, 36.405055000030977 ], [ -76.611659991532022, 36.411277999405172 ], [ -76.59961999074531, 36.413446999393841 ], [ -76.597954991646205, 36.412550000246704 ], [ -76.595833991338665, 36.415023999496164 ], [ -76.592861991566906, 36.416067000207455 ], [ -76.592496990790096, 36.417063999994042 ], [ -76.59399799166107, 36.421841999946686 ], [ -76.597020991576954, 36.426798000114175 ], [ -76.595955991557517, 36.43258099991175 ], [ -76.592816991196372, 36.435347999476832 ], [ -76.592303990628452, 36.43874099988107 ], [ -76.584874990771226, 36.439051000153178 ], [ -76.566203990988896, 36.443861999490267 ], [ -76.560034991553437, 36.442440999871394 ], [ -76.551459990637355, 36.443404999841611 ], [ -76.54692699071424, 36.442854000234327 ], [ -76.476472991006034, 36.432780999653268 ], [ -76.453710991102525, 36.378091999389021 ], [ -76.539028991369719, 36.357312999907798 ], [ -76.556880991265004, 36.355204000005564 ], [ -76.570755991524535, 36.334295000209458 ], [ -76.575954991162561, 36.335336999939656 ], [ -76.586034991664576, 36.333592000194109 ], [ -76.592785991050107, 36.330291999553857 ], [ -76.594094990560961, 36.324789000015507 ], [ -76.596602990608829, 36.323258999385672 ], [ -76.599067990985489, 36.322790999718229 ], [ -76.605539991358668, 36.324172999587269 ], [ -76.608227991516358, 36.323324000005847 ], [ -76.613071990769441, 36.323965999568649 ], [ -76.622840990642359, 36.3288529998391 ], [ -76.626876990609446, 36.328516999529448 ], [ -76.632523991353338, 36.330347000132328 ], [ -76.639309991456884, 36.329798999824625 ], [ -76.640401990995883, 36.328827999660867 ], [ -76.64098799083871, 36.324191999578311 ], [ -76.642505990580005, 36.322934999982664 ], [ -76.642216991527562, 36.319801000216536 ], [ -76.646877991099728, 36.320082999985111 ], [ -76.649715991231929, 36.317951000258482 ], [ -76.650691990714506, 36.314070999990022 ], [ -76.650374990887983, 36.311568999888053 ], [ -76.651564991076896, 36.310614999428196 ], [ -76.652879991258985, 36.311586999677772 ], [ -76.654615991050377, 36.310684000145002 ], [ -76.653477990725818, 36.312853999415601 ], [ -76.654312991480083, 36.314190999669528 ], [ -76.656694991258632, 36.313650000259535 ], [ -76.657654991208958, 36.314696000263517 ], [ -76.659375990644776, 36.313123999683498 ], [ -76.662506991503065, 36.314509999787241 ], [ -76.66436699158993, 36.313654000158571 ], [ -76.665083991197477, 36.315975999709991 ], [ -76.667311990867503, 36.313821999487516 ], [ -76.668049991157773, 36.313998000151884 ], [ -76.667862990878902, 36.314864999693064 ], [ -76.669738990790137, 36.315376999792491 ], [ -76.670304991512268, 36.314748999868279 ] ] ] } }
]
}
