{
"type": "FeatureCollection",
"name": "granville_county_sheriff_rep",
"crs": { "type": "name", "properties": { "name": "urn:ogc:def:crs:OGC:1.3:CRS84" } },
"features": [
{ "type": "Feature", "properties": { "county": "GRANVILLE", "precinct": "ANTI", "enr_desc": "Voting District 00Anti", "winner": "Charles R. Noblin, Jr.", "winner_votes": 43, "winner_share": 36.440677966101696, "runner_up": "Ed Newman", "runner_up_votes": 42, "runner_up_share": 35.593220338983052, "contest_votes": 118, "margin_of_victory": 0.84745762711864359, "is_tie": false, "results": [ { "candidate": "Charles R. Noblin, Jr.", "votes": 43, "share": 36.440677966101696 }, { "candidate": "Ed Newman", "votes": 42, "share": 35.59322033898305 }, { "candidate": "John (Johnny) Morris", "votes": 33, "share": 27.966101694915253 } ], "participated": true, "map_key": "GRANVILLE_ANTI" }, "geometry": { "type": "Polygon", "coordinates": [ [ [ -78.572369991638283, 36.290954000050952 ], [ -78.569418990593846, 36.293160000037666 ], [ -78.570038991291753, 36.296788999616695 ], [ -78.573653991130243, 36.300581000009203 ], [ -78.573103991520242, 36.301013000028099 ], [ -78.573593990626264, 36.3032099996718 ], [ -78.572222991154717, 36.303781000341445 ], [ -78.572342991645357, 36.304645999848105 ], [ -78.573696990599544, 36.304444999873283 ], [ -78.573858991498653, 36.309133000347408 ], [ -78.570221991571074, 36.308857000069438 ], [ -78.570297991247202, 36.305347999950293 ], [ -78.566513991661708, 36.30367500020995 ], [ -78.562218991397287, 36.305886999718361 ], [ -78.563624991223591, 36.308930000417483 ], [ -78.561749990962383, 36.308960000338843 ], [ -78.560884990848393, 36.306670000230376 ], [ -78.558971991138165, 36.30765899992673 ], [ -78.559440990970032, 36.309024000168733 ], [ -78.555782991388824, 36.309085000353711 ], [ -78.509677991315542, 36.30972900027637 ], [ -78.509209991514254, 36.265694000268041 ], [ -78.51247699097236, 36.266571000046568 ], [ -78.51818999112875, 36.26397600022473 ], [ -78.524844991536284, 36.266241999713692 ], [ -78.529184991604026, 36.265671999619123 ], [ -78.5312959908415, 36.266682000242568 ], [ -78.533289991133643, 36.268970000108972 ], [ -78.544643990983559, 36.269035000175684 ], [ -78.557431990964901, 36.262202999695113 ], [ -78.566355990775193, 36.26680099993888 ], [ -78.572080991370669, 36.27381400035938 ], [ -78.573844991236655, 36.281053000341288 ], [ -78.573109991044845, 36.286212999898552 ], [ -78.572099991391795, 36.287450000208835 ], [ -78.572369991638283, 36.290954000050952 ] ] ] } },
{ "type": "Feature", "properties": { "county": "GRANVILLE", "precinct": "BERE", "enr_desc": "Voting District 00Bere", "winner": "Ed Newman", "winner_votes": 159, "winner_share": 57.818181818181813, "runner_up": "John (Johnny) Morris", "runner_up_votes": 76, "runner_up_share": 27.636363636363637, "contest_votes": 275, "margin_of_victory": 30.181818181818176, "is_tie": false, "results": [ { "candidate": "Ed Newman", "votes": 159, "share": 57.81818181818181 }, { "candidate": "John (Johnny) Morris", "votes": 76, "share": 27.636363636363637 }, { "candidate": "Charles R. Noblin, Jr.", "votes": 40, "share": 14.545454545454545 } ], "participated": true, "map_key": "GRANVILLE_BERE" }, "geometry": { "type": "Polygon", "coordinates": [ [ [ -78.80049699109307, 36.309888999763054 ], [ -78.797481991606105, 36.43280600020352 ], [ -78.65722599163179, 36.430781999663061 ], [ -78.660780990573514, 36.307997000110895 ], [ -78.80049699109307, 36.309888999763054 ] ] ] } },
{ "type": "Feature", "properties": { "county": "GRANVILLE", "precinct": "BTNR", "enr_desc": "Voting District 00Btnr", "winner": "Ed Newman", "winner_votes": 148, "winner_share": 59.677419354838712, "runner_up": "John (Johnny) Morris", "runner_up_votes": 90, "runner_up_share": 36.29032258064516, "contest_votes": 248, "margin_of_victory": 23.387096774193552, "is_tie": false, "results": [ { "candidate": "Ed Newman", "votes": 148, "share": 59.67741935483871 }, { "candidate": "John (Johnny) Morris", "votes": 90, "share": 36.29032258064516 }, { "candidate": "Charles R. Noblin, Jr.", "votes": 10, "share": 4.032258064516129 } ], "participated": true, "map_key": "GRANVILLE_BTNR" }, "geometry": { "type": "Polygon", "coordinates": [ [ [ -78.777000991168137, 36.07149099971442 ], [ -78.780881991107222, 36.072277000431249 ], [ -78.783167991082195, 36.069934999863904 ], [ -78.787634990616553, 36.071864000246514 ], [ -78.787946990753753, 36.074007000107976 ], [ -78.784729991558237, 36.076508000370218 ], [ -78.789226991351796, 36.078815999894218 ], [ -78.791503990926984, 36.077515999759598 ], [ -78.792985991425695, 36.077544999744966 ], [ -78.790797991351454, 36.081707999631817 ], [ -78.792855990958827, 36.086134000325821 ], [ -78.794361991117952, 36.086327999872566 ], [ -78.798311990725693, 36.084610000090514 ], [ -78.807611991178874, 36.087572000352331 ], [ -78.807122991535124, 36.088418999776913 ], [ -78.804633991679708, 36.088534000424879 ], [ -78.803054991246384, 36.089560000062363 ], [ -78.804900991289557, 36.091976999801894 ], [ -78.805315990705978, 36.093915999706788 ], [ -78.804689991126551, 36.094550999637519 ], [ -78.80311799143297, 36.177162000038088 ], [ -78.749725991252888, 36.178419999975411 ], [ -78.696427990605201, 36.18080599982693 ], [ -78.705105990936076, 36.172106999544596 ], [ -78.71447299060182, 36.158616999849677 ], [ -78.725513991391125, 36.146704999729103 ], [ -78.74290999107518, 36.125670999837119 ], [ -78.766047991074814, 36.081008999835639 ], [ -78.769113991072317, 36.077599000297603 ], [ -78.777000991168137, 36.07149099971442 ] ] ] } },
{ "type": "Feature", "properties": { "county": "GRANVILLE", "precinct": "CORI", "enr_desc": "Voting District 00Cori", "winner": "Ed Newman", "winner_votes": 215, "winner_share": 62.318840579710141, "runner_up": "John (Johnny) Morris", "runner_up_votes": 67, "runner_up_share": 19.420289855072465, "contest_votes": 345, "margin_of_victory": 42.898550724637673, "is_tie": false, "results": [ { "candidate": "Ed Newman", "votes": 215, "share": 62.31884057971014 }, { "candidate": "John (Johnny) Morris", "votes": 67, "share": 19.420289855072465 }, { "candidate": "Charles R. Noblin, Jr.", "votes": 63, "share": 18.26086956521739 } ], "participated": true, "map_key": "GRANVILLE_CORI" }, "geometry": { "type": "Polygon", "coordinates": [ [ [ -78.508330991027933, 36.18295599986962 ], [ -78.510805990660444, 36.183667000209141 ], [ -78.51731999063837, 36.181889999984158 ], [ -78.518606991386747, 36.180543000278163 ], [ -78.52310499163228, 36.181192000165531 ], [ -78.525627991237343, 36.180380000195534 ], [ -78.527492990996024, 36.181479999612392 ], [ -78.527187990711667, 36.183795999865978 ], [ -78.53008999071379, 36.184102999632223 ], [ -78.532404990608015, 36.186048000159936 ], [ -78.536285990726881, 36.184865000106846 ], [ -78.536856991449824, 36.182908999679206 ], [ -78.539827991156187, 36.182381999639858 ], [ -78.543479991307848, 36.185190000198752 ], [ -78.546144990836652, 36.185741000409266 ], [ -78.549855991431556, 36.188188000337739 ], [ -78.554802990969023, 36.188386000313685 ], [ -78.557559990607004, 36.190834999787405 ], [ -78.558790991022221, 36.190743000009611 ], [ -78.560079990704779, 36.18903599967274 ], [ -78.561523990687064, 36.189176000118643 ], [ -78.564070991555852, 36.191078000039475 ], [ -78.56668099149114, 36.191492999863272 ], [ -78.574970991142905, 36.190199999784568 ], [ -78.576516990642901, 36.191565999846325 ], [ -78.575786991120907, 36.193596999576634 ], [ -78.576614990675665, 36.194635999967495 ], [ -78.581905990807755, 36.19437499963535 ], [ -78.584020991253979, 36.195456999576059 ], [ -78.585451991002913, 36.194981999673175 ], [ -78.586168991011633, 36.196337000316788 ], [ -78.586934991176562, 36.195847999864213 ], [ -78.587195991243121, 36.193582000366185 ], [ -78.590248990949561, 36.191844000327514 ], [ -78.591377990842048, 36.188603000209014 ], [ -78.595154991360971, 36.190312000184292 ], [ -78.600123991577604, 36.190220999576091 ], [ -78.600085991553854, 36.192461999893069 ], [ -78.601939990921167, 36.193337000183334 ], [ -78.604809990654033, 36.192477999972667 ], [ -78.607353991275559, 36.19523500032323 ], [ -78.608078991457816, 36.194967000049054 ], [ -78.607979991074416, 36.194113999671252 ], [ -78.608860990668376, 36.194066999753339 ], [ -78.610960990595089, 36.196732999883743 ], [ -78.613076990780698, 36.195927999945219 ], [ -78.61561899114956, 36.198954999881849 ], [ -78.619570991432823, 36.201340999605634 ], [ -78.619045990851106, 36.203563000403278 ], [ -78.620414990658404, 36.207713000203107 ], [ -78.618382991250627, 36.20690399954087 ], [ -78.618578991303352, 36.207841999968032 ], [ -78.617291991278861, 36.209775000275904 ], [ -78.615792990756844, 36.209365000356847 ], [ -78.612722991006734, 36.211848000158554 ], [ -78.621262990823951, 36.216772000237796 ], [ -78.627692991175053, 36.221909999655956 ], [ -78.637303991341824, 36.223742000417339 ], [ -78.640255991032475, 36.223029000143519 ], [ -78.641972991219291, 36.224566999948628 ], [ -78.643216991291098, 36.228626999862229 ], [ -78.647894990946199, 36.228836000423648 ], [ -78.650338990822291, 36.233300000198824 ], [ -78.659113991169008, 36.234798999683115 ], [ -78.663174990613413, 36.234674999795139 ], [ -78.661645991169181, 36.240888999679512 ], [ -78.662676991017861, 36.242483999696695 ], [ -78.662678991214392, 36.250143999922507 ], [ -78.660780990573514, 36.307997000110895 ], [ -78.611100990745342, 36.308034000215201 ], [ -78.608661991185386, 36.305803000085675 ], [ -78.606569990917492, 36.305819000076028 ], [ -78.608654991043082, 36.303785999965541 ], [ -78.604141990698665, 36.300645999535327 ], [ -78.603612990727939, 36.299911000170184 ], [ -78.604844991106418, 36.298983000050129 ], [ -78.601798990716645, 36.298484000315511 ], [ -78.605296991450629, 36.292587000095615 ], [ -78.603694991555884, 36.292230000191758 ], [ -78.601826990809215, 36.294094999843864 ], [ -78.600125991255752, 36.292577999546502 ], [ -78.596672991065518, 36.292911999530027 ], [ -78.597277991312993, 36.295033999989315 ], [ -78.589343990917129, 36.29658100041371 ], [ -78.589360990969524, 36.298101000351579 ], [ -78.583559991467695, 36.296327999616082 ], [ -78.581279991157587, 36.297526000400282 ], [ -78.57637199132428, 36.290968000182545 ], [ -78.575116991570212, 36.291997000028424 ], [ -78.573322991430373, 36.292005000246313 ], [ -78.573186991568889, 36.290833000312887 ], [ -78.572369991638283, 36.290954000050952 ], [ -78.572099991391795, 36.287450000208835 ], [ -78.573109991044845, 36.286212999898552 ], [ -78.573844991236655, 36.281053000341288 ], [ -78.572080991370669, 36.27381400035938 ], [ -78.566355990775193, 36.26680099993888 ], [ -78.557431990964901, 36.262202999695113 ], [ -78.544643990983559, 36.269035000175684 ], [ -78.533289991133643, 36.268970000108972 ], [ -78.5312959908415, 36.266682000242568 ], [ -78.529184991604026, 36.265671999619123 ], [ -78.524844991536284, 36.266241999713692 ], [ -78.51818999112875, 36.26397600022473 ], [ -78.51247699097236, 36.266571000046568 ], [ -78.509209991514254, 36.265694000268041 ], [ -78.508330991027933, 36.18295599986962 ] ] ] } },
{ "type": "Feature", "properties": { "county": "GRANVILLE", "precinct": "CRDL", "enr_desc": "Voting District 00Crdl", "winner": "Ed Newman", "winner_votes": 65, "winner_share": 48.148148148148145, "runner_up": "John (Johnny) Morris", "runner_up_votes": 44, "runner_up_share": 32.592592592592595, "contest_votes": 135, "margin_of_victory": 15.55555555555555, "is_tie": false, "results": [ { "candidate": "Ed Newman", "votes": 65, "share": 48.148148148148145 }, { "candidate": "John (Johnny) Morris", "votes": 44, "share": 32.592592592592595 }, { "candidate": "Charles R. Noblin, Jr.", "votes": 26, "share": 19.25925925925926 } ], "participated": true, "map_key": "GRANVILLE_CRDL" }, "geometry": { "type": "Polygon", "coordinates": [ [ [ -78.590001991374479, 36.344578999891027 ], [ -78.593437991565125, 36.336553999811045 ], [ -78.592446990921786, 36.330424000202058 ], [ -78.595046991030799, 36.324400000383463 ], [ -78.594704990723997, 36.319513999919337 ], [ -78.589047990875514, 36.311633999636584 ], [ -78.600669990812065, 36.305948999576351 ], [ -78.606569990917492, 36.305819000076028 ], [ -78.608661991185386, 36.305803000085675 ], [ -78.611100990745342, 36.308034000215201 ], [ -78.611478990784164, 36.308861000177664 ], [ -78.607695991142236, 36.30892399952959 ], [ -78.607676990852895, 36.308098999980572 ], [ -78.606580991232036, 36.30812100012254 ], [ -78.606601990649935, 36.310197000121605 ], [ -78.607794991635771, 36.312100999960926 ], [ -78.61411399146121, 36.31187600001082 ], [ -78.614260991507805, 36.312717000200024 ], [ -78.612595991517509, 36.313209000328918 ], [ -78.61249999081079, 36.316219000192817 ], [ -78.611285991379887, 36.316250999720445 ], [ -78.611289990725581, 36.317627999636663 ], [ -78.606040991479531, 36.318088000189171 ], [ -78.606322991226278, 36.319730000235097 ], [ -78.605516991652379, 36.319585999604328 ], [ -78.605355991478007, 36.321600999586927 ], [ -78.605246991162232, 36.323114999531796 ], [ -78.60964599149564, 36.323108000120101 ], [ -78.609923990996222, 36.324370000068754 ], [ -78.606112990672599, 36.324459000334862 ], [ -78.606325991279391, 36.326001000254294 ], [ -78.60497999096404, 36.327112000014921 ], [ -78.597834990992055, 36.328916999542315 ], [ -78.597997990781124, 36.334824000090954 ], [ -78.594297991421513, 36.337999999851696 ], [ -78.591793991124476, 36.344436999864719 ], [ -78.590001991374479, 36.344578999891027 ] ] ] } },
{ "type": "Feature", "properties": { "county": "GRANVILLE", "precinct": "CRDM", "enr_desc": "Voting District 00Crdm", "winner": "Ed Newman", "winner_votes": 288, "winner_share": 53.531598513011147, "runner_up": "John (Johnny) Morris", "runner_up_votes": 227, "runner_up_share": 42.193308550185876, "contest_votes": 538, "margin_of_victory": 11.338289962825272, "is_tie": false, "results": [ { "candidate": "Ed Newman", "votes": 288, "share": 53.53159851301115 }, { "candidate": "John (Johnny) Morris", "votes": 227, "share": 42.193308550185876 }, { "candidate": "Charles R. Noblin, Jr.", "votes": 23, "share": 4.275092936802974 } ], "participated": true, "map_key": "GRANVILLE_CRDM" }, "geometry": { "type": "Polygon", "coordinates": [ [ [ -78.671228991014047, 36.069593999936224 ], [ -78.683223991214319, 36.074484000078044 ], [ -78.705601991147816, 36.076442999977246 ], [ -78.71942999088445, 36.075857999979583 ], [ -78.751272991241564, 36.070834000334152 ], [ -78.777000991168137, 36.07149099971442 ], [ -78.769113991072317, 36.077599000297603 ], [ -78.766047991074814, 36.081008999835639 ], [ -78.74290999107518, 36.125670999837119 ], [ -78.725513991391125, 36.146704999729103 ], [ -78.71447299060182, 36.158616999849677 ], [ -78.705105990936076, 36.172106999544596 ], [ -78.696427990605201, 36.18080599982693 ], [ -78.669774990726012, 36.182002000217032 ], [ -78.667419991572501, 36.179191999792991 ], [ -78.667567991133723, 36.170368999900504 ], [ -78.671228991014047, 36.069593999936224 ] ] ] } },
{ "type": "Feature", "properties": { "county": "GRANVILLE", "precinct": "EAOX", "enr_desc": "Voting District 00Eaox", "winner": "Ed Newman", "winner_votes": 71, "winner_share": 43.558282208588956, "runner_up": "John (Johnny) Morris", "runner_up_votes": 51, "runner_up_share": 31.288343558282211, "contest_votes": 163, "margin_of_victory": 12.269938650306745, "is_tie": false, "results": [ { "candidate": "Ed Newman", "votes": 71, "share": 43.558282208588956 }, { "candidate": "John (Johnny) Morris", "votes": 51, "share": 31.28834355828221 }, { "candidate": "Charles R. Noblin, Jr.", "votes": 41, "share": 25.153374233128833 } ], "participated": true, "map_key": "GRANVILLE_EAOX" }, "geometry": { "type": "Polygon", "coordinates": [ [ [ -78.572369991638283, 36.290954000050952 ], [ -78.573158990877729, 36.294926999925458 ], [ -78.58581199113587, 36.312984999750633 ], [ -78.589047990875514, 36.311633999636584 ], [ -78.594704990723997, 36.319513999919337 ], [ -78.595046991030799, 36.324400000383463 ], [ -78.592446990921786, 36.330424000202058 ], [ -78.593437991565125, 36.336553999811045 ], [ -78.590001991374479, 36.344578999891027 ], [ -78.589849991285874, 36.342130000127618 ], [ -78.592542991448781, 36.33521000037176 ], [ -78.591943990831425, 36.329247999530388 ], [ -78.582418990770506, 36.323317999753442 ], [ -78.580947991075405, 36.325232999629911 ], [ -78.580196990597628, 36.323827000319696 ], [ -78.578606991346618, 36.323014000210676 ], [ -78.576285990788378, 36.323108000381886 ], [ -78.57624599138822, 36.321333999798853 ], [ -78.57541699105424, 36.320394999947993 ], [ -78.570598991006051, 36.320669000397494 ], [ -78.568523991384467, 36.318557999891205 ], [ -78.568649991445781, 36.316620000145136 ], [ -78.567204991551336, 36.315768999738573 ], [ -78.55829999071949, 36.314530999616132 ], [ -78.558538991150499, 36.313427000389886 ], [ -78.552992990604224, 36.313252999663042 ], [ -78.55289199167072, 36.3107750002941 ], [ -78.555782991388824, 36.309085000353711 ], [ -78.559440990970032, 36.309024000168733 ], [ -78.558971991138165, 36.30765899992673 ], [ -78.560884990848393, 36.306670000230376 ], [ -78.561749990962383, 36.308960000338843 ], [ -78.563624991223591, 36.308930000417483 ], [ -78.562218991397287, 36.305886999718361 ], [ -78.566513991661708, 36.30367500020995 ], [ -78.570297991247202, 36.305347999950293 ], [ -78.570221991571074, 36.308857000069438 ], [ -78.573858991498653, 36.309133000347408 ], [ -78.573696990599544, 36.304444999873283 ], [ -78.572342991645357, 36.304645999848105 ], [ -78.572222991154717, 36.303781000341445 ], [ -78.573593990626264, 36.3032099996718 ], [ -78.573103991520242, 36.301013000028099 ], [ -78.573653991130243, 36.300581000009203 ], [ -78.570038991291753, 36.296788999616695 ], [ -78.569418990593846, 36.293160000037666 ], [ -78.572369991638283, 36.290954000050952 ] ] ] } },
{ "type": "Feature", "properties": { "county": "GRANVILLE", "precinct": "MTEN", "enr_desc": "Voting District 00Mten", "winner": "Ed Newman", "winner_votes": 362, "winner_share": 56.828885400313965, "runner_up": "John (Johnny) Morris", "runner_up_votes": 222, "runner_up_share": 34.850863422291994, "contest_votes": 637, "margin_of_victory": 21.978021978021971, "is_tie": false, "results": [ { "candidate": "Ed Newman", "votes": 362, "share": 56.828885400313965 }, { "candidate": "John (Johnny) Morris", "votes": 222, "share": 34.850863422291994 }, { "candidate": "Charles R. Noblin, Jr.", "votes": 53, "share": 8.320251177394034 } ], "participated": true, "map_key": "GRANVILLE_MTEN" }, "geometry": { "type": "Polygon", "coordinates": [ [ [ -78.557662990676178, 36.025702000315519 ], [ -78.603678991609854, 36.042412999950713 ], [ -78.671228991014047, 36.069593999936224 ], [ -78.667567991133723, 36.170368999900504 ], [ -78.65548699063136, 36.17047300010762 ], [ -78.634527991683782, 36.16599999965532 ], [ -78.612651991083055, 36.158571999610494 ], [ -78.598473990797217, 36.146967999984298 ], [ -78.591893990941628, 36.142623000233421 ], [ -78.581659990789092, 36.142527999961267 ], [ -78.576562990783856, 36.141847000283796 ], [ -78.574933990702803, 36.140519000028249 ], [ -78.572817990827403, 36.136566000383908 ], [ -78.576400991614562, 36.1300810002435 ], [ -78.575195991602271, 36.126821000420058 ], [ -78.576132990781829, 36.120811999678992 ], [ -78.574957991586047, 36.11508100007859 ], [ -78.562854990879785, 36.11197999987963 ], [ -78.55826799113234, 36.107172999915356 ], [ -78.560196991320367, 36.097857999844713 ], [ -78.560370991284273, 36.093308000285376 ], [ -78.567437990904537, 36.096364000054287 ], [ -78.573380990861878, 36.097091000412377 ], [ -78.575908991244432, 36.095707999633639 ], [ -78.583006990871937, 36.094325999782704 ], [ -78.587033991218718, 36.095833999846782 ], [ -78.591262990630497, 36.094571000138544 ], [ -78.593247991223762, 36.0927229996135 ], [ -78.593261991225319, 36.091668999992756 ], [ -78.595985991612054, 36.089712999549036 ], [ -78.602429991512011, 36.08841399964242 ], [ -78.599321991300286, 36.078233000079493 ], [ -78.596307990964206, 36.0719780001766 ], [ -78.583563990599544, 36.075809999543054 ], [ -78.583049991241268, 36.074868999948826 ], [ -78.58045399074129, 36.066290000008316 ], [ -78.581467991658684, 36.060850000201881 ], [ -78.578343991141253, 36.055515999695032 ], [ -78.58008599108291, 36.05240700020336 ], [ -78.579782991412472, 36.047454999818093 ], [ -78.583378991474959, 36.044208000370219 ], [ -78.583673990827506, 36.041352000339685 ], [ -78.581333991680864, 36.041444999823412 ], [ -78.57971099083646, 36.04293100039726 ], [ -78.576149991288219, 36.043836999782691 ], [ -78.5738339916809, 36.046238999569084 ], [ -78.569192991143197, 36.045351999521763 ], [ -78.568148991235716, 36.042521999753468 ], [ -78.560459990935044, 36.032692000072565 ], [ -78.559826990759348, 36.028346000160731 ], [ -78.557662990676178, 36.025702000315519 ] ] ] } },
{ "type": "Feature", "properties": { "county": "GRANVILLE", "precinct": "OKHL", "enr_desc": "Voting District 00Okhl", "winner": "Ed Newman", "winner_votes": 145, "winner_share": 73.604060913705581, "runner_up": "John (Johnny) Morris", "runner_up_votes": 41, "runner_up_share": 20.812182741116754, "contest_votes": 197, "margin_of_victory": 52.791878172588824, "is_tie": false, "results": [ { "candidate": "Ed Newman", "votes": 145, "share": 73.60406091370558 }, { "candidate": "John (Johnny) Morris", "votes": 41, "share": 20.812182741116754 }, { "candidate": "Charles R. Noblin, Jr.", "votes": 11, "share": 5.583756345177665 } ], "participated": true, "map_key": "GRANVILLE_OKHL" }, "geometry": { "type": "Polygon", "coordinates": [ [ [ -78.797481991606105, 36.43280600020352 ], [ -78.79484499154951, 36.526438999647347 ], [ -78.796273991627828, 36.541740999789972 ], [ -78.654867990915434, 36.54190900011924 ], [ -78.655454991161662, 36.487660999699528 ], [ -78.65722599163179, 36.430781999663061 ], [ -78.797481991606105, 36.43280600020352 ] ] ] } },
{ "type": "Feature", "properties": { "county": "GRANVILLE", "precinct": "SALM", "enr_desc": "Voting District 00Salm", "winner": "Ed Newman", "winner_votes": 139, "winner_share": 52.651515151515149, "runner_up": "Charles R. Noblin, Jr.", "runner_up_votes": 63, "runner_up_share": 23.863636363636363, "contest_votes": 264, "margin_of_victory": 28.787878787878785, "is_tie": false, "results": [ { "candidate": "Ed Newman", "votes": 139, "share": 52.65151515151515 }, { "candidate": "Charles R. Noblin, Jr.", "votes": 63, "share": 23.863636363636363 }, { "candidate": "John (Johnny) Morris", "votes": 62, "share": 23.484848484848484 } ], "participated": true, "map_key": "GRANVILLE_SALM" }, "geometry": { "type": "Polygon", "coordinates": [ [ [ -78.590001991374479, 36.344578999891027 ], [ -78.590233991225475, 36.358526000229716 ], [ -78.591550990893765, 36.365751999866305 ], [ -78.59323299121715, 36.369363000402785 ], [ -78.594611990899054, 36.379444999848161 ], [ -78.589404990671895, 36.415118000401549 ], [ -78.584362991081662, 36.423169000180394 ], [ -78.582125990615012, 36.429896999796867 ], [ -78.510959990681144, 36.430752000110978 ], [ -78.509677991315542, 36.30972900027637 ], [ -78.555782991388824, 36.309085000353711 ], [ -78.55289199167072, 36.3107750002941 ], [ -78.552992990604224, 36.313252999663042 ], [ -78.558538991150499, 36.313427000389886 ], [ -78.55829999071949, 36.314530999616132 ], [ -78.567204991551336, 36.315768999738573 ], [ -78.568649991445781, 36.316620000145136 ], [ -78.568523991384467, 36.318557999891205 ], [ -78.570598991006051, 36.320669000397494 ], [ -78.57541699105424, 36.320394999947993 ], [ -78.57624599138822, 36.321333999798853 ], [ -78.576285990788378, 36.323108000381886 ], [ -78.578606991346618, 36.323014000210676 ], [ -78.580196990597628, 36.323827000319696 ], [ -78.580947991075405, 36.325232999629911 ], [ -78.582418990770506, 36.323317999753442 ], [ -78.591943990831425, 36.329247999530388 ], [ -78.592542991448781, 36.33521000037176 ], [ -78.589849991285874, 36.342130000127618 ], [ -78.590001991374479, 36.344578999891027 ] ] ] } },
{ "type": "Feature", "properties": { "county": "GRANVILLE", "precinct": "SASS", "enr_desc": "Voting District 00Sass", "winner": "Ed Newman", "winner_votes": 187, "winner_share": 60.517799352750814, "runner_up": "John (Johnny) Morris", "runner_up_votes": 78, "runner_up_share": 25.242718446601941, "contest_votes": 309, "margin_of_victory": 35.275080906148872, "is_tie": false, "results": [ { "candidate": "Ed Newman", "votes": 187, "share": 60.517799352750814 }, { "candidate": "John (Johnny) Morris", "votes": 78, "share": 25.24271844660194 }, { "candidate": "Charles R. Noblin, Jr.", "votes": 44, "share": 14.239482200647249 } ], "participated": true, "map_key": "GRANVILLE_SASS" }, "geometry": { "type": "Polygon", "coordinates": [ [ [ -78.510959990681144, 36.430752000110978 ], [ -78.582125990615012, 36.429896999796867 ], [ -78.65722599163179, 36.430781999663061 ], [ -78.655454991161662, 36.487660999699528 ], [ -78.654867990915434, 36.54190900011924 ], [ -78.510896990543799, 36.541048999933594 ], [ -78.456912990583135, 36.542541000369468 ], [ -78.457301990580973, 36.541462999598352 ], [ -78.45364799072091, 36.540456000282944 ], [ -78.453823990604747, 36.539253999813759 ], [ -78.455367991118621, 36.539165000147584 ], [ -78.455995991346711, 36.538311999959802 ], [ -78.454909991096343, 36.535704999667736 ], [ -78.455856990706991, 36.533415000036456 ], [ -78.458454991090818, 36.533542000275006 ], [ -78.458856991582493, 36.53181300006905 ], [ -78.463996991609022, 36.533627999808161 ], [ -78.467279991344057, 36.531925999918684 ], [ -78.469312991087293, 36.526684999767816 ], [ -78.468628990852665, 36.525692000090757 ], [ -78.465123991362134, 36.525574999853752 ], [ -78.466572991249706, 36.523976999894316 ], [ -78.468289991379152, 36.523587000359271 ], [ -78.47020599085856, 36.525809999931624 ], [ -78.470821991023342, 36.524957999765597 ], [ -78.470090991201317, 36.523576999617944 ], [ -78.470500990696223, 36.522671000231149 ], [ -78.472482991021266, 36.522397000339929 ], [ -78.472906991572614, 36.521232000157454 ], [ -78.474129991027056, 36.522246000139582 ], [ -78.475458990689845, 36.522057000271104 ], [ -78.478624990682889, 36.519465999785751 ], [ -78.479831991116725, 36.51944700005555 ], [ -78.480243990797945, 36.517968000398724 ], [ -78.483476991254676, 36.518162000330506 ], [ -78.483767990638455, 36.516971000203796 ], [ -78.485468991565554, 36.516761000346484 ], [ -78.486256991326016, 36.518184999792041 ], [ -78.488787991345845, 36.51822599964774 ], [ -78.489956991321989, 36.517280000252754 ], [ -78.491349990547988, 36.51824099978932 ], [ -78.493324991636612, 36.51830699953949 ], [ -78.493796990949008, 36.51605299959845 ], [ -78.497735990807001, 36.514663999764124 ], [ -78.496180991365677, 36.510375999745243 ], [ -78.496886990632319, 36.508356999924601 ], [ -78.494856991475316, 36.508216000124996 ], [ -78.500222990628444, 36.504000999553071 ], [ -78.501534990978456, 36.501648000412544 ], [ -78.50055799058309, 36.49826999987026 ], [ -78.502314990889616, 36.498146999742026 ], [ -78.504202991614306, 36.495160999642899 ], [ -78.504477991281789, 36.491846000072464 ], [ -78.502344990837898, 36.491091000055846 ], [ -78.504186990561323, 36.489581999793543 ], [ -78.504060991347004, 36.488280999528961 ], [ -78.500928990692415, 36.486956999833822 ], [ -78.511223991035408, 36.454807999984467 ], [ -78.510959990681144, 36.430752000110978 ] ] ] } },
{ "type": "Feature", "properties": { "county": "GRANVILLE", "precinct": "SOOX", "enr_desc": "Voting District 00Soox", "winner": "John (Johnny) Morris", "winner_votes": 38, "winner_share": 43.18181818181818, "runner_up": "Ed Newman", "runner_up_votes": 29, "runner_up_share": 32.954545454545453, "contest_votes": 88, "margin_of_victory": 10.227272727272727, "is_tie": false, "results": [ { "candidate": "John (Johnny) Morris", "votes": 38, "share": 43.18181818181818 }, { "candidate": "Ed Newman", "votes": 29, "share": 32.95454545454545 }, { "candidate": "Charles R. Noblin, Jr.", "votes": 21, "share": 23.863636363636363 } ], "participated": true, "map_key": "GRANVILLE_SOOX" }, "geometry": { "type": "Polygon", "coordinates": [ [ [ -78.572369991638283, 36.290954000050952 ], [ -78.573186991568889, 36.290833000312887 ], [ -78.573322991430373, 36.292005000246313 ], [ -78.575116991570212, 36.291997000028424 ], [ -78.57637199132428, 36.290968000182545 ], [ -78.581279991157587, 36.297526000400282 ], [ -78.583559991467695, 36.296327999616082 ], [ -78.589360990969524, 36.298101000351579 ], [ -78.589343990917129, 36.29658100041371 ], [ -78.597277991312993, 36.295033999989315 ], [ -78.596672991065518, 36.292911999530027 ], [ -78.600125991255752, 36.292577999546502 ], [ -78.601826990809215, 36.294094999843864 ], [ -78.603694991555884, 36.292230000191758 ], [ -78.605296991450629, 36.292587000095615 ], [ -78.601798990716645, 36.298484000315511 ], [ -78.604844991106418, 36.298983000050129 ], [ -78.603612990727939, 36.299911000170184 ], [ -78.604141990698665, 36.300645999535327 ], [ -78.608654991043082, 36.303785999965541 ], [ -78.606569990917492, 36.305819000076028 ], [ -78.600669990812065, 36.305948999576351 ], [ -78.589047990875514, 36.311633999636584 ], [ -78.58581199113587, 36.312984999750633 ], [ -78.573158990877729, 36.294926999925458 ], [ -78.572369991638283, 36.290954000050952 ] ] ] } },
{ "type": "Feature", "properties": { "county": "GRANVILLE", "precinct": "TYHO", "enr_desc": "Voting District 00Tyho", "winner": "Ed Newman", "winner_votes": 418, "winner_share": 59.45945945945946, "runner_up": "John (Johnny) Morris", "runner_up_votes": 238, "runner_up_share": 33.854907539118066, "contest_votes": 703, "margin_of_victory": 25.604551920341393, "is_tie": false, "results": [ { "candidate": "Ed Newman", "votes": 418, "share": 59.45945945945946 }, { "candidate": "John (Johnny) Morris", "votes": 238, "share": 33.85490753911807 }, { "candidate": "Charles R. Noblin, Jr.", "votes": 47, "share": 6.685633001422476 } ], "participated": true, "map_key": "GRANVILLE_TYHO" }, "geometry": { "type": "Polygon", "coordinates": [ [ [ -78.80311799143297, 36.177162000038088 ], [ -78.80049699109307, 36.309888999763054 ], [ -78.660780990573514, 36.307997000110895 ], [ -78.662678991214392, 36.250143999922507 ], [ -78.662676991017861, 36.242483999696695 ], [ -78.661645991169181, 36.240888999679512 ], [ -78.663174990613413, 36.234674999795139 ], [ -78.659113991169008, 36.234798999683115 ], [ -78.650338990822291, 36.233300000198824 ], [ -78.647894990946199, 36.228836000423648 ], [ -78.643216991291098, 36.228626999862229 ], [ -78.641972991219291, 36.224566999948628 ], [ -78.640255991032475, 36.223029000143519 ], [ -78.637303991341824, 36.223742000417339 ], [ -78.627692991175053, 36.221909999655956 ], [ -78.621262990823951, 36.216772000237796 ], [ -78.612722991006734, 36.211848000158554 ], [ -78.615792990756844, 36.209365000356847 ], [ -78.617291991278861, 36.209775000275904 ], [ -78.618578991303352, 36.207841999968032 ], [ -78.618382991250627, 36.20690399954087 ], [ -78.620414990658404, 36.207713000203107 ], [ -78.619045990851106, 36.203563000403278 ], [ -78.619570991432823, 36.201340999605634 ], [ -78.628716991260418, 36.199334000087305 ], [ -78.634689991456469, 36.199399000222293 ], [ -78.644165990674395, 36.192880999568217 ], [ -78.645858990869314, 36.190786999668077 ], [ -78.652408991347357, 36.18788900036725 ], [ -78.655599991172579, 36.187992999571733 ], [ -78.660058991403204, 36.186522999716907 ], [ -78.66317099152289, 36.183898000116798 ], [ -78.666637991466501, 36.178628999681891 ], [ -78.667419991572501, 36.179191999792991 ], [ -78.669774990726012, 36.182002000217032 ], [ -78.696427990605201, 36.18080599982693 ], [ -78.749725991252888, 36.178419999975411 ], [ -78.80311799143297, 36.177162000038088 ] ] ] } },
{ "type": "Feature", "properties": { "county": "GRANVILLE", "precinct": "WILT", "enr_desc": "Voting District 00Wilt", "winner": "Ed Newman", "winner_votes": 501, "winner_share": 56.165919282511211, "runner_up": "John (Johnny) Morris", "runner_up_votes": 351, "runner_up_share": 39.349775784753369, "contest_votes": 892, "margin_of_victory": 16.816143497757842, "is_tie": false, "results": [ { "candidate": "Ed Newman", "votes": 501, "share": 56.16591928251121 }, { "candidate": "John (Johnny) Morris", "votes": 351, "share": 39.34977578475337 }, { "candidate": "Charles R. Noblin, Jr.", "votes": 40, "share": 4.484304932735426 } ], "participated": true, "map_key": "GRANVILLE_WILT" }, "geometry": { "type": "Polygon", "coordinates": [ [ [ -78.557662990676178, 36.025702000315519 ], [ -78.559826990759348, 36.028346000160731 ], [ -78.560459990935044, 36.032692000072565 ], [ -78.568148991235716, 36.042521999753468 ], [ -78.569192991143197, 36.045351999521763 ], [ -78.5738339916809, 36.046238999569084 ], [ -78.576149991288219, 36.043836999782691 ], [ -78.57971099083646, 36.04293100039726 ], [ -78.581333991680864, 36.041444999823412 ], [ -78.583673990827506, 36.041352000339685 ], [ -78.583378991474959, 36.044208000370219 ], [ -78.579782991412472, 36.047454999818093 ], [ -78.58008599108291, 36.05240700020336 ], [ -78.578343991141253, 36.055515999695032 ], [ -78.581467991658684, 36.060850000201881 ], [ -78.58045399074129, 36.066290000008316 ], [ -78.583049991241268, 36.074868999948826 ], [ -78.583563990599544, 36.075809999543054 ], [ -78.596307990964206, 36.0719780001766 ], [ -78.599321991300286, 36.078233000079493 ], [ -78.602429991512011, 36.08841399964242 ], [ -78.595985991612054, 36.089712999549036 ], [ -78.593261991225319, 36.091668999992756 ], [ -78.593247991223762, 36.0927229996135 ], [ -78.591262990630497, 36.094571000138544 ], [ -78.587033991218718, 36.095833999846782 ], [ -78.583006990871937, 36.094325999782704 ], [ -78.575908991244432, 36.095707999633639 ], [ -78.573380990861878, 36.097091000412377 ], [ -78.567437990904537, 36.096364000054287 ], [ -78.560370991284273, 36.093308000285376 ], [ -78.560196991320367, 36.097857999844713 ], [ -78.55826799113234, 36.107172999915356 ], [ -78.562854990879785, 36.11197999987963 ], [ -78.574957991586047, 36.11508100007859 ], [ -78.576132990781829, 36.120811999678992 ], [ -78.575195991602271, 36.126821000420058 ], [ -78.576400991614562, 36.1300810002435 ], [ -78.572817990827403, 36.136566000383908 ], [ -78.574933990702803, 36.140519000028249 ], [ -78.576562990783856, 36.141847000283796 ], [ -78.581659990789092, 36.142527999961267 ], [ -78.591893990941628, 36.142623000233421 ], [ -78.598473990797217, 36.146967999984298 ], [ -78.612651991083055, 36.158571999610494 ], [ -78.634527991683782, 36.16599999965532 ], [ -78.65548699063136, 36.17047300010762 ], [ -78.667567991133723, 36.170368999900504 ], [ -78.667419991572501, 36.179191999792991 ], [ -78.666637991466501, 36.178628999681891 ], [ -78.66317099152289, 36.183898000116798 ], [ -78.660058991403204, 36.186522999716907 ], [ -78.655599991172579, 36.187992999571733 ], [ -78.652408991347357, 36.18788900036725 ], [ -78.645858990869314, 36.190786999668077 ], [ -78.644165990674395, 36.192880999568217 ], [ -78.634689991456469, 36.199399000222293 ], [ -78.628716991260418, 36.199334000087305 ], [ -78.619570991432823, 36.201340999605634 ], [ -78.61561899114956, 36.198954999881849 ], [ -78.613076990780698, 36.195927999945219 ], [ -78.610960990595089, 36.196732999883743 ], [ -78.608860990668376, 36.194066999753339 ], [ -78.607979991074416, 36.194113999671252 ], [ -78.608078991457816, 36.194967000049054 ], [ -78.607353991275559, 36.19523500032323 ], [ -78.604809990654033, 36.192477999972667 ], [ -78.601939990921167, 36.193337000183334 ], [ -78.600085991553854, 36.192461999893069 ], [ -78.600123991577604, 36.190220999576091 ], [ -78.595154991360971, 36.190312000184292 ], [ -78.591377990842048, 36.188603000209014 ], [ -78.590248990949561, 36.191844000327514 ], [ -78.587195991243121, 36.193582000366185 ], [ -78.586934991176562, 36.195847999864213 ], [ -78.586168991011633, 36.196337000316788 ], [ -78.585451991002913, 36.194981999673175 ], [ -78.584020991253979, 36.195456999576059 ], [ -78.581905990807755, 36.19437499963535 ], [ -78.576614990675665, 36.194635999967495 ], [ -78.575786991120907, 36.193596999576634 ], [ -78.576516990642901, 36.191565999846325 ], [ -78.574970991142905, 36.190199999784568 ], [ -78.56668099149114, 36.191492999863272 ], [ -78.564070991555852, 36.191078000039475 ], [ -78.561523990687064, 36.189176000118643 ], [ -78.560079990704779, 36.18903599967274 ], [ -78.558790991022221, 36.190743000009611 ], [ -78.557559990607004, 36.190834999787405 ], [ -78.554802990969023, 36.188386000313685 ], [ -78.549855991431556, 36.188188000337739 ], [ -78.546144990836652, 36.185741000409266 ], [ -78.543479991307848, 36.185190000198752 ], [ -78.539827991156187, 36.182381999639858 ], [ -78.536856991449824, 36.182908999679206 ], [ -78.536285990726881, 36.184865000106846 ], [ -78.532404990608015, 36.186048000159936 ], [ -78.53008999071379, 36.184102999632223 ], [ -78.527187990711667, 36.183795999865978 ], [ -78.527492990996024, 36.181479999612392 ], [ -78.525627991237343, 36.180380000195534 ], [ -78.52310499163228, 36.181192000165531 ], [ -78.518606991386747, 36.180543000278163 ], [ -78.51731999063837, 36.181889999984158 ], [ -78.510805990660444, 36.183667000209141 ], [ -78.508330991027933, 36.18295599986962 ], [ -78.499299991016088, 36.175770000248384 ], [ -78.496613991276391, 36.175198999631682 ], [ -78.544811990663419, 36.080845999771626 ], [ -78.546413991026085, 36.021826000381765 ], [ -78.557662990676178, 36.025702000315519 ] ] ] } },
{ "type": "Feature", "properties": { "county": "GRANVILLE", "precinct": "WOEL", "enr_desc": "Voting District 00Woel", "winner": "Ed Newman", "winner_votes": 82, "winner_share": 63.076923076923073, "runner_up": "John (Johnny) Morris", "runner_up_votes": 30, "runner_up_share": 23.076923076923077, "contest_votes": 130, "margin_of_victory": 40.0, "is_tie": false, "results": [ { "candidate": "Ed Newman", "votes": 82, "share": 63.07692307692307 }, { "candidate": "John (Johnny) Morris", "votes": 30, "share": 23.076923076923077 }, { "candidate": "Charles R. Noblin, Jr.", "votes": 18, "share": 13.846153846153847 } ], "participated": true, "map_key": "GRANVILLE_WOEL" }, "geometry": { "type": "Polygon", "coordinates": [ [ [ -78.590001991374479, 36.344578999891027 ], [ -78.591793991124476, 36.344436999864719 ], [ -78.594297991421513, 36.337999999851696 ], [ -78.597997990781124, 36.334824000090954 ], [ -78.597834990992055, 36.328916999542315 ], [ -78.60497999096404, 36.327112000014921 ], [ -78.606325991279391, 36.326001000254294 ], [ -78.606112990672599, 36.324459000334862 ], [ -78.609923990996222, 36.324370000068754 ], [ -78.60964599149564, 36.323108000120101 ], [ -78.605246991162232, 36.323114999531796 ], [ -78.605355991478007, 36.321600999586927 ], [ -78.605516991652379, 36.319585999604328 ], [ -78.606322991226278, 36.319730000235097 ], [ -78.606040991479531, 36.318088000189171 ], [ -78.611289990725581, 36.317627999636663 ], [ -78.611285991379887, 36.316250999720445 ], [ -78.61249999081079, 36.316219000192817 ], [ -78.612595991517509, 36.313209000328918 ], [ -78.614260991507805, 36.312717000200024 ], [ -78.61411399146121, 36.31187600001082 ], [ -78.607794991635771, 36.312100999960926 ], [ -78.606601990649935, 36.310197000121605 ], [ -78.606580991232036, 36.30812100012254 ], [ -78.607676990852895, 36.308098999980572 ], [ -78.607695991142236, 36.30892399952959 ], [ -78.611478990784164, 36.308861000177664 ], [ -78.611100990745342, 36.308034000215201 ], [ -78.660780990573514, 36.307997000110895 ], [ -78.65722599163179, 36.430781999663061 ], [ -78.582125990615012, 36.429896999796867 ], [ -78.584362991081662, 36.423169000180394 ], [ -78.589404990671895, 36.415118000401549 ], [ -78.594611990899054, 36.379444999848161 ], [ -78.59323299121715, 36.369363000402785 ], [ -78.591550990893765, 36.365751999866305 ], [ -78.590233991225475, 36.358526000229716 ], [ -78.590001991374479, 36.344578999891027 ] ] ] } }
]
}
