{
"type": "FeatureCollection",
"name": "greene_county_board_of_commissioners_district_04_dem",
"crs": { "type": "name", "properties": { "name": "urn:ogc:def:crs:OGC:1.3:CRS84" } },
"features": [
{ "type": "Feature", "properties": { "county": "GREENE", "precinct": "BEAR", "enr_desc": "Voting District 00Bear", "winner": "Tyrone Sutton, Jr.", "winner_votes": 72, "winner_share": 60.504201680672267, "runner_up": "Bennie Heath", "runner_up_votes": 47, "runner_up_share": 39.495798319327733, "contest_votes": 119, "margin_of_victory": 21.008403361344534, "is_tie": false, "results": [ { "candidate": "Tyrone Sutton, Jr.", "votes": 72, "share": 60.50420168067227 }, { "candidate": "Bennie Heath", "votes": 47, "share": 39.49579831932773 } ], "participated": true, "map_key": "GREENE_BEAR" }, "geometry": { "type": "Polygon", "coordinates": [ [ [ -77.702183991391479, 35.433800999804731 ], [ -77.712088991029631, 35.429467999759574 ], [ -77.713069991157113, 35.431832999560875 ], [ -77.719374990727218, 35.433070000185737 ], [ -77.732533990883084, 35.431415999962574 ], [ -77.737553991028918, 35.433496000085078 ], [ -77.736820991541734, 35.434855999905878 ], [ -77.740537991389317, 35.453884999941423 ], [ -77.733684991121606, 35.47561199987917 ], [ -77.733619991336113, 35.478301999497432 ], [ -77.737659990798846, 35.477997000248209 ], [ -77.73786199163014, 35.485044999538452 ], [ -77.735570991613457, 35.487113000219971 ], [ -77.735297991250903, 35.491383000142719 ], [ -77.732753991060321, 35.492100000313535 ], [ -77.729889990890342, 35.494265999665899 ], [ -77.72750499153878, 35.494721999861561 ], [ -77.72405199124168, 35.498689000315146 ], [ -77.720963991188924, 35.500159999522722 ], [ -77.721283991332271, 35.50206899954496 ], [ -77.726060991665094, 35.506594999481358 ], [ -77.717656991057382, 35.510981999614152 ], [ -77.709200991273164, 35.506301000112082 ], [ -77.690436991519363, 35.509672999947639 ], [ -77.669132991483096, 35.510355999978735 ], [ -77.669945991142427, 35.514452999550819 ], [ -77.668910991451668, 35.521199999802924 ], [ -77.665702990761673, 35.52476500021811 ], [ -77.662679991396075, 35.531914000204104 ], [ -77.655565991360163, 35.529551000094727 ], [ -77.652475991008856, 35.531626999887436 ], [ -77.646500991070099, 35.530444999520256 ], [ -77.643098991703482, 35.527070999983195 ], [ -77.635336991380186, 35.526173999480584 ], [ -77.629777991104802, 35.522269999619795 ], [ -77.622435991402611, 35.52057100023346 ], [ -77.620697991751314, 35.516909999845709 ], [ -77.618352990735588, 35.516110000321447 ], [ -77.615505991331318, 35.516282000345903 ], [ -77.619578991051711, 35.507033999978646 ], [ -77.632313991222304, 35.488555999805762 ], [ -77.637413991218963, 35.482483999453684 ], [ -77.640689990920791, 35.480776000104392 ], [ -77.646156991696913, 35.480587999931679 ], [ -77.646516991613439, 35.477083000183455 ], [ -77.651274990857928, 35.472598999778647 ], [ -77.650716991472336, 35.469851999503227 ], [ -77.653459990858096, 35.467769999923497 ], [ -77.652986991495652, 35.464797000290353 ], [ -77.654755991343052, 35.462005000193443 ], [ -77.654843991596906, 35.459280999736414 ], [ -77.657463990927766, 35.456076000086419 ], [ -77.660708991079161, 35.456534000236637 ], [ -77.66121199151172, 35.457655999943881 ], [ -77.662918991161433, 35.458384999474823 ], [ -77.671067991355855, 35.456969000258653 ], [ -77.672257991585553, 35.457940000159411 ], [ -77.673755991495838, 35.45754100035294 ], [ -77.673867991311113, 35.458828999803899 ], [ -77.675031991143527, 35.457986000344064 ], [ -77.675839991668155, 35.458732999698796 ], [ -77.677294991081197, 35.458550000312819 ], [ -77.67771399094454, 35.459236000061274 ], [ -77.676455991579218, 35.460174999509256 ], [ -77.67662299120245, 35.460929999622095 ], [ -77.678636991481653, 35.460654999880326 ], [ -77.678917990884685, 35.462669999668009 ], [ -77.679952990973035, 35.461021999601527 ], [ -77.681547991052526, 35.461457000102989 ], [ -77.684792990787898, 35.46614800001305 ], [ -77.686022991596616, 35.466330999688729 ], [ -77.686050991576565, 35.464821000204289 ], [ -77.687449991123913, 35.464248999668492 ], [ -77.688036991429527, 35.464522999610466 ], [ -77.687225991321611, 35.466262999819776 ], [ -77.688064991169227, 35.466491000321177 ], [ -77.691980991505744, 35.46356199991768 ], [ -77.693743991556815, 35.464888999828176 ], [ -77.692652991005332, 35.465507000023408 ], [ -77.693016990788266, 35.4666279997572 ], [ -77.691729990742147, 35.468207999905303 ], [ -77.69256999146296, 35.468436000327948 ], [ -77.693519991740274, 35.467451999900803 ], [ -77.696317991470806, 35.468252999613817 ], [ -77.697068990974486, 35.467410999642816 ], [ -77.697132990756984, 35.46344699956196 ], [ -77.699064991714252, 35.458255999724422 ], [ -77.698390991149751, 35.457841999566512 ], [ -77.699168991008534, 35.456730999635056 ], [ -77.698299991441161, 35.45484600007736 ], [ -77.699550991767737, 35.452264999678228 ], [ -77.695365991751018, 35.44969200023889 ], [ -77.692799991372326, 35.444747999491341 ], [ -77.697626991607237, 35.440877999715021 ], [ -77.702183991391479, 35.433800999804731 ] ] ] } },
{ "type": "Feature", "properties": { "county": "GREENE", "precinct": "ARBA", "enr_desc": "Voting District 00Arba", "winner": "Tyrone Sutton, Jr.", "winner_votes": 115, "winner_share": 72.784810126582272, "runner_up": "Bennie Heath", "runner_up_votes": 43, "runner_up_share": 27.215189873417721, "contest_votes": 158, "margin_of_victory": 45.569620253164551, "is_tie": false, "results": [ { "candidate": "Tyrone Sutton, Jr.", "votes": 115, "share": 72.78481012658227 }, { "candidate": "Bennie Heath", "votes": 43, "share": 27.21518987341772 } ], "participated": true, "map_key": "GREENE_ARBA" }, "geometry": { "type": "Polygon", "coordinates": [ [ [ -77.712088991029631, 35.429467999759574 ], [ -77.702183991391479, 35.433800999804731 ], [ -77.700468991121951, 35.433828000223329 ], [ -77.698380991124935, 35.431084999611436 ], [ -77.693195990827647, 35.430926999792973 ], [ -77.691176991171929, 35.430042000134101 ], [ -77.691462991425297, 35.427881999871651 ], [ -77.677963991186758, 35.425281999464481 ], [ -77.668776991300561, 35.418110999488228 ], [ -77.664456990750338, 35.419075999883979 ], [ -77.664345991389808, 35.397774999990823 ], [ -77.668350990713535, 35.38254400025609 ], [ -77.664319991728817, 35.360234999552809 ], [ -77.660841991098067, 35.352813999488376 ], [ -77.664624990982986, 35.352054999666407 ], [ -77.67317399137103, 35.347889000038172 ], [ -77.677678991097451, 35.347323999973611 ], [ -77.680574991715474, 35.347997999790969 ], [ -77.68233199156866, 35.349749000228122 ], [ -77.686604991454985, 35.357234000246038 ], [ -77.690138991290269, 35.359689000225657 ], [ -77.690875990967953, 35.361083999573111 ], [ -77.690027991141136, 35.362533999596813 ], [ -77.690145990940891, 35.364282999641446 ], [ -77.694150991031393, 35.365577000148669 ], [ -77.694701990729897, 35.368600000073847 ], [ -77.697156991140659, 35.371197999539866 ], [ -77.696210991056944, 35.375351000122762 ], [ -77.697515991061707, 35.377096999551163 ], [ -77.741175990724741, 35.371965999488147 ], [ -77.744927991360953, 35.37202599961946 ], [ -77.7431009910932, 35.37794400004698 ], [ -77.740446991058562, 35.381783999607443 ], [ -77.740254990947051, 35.383320000029698 ], [ -77.745729991557184, 35.389845000051245 ], [ -77.739960991746031, 35.390923999606358 ], [ -77.733157991581649, 35.389543000210992 ], [ -77.729929991429628, 35.390853000285574 ], [ -77.727494991609291, 35.390840999846368 ], [ -77.728303991531291, 35.393760999791041 ], [ -77.727972991658788, 35.410754999525153 ], [ -77.722789991182267, 35.419654999857016 ], [ -77.712088991029631, 35.429467999759574 ] ] ] } },
{ "type": "Feature", "properties": { "county": "GREENE", "precinct": "BULL", "enr_desc": "Voting District 00Bull", "winner": "Tyrone Sutton, Jr.", "winner_votes": 92, "winner_share": 81.415929203539832, "runner_up": "Bennie Heath", "runner_up_votes": 21, "runner_up_share": 18.584070796460178, "contest_votes": 113, "margin_of_victory": 62.83185840707965, "is_tie": false, "results": [ { "candidate": "Tyrone Sutton, Jr.", "votes": 92, "share": 81.41592920353983 }, { "candidate": "Bennie Heath", "votes": 21, "share": 18.58407079646018 } ], "participated": true, "map_key": "GREENE_BULL" }, "geometry": { "type": "Polygon", "coordinates": [ [ [ -77.806229990651033, 35.583473999804838 ], [ -77.804918990880438, 35.583202999798196 ], [ -77.804106991057608, 35.581852999651353 ], [ -77.801669991228508, 35.582767999937325 ], [ -77.800857991483056, 35.582036000086106 ], [ -77.800016991583249, 35.583087999517879 ], [ -77.798167991665949, 35.580730999663018 ], [ -77.798923991228932, 35.579220999711488 ], [ -77.797327990842774, 35.578419999907581 ], [ -77.798083991507298, 35.575970999867089 ], [ -77.797187991724684, 35.57505599954883 ], [ -77.795366991172131, 35.574506000194759 ], [ -77.79183799165132, 35.576108000015708 ], [ -77.78937299129602, 35.575397999592703 ], [ -77.789765990689062, 35.57290400017353 ], [ -77.792118991200425, 35.569905999520373 ], [ -77.791922991556206, 35.568785000296614 ], [ -77.788981991248789, 35.568967000037375 ], [ -77.783296991155325, 35.567570000186073 ], [ -77.783268991459636, 35.569560999972637 ], [ -77.780551990809442, 35.570361999834731 ], [ -77.77951599118532, 35.569263000227394 ], [ -77.778758990833921, 35.571115999732569 ], [ -77.777777991679002, 35.571298999542385 ], [ -77.776741991161302, 35.57040700015191 ], [ -77.776069991460332, 35.571070000323694 ], [ -77.774837991066079, 35.570680999482384 ], [ -77.773493991481217, 35.569536000200657 ], [ -77.77363399111168, 35.568758000307504 ], [ -77.771840990802758, 35.568894999464234 ], [ -77.770748991052244, 35.567452999977419 ], [ -77.768928991678223, 35.567428999494197 ], [ -77.768480991078093, 35.566674000188002 ], [ -77.769713991472955, 35.565277999686927 ], [ -77.767248990780487, 35.565323000284344 ], [ -77.767558991534401, 35.562440000095812 ], [ -77.766774990809466, 35.561867000228496 ], [ -77.766914990724459, 35.560837999507228 ], [ -77.765290990787108, 35.560311000187745 ], [ -77.76537599122949, 35.558891999570712 ], [ -77.764059991171848, 35.558501999597397 ], [ -77.763892991439803, 35.557197999530899 ], [ -77.762688991123213, 35.557083000168994 ], [ -77.762660991721063, 35.556099000197612 ], [ -77.76162499149595, 35.555457999751312 ], [ -77.759775991541844, 35.557219000187807 ], [ -77.757311990909201, 35.556806000258675 ], [ -77.754424991007923, 35.560740999908937 ], [ -77.752183991050074, 35.56165600009183 ], [ -77.750447991616795, 35.561402999744793 ], [ -77.752465990979317, 35.558795000083933 ], [ -77.75146299084949, 35.554423000090921 ], [ -77.756367990941428, 35.546455999850743 ], [ -77.758497991289801, 35.545013999857176 ], [ -77.759560990871819, 35.545927999653138 ], [ -77.760288991201023, 35.54427999990596 ], [ -77.762024990966836, 35.54446399956452 ], [ -77.763172991064579, 35.543731000223985 ], [ -77.762725991705651, 35.542242999762223 ], [ -77.765442991647589, 35.541211999526197 ], [ -77.765022991425042, 35.540318999501032 ], [ -77.763901991066675, 35.540341000344398 ], [ -77.763902991730077, 35.539265000339491 ], [ -77.766310990658084, 35.538141999631137 ], [ -77.766760990774671, 35.536836999683608 ], [ -77.765137991133685, 35.535713999644827 ], [ -77.761635990889374, 35.536877999599177 ], [ -77.758584991316553, 35.536646999850653 ], [ -77.755366991162091, 35.534425000045957 ], [ -77.756039991227951, 35.533006000055991 ], [ -77.759427990849048, 35.531932000020475 ], [ -77.761416991073688, 35.529849999965819 ], [ -77.761164991070103, 35.528637000029541 ], [ -77.75755599166861, 35.525386000189286 ], [ -77.758704991295659, 35.524334000211425 ], [ -77.758396990728485, 35.523394999955855 ], [ -77.75713799117932, 35.523303000281295 ], [ -77.756604991169041, 35.524218000335949 ], [ -77.755121990779671, 35.523896999522741 ], [ -77.754924990681985, 35.525910999632075 ], [ -77.755623990689585, 35.526849999839683 ], [ -77.754866990663245, 35.527581999914595 ], [ -77.748672991488419, 35.525813000105707 ], [ -77.747300991442188, 35.526179999925589 ], [ -77.746236991044867, 35.524785000116303 ], [ -77.744080991309175, 35.526594000253148 ], [ -77.744248991077498, 35.525381000243293 ], [ -77.742371990820601, 35.523733999697953 ], [ -77.743238991055506, 35.523482000011569 ], [ -77.741893991523398, 35.521628000182439 ], [ -77.739850991739289, 35.520965999484538 ], [ -77.73968399172827, 35.522476000178067 ], [ -77.739011991346402, 35.522683000092478 ], [ -77.737022991088622, 35.520852999981358 ], [ -77.737496991226777, 35.518220999951936 ], [ -77.736572990897287, 35.516847999658296 ], [ -77.735368990857665, 35.51655099952518 ], [ -77.732262990758741, 35.517765000030714 ], [ -77.735171991605739, 35.515109000090177 ], [ -77.735590991701457, 35.513438000047792 ], [ -77.734806991147721, 35.512409000068615 ], [ -77.733015991352985, 35.513096000330364 ], [ -77.730915990696673, 35.511013999493962 ], [ -77.727584991447301, 35.512067999805183 ], [ -77.724343991668363, 35.510729000267155 ], [ -77.723820991369919, 35.509645999813237 ], [ -77.726359991088003, 35.508123999650188 ], [ -77.726060991665094, 35.506594999481358 ], [ -77.721283991332271, 35.50206899954496 ], [ -77.720963991188924, 35.500159999522722 ], [ -77.72405199124168, 35.498689000315146 ], [ -77.72750499153878, 35.494721999861561 ], [ -77.729889990890342, 35.494265999665899 ], [ -77.732753991060321, 35.492100000313535 ], [ -77.735297991250903, 35.491383000142719 ], [ -77.735570991613457, 35.487113000219971 ], [ -77.73786199163014, 35.485044999538452 ], [ -77.737659990798846, 35.477997000248209 ], [ -77.738732991080795, 35.473891999520603 ], [ -77.746396991728631, 35.472492000152826 ], [ -77.754690991050552, 35.465494000283904 ], [ -77.75518799160416, 35.461104999623196 ], [ -77.754219990815571, 35.456040999968543 ], [ -77.751511991270746, 35.452759000261963 ], [ -77.752434990711293, 35.452519999862893 ], [ -77.758019991293992, 35.453474999658511 ], [ -77.765465991710855, 35.452284999530278 ], [ -77.769382990973099, 35.460761000312438 ], [ -77.777105990697621, 35.461169999586403 ], [ -77.780713991465902, 35.46391799993215 ], [ -77.787442991384225, 35.46596999983737 ], [ -77.786971991327263, 35.468229999748246 ], [ -77.794513990841722, 35.471584999945705 ], [ -77.811193991648793, 35.473036999688468 ], [ -77.81561199163788, 35.475288000114269 ], [ -77.816846990768653, 35.47668099995348 ], [ -77.825529990678561, 35.470418999473068 ], [ -77.822510991575143, 35.585382999740212 ], [ -77.817074990973381, 35.58816699970825 ], [ -77.815057990822581, 35.58828099948223 ], [ -77.808394991023377, 35.583958999795946 ], [ -77.806229990651033, 35.583473999804838 ] ] ] } },
{ "type": "Feature", "properties": { "county": "GREENE", "precinct": "CAST", "enr_desc": "Voting District 00Cast", "winner": "Tyrone Sutton, Jr.", "winner_votes": 36, "winner_share": 67.924528301886795, "runner_up": "Bennie Heath", "runner_up_votes": 17, "runner_up_share": 32.075471698113205, "contest_votes": 53, "margin_of_victory": 35.84905660377359, "is_tie": false, "results": [ { "candidate": "Tyrone Sutton, Jr.", "votes": 36, "share": 67.9245283018868 }, { "candidate": "Bennie Heath", "votes": 17, "share": 32.075471698113205 } ], "participated": true, "map_key": "GREENE_CAST" }, "geometry": { "type": "Polygon", "coordinates": [ [ [ -77.673631991641145, 35.623241000080206 ], [ -77.662437990662227, 35.619252000088068 ], [ -77.628818990752137, 35.585972999926426 ], [ -77.626495991254174, 35.583903000105593 ], [ -77.621496991748316, 35.582131999539165 ], [ -77.615144991378671, 35.574355000002498 ], [ -77.614403991427892, 35.571912000280761 ], [ -77.610369991201665, 35.567551999582818 ], [ -77.604515990690913, 35.567542999638526 ], [ -77.593044990658385, 35.564143000080492 ], [ -77.58624399070554, 35.559357000173243 ], [ -77.581476991338576, 35.553640000342739 ], [ -77.574998991561756, 35.550262999731011 ], [ -77.573377991571249, 35.55056400001785 ], [ -77.570832991059135, 35.548842000320086 ], [ -77.569987991101698, 35.545882999861981 ], [ -77.568878991091694, 35.544765999920614 ], [ -77.569023991213342, 35.543642000249719 ], [ -77.566363991209187, 35.539873999657694 ], [ -77.562688991372582, 35.536809000199071 ], [ -77.560322990758024, 35.533490999795035 ], [ -77.557893991547601, 35.531973999957799 ], [ -77.558395990808933, 35.531493999719885 ], [ -77.555879991402321, 35.529738999645943 ], [ -77.555610990884546, 35.517152000336417 ], [ -77.56965199131956, 35.517649999783153 ], [ -77.586551991211493, 35.516806000343912 ], [ -77.592962991554032, 35.514716000089201 ], [ -77.596528990925691, 35.509879999709433 ], [ -77.605591991074448, 35.507533999710908 ], [ -77.612630991070432, 35.504537000136139 ], [ -77.619578991051711, 35.507033999978646 ], [ -77.615505991331318, 35.516282000345903 ], [ -77.618352990735588, 35.516110000321447 ], [ -77.620697991751314, 35.516909999845709 ], [ -77.622435991402611, 35.52057100023346 ], [ -77.629777991104802, 35.522269999619795 ], [ -77.635336991380186, 35.526173999480584 ], [ -77.643098991703482, 35.527070999983195 ], [ -77.646500991070099, 35.530444999520256 ], [ -77.652475991008856, 35.531626999887436 ], [ -77.655565991360163, 35.529551000094727 ], [ -77.662679991396075, 35.531914000204104 ], [ -77.665702990761673, 35.52476500021811 ], [ -77.668910991451668, 35.521199999802924 ], [ -77.669945991142427, 35.514452999550819 ], [ -77.669132991483096, 35.510355999978735 ], [ -77.690436991519363, 35.509672999947639 ], [ -77.709200991273164, 35.506301000112082 ], [ -77.717656991057382, 35.510981999614152 ], [ -77.71818399110704, 35.512222000260763 ], [ -77.717033991595514, 35.515138999701868 ], [ -77.718566990726799, 35.528391999592841 ], [ -77.719467991323967, 35.53084099945805 ], [ -77.714901991008674, 35.530882000027226 ], [ -77.707205991296149, 35.533153000152581 ], [ -77.696987991052907, 35.533804000263103 ], [ -77.696349991148637, 35.548510999477536 ], [ -77.691336990859142, 35.556535999633837 ], [ -77.688614991623382, 35.563419000222083 ], [ -77.688400991529193, 35.565807000212907 ], [ -77.684330991491279, 35.572254999897972 ], [ -77.683785990906074, 35.581473999934566 ], [ -77.678918991380598, 35.58951600004886 ], [ -77.677137991609513, 35.598415000012565 ], [ -77.674978991347643, 35.602365000102452 ], [ -77.674677991141095, 35.606518999572472 ], [ -77.680736991534658, 35.606898999730547 ], [ -77.679787991427062, 35.612286999822643 ], [ -77.673631991641145, 35.623241000080206 ] ] ] } },
{ "type": "Feature", "properties": { "county": "GREENE", "precinct": "HOOK", "enr_desc": "Voting District 00Hook", "winner": "Tyrone Sutton, Jr.", "winner_votes": 52, "winner_share": 74.285714285714292, "runner_up": "Bennie Heath", "runner_up_votes": 18, "runner_up_share": 25.714285714285712, "contest_votes": 70, "margin_of_victory": 48.571428571428584, "is_tie": false, "results": [ { "candidate": "Tyrone Sutton, Jr.", "votes": 52, "share": 74.28571428571429 }, { "candidate": "Bennie Heath", "votes": 18, "share": 25.71428571428571 } ], "participated": true, "map_key": "GREENE_HOOK" }, "geometry": { "type": "Polygon", "coordinates": [ [ [ -77.610961990977415, 35.378632999489419 ], [ -77.61163899110511, 35.384798999809433 ], [ -77.622426991621836, 35.400725000033994 ], [ -77.623469991520977, 35.403923000192655 ], [ -77.623393991488243, 35.406675000263888 ], [ -77.621286991040066, 35.405275999945843 ], [ -77.618825990930659, 35.405139999813706 ], [ -77.614465991404799, 35.40610400025426 ], [ -77.609575991645485, 35.409538999525552 ], [ -77.606948990848053, 35.410020000024971 ], [ -77.605661991309816, 35.409151000312711 ], [ -77.60409699123359, 35.409357999476498 ], [ -77.601024990943571, 35.414528999741862 ], [ -77.601808990852831, 35.415478000199499 ], [ -77.601641990767675, 35.417403999837113 ], [ -77.598173991543263, 35.419337999700623 ], [ -77.593275990700874, 35.424649999740289 ], [ -77.595783990774706, 35.424335999509516 ], [ -77.59581699068714, 35.425514999547147 ], [ -77.593654991488876, 35.427785000334595 ], [ -77.591719991541027, 35.426938999456517 ], [ -77.590683991394727, 35.426184000174885 ], [ -77.586398991232571, 35.426001999694066 ], [ -77.582178990973134, 35.428652999552085 ], [ -77.581126991294994, 35.42811700024793 ], [ -77.58163899147101, 35.426643999504783 ], [ -77.580863990677813, 35.426002000076807 ], [ -77.577905991336351, 35.425615000006609 ], [ -77.57569699148118, 35.426965999847056 ], [ -77.575024991400255, 35.426531000004353 ], [ -77.575276991295908, 35.425385999530732 ], [ -77.574213991423932, 35.424905999793758 ], [ -77.569460991753644, 35.42570800007185 ], [ -77.568873991509179, 35.424815000230559 ], [ -77.56532199149153, 35.42490700020192 ], [ -77.566187991610292, 35.42282400011662 ], [ -77.56190999123217, 35.422205999954912 ], [ -77.559253990918648, 35.424288999597778 ], [ -77.559141990816158, 35.421153000037044 ], [ -77.560707991501104, 35.41916199963233 ], [ -77.559001991269866, 35.418636000102282 ], [ -77.557687990939328, 35.419161999510635 ], [ -77.556038990943676, 35.416255000064631 ], [ -77.553633991378888, 35.417560000019144 ], [ -77.551145991754112, 35.417398999503241 ], [ -77.550782991335851, 35.41643800025939 ], [ -77.549495991084726, 35.416757999455584 ], [ -77.548098991109327, 35.415567999945111 ], [ -77.548601990920631, 35.413805999453167 ], [ -77.547510991591778, 35.414537999905953 ], [ -77.544603991500622, 35.412500999801203 ], [ -77.544127991342975, 35.412981000112346 ], [ -77.54488299143901, 35.414537999670564 ], [ -77.543148991306467, 35.41453699952902 ], [ -77.541750991600694, 35.4171920003417 ], [ -77.536521990696372, 35.418038000026129 ], [ -77.533669991680512, 35.419479999491791 ], [ -77.533082991507257, 35.418265999508492 ], [ -77.530902990764034, 35.417785000197114 ], [ -77.529840991043713, 35.416343000184206 ], [ -77.527407990708681, 35.416114000061292 ], [ -77.528337991762555, 35.414335999860555 ], [ -77.527271990776143, 35.412573000003974 ], [ -77.528258991476449, 35.411993000079526 ], [ -77.528598990680564, 35.409249999641695 ], [ -77.530172990947491, 35.407870999992966 ], [ -77.531492991228163, 35.40791599990601 ], [ -77.532762991611406, 35.40484499999576 ], [ -77.531964990978167, 35.403004000092444 ], [ -77.532621990768106, 35.402132000110356 ], [ -77.531738991515326, 35.401342000176129 ], [ -77.534172991091111, 35.398103999594987 ], [ -77.539470990696927, 35.396678000204702 ], [ -77.561461991179186, 35.387276999980529 ], [ -77.56450899145662, 35.387674999554839 ], [ -77.565663990674125, 35.385777999875998 ], [ -77.564882991204001, 35.383908000153291 ], [ -77.566381991183462, 35.382982000137957 ], [ -77.572081991207753, 35.382311999725594 ], [ -77.576656990711825, 35.379879999816765 ], [ -77.580195991093163, 35.379755999652048 ], [ -77.581304991046565, 35.377965999889682 ], [ -77.584666990862175, 35.379699999766892 ], [ -77.588343990823503, 35.374422000155164 ], [ -77.59067499106601, 35.373599000055357 ], [ -77.593188990961181, 35.374059999528598 ], [ -77.59539399162351, 35.375582000254468 ], [ -77.602874990986379, 35.37499799987954 ], [ -77.606956991256581, 35.379496999489817 ], [ -77.610961990977415, 35.378632999489419 ] ] ] } },
{ "type": "Feature", "properties": { "county": "GREENE", "precinct": "MAUR", "enr_desc": "Voting District 00Maur", "winner": "Tyrone Sutton, Jr.", "winner_votes": 141, "winner_share": 71.938775510204081, "runner_up": "Bennie Heath", "runner_up_votes": 55, "runner_up_share": 28.061224489795915, "contest_votes": 196, "margin_of_victory": 43.877551020408163, "is_tie": false, "results": [ { "candidate": "Tyrone Sutton, Jr.", "votes": 141, "share": 71.93877551020408 }, { "candidate": "Bennie Heath", "votes": 55, "share": 28.061224489795915 } ], "participated": true, "map_key": "GREENE_MAUR" }, "geometry": { "type": "Polygon", "coordinates": [ [ [ -77.528337991762555, 35.414335999860555 ], [ -77.527407990708681, 35.416114000061292 ], [ -77.529840991043713, 35.416343000184206 ], [ -77.530902990764034, 35.417785000197114 ], [ -77.533082991507257, 35.418265999508492 ], [ -77.533669991680512, 35.419479999491791 ], [ -77.536521990696372, 35.418038000026129 ], [ -77.541750991600694, 35.4171920003417 ], [ -77.543148991306467, 35.41453699952902 ], [ -77.54488299143901, 35.414537999670564 ], [ -77.544127991342975, 35.412981000112346 ], [ -77.544603991500622, 35.412500999801203 ], [ -77.547510991591778, 35.414537999905953 ], [ -77.548601990920631, 35.413805999453167 ], [ -77.548098991109327, 35.415567999945111 ], [ -77.549495991084726, 35.416757999455584 ], [ -77.550782991335851, 35.41643800025939 ], [ -77.551145991754112, 35.417398999503241 ], [ -77.553633991378888, 35.417560000019144 ], [ -77.556038990943676, 35.416255000064631 ], [ -77.557687990939328, 35.419161999510635 ], [ -77.559001991269866, 35.418636000102282 ], [ -77.560707991501104, 35.41916199963233 ], [ -77.559141990816158, 35.421153000037044 ], [ -77.559253990918648, 35.424288999597778 ], [ -77.56190999123217, 35.422205999954912 ], [ -77.566187991610292, 35.42282400011662 ], [ -77.56532199149153, 35.42490700020192 ], [ -77.568873991509179, 35.424815000230559 ], [ -77.569460991753644, 35.42570800007185 ], [ -77.574213991423932, 35.424905999793758 ], [ -77.575276991295908, 35.425385999530732 ], [ -77.575024991400255, 35.426531000004353 ], [ -77.57569699148118, 35.426965999847056 ], [ -77.577905991336351, 35.425615000006609 ], [ -77.580863990677813, 35.426002000076807 ], [ -77.58163899147101, 35.426643999504783 ], [ -77.581126991294994, 35.42811700024793 ], [ -77.582178990973134, 35.428652999552085 ], [ -77.586398991232571, 35.426001999694066 ], [ -77.590683991394727, 35.426184000174885 ], [ -77.591719991541027, 35.426938999456517 ], [ -77.590208990969444, 35.428587999480584 ], [ -77.597479991118192, 35.427990999494199 ], [ -77.603604991409995, 35.43027699948987 ], [ -77.601703990911858, 35.431513999684007 ], [ -77.601704991212401, 35.432245999478603 ], [ -77.60483699123688, 35.43338899956035 ], [ -77.606124991669589, 35.436044000085175 ], [ -77.610626991502684, 35.435584000309866 ], [ -77.613533991728843, 35.433019999940939 ], [ -77.621896991225299, 35.435371999811146 ], [ -77.623911991059543, 35.436835999686494 ], [ -77.623660991560072, 35.437477000253736 ], [ -77.621284991242078, 35.439491999472416 ], [ -77.618739991064913, 35.438486000209345 ], [ -77.617734991230606, 35.441004000290633 ], [ -77.619777990763282, 35.442674000045855 ], [ -77.622097990813202, 35.442008999762983 ], [ -77.623833991267531, 35.444343000041982 ], [ -77.626535991092794, 35.442584999902124 ], [ -77.632100991136795, 35.442197999894134 ], [ -77.63344199084608, 35.4443500001762 ], [ -77.635371991370604, 35.445495000049839 ], [ -77.638616991419411, 35.445381999470726 ], [ -77.639818991075089, 35.444719000167311 ], [ -77.640715991721621, 35.442568000117795 ], [ -77.639401990978655, 35.440049999499877 ], [ -77.643204991501719, 35.44156200033116 ], [ -77.64353999119659, 35.44309499999877 ], [ -77.645581991040473, 35.442820999861027 ], [ -77.64499399107433, 35.443828000054864 ], [ -77.646279991759741, 35.445063999488724 ], [ -77.644908991410446, 35.445429999992768 ], [ -77.645187991723901, 35.446941000066495 ], [ -77.642558990731501, 35.446870999900433 ], [ -77.641718991415473, 35.4492509996048 ], [ -77.64672599167443, 35.448269000181028 ], [ -77.647396991581473, 35.448429000340624 ], [ -77.647563991577826, 35.44973399991953 ], [ -77.648990991678247, 35.448795999920449 ], [ -77.651646991589274, 35.450810000020802 ], [ -77.652568990965037, 35.452778999609059 ], [ -77.649967991506585, 35.453578999889345 ], [ -77.650106991684979, 35.454953000142275 ], [ -77.656905991024473, 35.453076999712195 ], [ -77.659170990906745, 35.454336999720013 ], [ -77.658582991628535, 35.45488600016953 ], [ -77.656092991565473, 35.454427999795968 ], [ -77.65592499175078, 35.455228999537809 ], [ -77.657463990927766, 35.456076000086419 ], [ -77.654843991596906, 35.459280999736414 ], [ -77.654755991343052, 35.462005000193443 ], [ -77.652986991495652, 35.464797000290353 ], [ -77.653459990858096, 35.467769999923497 ], [ -77.650716991472336, 35.469851999503227 ], [ -77.651274990857928, 35.472598999778647 ], [ -77.646516991613439, 35.477083000183455 ], [ -77.646156991696913, 35.480587999931679 ], [ -77.640689990920791, 35.480776000104392 ], [ -77.637413991218963, 35.482483999453684 ], [ -77.632313991222304, 35.488555999805762 ], [ -77.619578991051711, 35.507033999978646 ], [ -77.612630991070432, 35.504537000136139 ], [ -77.605591991074448, 35.507533999710908 ], [ -77.596528990925691, 35.509879999709433 ], [ -77.592962991554032, 35.514716000089201 ], [ -77.586551991211493, 35.516806000343912 ], [ -77.56965199131956, 35.517649999783153 ], [ -77.555610990884546, 35.517152000336417 ], [ -77.555879991402321, 35.529738999645943 ], [ -77.558395990808933, 35.531493999719885 ], [ -77.557893991547601, 35.531973999957799 ], [ -77.541186990666361, 35.533059000281803 ], [ -77.538035990780244, 35.530518999865187 ], [ -77.535363991706163, 35.531013999553309 ], [ -77.534564991460684, 35.529548000067422 ], [ -77.533509991521441, 35.530427999835482 ], [ -77.530988991263868, 35.530380000337388 ], [ -77.530134990721848, 35.527990999484921 ], [ -77.527456991469961, 35.52882999963326 ], [ -77.525165991576529, 35.528337000088293 ], [ -77.525541991238171, 35.525208000205559 ], [ -77.523521991620655, 35.525960000038069 ], [ -77.522379991753851, 35.52381500000125 ], [ -77.523985990780261, 35.522422000011247 ], [ -77.525287990776846, 35.519662999553496 ], [ -77.523710991245323, 35.518481999495947 ], [ -77.523105991245586, 35.519055999901219 ], [ -77.522365991021204, 35.517764999660898 ], [ -77.518442991257047, 35.517259000191167 ], [ -77.518592991437544, 35.518742999569092 ], [ -77.517336990862233, 35.518999999535374 ], [ -77.516672991150884, 35.517902000137447 ], [ -77.516165991392612, 35.518461999516106 ], [ -77.512915991128622, 35.517994000123423 ], [ -77.510397991667929, 35.519783000273293 ], [ -77.509199990891247, 35.519706000150691 ], [ -77.509244991579607, 35.51777799956389 ], [ -77.507181991047958, 35.517477000283577 ], [ -77.507306991012129, 35.516969999765656 ], [ -77.504989991314872, 35.518380000328058 ], [ -77.503407991324977, 35.51797499944297 ], [ -77.505614990784466, 35.51482099966119 ], [ -77.505498991743735, 35.511950999558564 ], [ -77.507116991536861, 35.510881999593643 ], [ -77.505805991055212, 35.510229999993058 ], [ -77.508362991188548, 35.508268000156257 ], [ -77.511320991091395, 35.508187999866244 ], [ -77.510130990717485, 35.506716999857304 ], [ -77.508173991635118, 35.506475000290699 ], [ -77.505895991068513, 35.504853000222283 ], [ -77.507030990927774, 35.50223499993362 ], [ -77.511617991729324, 35.498934999780921 ], [ -77.511586990819282, 35.497034999742709 ], [ -77.509408991227545, 35.495763000031005 ], [ -77.507147991438885, 35.496144999532724 ], [ -77.508070991456094, 35.495161999861601 ], [ -77.506782990921991, 35.495262000163635 ], [ -77.507062991635678, 35.494034000125552 ], [ -77.505387991730174, 35.494310999711224 ], [ -77.504264990848682, 35.49365099962489 ], [ -77.503106991526323, 35.491010999795051 ], [ -77.502021990973347, 35.491594000313327 ], [ -77.501749991466724, 35.490468000098112 ], [ -77.502475991522132, 35.489597999643998 ], [ -77.50124999168068, 35.490171000058602 ], [ -77.500865991181612, 35.489327999671765 ], [ -77.502731991639763, 35.485842999632524 ], [ -77.500751990837458, 35.486370000250595 ], [ -77.50109199137124, 35.483824999834141 ], [ -77.499480991330657, 35.481168999942057 ], [ -77.498236991270915, 35.48079700033967 ], [ -77.498760991547783, 35.479798000197391 ], [ -77.494115991651199, 35.477422999797852 ], [ -77.494302990824167, 35.473439000020996 ], [ -77.492754991602823, 35.472361000234045 ], [ -77.492760991016937, 35.471309000254209 ], [ -77.490317991003081, 35.468120000151615 ], [ -77.491095991648407, 35.465103999590383 ], [ -77.493479991049753, 35.4633529997963 ], [ -77.493459991444837, 35.462319000221811 ], [ -77.488303991476954, 35.460010999583787 ], [ -77.486495991754424, 35.458012999762175 ], [ -77.484121991530088, 35.457852000265618 ], [ -77.486321991095494, 35.455436000146285 ], [ -77.48530399108131, 35.454112000215105 ], [ -77.485405990691277, 35.452740000049197 ], [ -77.484197991694657, 35.45182800020067 ], [ -77.480479990982545, 35.451461000012578 ], [ -77.482049991273954, 35.450508999779146 ], [ -77.482198991261242, 35.447271000066451 ], [ -77.484350991590944, 35.447451000212695 ], [ -77.484400991021161, 35.445236000082176 ], [ -77.481940990783997, 35.444943999822584 ], [ -77.481646990720222, 35.443466999734589 ], [ -77.480613991557007, 35.444258999995036 ], [ -77.480043990891758, 35.446753999842919 ], [ -77.476742991071148, 35.445412000114715 ], [ -77.479562990814685, 35.439307000072944 ], [ -77.476320991317891, 35.439084999712456 ], [ -77.474862990696323, 35.440213999491817 ], [ -77.474345991460311, 35.439430000030939 ], [ -77.474704991437946, 35.437310000209756 ], [ -77.476697990753792, 35.434102999769372 ], [ -77.476901990978519, 35.43062199988703 ], [ -77.475514990966076, 35.426654999815618 ], [ -77.480511991464638, 35.42465699994338 ], [ -77.482808991087623, 35.422586999599517 ], [ -77.481224990853761, 35.4154799995178 ], [ -77.481965991656025, 35.414450999571208 ], [ -77.492619991129601, 35.411707000264627 ], [ -77.494873990783617, 35.411901000067957 ], [ -77.498964991201888, 35.414136000141987 ], [ -77.49860599095345, 35.417131000087984 ], [ -77.504379991217718, 35.419487999738941 ], [ -77.507408990787283, 35.419071000090298 ], [ -77.507458991555197, 35.419930000114391 ], [ -77.505972991585821, 35.421259999640192 ], [ -77.506700990802074, 35.421896000330591 ], [ -77.510437991249717, 35.421409000035865 ], [ -77.519326991424066, 35.416722999778692 ], [ -77.520565991543052, 35.417328999776892 ], [ -77.519824991109971, 35.415474000112503 ], [ -77.520622990716433, 35.414647999658996 ], [ -77.528337991762555, 35.414335999860555 ] ] ] } },
{ "type": "Feature", "properties": { "county": "GREENE", "precinct": "WALS", "enr_desc": "Voting District 00Wals", "winner": "Tyrone Sutton, Jr.", "winner_votes": 92, "winner_share": 70.769230769230774, "runner_up": "Bennie Heath", "runner_up_votes": 38, "runner_up_share": 29.230769230769234, "contest_votes": 130, "margin_of_victory": 41.53846153846154, "is_tie": false, "results": [ { "candidate": "Tyrone Sutton, Jr.", "votes": 92, "share": 70.76923076923077 }, { "candidate": "Bennie Heath", "votes": 38, "share": 29.230769230769234 } ], "participated": true, "map_key": "GREENE_WALS" }, "geometry": { "type": "Polygon", "coordinates": [ [ [ -77.806229990651033, 35.583473999804838 ], [ -77.753508990728392, 35.615957000231241 ], [ -77.700691990937813, 35.652294999924571 ], [ -77.697797991283522, 35.651150999590989 ], [ -77.69480799111426, 35.651837999752438 ], [ -77.690506991452352, 35.650328999785245 ], [ -77.683744990791908, 35.644267999827264 ], [ -77.682704991693441, 35.64261499955483 ], [ -77.682923991086483, 35.641458999830505 ], [ -77.680409991257349, 35.638569999634555 ], [ -77.682633991711668, 35.632736999914009 ], [ -77.681621990891884, 35.630761999608019 ], [ -77.673631991641145, 35.623241000080206 ], [ -77.679787991427062, 35.612286999822643 ], [ -77.680736991534658, 35.606898999730547 ], [ -77.674677991141095, 35.606518999572472 ], [ -77.674978991347643, 35.602365000102452 ], [ -77.677137991609513, 35.598415000012565 ], [ -77.678918991380598, 35.58951600004886 ], [ -77.683785990906074, 35.581473999934566 ], [ -77.684330991491279, 35.572254999897972 ], [ -77.688400991529193, 35.565807000212907 ], [ -77.688614991623382, 35.563419000222083 ], [ -77.691336990859142, 35.556535999633837 ], [ -77.696349991148637, 35.548510999477536 ], [ -77.696987991052907, 35.533804000263103 ], [ -77.707205991296149, 35.533153000152581 ], [ -77.714901991008674, 35.530882000027226 ], [ -77.719467991323967, 35.53084099945805 ], [ -77.718566990726799, 35.528391999592841 ], [ -77.717033991595514, 35.515138999701868 ], [ -77.71818399110704, 35.512222000260763 ], [ -77.717656991057382, 35.510981999614152 ], [ -77.726060991665094, 35.506594999481358 ], [ -77.726359991088003, 35.508123999650188 ], [ -77.723820991369919, 35.509645999813237 ], [ -77.724343991668363, 35.510729000267155 ], [ -77.727584991447301, 35.512067999805183 ], [ -77.730915990696673, 35.511013999493962 ], [ -77.733015991352985, 35.513096000330364 ], [ -77.734806991147721, 35.512409000068615 ], [ -77.735590991701457, 35.513438000047792 ], [ -77.735171991605739, 35.515109000090177 ], [ -77.732262990758741, 35.517765000030714 ], [ -77.735368990857665, 35.51655099952518 ], [ -77.736572990897287, 35.516847999658296 ], [ -77.737496991226777, 35.518220999951936 ], [ -77.737022991088622, 35.520852999981358 ], [ -77.739011991346402, 35.522683000092478 ], [ -77.73968399172827, 35.522476000178067 ], [ -77.739850991739289, 35.520965999484538 ], [ -77.741893991523398, 35.521628000182439 ], [ -77.743238991055506, 35.523482000011569 ], [ -77.742371990820601, 35.523733999697953 ], [ -77.744248991077498, 35.525381000243293 ], [ -77.744080991309175, 35.526594000253148 ], [ -77.746236991044867, 35.524785000116303 ], [ -77.747300991442188, 35.526179999925589 ], [ -77.748672991488419, 35.525813000105707 ], [ -77.754866990663245, 35.527581999914595 ], [ -77.755623990689585, 35.526849999839683 ], [ -77.754924990681985, 35.525910999632075 ], [ -77.755121990779671, 35.523896999522741 ], [ -77.756604991169041, 35.524218000335949 ], [ -77.75713799117932, 35.523303000281295 ], [ -77.758396990728485, 35.523394999955855 ], [ -77.758704991295659, 35.524334000211425 ], [ -77.75755599166861, 35.525386000189286 ], [ -77.761164991070103, 35.528637000029541 ], [ -77.761416991073688, 35.529849999965819 ], [ -77.759427990849048, 35.531932000020475 ], [ -77.756039991227951, 35.533006000055991 ], [ -77.755366991162091, 35.534425000045957 ], [ -77.758584991316553, 35.536646999850653 ], [ -77.761635990889374, 35.536877999599177 ], [ -77.765137991133685, 35.535713999644827 ], [ -77.766760990774671, 35.536836999683608 ], [ -77.766310990658084, 35.538141999631137 ], [ -77.763902991730077, 35.539265000339491 ], [ -77.763901991066675, 35.540341000344398 ], [ -77.765022991425042, 35.540318999501032 ], [ -77.765442991647589, 35.541211999526197 ], [ -77.762725991705651, 35.542242999762223 ], [ -77.763172991064579, 35.543731000223985 ], [ -77.762024990966836, 35.54446399956452 ], [ -77.760288991201023, 35.54427999990596 ], [ -77.759560990871819, 35.545927999653138 ], [ -77.758497991289801, 35.545013999857176 ], [ -77.756367990941428, 35.546455999850743 ], [ -77.75146299084949, 35.554423000090921 ], [ -77.752465990979317, 35.558795000083933 ], [ -77.750447991616795, 35.561402999744793 ], [ -77.752183991050074, 35.56165600009183 ], [ -77.754424991007923, 35.560740999908937 ], [ -77.757311990909201, 35.556806000258675 ], [ -77.759775991541844, 35.557219000187807 ], [ -77.76162499149595, 35.555457999751312 ], [ -77.762660991721063, 35.556099000197612 ], [ -77.762688991123213, 35.557083000168994 ], [ -77.763892991439803, 35.557197999530899 ], [ -77.764059991171848, 35.558501999597397 ], [ -77.76537599122949, 35.558891999570712 ], [ -77.765290990787108, 35.560311000187745 ], [ -77.766914990724459, 35.560837999507228 ], [ -77.766774990809466, 35.561867000228496 ], [ -77.767558991534401, 35.562440000095812 ], [ -77.767248990780487, 35.565323000284344 ], [ -77.769713991472955, 35.565277999686927 ], [ -77.768480991078093, 35.566674000188002 ], [ -77.768928991678223, 35.567428999494197 ], [ -77.770748991052244, 35.567452999977419 ], [ -77.771840990802758, 35.568894999464234 ], [ -77.77363399111168, 35.568758000307504 ], [ -77.773493991481217, 35.569536000200657 ], [ -77.774837991066079, 35.570680999482384 ], [ -77.776069991460332, 35.571070000323694 ], [ -77.776741991161302, 35.57040700015191 ], [ -77.777777991679002, 35.571298999542385 ], [ -77.778758990833921, 35.571115999732569 ], [ -77.77951599118532, 35.569263000227394 ], [ -77.780551990809442, 35.570361999834731 ], [ -77.783268991459636, 35.569560999972637 ], [ -77.783296991155325, 35.567570000186073 ], [ -77.788981991248789, 35.568967000037375 ], [ -77.791922991556206, 35.568785000296614 ], [ -77.792118991200425, 35.569905999520373 ], [ -77.789765990689062, 35.57290400017353 ], [ -77.78937299129602, 35.575397999592703 ], [ -77.79183799165132, 35.576108000015708 ], [ -77.795366991172131, 35.574506000194759 ], [ -77.797187991724684, 35.57505599954883 ], [ -77.798083991507298, 35.575970999867089 ], [ -77.797327990842774, 35.578419999907581 ], [ -77.798923991228932, 35.579220999711488 ], [ -77.798167991665949, 35.580730999663018 ], [ -77.800016991583249, 35.583087999517879 ], [ -77.800857991483056, 35.582036000086106 ], [ -77.801669991228508, 35.582767999937325 ], [ -77.804106991057608, 35.581852999651353 ], [ -77.804918990880438, 35.583202999798196 ], [ -77.806229990651033, 35.583473999804838 ] ] ] } },
{ "type": "Feature", "properties": { "county": "GREENE", "precinct": "SHIN", "enr_desc": "Voting District 00Shin", "winner": "Tyrone Sutton, Jr.", "winner_votes": 130, "winner_share": 74.712643678160916, "runner_up": "Bennie Heath", "runner_up_votes": 44, "runner_up_share": 25.287356321839084, "contest_votes": 174, "margin_of_victory": 49.425287356321832, "is_tie": false, "results": [ { "candidate": "Tyrone Sutton, Jr.", "votes": 130, "share": 74.71264367816092 }, { "candidate": "Bennie Heath", "votes": 44, "share": 25.287356321839084 } ], "participated": true, "map_key": "GREENE_SHIN" }, "geometry": { "type": "Polygon", "coordinates": [ [ [ -77.825529990678561, 35.470418999473068 ], [ -77.816846990768653, 35.47668099995348 ], [ -77.81561199163788, 35.475288000114269 ], [ -77.811193991648793, 35.473036999688468 ], [ -77.794513990841722, 35.471584999945705 ], [ -77.786971991327263, 35.468229999748246 ], [ -77.787442991384225, 35.46596999983737 ], [ -77.780713991465902, 35.46391799993215 ], [ -77.777105990697621, 35.461169999586403 ], [ -77.769382990973099, 35.460761000312438 ], [ -77.765465991710855, 35.452284999530278 ], [ -77.758019991293992, 35.453474999658511 ], [ -77.752434990711293, 35.452519999862893 ], [ -77.751511991270746, 35.452759000261963 ], [ -77.754219990815571, 35.456040999968543 ], [ -77.75518799160416, 35.461104999623196 ], [ -77.754690991050552, 35.465494000283904 ], [ -77.746396991728631, 35.472492000152826 ], [ -77.738732991080795, 35.473891999520603 ], [ -77.737659990798846, 35.477997000248209 ], [ -77.733619991336113, 35.478301999497432 ], [ -77.733684991121606, 35.47561199987917 ], [ -77.740537991389317, 35.453884999941423 ], [ -77.736820991541734, 35.434855999905878 ], [ -77.737553991028918, 35.433496000085078 ], [ -77.732533990883084, 35.431415999962574 ], [ -77.719374990727218, 35.433070000185737 ], [ -77.713069991157113, 35.431832999560875 ], [ -77.712088991029631, 35.429467999759574 ], [ -77.722789991182267, 35.419654999857016 ], [ -77.727972991658788, 35.410754999525153 ], [ -77.728303991531291, 35.393760999791041 ], [ -77.727494991609291, 35.390840999846368 ], [ -77.729929991429628, 35.390853000285574 ], [ -77.733157991581649, 35.389543000210992 ], [ -77.739960991746031, 35.390923999606358 ], [ -77.745729991557184, 35.389845000051245 ], [ -77.740254990947051, 35.383320000029698 ], [ -77.740446991058562, 35.381783999607443 ], [ -77.7431009910932, 35.37794400004698 ], [ -77.744927991360953, 35.37202599961946 ], [ -77.741175990724741, 35.371965999488147 ], [ -77.777668990755387, 35.367663999674043 ], [ -77.806247991358916, 35.36875399977334 ], [ -77.80285099071061, 35.37287800020097 ], [ -77.802099991033813, 35.377656999898548 ], [ -77.800962990769278, 35.378799999584771 ], [ -77.799860991564813, 35.38228199986947 ], [ -77.803862991559726, 35.395294999858201 ], [ -77.804892991108517, 35.406202000076178 ], [ -77.805643991679176, 35.407613999761253 ], [ -77.812191990881985, 35.41302399956281 ], [ -77.818041990699513, 35.415474000105476 ], [ -77.821835991063836, 35.421198999728496 ], [ -77.82674399127508, 35.424089999807471 ], [ -77.825529990678561, 35.470418999473068 ] ] ] } },
{ "type": "Feature", "properties": { "county": "GREENE", "precinct": "SH#1", "enr_desc": "Voting District 000Sh1", "winner": "Tyrone Sutton, Jr.", "winner_votes": 226, "winner_share": 73.856209150326805, "runner_up": "Bennie Heath", "runner_up_votes": 80, "runner_up_share": 26.143790849673206, "contest_votes": 306, "margin_of_victory": 47.712418300653596, "is_tie": false, "results": [ { "candidate": "Tyrone Sutton, Jr.", "votes": 226, "share": 73.8562091503268 }, { "candidate": "Bennie Heath", "votes": 80, "share": 26.143790849673206 } ], "participated": true, "map_key": "GREENE_SH#1" }, "geometry": { "type": "Polygon", "coordinates": [ [ [ -77.664456990750338, 35.419075999883979 ], [ -77.668776991300561, 35.418110999488228 ], [ -77.677963991186758, 35.425281999464481 ], [ -77.691462991425297, 35.427881999871651 ], [ -77.691176991171929, 35.430042000134101 ], [ -77.693195990827647, 35.430926999792973 ], [ -77.698380991124935, 35.431084999611436 ], [ -77.700468991121951, 35.433828000223329 ], [ -77.702183991391479, 35.433800999804731 ], [ -77.697626991607237, 35.440877999715021 ], [ -77.692799991372326, 35.444747999491341 ], [ -77.695365991751018, 35.44969200023889 ], [ -77.699550991767737, 35.452264999678228 ], [ -77.698299991441161, 35.45484600007736 ], [ -77.699168991008534, 35.456730999635056 ], [ -77.698390991149751, 35.457841999566512 ], [ -77.699064991714252, 35.458255999724422 ], [ -77.697132990756984, 35.46344699956196 ], [ -77.697068990974486, 35.467410999642816 ], [ -77.696317991470806, 35.468252999613817 ], [ -77.693519991740274, 35.467451999900803 ], [ -77.69256999146296, 35.468436000327948 ], [ -77.691729990742147, 35.468207999905303 ], [ -77.693016990788266, 35.4666279997572 ], [ -77.692652991005332, 35.465507000023408 ], [ -77.693743991556815, 35.464888999828176 ], [ -77.691980991505744, 35.46356199991768 ], [ -77.688064991169227, 35.466491000321177 ], [ -77.687225991321611, 35.466262999819776 ], [ -77.688036991429527, 35.464522999610466 ], [ -77.687449991123913, 35.464248999668492 ], [ -77.686050991576565, 35.464821000204289 ], [ -77.686022991596616, 35.466330999688729 ], [ -77.684792990787898, 35.46614800001305 ], [ -77.681547991052526, 35.461457000102989 ], [ -77.679952990973035, 35.461021999601527 ], [ -77.678917990884685, 35.462669999668009 ], [ -77.678636991481653, 35.460654999880326 ], [ -77.67662299120245, 35.460929999622095 ], [ -77.676455991579218, 35.460174999509256 ], [ -77.67771399094454, 35.459236000061274 ], [ -77.677294991081197, 35.458550000312819 ], [ -77.675839991668155, 35.458732999698796 ], [ -77.675031991143527, 35.457986000344064 ], [ -77.673867991311113, 35.458828999803899 ], [ -77.673755991495838, 35.45754100035294 ], [ -77.672257991585553, 35.457940000159411 ], [ -77.671067991355855, 35.456969000258653 ], [ -77.662918991161433, 35.458384999474823 ], [ -77.66121199151172, 35.457655999943881 ], [ -77.660708991079161, 35.456534000236637 ], [ -77.657463990927766, 35.456076000086419 ], [ -77.65592499175078, 35.455228999537809 ], [ -77.656092991565473, 35.454427999795968 ], [ -77.658582991628535, 35.45488600016953 ], [ -77.659170990906745, 35.454336999720013 ], [ -77.656905991024473, 35.453076999712195 ], [ -77.650106991684979, 35.454953000142275 ], [ -77.649967991506585, 35.453578999889345 ], [ -77.652568990965037, 35.452778999609059 ], [ -77.651646991589274, 35.450810000020802 ], [ -77.648990991678247, 35.448795999920449 ], [ -77.647563991577826, 35.44973399991953 ], [ -77.647396991581473, 35.448429000340624 ], [ -77.64672599167443, 35.448269000181028 ], [ -77.641718991415473, 35.4492509996048 ], [ -77.642558990731501, 35.446870999900433 ], [ -77.645187991723901, 35.446941000066495 ], [ -77.644908991410446, 35.445429999992768 ], [ -77.646279991759741, 35.445063999488724 ], [ -77.64499399107433, 35.443828000054864 ], [ -77.645581991040473, 35.442820999861027 ], [ -77.64353999119659, 35.44309499999877 ], [ -77.643204991501719, 35.44156200033116 ], [ -77.644685990888362, 35.441219000210893 ], [ -77.645273990812484, 35.440120999790082 ], [ -77.645022991583986, 35.435271999750753 ], [ -77.648243990839504, 35.432473999585845 ], [ -77.651722991031718, 35.426928999838047 ], [ -77.656577991234315, 35.425269999469656 ], [ -77.664476991461015, 35.425289000291563 ], [ -77.664456990750338, 35.419075999883979 ] ] ] } },
{ "type": "Feature", "properties": { "county": "GREENE", "precinct": "SUGG", "enr_desc": "Voting District 00Sugg", "winner": "Tyrone Sutton, Jr.", "winner_votes": 90, "winner_share": 75.0, "runner_up": "Bennie Heath", "runner_up_votes": 30, "runner_up_share": 25.0, "contest_votes": 120, "margin_of_victory": 50.0, "is_tie": false, "results": [ { "candidate": "Tyrone Sutton, Jr.", "votes": 90, "share": 75.0 }, { "candidate": "Bennie Heath", "votes": 30, "share": 25.0 } ], "participated": true, "map_key": "GREENE_SUGG" }, "geometry": { "type": "Polygon", "coordinates": [ [ [ -77.610961990977415, 35.378632999489419 ], [ -77.614380991040449, 35.377562999972817 ], [ -77.615409991021409, 35.374978999734772 ], [ -77.61807299150405, 35.372608999859452 ], [ -77.627433991517748, 35.366618999939007 ], [ -77.629582991158941, 35.363308000066823 ], [ -77.632706991706343, 35.361005000252142 ], [ -77.634530990764503, 35.356752999675471 ], [ -77.637313991173173, 35.354455000343265 ], [ -77.643353991181229, 35.354327999899766 ], [ -77.647999991288771, 35.355316999934203 ], [ -77.653222991519556, 35.352491999976912 ], [ -77.658647991580281, 35.353957999649147 ], [ -77.660841991098067, 35.352813999488376 ], [ -77.664319991728817, 35.360234999552809 ], [ -77.668350990713535, 35.38254400025609 ], [ -77.664345991389808, 35.397774999990823 ], [ -77.664456990750338, 35.419075999883979 ], [ -77.664476991461015, 35.425289000291563 ], [ -77.656577991234315, 35.425269999469656 ], [ -77.651722991031718, 35.426928999838047 ], [ -77.648243990839504, 35.432473999585845 ], [ -77.645022991583986, 35.435271999750753 ], [ -77.645273990812484, 35.440120999790082 ], [ -77.644685990888362, 35.441219000210893 ], [ -77.643204991501719, 35.44156200033116 ], [ -77.639401990978655, 35.440049999499877 ], [ -77.640715991721621, 35.442568000117795 ], [ -77.639818991075089, 35.444719000167311 ], [ -77.638616991419411, 35.445381999470726 ], [ -77.635371991370604, 35.445495000049839 ], [ -77.63344199084608, 35.4443500001762 ], [ -77.632100991136795, 35.442197999894134 ], [ -77.626535991092794, 35.442584999902124 ], [ -77.623833991267531, 35.444343000041982 ], [ -77.622097990813202, 35.442008999762983 ], [ -77.619777990763282, 35.442674000045855 ], [ -77.617734991230606, 35.441004000290633 ], [ -77.618739991064913, 35.438486000209345 ], [ -77.621284991242078, 35.439491999472416 ], [ -77.623660991560072, 35.437477000253736 ], [ -77.623911991059543, 35.436835999686494 ], [ -77.621896991225299, 35.435371999811146 ], [ -77.613533991728843, 35.433019999940939 ], [ -77.610626991502684, 35.435584000309866 ], [ -77.606124991669589, 35.436044000085175 ], [ -77.60483699123688, 35.43338899956035 ], [ -77.601704991212401, 35.432245999478603 ], [ -77.601703990911858, 35.431513999684007 ], [ -77.603604991409995, 35.43027699948987 ], [ -77.597479991118192, 35.427990999494199 ], [ -77.590208990969444, 35.428587999480584 ], [ -77.591719991541027, 35.426938999456517 ], [ -77.593654991488876, 35.427785000334595 ], [ -77.59581699068714, 35.425514999547147 ], [ -77.595783990774706, 35.424335999509516 ], [ -77.593275990700874, 35.424649999740289 ], [ -77.598173991543263, 35.419337999700623 ], [ -77.601641990767675, 35.417403999837113 ], [ -77.601808990852831, 35.415478000199499 ], [ -77.601024990943571, 35.414528999741862 ], [ -77.60409699123359, 35.409357999476498 ], [ -77.605661991309816, 35.409151000312711 ], [ -77.606948990848053, 35.410020000024971 ], [ -77.609575991645485, 35.409538999525552 ], [ -77.614465991404799, 35.40610400025426 ], [ -77.618825990930659, 35.405139999813706 ], [ -77.621286991040066, 35.405275999945843 ], [ -77.623393991488243, 35.406675000263888 ], [ -77.623469991520977, 35.403923000192655 ], [ -77.622426991621836, 35.400725000033994 ], [ -77.61163899110511, 35.384798999809433 ], [ -77.610961990977415, 35.378632999489419 ] ] ] } }
]
}
