{
"type": "FeatureCollection",
"name": "halifax_county_clerk_of_superior_court_dem",
"crs": { "type": "name", "properties": { "name": "urn:ogc:def:crs:OGC:1.3:CRS84" } },
"features": [
{ "type": "Feature", "properties": { "county": "HALIFAX", "precinct": "BUTWD", "enr_desc": "Butterwood", "winner": "Chris Kidd", "winner_votes": 21, "winner_share": 55.26315789473685, "runner_up": "Ronnie Reaves", "runner_up_votes": 17, "runner_up_share": 44.736842105263158, "contest_votes": 38, "margin_of_victory": 10.526315789473692, "is_tie": false, "results": [ { "candidate": "Chris Kidd", "votes": 21, "share": 55.26315789473685 }, { "candidate": "Ronnie Reaves", "votes": 17, "share": 44.73684210526316 } ], "participated": true, "map_key": "HALIFAX_BUTWD" }, "geometry": { "type": "Polygon", "coordinates": [ [ [ -77.912027991248181, 36.382271999912078 ], [ -77.909692990708081, 36.380720999936436 ], [ -77.899906991128589, 36.381920000131259 ], [ -77.899622990914239, 36.38076699982112 ], [ -77.892775990753123, 36.381116999872333 ], [ -77.885257991311818, 36.379376999787063 ], [ -77.875910990904728, 36.382688000191429 ], [ -77.864257991117, 36.385361999935562 ], [ -77.853328990813594, 36.389786999899634 ], [ -77.848238991222885, 36.386018999843479 ], [ -77.845475991266298, 36.382643000017808 ], [ -77.836159991115693, 36.380039999793361 ], [ -77.835468990695304, 36.378872000332827 ], [ -77.835925991660886, 36.376847000340284 ], [ -77.834492990732912, 36.375459999503185 ], [ -77.827276991411239, 36.372851999614866 ], [ -77.822072991147309, 36.377762999884112 ], [ -77.809092990882348, 36.381944999609168 ], [ -77.796150991323714, 36.38904999970088 ], [ -77.775556990565804, 36.392793000030103 ], [ -77.76517099157077, 36.396232999557668 ], [ -77.776905991110226, 36.350496999755265 ], [ -77.779027991331361, 36.35209900032897 ], [ -77.784014990886519, 36.353039999803485 ], [ -77.790316991131007, 36.357853000034183 ], [ -77.794331991447038, 36.359843000009505 ], [ -77.802564991486292, 36.361915000174484 ], [ -77.806790991243844, 36.364190000064042 ], [ -77.807275990614414, 36.357632999821803 ], [ -77.812286991658866, 36.350281999673392 ], [ -77.813400990885469, 36.347338999841384 ], [ -77.813214990695784, 36.342104999890694 ], [ -77.809613991068375, 36.33551099988567 ], [ -77.809147990846768, 36.333178000231015 ], [ -77.809500991154337, 36.330253999806551 ], [ -77.811859990893765, 36.326949999994106 ], [ -77.851930990778101, 36.318844999591455 ], [ -77.890041991218453, 36.3170629994843 ], [ -77.935882991145462, 36.318703000109949 ], [ -77.912027991248181, 36.382271999912078 ] ] ] } },
{ "type": "Feature", "properties": { "county": "HALIFAX", "precinct": "CONC", "enr_desc": "Conoconnara", "winner": "Chris Kidd", "winner_votes": 21, "winner_share": 55.26315789473685, "runner_up": "Ronnie Reaves", "runner_up_votes": 17, "runner_up_share": 44.736842105263158, "contest_votes": 38, "margin_of_victory": 10.526315789473692, "is_tie": false, "results": [ { "candidate": "Chris Kidd", "votes": 21, "share": 55.26315789473685 }, { "candidate": "Ronnie Reaves", "votes": 17, "share": 44.73684210526316 } ], "participated": true, "map_key": "HALIFAX_CONC" }, "geometry": { "type": "Polygon", "coordinates": [ [ [ -77.516254991352227, 36.164662999499249 ], [ -77.523781991096698, 36.163783999972843 ], [ -77.528788991148275, 36.169805999736845 ], [ -77.534489990665861, 36.17851099969797 ], [ -77.536985991366919, 36.18331099981134 ], [ -77.537850990677896, 36.187843999731939 ], [ -77.540510990787638, 36.197178999492067 ], [ -77.543244990832349, 36.201980999981878 ], [ -77.545279991066053, 36.203626999485948 ], [ -77.548919991683135, 36.219541999469875 ], [ -77.548339990639022, 36.222911999585968 ], [ -77.552291991380201, 36.231610999980724 ], [ -77.552349990788727, 36.235692000241549 ], [ -77.554315991595487, 36.239636000189769 ], [ -77.561274991351112, 36.244509999460469 ], [ -77.562000991629418, 36.248727000287737 ], [ -77.564368990574735, 36.253350000241639 ], [ -77.564226990894497, 36.2559139999316 ], [ -77.562107991125714, 36.256805999447401 ], [ -77.559169991520491, 36.260010999752545 ], [ -77.548092991201088, 36.259963999806963 ], [ -77.543062991462662, 36.262893999532174 ], [ -77.540293991143599, 36.262321999915855 ], [ -77.537920990788621, 36.258292999754126 ], [ -77.535660990693231, 36.257858000139862 ], [ -77.529132991184582, 36.26023599946145 ], [ -77.524326991536768, 36.264148000128792 ], [ -77.517913990990252, 36.262589999530888 ], [ -77.515228990896375, 36.262771999523693 ], [ -77.510959991629079, 36.265539999457033 ], [ -77.509545991183415, 36.267666999648768 ], [ -77.508524991638225, 36.272243999947023 ], [ -77.501175990777867, 36.274688999752968 ], [ -77.498551990797594, 36.274388000127253 ], [ -77.49620399058432, 36.272420999520641 ], [ -77.491992991162803, 36.271370000110004 ], [ -77.4883999909528, 36.267160999559145 ], [ -77.484646991230406, 36.269245000219371 ], [ -77.479870991390783, 36.27027699951789 ], [ -77.476957991183866, 36.268538000173947 ], [ -77.475318990788708, 36.270026999597242 ], [ -77.474131991657345, 36.273962999891602 ], [ -77.472209990842416, 36.274306999569632 ], [ -77.470175991616827, 36.276093000197022 ], [ -77.466303990694684, 36.27655199988525 ], [ -77.462884990691336, 36.278384000091108 ], [ -77.461244990581719, 36.277239999905355 ], [ -77.460961990877891, 36.274837000024341 ], [ -77.457145990949016, 36.27552400023778 ], [ -77.454488990871212, 36.272938000309473 ], [ -77.451379990897962, 36.273442000253056 ], [ -77.448722990582141, 36.275433999562473 ], [ -77.445387991559855, 36.276371999859713 ], [ -77.440214990591315, 36.274336000304501 ], [ -77.434731991018865, 36.275387999742257 ], [ -77.432668990633985, 36.274312999441044 ], [ -77.431085991420147, 36.274472999720921 ], [ -77.426846990780305, 36.272824999864397 ], [ -77.427496991419289, 36.271817999948546 ], [ -77.426422991517867, 36.271657999967474 ], [ -77.42684699071863, 36.270718999767922 ], [ -77.425377990720079, 36.26927700004849 ], [ -77.427299990631525, 36.268498999795028 ], [ -77.425744991297933, 36.268087000331541 ], [ -77.426395991575532, 36.267033999564461 ], [ -77.42580199150467, 36.266187999639378 ], [ -77.42458699152435, 36.266461999920075 ], [ -77.424190990848317, 36.265729999576202 ], [ -77.423116990682217, 36.266415999736928 ], [ -77.422919991061605, 36.265294999702256 ], [ -77.421732990909774, 36.265522999845409 ], [ -77.421591990836532, 36.264401999655767 ], [ -77.420912991297641, 36.265684000323908 ], [ -77.41944399081919, 36.264447999857339 ], [ -77.418142991184524, 36.264652999641562 ], [ -77.418623991674551, 36.263166000061887 ], [ -77.417521990641305, 36.262730999652021 ], [ -77.416616990734568, 36.263303000058109 ], [ -77.41613699068634, 36.261769000203728 ], [ -77.413621991269224, 36.262935999677943 ], [ -77.413113991305252, 36.261380000026378 ], [ -77.412322990725414, 36.261287999843375 ], [ -77.412321991187127, 36.263325000000329 ], [ -77.409426990762782, 36.263548999752921 ], [ -77.381365990752414, 36.249756999644546 ], [ -77.379049990771733, 36.248061999808073 ], [ -77.376933991453598, 36.245046999738904 ], [ -77.376191991008795, 36.241378000328552 ], [ -77.376623990901862, 36.23710399955332 ], [ -77.382790991596778, 36.225638000025867 ], [ -77.386423991503648, 36.21266399964874 ], [ -77.39019999147915, 36.210440999974026 ], [ -77.395957991036596, 36.204692999807996 ], [ -77.408493991487305, 36.205634999742649 ], [ -77.411401991530724, 36.202188000142804 ], [ -77.427364990796377, 36.210059000035578 ], [ -77.429320991189812, 36.210048999626395 ], [ -77.43327799164301, 36.206933999539146 ], [ -77.430348991442457, 36.205205999855366 ], [ -77.44412599151272, 36.199432999461294 ], [ -77.460388991281533, 36.18917200015057 ], [ -77.475967990865414, 36.184011999521509 ], [ -77.488199991205136, 36.175006999561631 ], [ -77.497515990834856, 36.172294000126868 ], [ -77.507436990909724, 36.167332999571116 ], [ -77.516254991352227, 36.164662999499249 ] ] ] } },
{ "type": "Feature", "properties": { "county": "HALIFAX", "precinct": "ENF 2", "enr_desc": "Enfield 2", "winner": "Chris Kidd", "winner_votes": 96, "winner_share": 57.831325301204814, "runner_up": "Ronnie Reaves", "runner_up_votes": 70, "runner_up_share": 42.168674698795186, "contest_votes": 166, "margin_of_victory": 15.662650602409627, "is_tie": false, "results": [ { "candidate": "Chris Kidd", "votes": 96, "share": 57.831325301204814 }, { "candidate": "Ronnie Reaves", "votes": 70, "share": 42.168674698795186 } ], "participated": true, "map_key": "HALIFAX_ENF 2" }, "geometry": { "type": "Polygon", "coordinates": [ [ [ -77.697955991032089, 36.153150000092268 ], [ -77.658130991275939, 36.188242999651877 ], [ -77.655026991105956, 36.19370200023468 ], [ -77.657609991089771, 36.198521999817203 ], [ -77.658142991672776, 36.202708999993227 ], [ -77.656051991232289, 36.207428999929 ], [ -77.644207990675881, 36.220965999986696 ], [ -77.642853990602475, 36.232736000023401 ], [ -77.64427399118189, 36.235088999964958 ], [ -77.634091990568905, 36.246874000246372 ], [ -77.635037991514395, 36.247975999642712 ], [ -77.63110699059682, 36.249312999611767 ], [ -77.624468991104393, 36.249565999981392 ], [ -77.621975990825106, 36.251163000222263 ], [ -77.620655991194994, 36.253528000197477 ], [ -77.620751990576991, 36.257067999852559 ], [ -77.61216199126676, 36.250152000062265 ], [ -77.602343991344867, 36.244802000105572 ], [ -77.599742991377241, 36.241515999480676 ], [ -77.592921991490073, 36.230518000219504 ], [ -77.590899991066422, 36.219438000207852 ], [ -77.585549991615054, 36.209725000218107 ], [ -77.579556990863978, 36.21098699976752 ], [ -77.570873991112265, 36.202047000090538 ], [ -77.555508991256033, 36.198735000325016 ], [ -77.537850990677896, 36.187843999731939 ], [ -77.536985991366919, 36.18331099981134 ], [ -77.534489990665861, 36.17851099969797 ], [ -77.528788991148275, 36.169805999736845 ], [ -77.523781991096698, 36.163783999972843 ], [ -77.516254991352227, 36.164662999499249 ], [ -77.5160139915277, 36.161272000202644 ], [ -77.512081991663138, 36.157282999881531 ], [ -77.511073991239442, 36.154262000078838 ], [ -77.505431991117192, 36.145865999646688 ], [ -77.500484990718093, 36.140816000213803 ], [ -77.493863991065581, 36.138622000042524 ], [ -77.524642990915439, 36.099765999966586 ], [ -77.521675990613502, 36.095629999482838 ], [ -77.51741199110883, 36.091632999520463 ], [ -77.518449991094386, 36.09008599998068 ], [ -77.518157991392073, 36.089027000271315 ], [ -77.523396991164091, 36.086944000151938 ], [ -77.523892990854193, 36.085225999818164 ], [ -77.522308990665863, 36.083666000028799 ], [ -77.526383990935415, 36.0792690002651 ], [ -77.524457991671426, 36.076276999973203 ], [ -77.528239990670485, 36.07426499969197 ], [ -77.528071991142852, 36.073426000296188 ], [ -77.531207991250653, 36.073057999836905 ], [ -77.530947991561405, 36.074188999984216 ], [ -77.532599991431155, 36.074354999515968 ], [ -77.531014991625781, 36.074902999986485 ], [ -77.530792991222256, 36.076114999524528 ], [ -77.532481990909432, 36.075389999700086 ], [ -77.532906990986334, 36.077241999699723 ], [ -77.534229991088125, 36.076836999676772 ], [ -77.535686991573769, 36.07789100013116 ], [ -77.534488990833651, 36.077974000062532 ], [ -77.534390991565985, 36.078944999619118 ], [ -77.535920991399905, 36.080341000202338 ], [ -77.533630991069089, 36.08018299979269 ], [ -77.534923990817163, 36.081477999442477 ], [ -77.53381599166795, 36.082096999797884 ], [ -77.532852990599267, 36.081259000031928 ], [ -77.531490990749418, 36.083770000175647 ], [ -77.533584991270232, 36.084880999532736 ], [ -77.532914991518467, 36.086111999774573 ], [ -77.534231991654323, 36.087180999607845 ], [ -77.533738990693593, 36.087936000064268 ], [ -77.534424991084052, 36.089134999769662 ], [ -77.533160990648909, 36.090658999660398 ], [ -77.535707990955856, 36.092115000115257 ], [ -77.538545990823451, 36.09108799998981 ], [ -77.539191990927421, 36.093343999948772 ], [ -77.538311990834103, 36.094019999442665 ], [ -77.540780991295662, 36.096177999801036 ], [ -77.541843991163958, 36.095294000094675 ], [ -77.55154799107116, 36.098630000266375 ], [ -77.553431990709626, 36.10009999977931 ], [ -77.553584991127977, 36.097974999900799 ], [ -77.555446991431253, 36.098177999761425 ], [ -77.556103991640171, 36.09673399957564 ], [ -77.557736990669639, 36.097433000235313 ], [ -77.557481990928622, 36.095446999974641 ], [ -77.56030499092023, 36.094465999583448 ], [ -77.562052990833379, 36.09492999952716 ], [ -77.563067990757673, 36.097370999737301 ], [ -77.565261991189544, 36.097685000248042 ], [ -77.566258990997866, 36.097064000089446 ], [ -77.566457990916533, 36.097744000203754 ], [ -77.569732990892902, 36.098557000094736 ], [ -77.570008990588818, 36.096909000137366 ], [ -77.573531991128618, 36.098573000346107 ], [ -77.574876991200142, 36.098259000215528 ], [ -77.574046990885492, 36.099360999670594 ], [ -77.574507990733039, 36.099853999774311 ], [ -77.576429991237958, 36.099740999583872 ], [ -77.576970990618165, 36.097705000206282 ], [ -77.577269991009317, 36.098727000088871 ], [ -77.579328991337377, 36.097917000153082 ], [ -77.579290990971671, 36.100826999972206 ], [ -77.581777990889975, 36.09945499957491 ], [ -77.583378990754539, 36.101679000197969 ], [ -77.585875990988882, 36.100227000042231 ], [ -77.586229991586293, 36.101966000320395 ], [ -77.584725991222925, 36.102229000000918 ], [ -77.584774990817181, 36.102941000259236 ], [ -77.58677299147277, 36.103388999771113 ], [ -77.587369991247471, 36.101767000275665 ], [ -77.58989999144076, 36.103887000334332 ], [ -77.59037899145639, 36.102222999585493 ], [ -77.592319991357797, 36.101957999642046 ], [ -77.591874991161546, 36.103028999652985 ], [ -77.59374099105662, 36.104448999502274 ], [ -77.59429199103441, 36.101257000317467 ], [ -77.596162991587661, 36.100819000236527 ], [ -77.596721991309877, 36.101197000156745 ], [ -77.595734990833733, 36.102481000232657 ], [ -77.599804990786794, 36.104196999507543 ], [ -77.600474991201693, 36.106333000280252 ], [ -77.602865991605043, 36.106412999522888 ], [ -77.604947990919172, 36.10746699951585 ], [ -77.604460990979106, 36.108509000281764 ], [ -77.605599990767857, 36.110409999535619 ], [ -77.607948991486666, 36.108143999958713 ], [ -77.610139990917901, 36.107656999519286 ], [ -77.610313991126702, 36.108706999760329 ], [ -77.609235991087047, 36.108606999679431 ], [ -77.608560990923209, 36.110551999472776 ], [ -77.610970991449179, 36.111249000324548 ], [ -77.610746990973851, 36.110093999544297 ], [ -77.611993990692071, 36.110445999841041 ], [ -77.614774991560537, 36.109431999781002 ], [ -77.61725899132216, 36.110645999825451 ], [ -77.619635990906872, 36.110548000302479 ], [ -77.620718991658109, 36.112179000142014 ], [ -77.622425990597307, 36.110763000080972 ], [ -77.622901991383287, 36.111588999772273 ], [ -77.624488990784457, 36.111775999931979 ], [ -77.625299991018224, 36.115193999920287 ], [ -77.625952991175353, 36.114380999935648 ], [ -77.625770991548805, 36.111965000250123 ], [ -77.62653099061923, 36.111436999555494 ], [ -77.626475991651077, 36.112932999986256 ], [ -77.628144991596187, 36.113691999705203 ], [ -77.627170991300062, 36.115018999847102 ], [ -77.629502991373272, 36.114686000255269 ], [ -77.630140991329071, 36.115427000005084 ], [ -77.630192990876424, 36.117354999719751 ], [ -77.628801991531944, 36.117117000117972 ], [ -77.628076990958974, 36.119594999547871 ], [ -77.631375991141127, 36.118973999834353 ], [ -77.629576991294186, 36.120598000260024 ], [ -77.629468990968434, 36.121934999866859 ], [ -77.629935990823782, 36.122773999753072 ], [ -77.631612991403401, 36.122784999580553 ], [ -77.630275991516939, 36.123825000008466 ], [ -77.632081991232994, 36.124564000304474 ], [ -77.631836990943057, 36.127009999843978 ], [ -77.633550990606423, 36.12844000010503 ], [ -77.634589990984523, 36.127000999871683 ], [ -77.63660499072715, 36.127764000102623 ], [ -77.635414990713898, 36.129305999971677 ], [ -77.636370990878291, 36.131774000182858 ], [ -77.640859990665035, 36.133231000072612 ], [ -77.640968991055104, 36.134617999552525 ], [ -77.643439990740703, 36.135464999728143 ], [ -77.643832991051937, 36.138052000165466 ], [ -77.648492991125991, 36.136953000003381 ], [ -77.650066991599303, 36.138089000228071 ], [ -77.651071991029752, 36.137488000054447 ], [ -77.650235991511821, 36.13637999977464 ], [ -77.651094991178212, 36.135274999933984 ], [ -77.652145991123533, 36.135797000080046 ], [ -77.652577991136795, 36.137875999574035 ], [ -77.653730991428375, 36.136758000005742 ], [ -77.654199991689708, 36.137409999779891 ], [ -77.655564991250941, 36.13709000016641 ], [ -77.655635991298951, 36.138989999855468 ], [ -77.658654990713529, 36.138103000178752 ], [ -77.65939799126501, 36.136792999644683 ], [ -77.659789990652612, 36.138220999705375 ], [ -77.661617991605908, 36.138358000080878 ], [ -77.663316990866704, 36.136027999960852 ], [ -77.665740991113964, 36.138797000316593 ], [ -77.666744991060085, 36.138398000349383 ], [ -77.667332991179691, 36.136470999744624 ], [ -77.668086991237388, 36.137759000104097 ], [ -77.669842990748421, 36.137065000035932 ], [ -77.67052099160108, 36.139116999477345 ], [ -77.668395990764552, 36.139468999581176 ], [ -77.672247990636194, 36.141066999506783 ], [ -77.671695991662531, 36.143040999618748 ], [ -77.674014991297142, 36.142818000010841 ], [ -77.676809991308673, 36.143982999861343 ], [ -77.676059990637668, 36.145336999984643 ], [ -77.673540990768316, 36.146004000055576 ], [ -77.673876990682203, 36.146926999475468 ], [ -77.671996991026134, 36.14817499993331 ], [ -77.675663991093458, 36.150556000095023 ], [ -77.678936990638448, 36.150722999570704 ], [ -77.678130991589455, 36.154232000210285 ], [ -77.679864991240393, 36.154529000340659 ], [ -77.680903990938106, 36.153249999552109 ], [ -77.682950990593383, 36.153403000003202 ], [ -77.68272299127112, 36.151455999855145 ], [ -77.685245990924955, 36.1517180000289 ], [ -77.686523990838069, 36.153148999548144 ], [ -77.69176999061834, 36.150940000334884 ], [ -77.694789990906614, 36.151339000154742 ], [ -77.697955991032089, 36.153150000092268 ] ] ] } },
{ "type": "Feature", "properties": { "county": "HALIFAX", "precinct": "ENF1", "enr_desc": "Enfield 1", "winner": "Ronnie Reaves", "winner_votes": 139, "winner_share": 57.676348547717836, "runner_up": "Chris Kidd", "runner_up_votes": 102, "runner_up_share": 42.323651452282157, "contest_votes": 241, "margin_of_victory": 15.35269709543568, "is_tie": false, "results": [ { "candidate": "Ronnie Reaves", "votes": 139, "share": 57.676348547717836 }, { "candidate": "Chris Kidd", "votes": 102, "share": 42.32365145228216 } ], "participated": true, "map_key": "HALIFAX_ENF1" }, "geometry": { "type": "Polygon", "coordinates": [ [ [ -77.752799990900058, 36.157231999937878 ], [ -77.755237990798264, 36.159010999751168 ], [ -77.760242990926614, 36.15818999957682 ], [ -77.760214991157113, 36.15947500013921 ], [ -77.761283990867042, 36.159282999834339 ], [ -77.761618991489286, 36.160758999489651 ], [ -77.768522991283575, 36.168746999723822 ], [ -77.772491990605076, 36.168642999897202 ], [ -77.773963991049712, 36.168153000218645 ], [ -77.773205991394192, 36.166869999510695 ], [ -77.776600990680876, 36.166570000337636 ], [ -77.776871991649188, 36.168338999802984 ], [ -77.779038991421928, 36.16998700032984 ], [ -77.778440991379952, 36.172078999846043 ], [ -77.779097991607699, 36.173557000029604 ], [ -77.780579991673321, 36.17438099992075 ], [ -77.78344699142275, 36.173853999845164 ], [ -77.784102991490087, 36.174936000288803 ], [ -77.788099991293393, 36.176057000112081 ], [ -77.79454699094083, 36.180364000289252 ], [ -77.794606991321231, 36.183834000237603 ], [ -77.800215990584576, 36.187365999764317 ], [ -77.799842991068402, 36.191846999826183 ], [ -77.802457991157084, 36.196164000195189 ], [ -77.804300990916914, 36.197256999702972 ], [ -77.804503991160971, 36.199447999656378 ], [ -77.806387990969313, 36.202012999871364 ], [ -77.806109991012988, 36.206339999475901 ], [ -77.808779991447281, 36.212639000162277 ], [ -77.809260990873113, 36.21567600022339 ], [ -77.808495991311304, 36.219087000152577 ], [ -77.809463990713752, 36.225452999908661 ], [ -77.808855991256607, 36.226347000111247 ], [ -77.800587990920931, 36.226394000219607 ], [ -77.787076990579806, 36.239790999752159 ], [ -77.779002990589731, 36.243850999927751 ], [ -77.768923991500742, 36.25069499979206 ], [ -77.763088991534829, 36.249193999604536 ], [ -77.762103990947608, 36.25282900033725 ], [ -77.759436991507627, 36.255258999474513 ], [ -77.755317991410251, 36.257832000001777 ], [ -77.742232990787173, 36.263604000118256 ], [ -77.732180991047557, 36.26565999958148 ], [ -77.72008199067821, 36.26984800022521 ], [ -77.712350990772464, 36.270866000114665 ], [ -77.70699799072527, 36.270587999599393 ], [ -77.705687991129864, 36.272689000302869 ], [ -77.702295990721808, 36.27187200033547 ], [ -77.698636991200146, 36.272289999726226 ], [ -77.695099990962518, 36.274043999536538 ], [ -77.690519991333247, 36.271539999466683 ], [ -77.689038990609816, 36.269203999503972 ], [ -77.688581990966213, 36.265369999768794 ], [ -77.685574991438514, 36.263803999945416 ], [ -77.680773991450991, 36.267376999958913 ], [ -77.67865699059719, 36.26806299948268 ], [ -77.673169991194868, 36.273915999961396 ], [ -77.64839199081662, 36.2919070002485 ], [ -77.647624991482289, 36.287205999868931 ], [ -77.644141991214283, 36.286552999602264 ], [ -77.639225990717122, 36.287002000318864 ], [ -77.63720699072708, 36.285991999807351 ], [ -77.637996990852727, 36.284456000244212 ], [ -77.635595990877761, 36.280155999826711 ], [ -77.635346990891207, 36.278204999660552 ], [ -77.633130990759881, 36.277565000221252 ], [ -77.630988991267031, 36.274644999783874 ], [ -77.627913991030923, 36.269814000156167 ], [ -77.624728991399309, 36.26200399991373 ], [ -77.623234990910277, 36.261106999881228 ], [ -77.620751990576991, 36.257067999852559 ], [ -77.620655991194994, 36.253528000197477 ], [ -77.621975990825106, 36.251163000222263 ], [ -77.624468991104393, 36.249565999981392 ], [ -77.63110699059682, 36.249312999611767 ], [ -77.635037991514395, 36.247975999642712 ], [ -77.634091990568905, 36.246874000246372 ], [ -77.64427399118189, 36.235088999964958 ], [ -77.642853990602475, 36.232736000023401 ], [ -77.644207990675881, 36.220965999986696 ], [ -77.656051991232289, 36.207428999929 ], [ -77.658142991672776, 36.202708999993227 ], [ -77.657609991089771, 36.198521999817203 ], [ -77.655026991105956, 36.19370200023468 ], [ -77.658130991275939, 36.188242999651877 ], [ -77.697955991032089, 36.153150000092268 ], [ -77.699455991207373, 36.152941999957662 ], [ -77.702642990635667, 36.150486999681682 ], [ -77.703721991293648, 36.151341999752525 ], [ -77.704923990987893, 36.1509130001239 ], [ -77.707028991508608, 36.148279999558142 ], [ -77.706459990937816, 36.14678500005283 ], [ -77.711764990657301, 36.145346999958633 ], [ -77.714907991112355, 36.146608999890709 ], [ -77.716762990606441, 36.145785000021149 ], [ -77.721581991547225, 36.141416999613874 ], [ -77.719976990924067, 36.140687000244817 ], [ -77.719724990932093, 36.139105999613605 ], [ -77.716998990681972, 36.137700999767326 ], [ -77.716431991109616, 36.136380000252522 ], [ -77.717640990663512, 36.13513299961442 ], [ -77.721331990740467, 36.133795000225732 ], [ -77.722974991457349, 36.134306999662869 ], [ -77.726255991536661, 36.137999999876193 ], [ -77.731527990982414, 36.139316999619716 ], [ -77.730066991160427, 36.143513000352989 ], [ -77.730825991643698, 36.146874999996896 ], [ -77.729386991424761, 36.148985000001076 ], [ -77.732445990657951, 36.147430999722296 ], [ -77.735542991083776, 36.150050999744586 ], [ -77.737183991150118, 36.153747999699249 ], [ -77.741655990724851, 36.155150000193316 ], [ -77.745693991010143, 36.153012999547776 ], [ -77.749518991187117, 36.157338999821917 ], [ -77.752799990900058, 36.157231999937878 ] ] ] } },
{ "type": "Feature", "properties": { "county": "HALIFAX", "precinct": "FAUCT", "enr_desc": "Faucett", "winner": "Chris Kidd", "winner_votes": 49, "winner_share": 55.056179775280903, "runner_up": "Ronnie Reaves", "runner_up_votes": 40, "runner_up_share": 44.943820224719097, "contest_votes": 89, "margin_of_victory": 10.112359550561806, "is_tie": false, "results": [ { "candidate": "Chris Kidd", "votes": 49, "share": 55.0561797752809 }, { "candidate": "Ronnie Reaves", "votes": 40, "share": 44.9438202247191 } ], "participated": true, "map_key": "HALIFAX_FAUCT" }, "geometry": { "type": "Polygon", "coordinates": [ [ [ -77.759436991507627, 36.255258999474513 ], [ -77.762578990806929, 36.256103999870362 ], [ -77.768155991292431, 36.261389999680276 ], [ -77.770393990936853, 36.260956999778529 ], [ -77.77289399128037, 36.264460999579036 ], [ -77.77663799136208, 36.264600000195514 ], [ -77.778289991439593, 36.265923000243198 ], [ -77.781173990670538, 36.265797999477989 ], [ -77.78313999059408, 36.267220999954574 ], [ -77.786664991549728, 36.272467999615024 ], [ -77.78681399119921, 36.274299999699359 ], [ -77.785619991412304, 36.276062999591495 ], [ -77.786473990636935, 36.280714999557645 ], [ -77.788745991396823, 36.280703999981505 ], [ -77.791952990902573, 36.282038999708902 ], [ -77.799535991293311, 36.288262000352205 ], [ -77.799316990868562, 36.28989099978795 ], [ -77.800527990822118, 36.291313999803762 ], [ -77.800024991668892, 36.29355700015666 ], [ -77.798754990874869, 36.294677999625698 ], [ -77.801338990768045, 36.301030000300244 ], [ -77.802125990938734, 36.300805000245099 ], [ -77.802695991050072, 36.304495999532151 ], [ -77.811859990893765, 36.326949999994106 ], [ -77.809500991154337, 36.330253999806551 ], [ -77.809147990846768, 36.333178000231015 ], [ -77.809613991068375, 36.33551099988567 ], [ -77.813214990695784, 36.342104999890694 ], [ -77.813400990885469, 36.347338999841384 ], [ -77.812286991658866, 36.350281999673392 ], [ -77.807275990614414, 36.357632999821803 ], [ -77.806790991243844, 36.364190000064042 ], [ -77.802564991486292, 36.361915000174484 ], [ -77.794331991447038, 36.359843000009505 ], [ -77.790316991131007, 36.357853000034183 ], [ -77.784014990886519, 36.353039999803485 ], [ -77.779027991331361, 36.35209900032897 ], [ -77.776905991110226, 36.350496999755265 ], [ -77.76517099157077, 36.396232999557668 ], [ -77.759560990695178, 36.397607000147794 ], [ -77.757698991326919, 36.411709999760987 ], [ -77.755974990933566, 36.409282999817108 ], [ -77.7547859907435, 36.411813000305678 ], [ -77.752214991273291, 36.413623999978583 ], [ -77.74458599104554, 36.416640000019441 ], [ -77.736113990763243, 36.423258000081383 ], [ -77.73188599078253, 36.425158999854681 ], [ -77.728679990793964, 36.424249000319072 ], [ -77.727007991137313, 36.421480999794717 ], [ -77.724855991610568, 36.419742999822439 ], [ -77.718768991193045, 36.417803000140992 ], [ -77.718853990602312, 36.415310000002471 ], [ -77.716955991189778, 36.414142999693496 ], [ -77.716473990854055, 36.412726000300978 ], [ -77.716473991292773, 36.408105000137546 ], [ -77.717419991018062, 36.405374999838521 ], [ -77.712983991522094, 36.39752600008795 ], [ -77.709159990562355, 36.39472399955352 ], [ -77.704142991330301, 36.393024999790143 ], [ -77.692575991410862, 36.38649200016377 ], [ -77.686348990657635, 36.384303999690104 ], [ -77.683263990679279, 36.380413999589926 ], [ -77.681000990749837, 36.378811999986368 ], [ -77.678906990712278, 36.378216999667409 ], [ -77.675623990757032, 36.378720000278882 ], [ -77.672907991110009, 36.375526000148398 ], [ -77.672405990990967, 36.372713999581094 ], [ -77.668044990772017, 36.3699790000706 ], [ -77.666053991095339, 36.369732000101521 ], [ -77.664809991060423, 36.370862000002404 ], [ -77.662300991474353, 36.370196000241968 ], [ -77.662448990994946, 36.368985000201121 ], [ -77.65897699099051, 36.363936999676717 ], [ -77.656632991523622, 36.362763999908779 ], [ -77.658769991421465, 36.361316999845677 ], [ -77.662969991012503, 36.354891999879214 ], [ -77.683863990871146, 36.353783000113033 ], [ -77.682033991506628, 36.34844300026657 ], [ -77.67955099086177, 36.348219000338531 ], [ -77.677639990792542, 36.346811000146602 ], [ -77.677296990902178, 36.344452999932699 ], [ -77.674647990975487, 36.34150599977675 ], [ -77.673872991066247, 36.338219999864592 ], [ -77.671201991387264, 36.336333999693807 ], [ -77.671262990923495, 36.333875999739739 ], [ -77.666464991593884, 36.33103700009908 ], [ -77.664826991493513, 36.328651000129931 ], [ -77.664659991054918, 36.326938000236133 ], [ -77.665860991661233, 36.323972999911192 ], [ -77.662183990771638, 36.317385999527396 ], [ -77.662503991517639, 36.31305199973221 ], [ -77.664156991336043, 36.307464000223142 ], [ -77.66286499060314, 36.305626999932706 ], [ -77.663492991140231, 36.304018000226549 ], [ -77.661915991511108, 36.302695999680012 ], [ -77.657161990688536, 36.301366999922962 ], [ -77.655798990762989, 36.297336999460725 ], [ -77.650942990879756, 36.2944100003157 ], [ -77.64839199081662, 36.2919070002485 ], [ -77.673169991194868, 36.273915999961396 ], [ -77.67865699059719, 36.26806299948268 ], [ -77.680773991450991, 36.267376999958913 ], [ -77.685574991438514, 36.263803999945416 ], [ -77.688581990966213, 36.265369999768794 ], [ -77.689038990609816, 36.269203999503972 ], [ -77.690519991333247, 36.271539999466683 ], [ -77.695099990962518, 36.274043999536538 ], [ -77.698636991200146, 36.272289999726226 ], [ -77.702295990721808, 36.27187200033547 ], [ -77.705687991129864, 36.272689000302869 ], [ -77.70699799072527, 36.270587999599393 ], [ -77.712350990772464, 36.270866000114665 ], [ -77.72008199067821, 36.26984800022521 ], [ -77.732180991047557, 36.26565999958148 ], [ -77.742232990787173, 36.263604000118256 ], [ -77.755317991410251, 36.257832000001777 ], [ -77.759436991507627, 36.255258999474513 ] ] ] } },
{ "type": "Feature", "properties": { "county": "HALIFAX", "precinct": "HAL", "enr_desc": "Halifax", "winner": "Chris Kidd", "winner_votes": 78, "winner_share": 62.903225806451616, "runner_up": "Ronnie Reaves", "runner_up_votes": 46, "runner_up_share": 37.096774193548384, "contest_votes": 124, "margin_of_victory": 25.806451612903231, "is_tie": false, "results": [ { "candidate": "Chris Kidd", "votes": 78, "share": 62.903225806451616 }, { "candidate": "Ronnie Reaves", "votes": 46, "share": 37.096774193548384 } ], "participated": true, "map_key": "HALIFAX_HAL" }, "geometry": { "type": "Polygon", "coordinates": [ [ [ -77.620751990576991, 36.257067999852559 ], [ -77.623234990910277, 36.261106999881228 ], [ -77.624728991399309, 36.26200399991373 ], [ -77.627913991030923, 36.269814000156167 ], [ -77.630988991267031, 36.274644999783874 ], [ -77.633130990759881, 36.277565000221252 ], [ -77.635346990891207, 36.278204999660552 ], [ -77.635595990877761, 36.280155999826711 ], [ -77.637996990852727, 36.284456000244212 ], [ -77.63720699072708, 36.285991999807351 ], [ -77.639225990717122, 36.287002000318864 ], [ -77.644141991214283, 36.286552999602264 ], [ -77.647624991482289, 36.287205999868931 ], [ -77.64839199081662, 36.2919070002485 ], [ -77.650942990879756, 36.2944100003157 ], [ -77.655798990762989, 36.297336999460725 ], [ -77.657161990688536, 36.301366999922962 ], [ -77.661915991511108, 36.302695999680012 ], [ -77.663492991140231, 36.304018000226549 ], [ -77.66286499060314, 36.305626999932706 ], [ -77.664156991336043, 36.307464000223142 ], [ -77.662503991517639, 36.31305199973221 ], [ -77.662183990771638, 36.317385999527396 ], [ -77.665860991661233, 36.323972999911192 ], [ -77.664659991054918, 36.326938000236133 ], [ -77.664826991493513, 36.328651000129931 ], [ -77.666464991593884, 36.33103700009908 ], [ -77.671262990923495, 36.333875999739739 ], [ -77.671201991387264, 36.336333999693807 ], [ -77.673872991066247, 36.338219999864592 ], [ -77.674647990975487, 36.34150599977675 ], [ -77.677296990902178, 36.344452999932699 ], [ -77.677639990792542, 36.346811000146602 ], [ -77.67955099086177, 36.348219000338531 ], [ -77.682033991506628, 36.34844300026657 ], [ -77.683863990871146, 36.353783000113033 ], [ -77.662969991012503, 36.354891999879214 ], [ -77.658769991421465, 36.361316999845677 ], [ -77.656632991523622, 36.362763999908779 ], [ -77.635144990769689, 36.359913999577969 ], [ -77.633767990665845, 36.360445999585657 ], [ -77.632155991131427, 36.358640999956435 ], [ -77.616531990924983, 36.364024999469414 ], [ -77.616681990575785, 36.369795000258925 ], [ -77.614376991057583, 36.379622000273777 ], [ -77.612560991080159, 36.38086699950739 ], [ -77.606876991457455, 36.38026399952934 ], [ -77.546126991410432, 36.382074999938929 ], [ -77.54701199134594, 36.373913999887627 ], [ -77.548312991595992, 36.371367999749303 ], [ -77.555838990655261, 36.368421999625923 ], [ -77.561601990661742, 36.36272400005187 ], [ -77.574120990843838, 36.356598000156197 ], [ -77.579920991262668, 36.350076000085892 ], [ -77.585598990777115, 36.337344000094546 ], [ -77.585274990758805, 36.334966000068668 ], [ -77.577205991006153, 36.328516999713621 ], [ -77.574546990690592, 36.323289999448626 ], [ -77.573002990876603, 36.316419999481745 ], [ -77.570776990978871, 36.313536999696197 ], [ -77.556295991541248, 36.305207999651927 ], [ -77.548012991043095, 36.303446999663173 ], [ -77.542074991426972, 36.30317600009618 ], [ -77.523741991541343, 36.306775000017915 ], [ -77.506851990645316, 36.307202000128314 ], [ -77.49509599099639, 36.308380999771373 ], [ -77.492526991283384, 36.309431999709638 ], [ -77.485496990847466, 36.315961000186569 ], [ -77.47628799096158, 36.317230999932328 ], [ -77.466941991380935, 36.321785000247715 ], [ -77.456898991119388, 36.322581000082479 ], [ -77.445885990572094, 36.324888000233678 ], [ -77.441662990677315, 36.324353000135886 ], [ -77.43802599155245, 36.321640999941152 ], [ -77.434651991609172, 36.314381000036434 ], [ -77.427869990916705, 36.307999000118087 ], [ -77.421647991431172, 36.299609999471876 ], [ -77.414033990939714, 36.292866000097881 ], [ -77.412611991125516, 36.285931000314598 ], [ -77.413313991263692, 36.275434999518914 ], [ -77.411061991204818, 36.266675000319459 ], [ -77.409426990762782, 36.263548999752921 ], [ -77.412321991187127, 36.263325000000329 ], [ -77.412322990725414, 36.261287999843375 ], [ -77.413113991305252, 36.261380000026378 ], [ -77.413621991269224, 36.262935999677943 ], [ -77.41613699068634, 36.261769000203728 ], [ -77.416616990734568, 36.263303000058109 ], [ -77.417521990641305, 36.262730999652021 ], [ -77.418623991674551, 36.263166000061887 ], [ -77.418142991184524, 36.264652999641562 ], [ -77.41944399081919, 36.264447999857339 ], [ -77.420912991297641, 36.265684000323908 ], [ -77.421591990836532, 36.264401999655767 ], [ -77.421732990909774, 36.265522999845409 ], [ -77.422919991061605, 36.265294999702256 ], [ -77.423116990682217, 36.266415999736928 ], [ -77.424190990848317, 36.265729999576202 ], [ -77.42458699152435, 36.266461999920075 ], [ -77.42580199150467, 36.266187999639378 ], [ -77.426395991575532, 36.267033999564461 ], [ -77.425744991297933, 36.268087000331541 ], [ -77.427299990631525, 36.268498999795028 ], [ -77.425377990720079, 36.26927700004849 ], [ -77.42684699071863, 36.270718999767922 ], [ -77.426422991517867, 36.271657999967474 ], [ -77.427496991419289, 36.271817999948546 ], [ -77.426846990780305, 36.272824999864397 ], [ -77.431085991420147, 36.274472999720921 ], [ -77.432668990633985, 36.274312999441044 ], [ -77.434731991018865, 36.275387999742257 ], [ -77.440214990591315, 36.274336000304501 ], [ -77.445387991559855, 36.276371999859713 ], [ -77.448722990582141, 36.275433999562473 ], [ -77.451379990897962, 36.273442000253056 ], [ -77.454488990871212, 36.272938000309473 ], [ -77.457145990949016, 36.27552400023778 ], [ -77.460961990877891, 36.274837000024341 ], [ -77.461244990581719, 36.277239999905355 ], [ -77.462884990691336, 36.278384000091108 ], [ -77.466303990694684, 36.27655199988525 ], [ -77.470175991616827, 36.276093000197022 ], [ -77.472209990842416, 36.274306999569632 ], [ -77.474131991657345, 36.273962999891602 ], [ -77.475318990788708, 36.270026999597242 ], [ -77.476957991183866, 36.268538000173947 ], [ -77.479870991390783, 36.27027699951789 ], [ -77.484646991230406, 36.269245000219371 ], [ -77.4883999909528, 36.267160999559145 ], [ -77.491992991162803, 36.271370000110004 ], [ -77.49620399058432, 36.272420999520641 ], [ -77.498551990797594, 36.274388000127253 ], [ -77.501175990777867, 36.274688999752968 ], [ -77.508524991638225, 36.272243999947023 ], [ -77.509545991183415, 36.267666999648768 ], [ -77.510959991629079, 36.265539999457033 ], [ -77.515228990896375, 36.262771999523693 ], [ -77.517913990990252, 36.262589999530888 ], [ -77.524326991536768, 36.264148000128792 ], [ -77.529132991184582, 36.26023599946145 ], [ -77.535660990693231, 36.257858000139862 ], [ -77.537920990788621, 36.258292999754126 ], [ -77.540293991143599, 36.262321999915855 ], [ -77.543062991462662, 36.262893999532174 ], [ -77.548092991201088, 36.259963999806963 ], [ -77.559169991520491, 36.260010999752545 ], [ -77.562107991125714, 36.256805999447401 ], [ -77.564226990894497, 36.2559139999316 ], [ -77.564368990574735, 36.253350000241639 ], [ -77.562000991629418, 36.248727000287737 ], [ -77.561274991351112, 36.244509999460469 ], [ -77.554315991595487, 36.239636000189769 ], [ -77.552349990788727, 36.235692000241549 ], [ -77.552291991380201, 36.231610999980724 ], [ -77.548339990639022, 36.222911999585968 ], [ -77.548919991683135, 36.219541999469875 ], [ -77.545279991066053, 36.203626999485948 ], [ -77.543244990832349, 36.201980999981878 ], [ -77.540510990787638, 36.197178999492067 ], [ -77.537850990677896, 36.187843999731939 ], [ -77.555508991256033, 36.198735000325016 ], [ -77.570873991112265, 36.202047000090538 ], [ -77.579556990863978, 36.21098699976752 ], [ -77.585549991615054, 36.209725000218107 ], [ -77.590899991066422, 36.219438000207852 ], [ -77.592921991490073, 36.230518000219504 ], [ -77.599742991377241, 36.241515999480676 ], [ -77.602343991344867, 36.244802000105572 ], [ -77.61216199126676, 36.250152000062265 ], [ -77.620751990576991, 36.257067999852559 ] ] ] } },
{ "type": "Feature", "properties": { "county": "HALIFAX", "precinct": "HOL", "enr_desc": "Hollister", "winner": "Chris Kidd", "winner_votes": 143, "winner_share": 69.756097560975604, "runner_up": "Ronnie Reaves", "runner_up_votes": 62, "runner_up_share": 30.243902439024389, "contest_votes": 205, "margin_of_victory": 39.512195121951216, "is_tie": false, "results": [ { "candidate": "Chris Kidd", "votes": 143, "share": 69.7560975609756 }, { "candidate": "Ronnie Reaves", "votes": 62, "share": 30.24390243902439 } ], "participated": true, "map_key": "HALIFAX_HOL" }, "geometry": { "type": "Polygon", "coordinates": [ [ [ -77.935882991145462, 36.318703000109949 ], [ -77.890041991218453, 36.3170629994843 ], [ -77.851930990778101, 36.318844999591455 ], [ -77.811859990893765, 36.326949999994106 ], [ -77.802695991050072, 36.304495999532151 ], [ -77.802125990938734, 36.300805000245099 ], [ -77.801338990768045, 36.301030000300244 ], [ -77.798754990874869, 36.294677999625698 ], [ -77.800024991668892, 36.29355700015666 ], [ -77.800527990822118, 36.291313999803762 ], [ -77.799316990868562, 36.28989099978795 ], [ -77.799535991293311, 36.288262000352205 ], [ -77.791952990902573, 36.282038999708902 ], [ -77.788745991396823, 36.280703999981505 ], [ -77.786473990636935, 36.280714999557645 ], [ -77.785619991412304, 36.276062999591495 ], [ -77.78681399119921, 36.274299999699359 ], [ -77.786664991549728, 36.272467999615024 ], [ -77.797420990971673, 36.275364000086448 ], [ -77.802095991634118, 36.27531899957129 ], [ -77.808307991405016, 36.274109 ], [ -77.817365991638454, 36.274476999584756 ], [ -77.82332399116568, 36.273595000093827 ], [ -77.830432991565715, 36.270320999874649 ], [ -77.833304991216451, 36.270083999551943 ], [ -77.838289990790557, 36.272826999884934 ], [ -77.853844991161068, 36.276149000242349 ], [ -77.858638991036884, 36.279788999748767 ], [ -77.865629991318841, 36.283487999517973 ], [ -77.871471990938289, 36.283457000199839 ], [ -77.875965991412158, 36.281906000135855 ], [ -77.879092990620919, 36.279420000213094 ], [ -77.884337991424118, 36.277998000073751 ], [ -77.882629991123451, 36.276780999635946 ], [ -77.882007991299815, 36.275242999685787 ], [ -77.883718990868502, 36.27208599948861 ], [ -77.882167990958962, 36.2685550002113 ], [ -77.884637991316353, 36.266962999745132 ], [ -77.883017991184985, 36.264480000217354 ], [ -77.884343991341197, 36.260285999607511 ], [ -77.88366699164348, 36.257923999536331 ], [ -77.881761991662614, 36.257454000307206 ], [ -77.886242991622282, 36.250165999476138 ], [ -77.883844991397879, 36.244956999966647 ], [ -77.886094991070351, 36.241911999964735 ], [ -77.893181991142569, 36.241196999652509 ], [ -77.894769991407813, 36.238195000292812 ], [ -77.894336990825536, 36.237033000298133 ], [ -77.892466990708684, 36.237345999738885 ], [ -77.88670399086152, 36.233599999923662 ], [ -77.885926991660014, 36.232285999888617 ], [ -77.886192990917138, 36.229923999970595 ], [ -77.887896991464288, 36.228422000357888 ], [ -77.891534990840654, 36.229913999609742 ], [ -77.895764991041503, 36.229539999830386 ], [ -77.890174991670918, 36.225943999739272 ], [ -77.887642991475445, 36.225420999753332 ], [ -77.88503899125034, 36.22623100007737 ], [ -77.880470991477665, 36.220576000363607 ], [ -77.87517699119654, 36.224307999574698 ], [ -77.873080990603, 36.224119000302181 ], [ -77.870017991518665, 36.221829999756963 ], [ -77.869405991462131, 36.218768999849367 ], [ -77.86565699077228, 36.216348999771526 ], [ -77.863979991335484, 36.213599999710098 ], [ -77.868134991190729, 36.211251000080395 ], [ -77.866551991480506, 36.208492000136523 ], [ -77.871128990668069, 36.200846999787522 ], [ -77.870871991588686, 36.197883000354864 ], [ -77.869549990597079, 36.195858000139147 ], [ -77.872156991484118, 36.194316999490809 ], [ -77.872715991050725, 36.191072999613041 ], [ -77.875115990983275, 36.189082999843684 ], [ -77.876037991301047, 36.184394999787997 ], [ -77.877789991280196, 36.181435000263633 ], [ -77.877385990677283, 36.178235000133348 ], [ -77.878502991512917, 36.177502999703201 ], [ -77.886386990930404, 36.177289000092195 ], [ -77.887878991065534, 36.175098999593743 ], [ -77.891245991045949, 36.172690999566633 ], [ -77.890069991566008, 36.17106099982724 ], [ -77.889844991121365, 36.168579000087675 ], [ -77.885041990722513, 36.166412000180955 ], [ -77.882037990718672, 36.163430999820577 ], [ -77.885429990657244, 36.162076000239857 ], [ -77.887531991583131, 36.163492000343993 ], [ -77.889095991439248, 36.163081999635601 ], [ -77.889308991226244, 36.161669000280249 ], [ -77.888027990763419, 36.158906000365725 ], [ -77.882570991026398, 36.155403000062215 ], [ -77.89173899091935, 36.149847000305648 ], [ -77.895101990824088, 36.153376000298785 ], [ -77.901195990795799, 36.156349000052607 ], [ -77.900860991183933, 36.162773999987614 ], [ -77.90952899120964, 36.165334999609165 ], [ -77.915867991214128, 36.163562999827185 ], [ -77.922659990925737, 36.16631499985413 ], [ -77.923059990612586, 36.168884000202318 ], [ -77.917706991072706, 36.180492999890404 ], [ -77.923917991351189, 36.188906000326284 ], [ -77.925363990865677, 36.18757600031747 ], [ -77.926092990816869, 36.18316800034011 ], [ -77.928395990609772, 36.182158000132326 ], [ -77.930820991141772, 36.182305999812499 ], [ -77.93245999085714, 36.183046999548914 ], [ -77.933942991528198, 36.18661199958769 ], [ -77.93801499100266, 36.18919799956673 ], [ -77.940853991383506, 36.192218000309666 ], [ -77.944003991239185, 36.192592000301133 ], [ -77.944517991114552, 36.188308000216949 ], [ -77.943027991119166, 36.186512000191087 ], [ -77.944367990699789, 36.182114000289218 ], [ -77.951215990698316, 36.180565000070636 ], [ -77.967383990876954, 36.19420799950241 ], [ -77.972938990970022, 36.194331000092959 ], [ -77.973859991572382, 36.193655999899491 ], [ -77.973030990844393, 36.189779999588772 ], [ -77.969585990631813, 36.186346999823179 ], [ -77.969051990713638, 36.183531000360844 ], [ -77.971507990899568, 36.177879999622142 ], [ -77.973538991458028, 36.176776000235144 ], [ -77.975706990620552, 36.177702999981804 ], [ -77.976500990945553, 36.176139000095517 ], [ -77.978184991525453, 36.175279999555336 ], [ -77.979574991295692, 36.178694999497651 ], [ -77.983077991674477, 36.179852999555003 ], [ -77.984365991210538, 36.18145099964223 ], [ -77.984508991656952, 36.183531000377521 ], [ -77.983041990624599, 36.186651000251828 ], [ -77.987541991481649, 36.189555000265976 ], [ -77.991210991610117, 36.186592999631131 ], [ -77.990651991584883, 36.18516800022185 ], [ -77.992524990675378, 36.185527000008911 ], [ -77.993595991219991, 36.186937999541371 ], [ -77.993625991577176, 36.190495999547316 ], [ -77.996790991212009, 36.192696999590453 ], [ -77.997790990973357, 36.197286999954194 ], [ -77.996699990583949, 36.198510999606277 ], [ -78.001505990926631, 36.198867999562147 ], [ -78.005032991557911, 36.202417999827048 ], [ -78.00639499090623, 36.201694000243315 ], [ -78.006550991054425, 36.202632999816117 ], [ -77.978084991289776, 36.246058000024519 ], [ -77.944711991378597, 36.294333000064427 ], [ -77.942405991309329, 36.298526000213563 ], [ -77.935882991145462, 36.318703000109949 ] ] ] } },
{ "type": "Feature", "properties": { "county": "HALIFAX", "precinct": "HPR", "enr_desc": "Hobgood", "winner": "Chris Kidd", "winner_votes": 67, "winner_share": 70.526315789473685, "runner_up": "Ronnie Reaves", "runner_up_votes": 28, "runner_up_share": 29.473684210526311, "contest_votes": 95, "margin_of_victory": 41.05263157894737, "is_tie": false, "results": [ { "candidate": "Chris Kidd", "votes": 67, "share": 70.52631578947368 }, { "candidate": "Ronnie Reaves", "votes": 28, "share": 29.47368421052631 } ], "participated": true, "map_key": "HALIFAX_HPR" }, "geometry": { "type": "Polygon", "coordinates": [ [ [ -77.528071991142852, 36.073426000296188 ], [ -77.528239990670485, 36.07426499969197 ], [ -77.524457991671426, 36.076276999973203 ], [ -77.526383990935415, 36.0792690002651 ], [ -77.522308990665863, 36.083666000028799 ], [ -77.523892990854193, 36.085225999818164 ], [ -77.523396991164091, 36.086944000151938 ], [ -77.518157991392073, 36.089027000271315 ], [ -77.518449991094386, 36.09008599998068 ], [ -77.51741199110883, 36.091632999520463 ], [ -77.521675990613502, 36.095629999482838 ], [ -77.524642990915439, 36.099765999966586 ], [ -77.493863991065581, 36.138622000042524 ], [ -77.486996991583268, 36.136844999857722 ], [ -77.483444991176128, 36.134463999508682 ], [ -77.477181991064882, 36.135076000120641 ], [ -77.475406991654495, 36.133385000336133 ], [ -77.471919990649795, 36.132984999562552 ], [ -77.469825990682381, 36.131613000199657 ], [ -77.464808991445082, 36.132767999689754 ], [ -77.457571991518719, 36.130643000147863 ], [ -77.453270990857874, 36.127430999436669 ], [ -77.451354990744179, 36.127051999622026 ], [ -77.448413990623692, 36.122637000252347 ], [ -77.439551991617449, 36.120271000105994 ], [ -77.437898991137502, 36.116766999827313 ], [ -77.439225991043344, 36.114766999595695 ], [ -77.437749991302937, 36.11277899961167 ], [ -77.439333991411218, 36.110762999507067 ], [ -77.438840991007794, 36.109183000024693 ], [ -77.431750991420458, 36.113780999972747 ], [ -77.4234849915089, 36.11730299980271 ], [ -77.415136991137786, 36.118887999621137 ], [ -77.404924991291907, 36.119038000282615 ], [ -77.394421991639376, 36.117574000305318 ], [ -77.386412991327461, 36.11982200033578 ], [ -77.378622990987765, 36.119231999599883 ], [ -77.376731990770125, 36.119880999510343 ], [ -77.366787990841033, 36.12510499981213 ], [ -77.360566991374597, 36.131450999703866 ], [ -77.353939990928694, 36.133258999820853 ], [ -77.347446990847303, 36.13713799994931 ], [ -77.344841990598226, 36.142709999856059 ], [ -77.342858991527592, 36.144904999610389 ], [ -77.337472990638929, 36.147519999422357 ], [ -77.333228991608109, 36.147624000183548 ], [ -77.309028991093172, 36.16817899979187 ], [ -77.299598991291091, 36.164905999534213 ], [ -77.295255991239046, 36.165747999770524 ], [ -77.290460991026961, 36.168907999764919 ], [ -77.287036991391631, 36.169200999952153 ], [ -77.284706990837918, 36.168350999864067 ], [ -77.281400990771019, 36.165558000203923 ], [ -77.278554991047869, 36.159428000258039 ], [ -77.27650299113408, 36.15737399951761 ], [ -77.274289990632042, 36.156934999834839 ], [ -77.264931991101534, 36.159268999539478 ], [ -77.263365991279244, 36.158940999558709 ], [ -77.263004990882649, 36.157217999466852 ], [ -77.267278991035852, 36.150541999697175 ], [ -77.265915991218293, 36.145690999451745 ], [ -77.266296991592554, 36.14260000015026 ], [ -77.265601991571273, 36.139834999549485 ], [ -77.252829990583876, 36.136302000029254 ], [ -77.250813990842701, 36.134571999651975 ], [ -77.250993991276388, 36.131087000166133 ], [ -77.254890990822631, 36.12485699969131 ], [ -77.254333990776146, 36.122534999925186 ], [ -77.249223991049647, 36.121423999646083 ], [ -77.241775990818866, 36.121376999663504 ], [ -77.239703991228893, 36.120274999993775 ], [ -77.240088991047074, 36.118970999482151 ], [ -77.24133599086781, 36.118479000282342 ], [ -77.250719991068408, 36.117694999839486 ], [ -77.251768991164525, 36.116637999604798 ], [ -77.25146799112521, 36.115051000058287 ], [ -77.244324990689435, 36.112107999671373 ], [ -77.234812991103809, 36.111137999544304 ], [ -77.232631991335992, 36.110237999497905 ], [ -77.230365990825362, 36.107551999571456 ], [ -77.230430991386754, 36.104592999557305 ], [ -77.242785991060629, 36.097182999440733 ], [ -77.250627990920378, 36.098775999821058 ], [ -77.268936991482846, 36.100005000044717 ], [ -77.282187990638718, 36.097284000016394 ], [ -77.293124991177379, 36.09122799971567 ], [ -77.313859991443763, 36.088835999786724 ], [ -77.315946990794203, 36.086696000283382 ], [ -77.319989990763929, 36.078653999443731 ], [ -77.327555991220891, 36.07637600028157 ], [ -77.32756899079466, 36.071360999750326 ], [ -77.329546991051046, 36.070982999824473 ], [ -77.329800991470549, 36.069471999698877 ], [ -77.331425991358259, 36.068078000024002 ], [ -77.339808991270118, 36.066183999758643 ], [ -77.339278991100656, 36.064707000179176 ], [ -77.402613991597235, 36.004965999955495 ], [ -77.40701999097395, 36.005594999711654 ], [ -77.408537991096281, 36.006995000332225 ], [ -77.41046799083675, 36.006304999883348 ], [ -77.410857991065726, 36.005434999854899 ], [ -77.421137990908335, 36.003609000273187 ], [ -77.427961991201968, 36.005290999446302 ], [ -77.433633991602449, 36.010680999768084 ], [ -77.435176991382804, 36.013182999950793 ], [ -77.441637991498823, 36.014682999562503 ], [ -77.440551991296104, 36.016812999888678 ], [ -77.437983991519076, 36.018511000311122 ], [ -77.437885991145961, 36.01962999992967 ], [ -77.43930099064481, 36.021211999935879 ], [ -77.446718990825687, 36.024374999903984 ], [ -77.454079991030014, 36.029621999779444 ], [ -77.467384990724014, 36.031621999654988 ], [ -77.470425991637157, 36.033536999482457 ], [ -77.471187990956437, 36.035953000079658 ], [ -77.474850990991129, 36.037774999778158 ], [ -77.517645990707379, 36.036774999749369 ], [ -77.518181990686685, 36.03801399975633 ], [ -77.522372991542994, 36.038809999914776 ], [ -77.526659991348936, 36.037573999462474 ], [ -77.526672991457204, 36.039200999682571 ], [ -77.529303991192364, 36.039421000101648 ], [ -77.528706990928654, 36.040711999568316 ], [ -77.527307991535395, 36.041238000278099 ], [ -77.524561991685971, 36.03999600017552 ], [ -77.523736991363421, 36.041331000237435 ], [ -77.524134991342081, 36.04412699997274 ], [ -77.522916990791956, 36.044257999813162 ], [ -77.522619991297375, 36.045092999867059 ], [ -77.523862991473024, 36.047092999457696 ], [ -77.525350991403712, 36.046631000124499 ], [ -77.525627991119094, 36.047817999965233 ], [ -77.526615991385995, 36.046506000024735 ], [ -77.52915899093243, 36.047379000268705 ], [ -77.529481991309595, 36.05049400022218 ], [ -77.531443990659938, 36.049724999736725 ], [ -77.533566990743367, 36.052438999570683 ], [ -77.533414991583101, 36.053166999964795 ], [ -77.531397991330138, 36.053303999865634 ], [ -77.532417990668435, 36.054271999975605 ], [ -77.532403991276539, 36.056134999561074 ], [ -77.534545991562425, 36.054557000108453 ], [ -77.535437991084905, 36.05481099977959 ], [ -77.540135990690615, 36.060827999622255 ], [ -77.538945991318911, 36.064799999606997 ], [ -77.538104991670764, 36.064967999985555 ], [ -77.537370991068357, 36.063662999543006 ], [ -77.536061991298709, 36.06330699988554 ], [ -77.529522991511044, 36.068856000244047 ], [ -77.528114990899965, 36.069382999486756 ], [ -77.52669499121599, 36.068442999536281 ], [ -77.525490990888613, 36.069101999849366 ], [ -77.526741990909329, 36.06974799992274 ], [ -77.52643899105658, 36.071024999915309 ], [ -77.527798991090521, 36.071916000173303 ], [ -77.528071991142852, 36.073426000296188 ] ] ] } },
{ "type": "Feature", "properties": { "county": "HALIFAX", "precinct": "LIT", "enr_desc": "Littleton", "winner": "Chris Kidd", "winner_votes": 163, "winner_share": 58.422939068100355, "runner_up": "Ronnie Reaves", "runner_up_votes": 116, "runner_up_share": 41.577060931899638, "contest_votes": 279, "margin_of_victory": 16.845878136200717, "is_tie": false, "results": [ { "candidate": "Chris Kidd", "votes": 163, "share": 58.422939068100355 }, { "candidate": "Ronnie Reaves", "votes": 116, "share": 41.57706093189964 } ], "participated": true, "map_key": "HALIFAX_LIT" }, "geometry": { "type": "Polygon", "coordinates": [ [ [ -77.757698991326919, 36.411709999760987 ], [ -77.759560990695178, 36.397607000147794 ], [ -77.76517099157077, 36.396232999557668 ], [ -77.775556990565804, 36.392793000030103 ], [ -77.796150991323714, 36.38904999970088 ], [ -77.809092990882348, 36.381944999609168 ], [ -77.822072991147309, 36.377762999884112 ], [ -77.827276991411239, 36.372851999614866 ], [ -77.834492990732912, 36.375459999503185 ], [ -77.835925991660886, 36.376847000340284 ], [ -77.835468990695304, 36.378872000332827 ], [ -77.836159991115693, 36.380039999793361 ], [ -77.845475991266298, 36.382643000017808 ], [ -77.848238991222885, 36.386018999843479 ], [ -77.853328990813594, 36.389786999899634 ], [ -77.864257991117, 36.385361999935562 ], [ -77.875910990904728, 36.382688000191429 ], [ -77.885257991311818, 36.379376999787063 ], [ -77.892775990753123, 36.381116999872333 ], [ -77.899622990914239, 36.38076699982112 ], [ -77.899906991128589, 36.381920000131259 ], [ -77.909692990708081, 36.380720999936436 ], [ -77.912027991248181, 36.382271999912078 ], [ -77.912063990911719, 36.42485900006956 ], [ -77.915636991413464, 36.427017000132111 ], [ -77.918253990984127, 36.429823999740272 ], [ -77.919640991528851, 36.432652000211171 ], [ -77.920039991442692, 36.436519999700451 ], [ -77.917150991202249, 36.440868999563584 ], [ -77.91179499138579, 36.442806999615001 ], [ -77.909244990746174, 36.47393699948995 ], [ -77.905637990904395, 36.490622000183649 ], [ -77.89881299139644, 36.506072000214417 ], [ -77.89385999109723, 36.511468999571242 ], [ -77.892354991359923, 36.512070999476798 ], [ -77.889049991255789, 36.510877999838854 ], [ -77.885513991241382, 36.508033000151634 ], [ -77.88489499121728, 36.506434000012128 ], [ -77.880908991379357, 36.506850000337344 ], [ -77.876035990990744, 36.506100999637447 ], [ -77.869389990942267, 36.503604000169965 ], [ -77.866051991088881, 36.503381000226234 ], [ -77.860334991505681, 36.50638699974872 ], [ -77.858292991295571, 36.506647999826306 ], [ -77.850939991382987, 36.504534000131478 ], [ -77.844526990807339, 36.503705999655857 ], [ -77.841466991502955, 36.502258000054802 ], [ -77.83421299081094, 36.501134000300063 ], [ -77.817098991153998, 36.500411000121758 ], [ -77.805201990607742, 36.497207999906429 ], [ -77.794404990970392, 36.49186599957914 ], [ -77.789132991453172, 36.491210000160763 ], [ -77.774025991314062, 36.481695999658136 ], [ -77.767913990661384, 36.480045000261796 ], [ -77.765808991624212, 36.482242999820969 ], [ -77.762611990831985, 36.482043999765928 ], [ -77.755071990694887, 36.479197000272194 ], [ -77.751089991075361, 36.478813000335414 ], [ -77.751462990694492, 36.47546300018724 ], [ -77.750493990771474, 36.472249000286773 ], [ -77.753880991638113, 36.468797999690231 ], [ -77.754647990649602, 36.464414000328489 ], [ -77.765138991651142, 36.463631000148382 ], [ -77.769024991598343, 36.464115999684942 ], [ -77.770090991402853, 36.465785000243244 ], [ -77.777308990587144, 36.460932999950778 ], [ -77.779009991625827, 36.45686000025875 ], [ -77.783230991070454, 36.453268000163689 ], [ -77.782678990655896, 36.45156699998315 ], [ -77.78354399136488, 36.448874999883209 ], [ -77.785951990856262, 36.44763999950446 ], [ -77.78467799066658, 36.445123000046529 ], [ -77.786305991328661, 36.43915399978718 ], [ -77.784532991132338, 36.4377609998268 ], [ -77.780704991259995, 36.437053999545022 ], [ -77.773640990983949, 36.432769999947965 ], [ -77.765742991300542, 36.426013000059164 ], [ -77.763643991089324, 36.423475999875428 ], [ -77.757698991326919, 36.411709999760987 ] ] ] } },
{ "type": "Feature", "properties": { "county": "HALIFAX", "precinct": "RR 10", "enr_desc": "Roanoke Rapids 10", "winner": "Chris Kidd", "winner_votes": 165, "winner_share": 63.46153846153846, "runner_up": "Ronnie Reaves", "runner_up_votes": 95, "runner_up_share": 36.538461538461533, "contest_votes": 260, "margin_of_victory": 26.923076923076927, "is_tie": false, "results": [ { "candidate": "Chris Kidd", "votes": 165, "share": 63.46153846153846 }, { "candidate": "Ronnie Reaves", "votes": 95, "share": 36.53846153846153 } ], "participated": true, "map_key": "HALIFAX_RR 10" }, "geometry": { "type": "Polygon", "coordinates": [ [ [ -77.63344099081084, 36.42006999964012 ], [ -77.638412991060804, 36.421758000127248 ], [ -77.639120990582981, 36.424044000129761 ], [ -77.64851899163402, 36.432306999615498 ], [ -77.649234990757904, 36.433870999536126 ], [ -77.644852991418617, 36.436703999893794 ], [ -77.642407990796841, 36.440987000146208 ], [ -77.64187199134291, 36.444156999528751 ], [ -77.64258599071303, 36.446476999510111 ], [ -77.650311990964127, 36.453851999576941 ], [ -77.648656990888995, 36.457202999852015 ], [ -77.643791990978912, 36.455619999866272 ], [ -77.642349991297237, 36.45659799955876 ], [ -77.642065991174221, 36.456014999749769 ], [ -77.636928991384494, 36.459079999769017 ], [ -77.639443991336293, 36.461380000200556 ], [ -77.634482991233313, 36.462084000211668 ], [ -77.632951991657052, 36.456544999581951 ], [ -77.631421990875737, 36.454596000242518 ], [ -77.630493991584615, 36.450112000075009 ], [ -77.625212990641231, 36.445188999489545 ], [ -77.628108990654795, 36.440669000260634 ], [ -77.630996990970033, 36.426574000201086 ], [ -77.63344099081084, 36.42006999964012 ] ] ] } },
{ "type": "Feature", "properties": { "county": "HALIFAX", "precinct": "RRCE", "enr_desc": "Roanoke Rapids Central", "winner": "Chris Kidd", "winner_votes": 112, "winner_share": 59.893048128342244, "runner_up": "Ronnie Reaves", "runner_up_votes": 75, "runner_up_share": 40.106951871657756, "contest_votes": 187, "margin_of_victory": 19.786096256684488, "is_tie": false, "results": [ { "candidate": "Chris Kidd", "votes": 112, "share": 59.893048128342244 }, { "candidate": "Ronnie Reaves", "votes": 75, "share": 40.106951871657756 } ], "participated": true, "map_key": "HALIFAX_RRCE" }, "geometry": { "type": "Polygon", "coordinates": [ [ [ -77.649234990757904, 36.433870999536126 ], [ -77.65463499132359, 36.434870999791329 ], [ -77.656334991518492, 36.43677500008063 ], [ -77.6587119912476, 36.436589000241746 ], [ -77.66043499074371, 36.439607999456669 ], [ -77.661692991454302, 36.44445199949881 ], [ -77.664133991006537, 36.447155999815173 ], [ -77.660770991396348, 36.449062000181229 ], [ -77.665531990975524, 36.452803999731351 ], [ -77.666062991198089, 36.452366000093228 ], [ -77.672386991484956, 36.458158999765558 ], [ -77.675930990763732, 36.460122000279178 ], [ -77.67747299098626, 36.460650000141037 ], [ -77.674686991224206, 36.466940999597426 ], [ -77.668261991587926, 36.466340000143376 ], [ -77.668510991228331, 36.46365399981044 ], [ -77.65431499089614, 36.459072999930683 ], [ -77.65346399122194, 36.460736000349115 ], [ -77.652328991239344, 36.460377999811946 ], [ -77.653188991069356, 36.458700000078586 ], [ -77.648656990888995, 36.457202999852015 ], [ -77.650311990964127, 36.453851999576941 ], [ -77.64258599071303, 36.446476999510111 ], [ -77.64187199134291, 36.444156999528751 ], [ -77.642407990796841, 36.440987000146208 ], [ -77.644852991418617, 36.436703999893794 ], [ -77.649234990757904, 36.433870999536126 ] ] ] } },
{ "type": "Feature", "properties": { "county": "HALIFAX", "precinct": "RINGW", "enr_desc": "Ringwood", "winner": "Chris Kidd", "winner_votes": 96, "winner_share": 70.588235294117652, "runner_up": "Ronnie Reaves", "runner_up_votes": 40, "runner_up_share": 29.411764705882355, "contest_votes": 136, "margin_of_victory": 41.176470588235297, "is_tie": false, "results": [ { "candidate": "Chris Kidd", "votes": 96, "share": 70.58823529411765 }, { "candidate": "Ronnie Reaves", "votes": 40, "share": 29.411764705882355 } ], "participated": true, "map_key": "HALIFAX_RINGW" }, "geometry": { "type": "Polygon", "coordinates": [ [ [ -77.89173899091935, 36.149847000305648 ], [ -77.882570991026398, 36.155403000062215 ], [ -77.888027990763419, 36.158906000365725 ], [ -77.889308991226244, 36.161669000280249 ], [ -77.889095991439248, 36.163081999635601 ], [ -77.887531991583131, 36.163492000343993 ], [ -77.885429990657244, 36.162076000239857 ], [ -77.882037990718672, 36.163430999820577 ], [ -77.885041990722513, 36.166412000180955 ], [ -77.889844991121365, 36.168579000087675 ], [ -77.890069991566008, 36.17106099982724 ], [ -77.891245991045949, 36.172690999566633 ], [ -77.887878991065534, 36.175098999593743 ], [ -77.886386990930404, 36.177289000092195 ], [ -77.878502991512917, 36.177502999703201 ], [ -77.877385990677283, 36.178235000133348 ], [ -77.877789991280196, 36.181435000263633 ], [ -77.876037991301047, 36.184394999787997 ], [ -77.875115990983275, 36.189082999843684 ], [ -77.872715991050725, 36.191072999613041 ], [ -77.872156991484118, 36.194316999490809 ], [ -77.869549990597079, 36.195858000139147 ], [ -77.870871991588686, 36.197883000354864 ], [ -77.871128990668069, 36.200846999787522 ], [ -77.866551991480506, 36.208492000136523 ], [ -77.868134991190729, 36.211251000080395 ], [ -77.863979991335484, 36.213599999710098 ], [ -77.86565699077228, 36.216348999771526 ], [ -77.869405991462131, 36.218768999849367 ], [ -77.870017991518665, 36.221829999756963 ], [ -77.873080990603, 36.224119000302181 ], [ -77.87517699119654, 36.224307999574698 ], [ -77.880470991477665, 36.220576000363607 ], [ -77.88503899125034, 36.22623100007737 ], [ -77.887642991475445, 36.225420999753332 ], [ -77.890174991670918, 36.225943999739272 ], [ -77.895764991041503, 36.229539999830386 ], [ -77.891534990840654, 36.229913999609742 ], [ -77.887896991464288, 36.228422000357888 ], [ -77.886192990917138, 36.229923999970595 ], [ -77.885926991660014, 36.232285999888617 ], [ -77.88670399086152, 36.233599999923662 ], [ -77.892466990708684, 36.237345999738885 ], [ -77.894336990825536, 36.237033000298133 ], [ -77.894769991407813, 36.238195000292812 ], [ -77.893181991142569, 36.241196999652509 ], [ -77.886094991070351, 36.241911999964735 ], [ -77.883844991397879, 36.244956999966647 ], [ -77.886242991622282, 36.250165999476138 ], [ -77.881761991662614, 36.257454000307206 ], [ -77.88366699164348, 36.257923999536331 ], [ -77.884343991341197, 36.260285999607511 ], [ -77.883017991184985, 36.264480000217354 ], [ -77.884637991316353, 36.266962999745132 ], [ -77.882167990958962, 36.2685550002113 ], [ -77.883718990868502, 36.27208599948861 ], [ -77.882007991299815, 36.275242999685787 ], [ -77.882629991123451, 36.276780999635946 ], [ -77.884337991424118, 36.277998000073751 ], [ -77.879092990620919, 36.279420000213094 ], [ -77.875965991412158, 36.281906000135855 ], [ -77.871471990938289, 36.283457000199839 ], [ -77.865629991318841, 36.283487999517973 ], [ -77.858638991036884, 36.279788999748767 ], [ -77.853844991161068, 36.276149000242349 ], [ -77.838289990790557, 36.272826999884934 ], [ -77.833304991216451, 36.270083999551943 ], [ -77.830432991565715, 36.270320999874649 ], [ -77.82332399116568, 36.273595000093827 ], [ -77.817365991638454, 36.274476999584756 ], [ -77.808307991405016, 36.274109 ], [ -77.802095991634118, 36.27531899957129 ], [ -77.797420990971673, 36.275364000086448 ], [ -77.786664991549728, 36.272467999615024 ], [ -77.78313999059408, 36.267220999954574 ], [ -77.781173990670538, 36.265797999477989 ], [ -77.778289991439593, 36.265923000243198 ], [ -77.77663799136208, 36.264600000195514 ], [ -77.77289399128037, 36.264460999579036 ], [ -77.770393990936853, 36.260956999778529 ], [ -77.768155991292431, 36.261389999680276 ], [ -77.762578990806929, 36.256103999870362 ], [ -77.759436991507627, 36.255258999474513 ], [ -77.762103990947608, 36.25282900033725 ], [ -77.763088991534829, 36.249193999604536 ], [ -77.768923991500742, 36.25069499979206 ], [ -77.779002990589731, 36.243850999927751 ], [ -77.787076990579806, 36.239790999752159 ], [ -77.800587990920931, 36.226394000219607 ], [ -77.808855991256607, 36.226347000111247 ], [ -77.809463990713752, 36.225452999908661 ], [ -77.808495991311304, 36.219087000152577 ], [ -77.809260990873113, 36.21567600022339 ], [ -77.808779991447281, 36.212639000162277 ], [ -77.806109991012988, 36.206339999475901 ], [ -77.806387990969313, 36.202012999871364 ], [ -77.804503991160971, 36.199447999656378 ], [ -77.804300990916914, 36.197256999702972 ], [ -77.802457991157084, 36.196164000195189 ], [ -77.799842991068402, 36.191846999826183 ], [ -77.800215990584576, 36.187365999764317 ], [ -77.794606991321231, 36.183834000237603 ], [ -77.79454699094083, 36.180364000289252 ], [ -77.788099991293393, 36.176057000112081 ], [ -77.784102991490087, 36.174936000288803 ], [ -77.78344699142275, 36.173853999845164 ], [ -77.780579991673321, 36.17438099992075 ], [ -77.779097991607699, 36.173557000029604 ], [ -77.778440991379952, 36.172078999846043 ], [ -77.779038991421928, 36.16998700032984 ], [ -77.776871991649188, 36.168338999802984 ], [ -77.776600990680876, 36.166570000337636 ], [ -77.773205991394192, 36.166869999510695 ], [ -77.773963991049712, 36.168153000218645 ], [ -77.772491990605076, 36.168642999897202 ], [ -77.768522991283575, 36.168746999723822 ], [ -77.761618991489286, 36.160758999489651 ], [ -77.761283990867042, 36.159282999834339 ], [ -77.760214991157113, 36.15947500013921 ], [ -77.760242990926614, 36.15818999957682 ], [ -77.755237990798264, 36.159010999751168 ], [ -77.752799990900058, 36.157231999937878 ], [ -77.753513990732429, 36.155925999646819 ], [ -77.753201991365017, 36.151982999550427 ], [ -77.754765991205119, 36.150517999629578 ], [ -77.757526990761448, 36.148780000180196 ], [ -77.764780991406056, 36.14788899990279 ], [ -77.769314990986246, 36.146176999807508 ], [ -77.772566990802574, 36.147026999739175 ], [ -77.7738489915521, 36.145925999966877 ], [ -77.77413799119013, 36.142528999545057 ], [ -77.778494990773353, 36.144029999979459 ], [ -77.783118991272062, 36.141388000168575 ], [ -77.787663991252813, 36.143760000270326 ], [ -77.792485991348784, 36.145138999897227 ], [ -77.796324990668609, 36.145408999737676 ], [ -77.799262991422381, 36.144476000063442 ], [ -77.801599991643158, 36.145771999828291 ], [ -77.802125990605347, 36.148563999854204 ], [ -77.804334991254365, 36.149730999899916 ], [ -77.805898991257251, 36.147090999560007 ], [ -77.805160991514839, 36.141615999653069 ], [ -77.807008991088381, 36.138792000201839 ], [ -77.808268991557213, 36.13820400033601 ], [ -77.815519991231653, 36.139999999794355 ], [ -77.817845991035412, 36.14121799992445 ], [ -77.819216990776624, 36.143559000262329 ], [ -77.821600991657888, 36.14472300003527 ], [ -77.824403991494549, 36.143996999527396 ], [ -77.829766990820744, 36.145742999936736 ], [ -77.83288799136966, 36.144319999615171 ], [ -77.841259991384561, 36.145583999734626 ], [ -77.847770991171018, 36.145035000134271 ], [ -77.852869991078265, 36.146649000360078 ], [ -77.856079991327974, 36.146037999969813 ], [ -77.861857991280175, 36.149100000315222 ], [ -77.865777991237152, 36.148532999689309 ], [ -77.868023990952338, 36.146455000199872 ], [ -77.869730991623655, 36.146405000230665 ], [ -77.871625991030697, 36.145223000267706 ], [ -77.875200991327077, 36.145482000258383 ], [ -77.877130991636662, 36.144571999604814 ], [ -77.878923991333124, 36.144720999857761 ], [ -77.878959990869333, 36.143145000170492 ], [ -77.882023991316004, 36.146847000240179 ], [ -77.884230991372945, 36.14729800017804 ], [ -77.885450991091162, 36.146381999575603 ], [ -77.886162990771808, 36.144212999848136 ], [ -77.887239991228782, 36.143839999499797 ], [ -77.88809899127979, 36.144137000356082 ], [ -77.89173899091935, 36.149847000305648 ] ] ] } },
{ "type": "Feature", "properties": { "county": "HALIFAX", "precinct": "RR 11", "enr_desc": "Roanoke Rapids 11", "winner": "Chris Kidd", "winner_votes": 128, "winner_share": 61.244019138755981, "runner_up": "Ronnie Reaves", "runner_up_votes": 81, "runner_up_share": 38.755980861244019, "contest_votes": 209, "margin_of_victory": 22.488038277511961, "is_tie": false, "results": [ { "candidate": "Chris Kidd", "votes": 128, "share": 61.24401913875598 }, { "candidate": "Ronnie Reaves", "votes": 81, "share": 38.75598086124402 } ], "participated": true, "map_key": "HALIFAX_RR 11" }, "geometry": { "type": "Polygon", "coordinates": [ [ [ -77.674686991224206, 36.466940999597426 ], [ -77.67747299098626, 36.460650000141037 ], [ -77.675930990763732, 36.460122000279178 ], [ -77.676924990857842, 36.457014000119123 ], [ -77.682245991291822, 36.45544700019709 ], [ -77.695292990821301, 36.462663000316226 ], [ -77.696580991470739, 36.458030999878353 ], [ -77.696426990621944, 36.446015000141422 ], [ -77.714249990716496, 36.446538000071236 ], [ -77.721371990822391, 36.449325999854857 ], [ -77.724244991559814, 36.449685999625927 ], [ -77.737754990747689, 36.446793000211031 ], [ -77.757938990689098, 36.444688999847351 ], [ -77.772492991350418, 36.449699000001296 ], [ -77.782678990655896, 36.45156699998315 ], [ -77.783230991070454, 36.453268000163689 ], [ -77.779009991625827, 36.45686000025875 ], [ -77.777308990587144, 36.460932999950778 ], [ -77.770090991402853, 36.465785000243244 ], [ -77.769024991598343, 36.464115999684942 ], [ -77.765138991651142, 36.463631000148382 ], [ -77.754647990649602, 36.464414000328489 ], [ -77.753880991638113, 36.468797999690231 ], [ -77.750493990771474, 36.472249000286773 ], [ -77.751462990694492, 36.47546300018724 ], [ -77.751089991075361, 36.478813000335414 ], [ -77.74379499143464, 36.479402000313399 ], [ -77.730716990556076, 36.486476000027181 ], [ -77.725466990588302, 36.48753600026928 ], [ -77.720776991544483, 36.486565999834099 ], [ -77.710043991024136, 36.487150000014068 ], [ -77.703747991454918, 36.484539999520166 ], [ -77.69043699109983, 36.480868999970916 ], [ -77.681139991657261, 36.479176999644721 ], [ -77.672370990555223, 36.479033000142685 ], [ -77.672470991108341, 36.477688999844375 ], [ -77.674652991321622, 36.476452999839388 ], [ -77.674567991286494, 36.475514999546157 ], [ -77.676890991462201, 36.475400999489494 ], [ -77.678549991020432, 36.473795000267003 ], [ -77.67660799093494, 36.472951999498804 ], [ -77.675909991350906, 36.469843999938533 ], [ -77.674208991026305, 36.469663000302759 ], [ -77.674686991224206, 36.466940999597426 ] ] ] } },
{ "type": "Feature", "properties": { "county": "HALIFAX", "precinct": "RR1-2", "enr_desc": "Roanoke Rapids 1-2", "winner": "Chris Kidd", "winner_votes": 54, "winner_share": 59.340659340659343, "runner_up": "Ronnie Reaves", "runner_up_votes": 37, "runner_up_share": 40.659340659340657, "contest_votes": 91, "margin_of_victory": 18.681318681318686, "is_tie": false, "results": [ { "candidate": "Chris Kidd", "votes": 54, "share": 59.34065934065934 }, { "candidate": "Ronnie Reaves", "votes": 37, "share": 40.65934065934066 } ], "participated": true, "map_key": "HALIFAX_RR1-2" }, "geometry": { "type": "Polygon", "coordinates": [ [ [ -77.670000991166489, 36.479787999930842 ], [ -77.661273990932528, 36.47920700020962 ], [ -77.649269991267857, 36.481484999702829 ], [ -77.644632991406056, 36.480552999888076 ], [ -77.639564991017778, 36.475010000034594 ], [ -77.634482991233313, 36.462084000211668 ], [ -77.639443991336293, 36.461380000200556 ], [ -77.642560991431367, 36.464238000003419 ], [ -77.644417991371625, 36.468273000204206 ], [ -77.645566991071476, 36.466005999996185 ], [ -77.64441399084636, 36.465599000101754 ], [ -77.64526699134224, 36.463916000156885 ], [ -77.658943990852805, 36.46839799999384 ], [ -77.65977799111181, 36.466727999546258 ], [ -77.660916991291728, 36.467086999625835 ], [ -77.660087990960974, 36.468770999960292 ], [ -77.663989991637521, 36.470038999982492 ], [ -77.664071990853259, 36.4707549994503 ], [ -77.666637991023322, 36.470925000109162 ], [ -77.666832991431633, 36.476270000346069 ], [ -77.670000991166489, 36.479787999930842 ] ] ] } },
{ "type": "Feature", "properties": { "county": "HALIFAX", "precinct": "RR3-4", "enr_desc": "Roanoke Rapids 3-4", "winner": "Chris Kidd", "winner_votes": 120, "winner_share": 66.666666666666657, "runner_up": "Ronnie Reaves", "runner_up_votes": 60, "runner_up_share": 33.333333333333329, "contest_votes": 180, "margin_of_victory": 33.333333333333329, "is_tie": false, "results": [ { "candidate": "Chris Kidd", "votes": 120, "share": 66.66666666666666 }, { "candidate": "Ronnie Reaves", "votes": 60, "share": 33.33333333333333 } ], "participated": true, "map_key": "HALIFAX_RR3-4" }, "geometry": { "type": "Polygon", "coordinates": [ [ [ -77.674686991224206, 36.466940999597426 ], [ -77.674208991026305, 36.469663000302759 ], [ -77.675909991350906, 36.469843999938533 ], [ -77.67660799093494, 36.472951999498804 ], [ -77.678549991020432, 36.473795000267003 ], [ -77.676890991462201, 36.475400999489494 ], [ -77.674567991286494, 36.475514999546157 ], [ -77.674652991321622, 36.476452999839388 ], [ -77.672470991108341, 36.477688999844375 ], [ -77.672370990555223, 36.479033000142685 ], [ -77.670000991166489, 36.479787999930842 ], [ -77.666832991431633, 36.476270000346069 ], [ -77.666637991023322, 36.470925000109162 ], [ -77.664071990853259, 36.4707549994503 ], [ -77.663989991637521, 36.470038999982492 ], [ -77.660087990960974, 36.468770999960292 ], [ -77.660916991291728, 36.467086999625835 ], [ -77.65977799111181, 36.466727999546258 ], [ -77.658943990852805, 36.46839799999384 ], [ -77.64526699134224, 36.463916000156885 ], [ -77.64441399084636, 36.465599000101754 ], [ -77.645566991071476, 36.466005999996185 ], [ -77.644417991371625, 36.468273000204206 ], [ -77.642560991431367, 36.464238000003419 ], [ -77.639443991336293, 36.461380000200556 ], [ -77.636928991384494, 36.459079999769017 ], [ -77.642065991174221, 36.456014999749769 ], [ -77.642349991297237, 36.45659799955876 ], [ -77.643791990978912, 36.455619999866272 ], [ -77.648656990888995, 36.457202999852015 ], [ -77.653188991069356, 36.458700000078586 ], [ -77.652328991239344, 36.460377999811946 ], [ -77.65346399122194, 36.460736000349115 ], [ -77.65431499089614, 36.459072999930683 ], [ -77.668510991228331, 36.46365399981044 ], [ -77.668261991587926, 36.466340000143376 ], [ -77.674686991224206, 36.466940999597426 ] ] ] } },
{ "type": "Feature", "properties": { "county": "HALIFAX", "precinct": "RR7-9", "enr_desc": "Roanoke Rapids 7-9", "winner": "Chris Kidd", "winner_votes": 189, "winner_share": 63.210702341137129, "runner_up": "Ronnie Reaves", "runner_up_votes": 110, "runner_up_share": 36.789297658862871, "contest_votes": 299, "margin_of_victory": 26.421404682274257, "is_tie": false, "results": [ { "candidate": "Chris Kidd", "votes": 189, "share": 63.21070234113713 }, { "candidate": "Ronnie Reaves", "votes": 110, "share": 36.78929765886287 } ], "participated": true, "map_key": "HALIFAX_RR7-9" }, "geometry": { "type": "Polygon", "coordinates": [ [ [ -77.649234990757904, 36.433870999536126 ], [ -77.666389990892185, 36.427101000129092 ], [ -77.672881991657704, 36.421748000128908 ], [ -77.688407990963441, 36.416539000354049 ], [ -77.705068990905815, 36.408275999786099 ], [ -77.717419991018062, 36.405374999838521 ], [ -77.716473991292773, 36.408105000137546 ], [ -77.716473990854055, 36.412726000300978 ], [ -77.716955991189778, 36.414142999693496 ], [ -77.718853990602312, 36.415310000002471 ], [ -77.718768991193045, 36.417803000140992 ], [ -77.724855991610568, 36.419742999822439 ], [ -77.727007991137313, 36.421480999794717 ], [ -77.728679990793964, 36.424249000319072 ], [ -77.73188599078253, 36.425158999854681 ], [ -77.736113990763243, 36.423258000081383 ], [ -77.74458599104554, 36.416640000019441 ], [ -77.752214991273291, 36.413623999978583 ], [ -77.7547859907435, 36.411813000305678 ], [ -77.755974990933566, 36.409282999817108 ], [ -77.757698991326919, 36.411709999760987 ], [ -77.763643991089324, 36.423475999875428 ], [ -77.765742991300542, 36.426013000059164 ], [ -77.773640990983949, 36.432769999947965 ], [ -77.780704991259995, 36.437053999545022 ], [ -77.784532991132338, 36.4377609998268 ], [ -77.786305991328661, 36.43915399978718 ], [ -77.78467799066658, 36.445123000046529 ], [ -77.785951990856262, 36.44763999950446 ], [ -77.78354399136488, 36.448874999883209 ], [ -77.782678990655896, 36.45156699998315 ], [ -77.772492991350418, 36.449699000001296 ], [ -77.757938990689098, 36.444688999847351 ], [ -77.737754990747689, 36.446793000211031 ], [ -77.724244991559814, 36.449685999625927 ], [ -77.721371990822391, 36.449325999854857 ], [ -77.714249990716496, 36.446538000071236 ], [ -77.696426990621944, 36.446015000141422 ], [ -77.696580991470739, 36.458030999878353 ], [ -77.695292990821301, 36.462663000316226 ], [ -77.682245991291822, 36.45544700019709 ], [ -77.676924990857842, 36.457014000119123 ], [ -77.675930990763732, 36.460122000279178 ], [ -77.672386991484956, 36.458158999765558 ], [ -77.666062991198089, 36.452366000093228 ], [ -77.665531990975524, 36.452803999731351 ], [ -77.660770991396348, 36.449062000181229 ], [ -77.664133991006537, 36.447155999815173 ], [ -77.661692991454302, 36.44445199949881 ], [ -77.66043499074371, 36.439607999456669 ], [ -77.6587119912476, 36.436589000241746 ], [ -77.656334991518492, 36.43677500008063 ], [ -77.65463499132359, 36.434870999791329 ], [ -77.649234990757904, 36.433870999536126 ] ] ] } },
{ "type": "Feature", "properties": { "county": "HALIFAX", "precinct": "SN", "enr_desc": "Scotland Neck", "winner": "Ronnie Reaves", "winner_votes": 79, "winner_share": 56.428571428571431, "runner_up": "Chris Kidd", "runner_up_votes": 61, "runner_up_share": 43.571428571428569, "contest_votes": 140, "margin_of_victory": 12.857142857142861, "is_tie": false, "results": [ { "candidate": "Ronnie Reaves", "votes": 79, "share": 56.42857142857143 }, { "candidate": "Chris Kidd", "votes": 61, "share": 43.57142857142857 } ], "participated": true, "map_key": "HALIFAX_SN" }, "geometry": { "type": "Polygon", "coordinates": [ [ [ -77.493863991065581, 36.138622000042524 ], [ -77.500484990718093, 36.140816000213803 ], [ -77.505431991117192, 36.145865999646688 ], [ -77.511073991239442, 36.154262000078838 ], [ -77.512081991663138, 36.157282999881531 ], [ -77.5160139915277, 36.161272000202644 ], [ -77.516254991352227, 36.164662999499249 ], [ -77.507436990909724, 36.167332999571116 ], [ -77.497515990834856, 36.172294000126868 ], [ -77.488199991205136, 36.175006999561631 ], [ -77.475967990865414, 36.184011999521509 ], [ -77.460388991281533, 36.18917200015057 ], [ -77.44412599151272, 36.199432999461294 ], [ -77.430348991442457, 36.205205999855366 ], [ -77.43327799164301, 36.206933999539146 ], [ -77.429320991189812, 36.210048999626395 ], [ -77.427364990796377, 36.210059000035578 ], [ -77.411401991530724, 36.202188000142804 ], [ -77.408493991487305, 36.205634999742649 ], [ -77.395957991036596, 36.204692999807996 ], [ -77.39019999147915, 36.210440999974026 ], [ -77.386423991503648, 36.21266399964874 ], [ -77.385974991510068, 36.211173999866112 ], [ -77.383277990887137, 36.208782999679876 ], [ -77.383610991110956, 36.208205999475432 ], [ -77.382492991601026, 36.208491999653951 ], [ -77.370671991266406, 36.202500999651512 ], [ -77.357869991213505, 36.1974589998336 ], [ -77.350970990699977, 36.191531999622001 ], [ -77.340131991272685, 36.189996999866473 ], [ -77.332282990936093, 36.192741999858235 ], [ -77.328882991258283, 36.192214999526641 ], [ -77.325728991364073, 36.186959000059581 ], [ -77.319385991407842, 36.181790000319253 ], [ -77.30904799062769, 36.180718999617774 ], [ -77.312681991171303, 36.176183999544925 ], [ -77.313361991308795, 36.173858000313963 ], [ -77.311958990589474, 36.170570000106011 ], [ -77.309028991093172, 36.16817899979187 ], [ -77.333228991608109, 36.147624000183548 ], [ -77.337472990638929, 36.147519999422357 ], [ -77.342858991527592, 36.144904999610389 ], [ -77.344841990598226, 36.142709999856059 ], [ -77.347446990847303, 36.13713799994931 ], [ -77.353939990928694, 36.133258999820853 ], [ -77.360566991374597, 36.131450999703866 ], [ -77.366787990841033, 36.12510499981213 ], [ -77.376731990770125, 36.119880999510343 ], [ -77.378622990987765, 36.119231999599883 ], [ -77.386412991327461, 36.11982200033578 ], [ -77.394421991639376, 36.117574000305318 ], [ -77.404924991291907, 36.119038000282615 ], [ -77.415136991137786, 36.118887999621137 ], [ -77.4234849915089, 36.11730299980271 ], [ -77.431750991420458, 36.113780999972747 ], [ -77.438840991007794, 36.109183000024693 ], [ -77.439333991411218, 36.110762999507067 ], [ -77.437749991302937, 36.11277899961167 ], [ -77.439225991043344, 36.114766999595695 ], [ -77.437898991137502, 36.116766999827313 ], [ -77.439551991617449, 36.120271000105994 ], [ -77.448413990623692, 36.122637000252347 ], [ -77.451354990744179, 36.127051999622026 ], [ -77.453270990857874, 36.127430999436669 ], [ -77.457571991518719, 36.130643000147863 ], [ -77.464808991445082, 36.132767999689754 ], [ -77.469825990682381, 36.131613000199657 ], [ -77.471919990649795, 36.132984999562552 ], [ -77.475406991654495, 36.133385000336133 ], [ -77.477181991064882, 36.135076000120641 ], [ -77.483444991176128, 36.134463999508682 ], [ -77.486996991583268, 36.136844999857722 ], [ -77.493863991065581, 36.138622000042524 ] ] ] } },
{ "type": "Feature", "properties": { "county": "HALIFAX", "precinct": "WEL 3", "enr_desc": "Weldon 3", "winner": "Ronnie Reaves", "winner_votes": 89, "winner_share": 52.976190476190474, "runner_up": "Chris Kidd", "runner_up_votes": 79, "runner_up_share": 47.023809523809526, "contest_votes": 168, "margin_of_victory": 5.952380952380949, "is_tie": false, "results": [ { "candidate": "Ronnie Reaves", "votes": 89, "share": 52.976190476190474 }, { "candidate": "Chris Kidd", "votes": 79, "share": 47.023809523809526 } ], "participated": true, "map_key": "HALIFAX_WEL 3" }, "geometry": { "type": "Polygon", "coordinates": [ [ [ -77.614376991057583, 36.379622000273777 ], [ -77.616681990575785, 36.369795000258925 ], [ -77.616531990924983, 36.364024999469414 ], [ -77.632155991131427, 36.358640999956435 ], [ -77.633767990665845, 36.360445999585657 ], [ -77.635144990769689, 36.359913999577969 ], [ -77.656632991523622, 36.362763999908779 ], [ -77.65897699099051, 36.363936999676717 ], [ -77.662448990994946, 36.368985000201121 ], [ -77.662300991474353, 36.370196000241968 ], [ -77.664809991060423, 36.370862000002404 ], [ -77.666053991095339, 36.369732000101521 ], [ -77.668044990772017, 36.3699790000706 ], [ -77.672405990990967, 36.372713999581094 ], [ -77.672907991110009, 36.375526000148398 ], [ -77.675623990757032, 36.378720000278882 ], [ -77.678906990712278, 36.378216999667409 ], [ -77.681000990749837, 36.378811999986368 ], [ -77.683263990679279, 36.380413999589926 ], [ -77.686348990657635, 36.384303999690104 ], [ -77.692575991410862, 36.38649200016377 ], [ -77.704142991330301, 36.393024999790143 ], [ -77.709159990562355, 36.39472399955352 ], [ -77.712983991522094, 36.39752600008795 ], [ -77.717419991018062, 36.405374999838521 ], [ -77.705068990905815, 36.408275999786099 ], [ -77.688407990963441, 36.416539000354049 ], [ -77.672881991657704, 36.421748000128908 ], [ -77.666389990892185, 36.427101000129092 ], [ -77.649234990757904, 36.433870999536126 ], [ -77.64851899163402, 36.432306999615498 ], [ -77.639120990582981, 36.424044000129761 ], [ -77.638412991060804, 36.421758000127248 ], [ -77.63344099081084, 36.42006999964012 ], [ -77.628444991362315, 36.416837999919522 ], [ -77.622148990953477, 36.415680999600426 ], [ -77.614839991302446, 36.416218000076 ], [ -77.613584991185988, 36.419097000321521 ], [ -77.610142990603833, 36.414369999821467 ], [ -77.606622990619798, 36.412696000039702 ], [ -77.614376991057583, 36.379622000273777 ] ] ] } },
{ "type": "Feature", "properties": { "county": "HALIFAX", "precinct": "WEL1-2", "enr_desc": "Weldon 1-2", "winner": "Ronnie Reaves", "winner_votes": 59, "winner_share": 50.862068965517238, "runner_up": "Chris Kidd", "runner_up_votes": 57, "runner_up_share": 49.137931034482754, "contest_votes": 116, "margin_of_victory": 1.724137931034484, "is_tie": false, "results": [ { "candidate": "Ronnie Reaves", "votes": 59, "share": 50.86206896551724 }, { "candidate": "Chris Kidd", "votes": 57, "share": 49.137931034482754 } ], "participated": true, "map_key": "HALIFAX_WEL1-2" }, "geometry": { "type": "Polygon", "coordinates": [ [ [ -77.614376991057583, 36.379622000273777 ], [ -77.606622990619798, 36.412696000039702 ], [ -77.610142990603833, 36.414369999821467 ], [ -77.613584991185988, 36.419097000321521 ], [ -77.614839991302446, 36.416218000076 ], [ -77.622148990953477, 36.415680999600426 ], [ -77.628444991362315, 36.416837999919522 ], [ -77.63344099081084, 36.42006999964012 ], [ -77.630996990970033, 36.426574000201086 ], [ -77.628108990654795, 36.440669000260634 ], [ -77.625212990641231, 36.445188999489545 ], [ -77.621596990593574, 36.443204000278492 ], [ -77.616270990943292, 36.444105999874758 ], [ -77.613863990574373, 36.442072999962456 ], [ -77.612986991011141, 36.439118999771964 ], [ -77.609631991622052, 36.436745999746606 ], [ -77.597038991451782, 36.434226999788898 ], [ -77.592283991132092, 36.431616999731943 ], [ -77.590804990811819, 36.429649000064096 ], [ -77.590294991297398, 36.424538000136081 ], [ -77.587715991149508, 36.422409000047622 ], [ -77.585595991130631, 36.42201300019439 ], [ -77.580911991118398, 36.424125000212001 ], [ -77.573117990631346, 36.423052999524067 ], [ -77.556508990848627, 36.418390999495848 ], [ -77.552832991181745, 36.416455999679393 ], [ -77.549393990721114, 36.411824999773714 ], [ -77.54460899116134, 36.394900999608417 ], [ -77.546126991410432, 36.382074999938929 ], [ -77.606876991457455, 36.38026399952934 ], [ -77.612560991080159, 36.38086699950739 ], [ -77.614376991057583, 36.379622000273777 ] ] ] } }
]
}
