{
"type": "FeatureCollection",
"name": "jackson_county_board_of_commissioners_district_01_dem",
"crs": { "type": "name", "properties": { "name": "urn:ogc:def:crs:OGC:1.3:CRS84" } },
"features": [
{ "type": "Feature", "properties": { "county": "JACKSON", "precinct": "BCK", "enr_desc": "Barkers Creek", "winner": "Julie Extine Painter", "winner_votes": 63, "winner_share": 38.888888888888893, "runner_up": "Casey Walawender", "runner_up_votes": 56, "runner_up_share": 34.567901234567898, "contest_votes": 162, "margin_of_victory": 4.3209876543209944, "is_tie": false, "results": [ { "candidate": "Julie Extine Painter", "votes": 63, "share": 38.88888888888889 }, { "candidate": "Casey Walawender", "votes": 56, "share": 34.5679012345679 }, { "candidate": "John A. Herrera", "votes": 34, "share": 20.98765432098765 }, { "candidate": "German (Worm) Vivas", "votes": 9, "share": 5.555555555555555 } ], "participated": true, "map_key": "JACKSON_BCK" }, "geometry": { "type": "Polygon", "coordinates": [ [ [ -83.335900991733951, 35.343268000493588 ], [ -83.336716991445869, 35.344472000498321 ], [ -83.336510991576318, 35.346484000223384 ], [ -83.333553990933439, 35.34932600022001 ], [ -83.331507990842965, 35.354262000021194 ], [ -83.335145991550519, 35.359842000142898 ], [ -83.334562991308246, 35.360584000637317 ], [ -83.335570990935352, 35.363155000521338 ], [ -83.334690991560549, 35.365846000272462 ], [ -83.335389990675523, 35.367214000020162 ], [ -83.334702990799954, 35.368916000008682 ], [ -83.337011991349044, 35.37107300009994 ], [ -83.336850991002009, 35.373205000297688 ], [ -83.338526991388434, 35.37611500024412 ], [ -83.337407991642067, 35.382075000383267 ], [ -83.340632991352777, 35.384664000257779 ], [ -83.342746991127115, 35.38759299989686 ], [ -83.345853991567679, 35.389337999919704 ], [ -83.342851991275595, 35.394212000155484 ], [ -83.340016991451179, 35.395474999980323 ], [ -83.341142991613779, 35.397377999966778 ], [ -83.343579991491737, 35.397396000186127 ], [ -83.345383991419396, 35.399744000480233 ], [ -83.349144991451297, 35.401222000061125 ], [ -83.34825199171847, 35.406127000188356 ], [ -83.339789990849056, 35.402597000527251 ], [ -83.339857991331172, 35.40122700063764 ], [ -83.332112991407271, 35.401708999921546 ], [ -83.328634990825293, 35.404541999898044 ], [ -83.329439990764143, 35.405984000572502 ], [ -83.328893990943186, 35.40600900057666 ], [ -83.324025991033494, 35.40380700025586 ], [ -83.321252990699378, 35.404048000206615 ], [ -83.319153991316128, 35.403295000662723 ], [ -83.313532991342342, 35.404307000439033 ], [ -83.304790990956448, 35.402718000027974 ], [ -83.292110991014724, 35.414461000050544 ], [ -83.289435991517905, 35.415063000289301 ], [ -83.284888990792993, 35.41770700066661 ], [ -83.270774991301707, 35.422068000646277 ], [ -83.268923990961028, 35.426324000186099 ], [ -83.264213990716016, 35.427710000682552 ], [ -83.263674991226381, 35.430542999938538 ], [ -83.264247990775218, 35.433369000108662 ], [ -83.260147991051582, 35.435304000191152 ], [ -83.258685990768157, 35.437197000501477 ], [ -83.254710991460115, 35.439518999875965 ], [ -83.253046991676086, 35.439516000143733 ], [ -83.250592991608215, 35.443714000211038 ], [ -83.24155599142324, 35.439804999938772 ], [ -83.239222991185088, 35.439879000532756 ], [ -83.237774990712992, 35.438536000568845 ], [ -83.23452199132899, 35.440414000732247 ], [ -83.228151991286339, 35.44030799996051 ], [ -83.224509991292777, 35.443243000243186 ], [ -83.217297991294444, 35.444954000423877 ], [ -83.214763991731616, 35.443255000210215 ], [ -83.212641991006279, 35.439933000153815 ], [ -83.207347991501862, 35.436430000226004 ], [ -83.214938991320651, 35.431243000058458 ], [ -83.218511991052651, 35.424668000390163 ], [ -83.221793990933449, 35.422828000184623 ], [ -83.221859991592453, 35.417964000721675 ], [ -83.225560991694365, 35.409892000087908 ], [ -83.228523990919157, 35.406155000524627 ], [ -83.233194990980138, 35.403167000387754 ], [ -83.234703990813188, 35.401313000029276 ], [ -83.239207990988717, 35.399091000216863 ], [ -83.24064499130057, 35.399304000547453 ], [ -83.248461991593032, 35.397122999907964 ], [ -83.256533991392672, 35.393670999979292 ], [ -83.261137991581663, 35.39353300012376 ], [ -83.261140991161994, 35.391341000087181 ], [ -83.26225999159648, 35.390652000194613 ], [ -83.271359990817842, 35.389053999971331 ], [ -83.272426990962302, 35.388193000562566 ], [ -83.272462990833844, 35.386989000387658 ], [ -83.275455990833066, 35.385446000374273 ], [ -83.275379990768471, 35.384005000733218 ], [ -83.271340991343891, 35.38157599993567 ], [ -83.271104991194463, 35.380230999903766 ], [ -83.272069990955629, 35.378789000593279 ], [ -83.271463990988337, 35.378076000403858 ], [ -83.272306991287778, 35.377983000130016 ], [ -83.27366099151287, 35.374675000329958 ], [ -83.277143990723189, 35.371092000530318 ], [ -83.279642991715249, 35.370392000636485 ], [ -83.279692990916146, 35.36842599994192 ], [ -83.283913990738881, 35.366549999997794 ], [ -83.287543991237769, 35.363556000270272 ], [ -83.288596991275597, 35.359750000311735 ], [ -83.287498991483162, 35.359127000626678 ], [ -83.28709199140043, 35.357064000640882 ], [ -83.288259991133472, 35.355717999862982 ], [ -83.288235991104628, 35.354202000167959 ], [ -83.290608991140488, 35.350114999956496 ], [ -83.294874991321421, 35.346827000654031 ], [ -83.301895991023486, 35.345862000143178 ], [ -83.304372990864863, 35.34445300069887 ], [ -83.310126991169128, 35.343077000507016 ], [ -83.317933991101469, 35.343082000636294 ], [ -83.322458991347574, 35.340655000417783 ], [ -83.329080991508462, 35.341615000376493 ], [ -83.331287991778808, 35.342896000517833 ], [ -83.335900991733951, 35.343268000493588 ] ] ] } },
{ "type": "Feature", "properties": { "county": "JACKSON", "precinct": "CAN", "enr_desc": "Canada", "winner": "Julie Extine Painter", "winner_votes": 14, "winner_share": 46.666666666666664, "runner_up": "John A. Herrera", "runner_up_votes": 9, "runner_up_share": 30.0, "contest_votes": 30, "margin_of_victory": 16.666666666666664, "is_tie": false, "results": [ { "candidate": "Julie Extine Painter", "votes": 14, "share": 46.666666666666664 }, { "candidate": "John A. Herrera", "votes": 9, "share": 30.0 }, { "candidate": "Casey Walawender", "votes": 6, "share": 20.0 }, { "candidate": "German (Worm) Vivas", "votes": 1, "share": 3.3333333333333335 } ], "participated": true, "map_key": "JACKSON_CAN" }, "geometry": { "type": "Polygon", "coordinates": [ [ [ -83.076188991351657, 35.227471000649501 ], [ -83.069554991469886, 35.23164100003968 ], [ -83.066799991414555, 35.237449000359405 ], [ -83.062813990716407, 35.24101700014014 ], [ -83.064835990907326, 35.245554000191369 ], [ -83.066343991461338, 35.244084999979918 ], [ -83.066969991533213, 35.244438000271089 ], [ -83.065364991078795, 35.246653000170156 ], [ -83.067299991348222, 35.250057000423951 ], [ -83.066499991401358, 35.249980000366349 ], [ -83.065384991227646, 35.251620000571052 ], [ -83.065402990928476, 35.254718000524861 ], [ -83.06221899180143, 35.259483000595701 ], [ -83.060850991623198, 35.263386999972681 ], [ -83.060015990772328, 35.271267999941792 ], [ -83.061758990962545, 35.275941000041541 ], [ -83.050754991610589, 35.279922000490828 ], [ -83.036953991002775, 35.283216000602216 ], [ -83.033675990824719, 35.286615000208045 ], [ -83.028234991134468, 35.289911000147043 ], [ -83.021385991773258, 35.29272500068754 ], [ -83.016599991625327, 35.29231100067981 ], [ -83.008945991592995, 35.295929000382323 ], [ -83.004597990808108, 35.296769000371683 ], [ -82.999856990985023, 35.296410000020444 ], [ -82.999288990735735, 35.295782000144889 ], [ -82.997405991034995, 35.296261000682179 ], [ -82.988165991494796, 35.30224600000345 ], [ -82.969868991693176, 35.309362000179682 ], [ -82.964724990830433, 35.315289000042796 ], [ -82.955184991078497, 35.3163860006023 ], [ -82.954539990830199, 35.31384600033433 ], [ -82.951070991274548, 35.312035000002453 ], [ -82.951201991326201, 35.307971000462601 ], [ -82.950406991657914, 35.306591999982743 ], [ -82.939851991597649, 35.305612999866554 ], [ -82.935439991580438, 35.303884000209862 ], [ -82.932601991298739, 35.305132000632604 ], [ -82.930705991297259, 35.303032999972416 ], [ -82.9274169911683, 35.302924000629019 ], [ -82.924655991721593, 35.296999000255617 ], [ -82.92088099168312, 35.292036999970144 ], [ -82.92123399068042, 35.285616000031396 ], [ -82.922230990943717, 35.283201000553561 ], [ -82.919975991351905, 35.276009999834841 ], [ -82.921258991480002, 35.2729389999866 ], [ -82.919184991522101, 35.270800999848355 ], [ -82.920073991361875, 35.266016000228532 ], [ -82.922243991244855, 35.26316099986677 ], [ -82.921941990735831, 35.261650999853224 ], [ -82.92529799088517, 35.253447000205441 ], [ -82.925637991590861, 35.248271000157565 ], [ -82.924784991769357, 35.245589999992994 ], [ -82.928452991470863, 35.241442000095262 ], [ -82.927289991715341, 35.239646999919898 ], [ -82.927233991638872, 35.237303000413604 ], [ -82.928639991175515, 35.234565000273783 ], [ -82.931316990925296, 35.232672000558686 ], [ -82.932029991214819, 35.228914000109548 ], [ -82.934460991452738, 35.227171999893663 ], [ -82.93560199127306, 35.224974000339067 ], [ -82.946015990700943, 35.22279300000411 ], [ -82.954364990741141, 35.217519000534672 ], [ -82.959628991089687, 35.215515000413014 ], [ -82.959794990889307, 35.212201000690023 ], [ -82.960825991175696, 35.209898000287438 ], [ -82.95999099157433, 35.208242000324439 ], [ -82.960210990844686, 35.205458000565557 ], [ -82.963236991156208, 35.201207000017 ], [ -82.967891991198883, 35.199297000554431 ], [ -82.96916799085021, 35.194077999938216 ], [ -82.97189999112166, 35.19244700021838 ], [ -82.977857991709087, 35.191692000164117 ], [ -82.984285991506624, 35.189025999968294 ], [ -82.987161991616716, 35.187482000281641 ], [ -82.988676991083551, 35.185124000664281 ], [ -82.988424991180224, 35.182961000338601 ], [ -82.986223991218338, 35.182149000289634 ], [ -82.985367990731788, 35.180100999962931 ], [ -82.986035990770517, 35.177197000554465 ], [ -82.988055991016481, 35.175566000029853 ], [ -82.988490991737521, 35.174189000249449 ], [ -82.985252990820882, 35.171278000225676 ], [ -82.981822991085053, 35.169874000240853 ], [ -82.981148991540309, 35.167799999959669 ], [ -82.996626990815017, 35.163578000109325 ], [ -82.995889991360585, 35.161372000282768 ], [ -82.997645991551977, 35.158458000029917 ], [ -82.994808991330245, 35.153521000681472 ], [ -82.992721990817188, 35.153021000506342 ], [ -82.989062991775981, 35.148440000599706 ], [ -82.98652899076248, 35.148601000281488 ], [ -82.984750990826029, 35.150236999942003 ], [ -82.980075991539479, 35.147261000210648 ], [ -82.979994991015275, 35.14582400054384 ], [ -82.981514991448293, 35.143613000095229 ], [ -82.978463991240446, 35.140793000386665 ], [ -82.979536991719755, 35.138914000691237 ], [ -82.977684991247003, 35.137361000171602 ], [ -82.976373991444902, 35.133629000707735 ], [ -82.978953991717461, 35.130307999890853 ], [ -82.983261991498239, 35.131874000097937 ], [ -82.988060991034246, 35.132054000290665 ], [ -82.991049991505477, 35.135225999996116 ], [ -82.997661990766588, 35.138106000308269 ], [ -82.999815990838385, 35.137203999900457 ], [ -83.011367991583398, 35.137604000608093 ], [ -83.015926991320143, 35.140846000105846 ], [ -83.016261991651533, 35.143745000681669 ], [ -83.018927991675568, 35.143176000034728 ], [ -83.019797991499516, 35.144790000363336 ], [ -83.023654991399084, 35.144475000678952 ], [ -83.023764990942396, 35.146322000152104 ], [ -83.025087990738854, 35.147222000630833 ], [ -83.030542990883333, 35.146457000219868 ], [ -83.035171991773652, 35.149114000084374 ], [ -83.038739990799783, 35.148239000518444 ], [ -83.042009991003226, 35.151599000550398 ], [ -83.046459991754887, 35.152377000268167 ], [ -83.048169991038407, 35.15388700034805 ], [ -83.050684990942528, 35.154459000340083 ], [ -83.050206991184169, 35.155480000025726 ], [ -83.050288991520148, 35.157554000502913 ], [ -83.051217991543083, 35.158214000259562 ], [ -83.050880991228013, 35.161242000035486 ], [ -83.055087991703886, 35.163406000472904 ], [ -83.055894991689783, 35.163228000165169 ], [ -83.056411991467257, 35.16174599985289 ], [ -83.05846899157531, 35.163395000575477 ], [ -83.055968991117112, 35.16816400026687 ], [ -83.05030999141114, 35.17164900069772 ], [ -83.049636990831729, 35.173265999945592 ], [ -83.059305991008372, 35.174789000191964 ], [ -83.0660519916309, 35.178470000687248 ], [ -83.066849990762847, 35.179316000009685 ], [ -83.066882991056204, 35.181133000233089 ], [ -83.0654199910622, 35.182634000713712 ], [ -83.065404991565359, 35.184416000006806 ], [ -83.063598991794294, 35.185782000325972 ], [ -83.061965990987346, 35.188630000731017 ], [ -83.05812799092979, 35.189968000386941 ], [ -83.05781399136805, 35.195285999857226 ], [ -83.054602990784005, 35.196436000436861 ], [ -83.05422099104419, 35.198964000215369 ], [ -83.055491991665349, 35.200234000645956 ], [ -83.05158999074871, 35.199989000590776 ], [ -83.050733991052894, 35.203647999976468 ], [ -83.046792990966807, 35.206611000065614 ], [ -83.045984991382937, 35.209277000676074 ], [ -83.049732991505877, 35.217102000448712 ], [ -83.049502991530417, 35.218730000132531 ], [ -83.076188991351657, 35.227471000649501 ] ] ] } },
{ "type": "Feature", "properties": { "county": "JACKSON", "precinct": "CAS", "enr_desc": "Cashiers", "winner": "Casey Walawender", "winner_votes": 82, "winner_share": 48.80952380952381, "runner_up": "Julie Extine Painter", "runner_up_votes": 56, "runner_up_share": 33.333333333333329, "contest_votes": 168, "margin_of_victory": 15.476190476190482, "is_tie": false, "results": [ { "candidate": "Casey Walawender", "votes": 82, "share": 48.80952380952381 }, { "candidate": "Julie Extine Painter", "votes": 56, "share": 33.33333333333333 }, { "candidate": "John A. Herrera", "votes": 25, "share": 14.880952380952381 }, { "candidate": "German (Worm) Vivas", "votes": 5, "share": 2.976190476190476 } ], "participated": true, "map_key": "JACKSON_CAS" }, "geometry": { "type": "Polygon", "coordinates": [ [ [ -83.152471991487161, 35.09903000071693 ], [ -83.15034799157084, 35.104181000160047 ], [ -83.15065699137908, 35.106512000372128 ], [ -83.14408899117862, 35.113655000669723 ], [ -83.145442990889705, 35.115628000530933 ], [ -83.143401991243451, 35.116306000234751 ], [ -83.135455991591996, 35.115279000306515 ], [ -83.134948991313024, 35.113014000118632 ], [ -83.128567991345491, 35.112805000500401 ], [ -83.12677399150094, 35.11399300010482 ], [ -83.124493991696752, 35.114202999869661 ], [ -83.124617990806357, 35.113377000559957 ], [ -83.122036990814436, 35.112049999869932 ], [ -83.118968991739123, 35.114046000684752 ], [ -83.118321990769161, 35.120445000373898 ], [ -83.114300991447166, 35.120580000236735 ], [ -83.111028991411175, 35.121926000517064 ], [ -83.117107991290553, 35.123207000490126 ], [ -83.118920990988599, 35.125998000714063 ], [ -83.11102499085149, 35.125931000659122 ], [ -83.111937991500668, 35.12669000021463 ], [ -83.11046099119396, 35.12669700062601 ], [ -83.108417991361733, 35.128913000427545 ], [ -83.107071991039362, 35.130945000445159 ], [ -83.107823990945278, 35.131632000526785 ], [ -83.106681990777389, 35.132914000624638 ], [ -83.101741990860205, 35.13266300050681 ], [ -83.099989991471986, 35.134307999984664 ], [ -83.096807991397199, 35.135148000407277 ], [ -83.09482399139597, 35.137990000677696 ], [ -83.09664799112187, 35.143461000075483 ], [ -83.092576991671578, 35.143311000451689 ], [ -83.092445991335182, 35.146384000314548 ], [ -83.08761499081649, 35.146237000724604 ], [ -83.086700991282086, 35.144971000455442 ], [ -83.087057991201235, 35.144210000134414 ], [ -83.090266991562928, 35.143891000020361 ], [ -83.089878991004383, 35.141128999981696 ], [ -83.090440991406425, 35.140168000466979 ], [ -83.085709991514918, 35.140225000692894 ], [ -83.083877991091526, 35.141533000746257 ], [ -83.085121991400911, 35.142983000407213 ], [ -83.084987991382917, 35.145415000245158 ], [ -83.083258991430625, 35.143285000434005 ], [ -83.082323991452014, 35.144339000467653 ], [ -83.080704991208563, 35.143527000139187 ], [ -83.081100991232177, 35.145006000401025 ], [ -83.080433991175042, 35.145915000546722 ], [ -83.077766990889856, 35.146328000615902 ], [ -83.075589990978372, 35.144745999935338 ], [ -83.073348990988706, 35.14723700065727 ], [ -83.070257991612607, 35.148196000374675 ], [ -83.0699009907717, 35.150828000486214 ], [ -83.066749991595927, 35.152947000707265 ], [ -83.068687991482079, 35.154910000654937 ], [ -83.065951990892515, 35.158238000757379 ], [ -83.066101991395044, 35.157110000256154 ], [ -83.063769991247938, 35.157933000487617 ], [ -83.0638649908866, 35.15689800068693 ], [ -83.063081991163727, 35.156360999982191 ], [ -83.060340991631548, 35.157041000626819 ], [ -83.059711991358427, 35.155509000726504 ], [ -83.063106991652532, 35.154228000342634 ], [ -83.060769990936421, 35.154299000634317 ], [ -83.059807990909349, 35.151870000269284 ], [ -83.053351991435719, 35.1496470007299 ], [ -83.050252991288957, 35.149211999888458 ], [ -83.048362991743289, 35.152758000523868 ], [ -83.05030599086011, 35.152989000446325 ], [ -83.050684990942528, 35.154459000340083 ], [ -83.048169991038407, 35.15388700034805 ], [ -83.046459991754887, 35.152377000268167 ], [ -83.042009991003226, 35.151599000550398 ], [ -83.038739990799783, 35.148239000518444 ], [ -83.035171991773652, 35.149114000084374 ], [ -83.030542990883333, 35.146457000219868 ], [ -83.025087990738854, 35.147222000630833 ], [ -83.023764990942396, 35.146322000152104 ], [ -83.023654991399084, 35.144475000678952 ], [ -83.019797991499516, 35.144790000363336 ], [ -83.018927991675568, 35.143176000034728 ], [ -83.016261991651533, 35.143745000681669 ], [ -83.015926991320143, 35.140846000105846 ], [ -83.011367991583398, 35.137604000608093 ], [ -82.999815990838385, 35.137203999900457 ], [ -82.997661990766588, 35.138106000308269 ], [ -82.991049991505477, 35.135225999996116 ], [ -82.988060991034246, 35.132054000290665 ], [ -82.983261991498239, 35.131874000097937 ], [ -83.021031990734812, 35.095635000076321 ], [ -83.035951991709595, 35.083027000690244 ], [ -83.037430991415974, 35.079698000206996 ], [ -83.041855991095517, 35.079299000516492 ], [ -83.044713990771399, 35.077487000122403 ], [ -83.045029990858907, 35.073890000402336 ], [ -83.043411991349103, 35.071534000622762 ], [ -83.048609991288359, 35.064597000258779 ], [ -83.048700991127546, 35.060982000597697 ], [ -83.05023999104543, 35.059654000719071 ], [ -83.052175990958247, 35.055914000142039 ], [ -83.056933991782216, 35.053863999963575 ], [ -83.05489299142009, 35.053916999855701 ], [ -83.04734199108465, 35.050476999868955 ], [ -83.043754991013799, 35.051455000091771 ], [ -83.039017991108352, 35.047917000116563 ], [ -83.038971991640594, 35.046599000152057 ], [ -83.037690991215001, 35.045372000555993 ], [ -83.037994990865514, 35.042218000329825 ], [ -83.035994991316755, 35.041830000383776 ], [ -83.034959991257907, 35.040542000254163 ], [ -83.033441991094946, 35.040709000534122 ], [ -83.032601991672777, 35.03780300012199 ], [ -83.028584991366017, 35.03989100034218 ], [ -83.021191991656693, 35.037272000508793 ], [ -83.018109991200262, 35.037093000703152 ], [ -83.016849991362761, 35.035116000559164 ], [ -83.014503991430843, 35.034432000610856 ], [ -83.008530990999958, 35.027394000092116 ], [ -83.108567991183449, 35.001354000713128 ], [ -83.109664990917608, 35.002927000670859 ], [ -83.108396991022587, 35.004473000451057 ], [ -83.108568991674886, 35.009560000565031 ], [ -83.111641991383436, 35.010921999927305 ], [ -83.112625991386324, 35.01321900069663 ], [ -83.114571991658195, 35.013367000424509 ], [ -83.117286991716142, 35.011695000485226 ], [ -83.119663991017816, 35.013448000065154 ], [ -83.126345991247916, 35.015796000635234 ], [ -83.125680991759424, 35.018433000324279 ], [ -83.126866990797382, 35.02061799991683 ], [ -83.12621499168263, 35.022813000666808 ], [ -83.130166990771315, 35.026367000575441 ], [ -83.131191991105453, 35.029462000204475 ], [ -83.130933990915167, 35.031425000748477 ], [ -83.132816991593373, 35.033959000102058 ], [ -83.130876991384682, 35.036799000609747 ], [ -83.131121991440097, 35.039260999975141 ], [ -83.136190990773088, 35.038527000131147 ], [ -83.139572990786476, 35.041893000247228 ], [ -83.139951991180524, 35.044494000690534 ], [ -83.141892990954389, 35.045443999878934 ], [ -83.148473991031096, 35.053882000086304 ], [ -83.155260991259681, 35.05646299990611 ], [ -83.163886991593472, 35.05665800013891 ], [ -83.171274991733853, 35.060634000536908 ], [ -83.169423991723505, 35.061540000101616 ], [ -83.169426991747429, 35.063757999846771 ], [ -83.171813991156469, 35.065490000607795 ], [ -83.172152991393276, 35.069007000360493 ], [ -83.16693699172265, 35.070192000309099 ], [ -83.15811299091979, 35.075041000446809 ], [ -83.158257991776921, 35.077553000258028 ], [ -83.157576991443179, 35.078354000403074 ], [ -83.1553669916795, 35.077808000215953 ], [ -83.148756991537638, 35.07861499987736 ], [ -83.143256991132063, 35.077927000294004 ], [ -83.144981991343215, 35.085083000677336 ], [ -83.146471991755973, 35.085992000241831 ], [ -83.147562991340635, 35.088688000620031 ], [ -83.147073991802344, 35.092508000474965 ], [ -83.149474990797984, 35.09545299999607 ], [ -83.151074991553102, 35.096044000249925 ], [ -83.150893991751445, 35.097628000043166 ], [ -83.152471991487161, 35.09903000071693 ] ] ] } },
{ "type": "Feature", "properties": { "county": "JACKSON", "precinct": "CFK", "enr_desc": "Caney Fork", "winner": "Casey Walawender", "winner_votes": 52, "winner_share": 56.521739130434781, "runner_up": "Julie Extine Painter", "runner_up_votes": 21, "runner_up_share": 22.826086956521738, "contest_votes": 92, "margin_of_victory": 33.695652173913047, "is_tie": false, "results": [ { "candidate": "Casey Walawender", "votes": 52, "share": 56.52173913043478 }, { "candidate": "Julie Extine Painter", "votes": 21, "share": 22.82608695652174 }, { "candidate": "John A. Herrera", "votes": 16, "share": 17.391304347826086 }, { "candidate": "German (Worm) Vivas", "votes": 3, "share": 3.260869565217391 } ], "participated": true, "map_key": "JACKSON_CFK" }, "geometry": { "type": "Polygon", "coordinates": [ [ [ -83.061758990962545, 35.275941000041541 ], [ -83.070426990706636, 35.275636000297347 ], [ -83.083284991783501, 35.276537000226377 ], [ -83.095595990902083, 35.273676000580409 ], [ -83.095648991207355, 35.274519000386896 ], [ -83.098456991429401, 35.275369999936146 ], [ -83.100114990823684, 35.277107999961856 ], [ -83.099432991727852, 35.281252000380732 ], [ -83.101628991251019, 35.280787000229935 ], [ -83.104353991065906, 35.28198000019124 ], [ -83.108908991150429, 35.281375000147094 ], [ -83.114259990790231, 35.282575000492088 ], [ -83.117127991755993, 35.286591000428857 ], [ -83.119831991761956, 35.288138000476387 ], [ -83.121452991317355, 35.291520999988592 ], [ -83.125523991368098, 35.29372799999225 ], [ -83.131104991464099, 35.295159000382043 ], [ -83.133436991560529, 35.294364999999743 ], [ -83.134072991377977, 35.288233000024114 ], [ -83.136766991597497, 35.291448999930296 ], [ -83.139283990966149, 35.292205000489723 ], [ -83.140027991440277, 35.293846000050998 ], [ -83.144477990745912, 35.295704000559873 ], [ -83.145242990986205, 35.297001000659577 ], [ -83.14360399115742, 35.297138000126331 ], [ -83.143276991625456, 35.299887000664562 ], [ -83.144923991632155, 35.3023680000938 ], [ -83.147952991575522, 35.30348300010359 ], [ -83.148152991219987, 35.306442000548067 ], [ -83.146769991276898, 35.306474999906321 ], [ -83.145529990816328, 35.308125000270543 ], [ -83.145414991618836, 35.309953000704454 ], [ -83.14308799087577, 35.308928000387745 ], [ -83.139237991111472, 35.311192000719004 ], [ -83.137119990734945, 35.313693000124644 ], [ -83.136474990784791, 35.318003000678289 ], [ -83.139522990854957, 35.321168000738602 ], [ -83.1388339916939, 35.322924000153044 ], [ -83.134320991106094, 35.326898000425871 ], [ -83.133787991136543, 35.328906999955436 ], [ -83.131263991007785, 35.328007000605396 ], [ -83.128736991528001, 35.332922000274785 ], [ -83.120051991466397, 35.336754000048522 ], [ -83.117743991365757, 35.340391000112803 ], [ -83.113157990849842, 35.341918000512052 ], [ -83.112106991788096, 35.343106000500711 ], [ -83.113078990889377, 35.348198000590287 ], [ -83.114850990968876, 35.352152000256609 ], [ -83.110774991718998, 35.357569000500852 ], [ -83.106556991414081, 35.360240999957007 ], [ -83.106242991509987, 35.365174000288832 ], [ -83.101595990926555, 35.368297000673415 ], [ -83.098837991570591, 35.372421000211027 ], [ -83.098620990783033, 35.374904000176521 ], [ -83.093687991314283, 35.374788000604426 ], [ -83.090077991206556, 35.373225000644538 ], [ -83.087597990791991, 35.370904000466247 ], [ -83.0799829913407, 35.371192000188877 ], [ -83.077146991214477, 35.369311000097291 ], [ -83.069071990697196, 35.367293000389118 ], [ -83.054777991676886, 35.368239999958433 ], [ -83.03734199101595, 35.375101000088947 ], [ -83.027922991021114, 35.383143000016588 ], [ -83.024811990924377, 35.380181000043173 ], [ -83.021128991120378, 35.378651000221751 ], [ -83.017647990753446, 35.379961000393777 ], [ -83.012096991280799, 35.377962999843348 ], [ -83.006567990953528, 35.377327000589112 ], [ -83.003305991680122, 35.375098000384021 ], [ -83.00058199086979, 35.374727999893153 ], [ -82.997217991039022, 35.373028000695314 ], [ -82.993400991523004, 35.36845999986344 ], [ -82.990184991428862, 35.367445999901143 ], [ -82.989685990810329, 35.363577999991534 ], [ -82.98689299097606, 35.360828999868396 ], [ -82.986247991349117, 35.355892000552757 ], [ -82.976510991709773, 35.349885999841831 ], [ -82.978009991469392, 35.345744000486519 ], [ -82.97771499131953, 35.344103000725333 ], [ -82.975262991031585, 35.342874000385983 ], [ -82.971669991125722, 35.342763000211498 ], [ -82.964759991302714, 35.333269000573551 ], [ -82.965135991547143, 35.329907000569655 ], [ -82.963523991350542, 35.325137000683874 ], [ -82.965759991079949, 35.319362000713113 ], [ -82.964724990830433, 35.315289000042796 ], [ -82.969868991693176, 35.309362000179682 ], [ -82.988165991494796, 35.30224600000345 ], [ -82.997405991034995, 35.296261000682179 ], [ -82.999288990735735, 35.295782000144889 ], [ -82.999856990985023, 35.296410000020444 ], [ -83.004597990808108, 35.296769000371683 ], [ -83.008945991592995, 35.295929000382323 ], [ -83.016599991625327, 35.29231100067981 ], [ -83.021385991773258, 35.29272500068754 ], [ -83.028234991134468, 35.289911000147043 ], [ -83.033675990824719, 35.286615000208045 ], [ -83.036953991002775, 35.283216000602216 ], [ -83.050754991610589, 35.279922000490828 ], [ -83.061758990962545, 35.275941000041541 ] ] ] } },
{ "type": "Feature", "properties": { "county": "JACKSON", "precinct": "CUL", "enr_desc": "Cullowhee", "winner": "Casey Walawender", "winner_votes": 286, "winner_share": 40.915593705293276, "runner_up": "John A. Herrera", "runner_up_votes": 190, "runner_up_share": 27.181688125894134, "contest_votes": 699, "margin_of_victory": 13.733905579399142, "is_tie": false, "results": [ { "candidate": "Casey Walawender", "votes": 286, "share": 40.915593705293276 }, { "candidate": "John A. Herrera", "votes": 190, "share": 27.181688125894134 }, { "candidate": "Julie Extine Painter", "votes": 190, "share": 27.181688125894134 }, { "candidate": "German (Worm) Vivas", "votes": 33, "share": 4.721030042918455 } ], "participated": true, "map_key": "JACKSON_CUL" }, "geometry": { "type": "Polygon", "coordinates": [ [ [ -83.224211991723692, 35.238450000154579 ], [ -83.232807991228654, 35.240152000026782 ], [ -83.242865990911838, 35.239082000140741 ], [ -83.243960990726563, 35.256626999975332 ], [ -83.240017990890493, 35.258209999964883 ], [ -83.230781991777334, 35.264611000091975 ], [ -83.228775991726096, 35.26610500025847 ], [ -83.227380991788166, 35.268453000369327 ], [ -83.225708990863723, 35.273947000010914 ], [ -83.221916990793517, 35.280850999896067 ], [ -83.220411991427497, 35.285719000669737 ], [ -83.22036199169294, 35.290143000687209 ], [ -83.22317999141994, 35.296932000059257 ], [ -83.220530990760594, 35.299785000215493 ], [ -83.220059990756255, 35.301433000187835 ], [ -83.214521991027652, 35.301287999861486 ], [ -83.214008991734943, 35.304350000029089 ], [ -83.212924991613789, 35.304694000726876 ], [ -83.212193991613788, 35.307052000606824 ], [ -83.210249991693573, 35.308638999990237 ], [ -83.207091991103354, 35.307745000257142 ], [ -83.203650990834475, 35.313427000147023 ], [ -83.199286991621321, 35.315166000141126 ], [ -83.195428990906223, 35.318296999896269 ], [ -83.194236990975796, 35.318154999930435 ], [ -83.192539991145239, 35.319876999899279 ], [ -83.19112199142117, 35.322764000017131 ], [ -83.191503991016589, 35.323564999863429 ], [ -83.188569991720499, 35.326036000020508 ], [ -83.188396990935814, 35.328135000386268 ], [ -83.187427991493408, 35.329374000053399 ], [ -83.189603990968635, 35.331884000758535 ], [ -83.182741990742173, 35.337857000237214 ], [ -83.18267899144017, 35.338961000490862 ], [ -83.177830991473101, 35.343797999955598 ], [ -83.171010991618658, 35.347353000495893 ], [ -83.169410991511313, 35.350011000148925 ], [ -83.165036991514043, 35.352661000661911 ], [ -83.161511991412112, 35.352989999973133 ], [ -83.160708991304404, 35.354789000610189 ], [ -83.161358991126519, 35.355912000119801 ], [ -83.158684991223978, 35.359236000200248 ], [ -83.162490991667752, 35.362138000201895 ], [ -83.160812991161592, 35.363953000495279 ], [ -83.157243990684222, 35.364590999954089 ], [ -83.153555991635102, 35.367506000300331 ], [ -83.150177991330551, 35.365613000614175 ], [ -83.150568991501999, 35.362827000145224 ], [ -83.14445099142435, 35.362484999951661 ], [ -83.136733990733333, 35.364390000749559 ], [ -83.138583991129721, 35.366240000544622 ], [ -83.137877991267587, 35.368377999932562 ], [ -83.133962991181335, 35.367031000363717 ], [ -83.132195991308137, 35.367305000458032 ], [ -83.129302991753093, 35.369214000363321 ], [ -83.123072990754949, 35.370109999936993 ], [ -83.119926990936804, 35.36918200024455 ], [ -83.116238990866322, 35.369213000115785 ], [ -83.110190990707864, 35.36598300014748 ], [ -83.106242991509987, 35.365174000288832 ], [ -83.106556991414081, 35.360240999957007 ], [ -83.110774991718998, 35.357569000500852 ], [ -83.114850990968876, 35.352152000256609 ], [ -83.113078990889377, 35.348198000590287 ], [ -83.112106991788096, 35.343106000500711 ], [ -83.113157990849842, 35.341918000512052 ], [ -83.117743991365757, 35.340391000112803 ], [ -83.120051991466397, 35.336754000048522 ], [ -83.128736991528001, 35.332922000274785 ], [ -83.131263991007785, 35.328007000605396 ], [ -83.133787991136543, 35.328906999955436 ], [ -83.134320991106094, 35.326898000425871 ], [ -83.1388339916939, 35.322924000153044 ], [ -83.139522990854957, 35.321168000738602 ], [ -83.148405991233929, 35.319573000374483 ], [ -83.150833991015148, 35.316945000151982 ], [ -83.154183990747157, 35.3164530001389 ], [ -83.153413991329728, 35.312143000335588 ], [ -83.154583991698502, 35.305704000730181 ], [ -83.155602991035551, 35.305642000127989 ], [ -83.15649999145478, 35.301448000744209 ], [ -83.158882991158706, 35.29756199995149 ], [ -83.158199991346422, 35.296184000147242 ], [ -83.155688991561973, 35.294419999972099 ], [ -83.154165990946836, 35.294364000362016 ], [ -83.153170990886281, 35.293046000268049 ], [ -83.157185991687484, 35.28989100033241 ], [ -83.161417990944969, 35.289309000399832 ], [ -83.162339991574939, 35.288063000533391 ], [ -83.16458299097954, 35.287294000519196 ], [ -83.169086991611721, 35.282569000586932 ], [ -83.166488990699065, 35.280287000263343 ], [ -83.161500991460002, 35.270296000064256 ], [ -83.16202299172852, 35.26903400057985 ], [ -83.160887991036219, 35.265730000150832 ], [ -83.159300991193803, 35.26444400052781 ], [ -83.158371991705252, 35.261503000518005 ], [ -83.159029991281201, 35.259928000046074 ], [ -83.158242991075255, 35.258484999874177 ], [ -83.159061991393955, 35.253428000652178 ], [ -83.158359991690361, 35.252837000690036 ], [ -83.158559991187857, 35.249236000659742 ], [ -83.163608990906326, 35.244470000309917 ], [ -83.165662991465311, 35.2452100002184 ], [ -83.175949990865348, 35.239716000673944 ], [ -83.186630991693818, 35.241036000329338 ], [ -83.18958099111299, 35.234698000430235 ], [ -83.19126099115168, 35.234639000500501 ], [ -83.191291990815984, 35.231087999912077 ], [ -83.19571499089858, 35.23389000046965 ], [ -83.19787199096578, 35.236937000683064 ], [ -83.197912990897294, 35.238124000764053 ], [ -83.205567990846347, 35.23844500046448 ], [ -83.209957991727492, 35.235723999864916 ], [ -83.219308990702814, 35.243509000367894 ], [ -83.220255991440283, 35.243347000712262 ], [ -83.224211991723692, 35.238450000154579 ] ] ] } },
{ "type": "Feature", "properties": { "county": "JACKSON", "precinct": "GCK", "enr_desc": "Greens Creek", "winner": "Casey Walawender", "winner_votes": 69, "winner_share": 46.621621621621621, "runner_up": "Julie Extine Painter", "runner_up_votes": 46, "runner_up_share": 31.081081081081081, "contest_votes": 148, "margin_of_victory": 15.54054054054054, "is_tie": false, "results": [ { "candidate": "Casey Walawender", "votes": 69, "share": 46.62162162162162 }, { "candidate": "Julie Extine Painter", "votes": 46, "share": 31.08108108108108 }, { "candidate": "John A. Herrera", "votes": 28, "share": 18.91891891891892 }, { "candidate": "German (Worm) Vivas", "votes": 5, "share": 3.3783783783783785 } ], "participated": true, "map_key": "JACKSON_GCK" }, "geometry": { "type": "Polygon", "coordinates": [ [ [ -83.322955991571121, 35.307387000051321 ], [ -83.321086991012834, 35.311888000127659 ], [ -83.324509991548481, 35.31417700066023 ], [ -83.330493991466213, 35.315020000454901 ], [ -83.331881991185256, 35.315953000484733 ], [ -83.332156991078136, 35.317530000317767 ], [ -83.334230991748356, 35.32035000057968 ], [ -83.33376799100877, 35.323424000416267 ], [ -83.334383991563413, 35.325803000416947 ], [ -83.336863990905442, 35.329446999907816 ], [ -83.339608991320461, 35.330993000127883 ], [ -83.34056099131449, 35.333064000044558 ], [ -83.340307991569304, 35.337382000161419 ], [ -83.335900991733951, 35.343268000493588 ], [ -83.331287991778808, 35.342896000517833 ], [ -83.329080991508462, 35.341615000376493 ], [ -83.322458991347574, 35.340655000417783 ], [ -83.317933991101469, 35.343082000636294 ], [ -83.310126991169128, 35.343077000507016 ], [ -83.304372990864863, 35.34445300069887 ], [ -83.301895991023486, 35.345862000143178 ], [ -83.294874991321421, 35.346827000654031 ], [ -83.290608991140488, 35.350114999956496 ], [ -83.288235991104628, 35.354202000167959 ], [ -83.285596991624885, 35.351395000221856 ], [ -83.281449990769772, 35.351013000506946 ], [ -83.280220991275556, 35.351877000332692 ], [ -83.277756991368662, 35.351119000066596 ], [ -83.278016991457662, 35.353622999950517 ], [ -83.276507991330433, 35.353701000305648 ], [ -83.273060991024778, 35.350478000728309 ], [ -83.271508991579381, 35.35070400008599 ], [ -83.27076699135516, 35.34843000075098 ], [ -83.267747990744311, 35.344476000236476 ], [ -83.262024991502429, 35.339726000276954 ], [ -83.259635991583337, 35.339069000489083 ], [ -83.25621799124734, 35.339554000649663 ], [ -83.251118991703621, 35.337285000215161 ], [ -83.246498990950343, 35.337557000306298 ], [ -83.24528899171446, 35.336787000711908 ], [ -83.244583991693418, 35.329915000582879 ], [ -83.245512991309809, 35.329100000674302 ], [ -83.245371991546961, 35.327129000514915 ], [ -83.247139990916054, 35.325941999902845 ], [ -83.247050991009587, 35.32407300058513 ], [ -83.245481990820053, 35.323755000361771 ], [ -83.243727990982279, 35.321517999886389 ], [ -83.243243990842629, 35.316376000700586 ], [ -83.246308991036344, 35.314765000732606 ], [ -83.253034991405841, 35.313834999881394 ], [ -83.256006990738598, 35.311312000739179 ], [ -83.256090990841543, 35.310345000660682 ], [ -83.26477399156515, 35.310143000144684 ], [ -83.272266990942313, 35.308763000247176 ], [ -83.274251990963208, 35.310027000361629 ], [ -83.273884991705273, 35.311013999907985 ], [ -83.276382991791266, 35.312052000405089 ], [ -83.285212990954946, 35.306379000665032 ], [ -83.291617990693553, 35.307746000292099 ], [ -83.296616991146962, 35.306945000101074 ], [ -83.300689991431142, 35.302671000236103 ], [ -83.304964991623734, 35.303338999911716 ], [ -83.309558990692608, 35.309075999985019 ], [ -83.314456991290086, 35.311838000492145 ], [ -83.316489991557475, 35.311554000741324 ], [ -83.320226991391792, 35.308314000177376 ], [ -83.322955991571121, 35.307387000051321 ] ] ] } },
{ "type": "Feature", "properties": { "county": "JACKSON", "precinct": "GLV", "enr_desc": "Glenville", "winner": "Casey Walawender", "winner_votes": 62, "winner_share": 45.255474452554743, "runner_up": "Julie Extine Painter", "runner_up_votes": 49, "runner_up_share": 35.766423357664237, "contest_votes": 137, "margin_of_victory": 9.489051094890506, "is_tie": false, "results": [ { "candidate": "Casey Walawender", "votes": 62, "share": 45.25547445255474 }, { "candidate": "Julie Extine Painter", "votes": 49, "share": 35.76642335766424 }, { "candidate": "John A. Herrera", "votes": 24, "share": 17.51824817518248 }, { "candidate": "German (Worm) Vivas", "votes": 2, "share": 1.4598540145985401 } ], "participated": true, "map_key": "JACKSON_GLV" }, "geometry": { "type": "Polygon", "coordinates": [ [ [ -83.152471991487161, 35.09903000071693 ], [ -83.155002991678074, 35.099160000672001 ], [ -83.159748991714338, 35.097890999970893 ], [ -83.166955991530813, 35.104625999963453 ], [ -83.172023990754141, 35.105040000323214 ], [ -83.173649991030615, 35.107167000255792 ], [ -83.177555990869067, 35.10890000048353 ], [ -83.178970990921641, 35.116181000411203 ], [ -83.181423991591956, 35.117175000043517 ], [ -83.183027991727016, 35.1189350003201 ], [ -83.182935991141221, 35.125046000136429 ], [ -83.183865990971057, 35.127323000583452 ], [ -83.186060991691463, 35.128401000336993 ], [ -83.187076990786153, 35.133994000674235 ], [ -83.191326991575238, 35.135767000685952 ], [ -83.194402990884612, 35.140526000296738 ], [ -83.196761991518983, 35.141464000472986 ], [ -83.201354991172508, 35.145668000516146 ], [ -83.204016990788858, 35.146024000559379 ], [ -83.206245991721488, 35.148266000660186 ], [ -83.206653991436497, 35.149734000601534 ], [ -83.209619990999613, 35.150588000207009 ], [ -83.209963990803871, 35.154520000737868 ], [ -83.213073991004578, 35.158257000079189 ], [ -83.220625991746132, 35.158858000453364 ], [ -83.22379599079018, 35.157386000414206 ], [ -83.223156990954806, 35.159601000125207 ], [ -83.223714990813988, 35.1650970002351 ], [ -83.222529990859016, 35.167826999882749 ], [ -83.224303991616495, 35.176089999958705 ], [ -83.225343991405893, 35.176990000031957 ], [ -83.223898991471444, 35.180540000306543 ], [ -83.224483991124885, 35.188210000452443 ], [ -83.223780991501243, 35.191065000383425 ], [ -83.222402990764721, 35.192908000668048 ], [ -83.218624991052124, 35.193312000452778 ], [ -83.21835799090691, 35.195225000060297 ], [ -83.219236991439573, 35.197245999873417 ], [ -83.217856990993525, 35.198548000563321 ], [ -83.217654990927826, 35.200016000207867 ], [ -83.21947899120407, 35.201151000235754 ], [ -83.21938699090714, 35.206273000765805 ], [ -83.216286991543981, 35.208602000313533 ], [ -83.216040991240703, 35.213163000562325 ], [ -83.217508991080678, 35.214417999969555 ], [ -83.218391991177299, 35.217045000021493 ], [ -83.218465990724823, 35.221176999977253 ], [ -83.216644991723598, 35.223284000463082 ], [ -83.219324990923567, 35.227252999995322 ], [ -83.221446990760725, 35.228900000098847 ], [ -83.224211991723692, 35.238450000154579 ], [ -83.220255991440283, 35.243347000712262 ], [ -83.219308990702814, 35.243509000367894 ], [ -83.209957991727492, 35.235723999864916 ], [ -83.205567990846347, 35.23844500046448 ], [ -83.197912990897294, 35.238124000764053 ], [ -83.19787199096578, 35.236937000683064 ], [ -83.19571499089858, 35.23389000046965 ], [ -83.191291990815984, 35.231087999912077 ], [ -83.19126099115168, 35.234639000500501 ], [ -83.18958099111299, 35.234698000430235 ], [ -83.186630991693818, 35.241036000329338 ], [ -83.175949990865348, 35.239716000673944 ], [ -83.165662991465311, 35.2452100002184 ], [ -83.163608990906326, 35.244470000309917 ], [ -83.16032399093416, 35.242338000139668 ], [ -83.152749990842239, 35.241346000265409 ], [ -83.147954991133318, 35.242697000513765 ], [ -83.141734990879442, 35.241744000683767 ], [ -83.138040991330001, 35.237535000398296 ], [ -83.134129991012614, 35.236607000185288 ], [ -83.133809991425039, 35.235716000363418 ], [ -83.13591199134774, 35.232711000195955 ], [ -83.137738991699933, 35.2318820005096 ], [ -83.136630991468536, 35.227931000678538 ], [ -83.139295990743477, 35.226720999982852 ], [ -83.140511990941661, 35.223212000304919 ], [ -83.120186991551932, 35.223465000019068 ], [ -83.110225991113637, 35.224914999993828 ], [ -83.10010199077982, 35.221545000570472 ], [ -83.093401991007767, 35.222948000666747 ], [ -83.091126990900747, 35.226460000322341 ], [ -83.088080990945301, 35.227160999875998 ], [ -83.083902991008301, 35.230387999910171 ], [ -83.08140599123395, 35.228724000245393 ], [ -83.0829989909913, 35.228257000752002 ], [ -83.083510991743651, 35.227011000220187 ], [ -83.081206991738185, 35.225271000451286 ], [ -83.079201990829574, 35.224550000518342 ], [ -83.076188991351657, 35.227471000649501 ], [ -83.049502991530417, 35.218730000132531 ], [ -83.049732991505877, 35.217102000448712 ], [ -83.045984991382937, 35.209277000676074 ], [ -83.046792990966807, 35.206611000065614 ], [ -83.050733991052894, 35.203647999976468 ], [ -83.05158999074871, 35.199989000590776 ], [ -83.055491991665349, 35.200234000645956 ], [ -83.05422099104419, 35.198964000215369 ], [ -83.054602990784005, 35.196436000436861 ], [ -83.05781399136805, 35.195285999857226 ], [ -83.05812799092979, 35.189968000386941 ], [ -83.061965990987346, 35.188630000731017 ], [ -83.063598991794294, 35.185782000325972 ], [ -83.065404991565359, 35.184416000006806 ], [ -83.0654199910622, 35.182634000713712 ], [ -83.066882991056204, 35.181133000233089 ], [ -83.066849990762847, 35.179316000009685 ], [ -83.0660519916309, 35.178470000687248 ], [ -83.059305991008372, 35.174789000191964 ], [ -83.049636990831729, 35.173265999945592 ], [ -83.05030999141114, 35.17164900069772 ], [ -83.055968991117112, 35.16816400026687 ], [ -83.05846899157531, 35.163395000575477 ], [ -83.056411991467257, 35.16174599985289 ], [ -83.055894991689783, 35.163228000165169 ], [ -83.055087991703886, 35.163406000472904 ], [ -83.050880991228013, 35.161242000035486 ], [ -83.051217991543083, 35.158214000259562 ], [ -83.050288991520148, 35.157554000502913 ], [ -83.050206991184169, 35.155480000025726 ], [ -83.050684990942528, 35.154459000340083 ], [ -83.05030599086011, 35.152989000446325 ], [ -83.048362991743289, 35.152758000523868 ], [ -83.050252991288957, 35.149211999888458 ], [ -83.053351991435719, 35.1496470007299 ], [ -83.059807990909349, 35.151870000269284 ], [ -83.060769990936421, 35.154299000634317 ], [ -83.063106991652532, 35.154228000342634 ], [ -83.059711991358427, 35.155509000726504 ], [ -83.060340991631548, 35.157041000626819 ], [ -83.063081991163727, 35.156360999982191 ], [ -83.0638649908866, 35.15689800068693 ], [ -83.063769991247938, 35.157933000487617 ], [ -83.066101991395044, 35.157110000256154 ], [ -83.065951990892515, 35.158238000757379 ], [ -83.068687991482079, 35.154910000654937 ], [ -83.066749991595927, 35.152947000707265 ], [ -83.0699009907717, 35.150828000486214 ], [ -83.070257991612607, 35.148196000374675 ], [ -83.073348990988706, 35.14723700065727 ], [ -83.075589990978372, 35.144745999935338 ], [ -83.077766990889856, 35.146328000615902 ], [ -83.080433991175042, 35.145915000546722 ], [ -83.081100991232177, 35.145006000401025 ], [ -83.080704991208563, 35.143527000139187 ], [ -83.082323991452014, 35.144339000467653 ], [ -83.083258991430625, 35.143285000434005 ], [ -83.084987991382917, 35.145415000245158 ], [ -83.085121991400911, 35.142983000407213 ], [ -83.083877991091526, 35.141533000746257 ], [ -83.085709991514918, 35.140225000692894 ], [ -83.090440991406425, 35.140168000466979 ], [ -83.089878991004383, 35.141128999981696 ], [ -83.090266991562928, 35.143891000020361 ], [ -83.087057991201235, 35.144210000134414 ], [ -83.086700991282086, 35.144971000455442 ], [ -83.08761499081649, 35.146237000724604 ], [ -83.092445991335182, 35.146384000314548 ], [ -83.092576991671578, 35.143311000451689 ], [ -83.09664799112187, 35.143461000075483 ], [ -83.09482399139597, 35.137990000677696 ], [ -83.096807991397199, 35.135148000407277 ], [ -83.099989991471986, 35.134307999984664 ], [ -83.101741990860205, 35.13266300050681 ], [ -83.106681990777389, 35.132914000624638 ], [ -83.107823990945278, 35.131632000526785 ], [ -83.107071991039362, 35.130945000445159 ], [ -83.108417991361733, 35.128913000427545 ], [ -83.11046099119396, 35.12669700062601 ], [ -83.111937991500668, 35.12669000021463 ], [ -83.11102499085149, 35.125931000659122 ], [ -83.118920990988599, 35.125998000714063 ], [ -83.117107991290553, 35.123207000490126 ], [ -83.111028991411175, 35.121926000517064 ], [ -83.114300991447166, 35.120580000236735 ], [ -83.118321990769161, 35.120445000373898 ], [ -83.118968991739123, 35.114046000684752 ], [ -83.122036990814436, 35.112049999869932 ], [ -83.124617990806357, 35.113377000559957 ], [ -83.124493991696752, 35.114202999869661 ], [ -83.12677399150094, 35.11399300010482 ], [ -83.128567991345491, 35.112805000500401 ], [ -83.134948991313024, 35.113014000118632 ], [ -83.135455991591996, 35.115279000306515 ], [ -83.143401991243451, 35.116306000234751 ], [ -83.145442990889705, 35.115628000530933 ], [ -83.14408899117862, 35.113655000669723 ], [ -83.15065699137908, 35.106512000372128 ], [ -83.15034799157084, 35.104181000160047 ], [ -83.152471991487161, 35.09903000071693 ] ] ] } },
{ "type": "Feature", "properties": { "county": "JACKSON", "precinct": "SDC", "enr_desc": "Ssw_Snd", "winner": "Casey Walawender", "winner_votes": 371, "winner_share": 43.290548424737459, "runner_up": "Julie Extine Painter", "runner_up_votes": 305, "runner_up_share": 35.589264877479579, "contest_votes": 857, "margin_of_victory": 7.70128354725788, "is_tie": false, "results": [ { "candidate": "Casey Walawender", "votes": 371, "share": 43.29054842473746 }, { "candidate": "Julie Extine Painter", "votes": 305, "share": 35.58926487747958 }, { "candidate": "John A. Herrera", "votes": 165, "share": 19.253208868144693 }, { "candidate": "German (Worm) Vivas", "votes": 16, "share": 1.8669778296382729 } ], "participated": true, "map_key": "JACKSON_SDC" }, "geometry": { "type": "Polygon", "coordinates": [ [ [ -83.271508991579381, 35.35070400008599 ], [ -83.273060991024778, 35.350478000728309 ], [ -83.276507991330433, 35.353701000305648 ], [ -83.278016991457662, 35.353622999950517 ], [ -83.277756991368662, 35.351119000066596 ], [ -83.280220991275556, 35.351877000332692 ], [ -83.281449990769772, 35.351013000506946 ], [ -83.285596991624885, 35.351395000221856 ], [ -83.288235991104628, 35.354202000167959 ], [ -83.288259991133472, 35.355717999862982 ], [ -83.28709199140043, 35.357064000640882 ], [ -83.287498991483162, 35.359127000626678 ], [ -83.288596991275597, 35.359750000311735 ], [ -83.287543991237769, 35.363556000270272 ], [ -83.283913990738881, 35.366549999997794 ], [ -83.279692990916146, 35.36842599994192 ], [ -83.279642991715249, 35.370392000636485 ], [ -83.277143990723189, 35.371092000530318 ], [ -83.27366099151287, 35.374675000329958 ], [ -83.272306991287778, 35.377983000130016 ], [ -83.271463990988337, 35.378076000403858 ], [ -83.272069990955629, 35.378789000593279 ], [ -83.271104991194463, 35.380230999903766 ], [ -83.271340991343891, 35.38157599993567 ], [ -83.275379990768471, 35.384005000733218 ], [ -83.275455990833066, 35.385446000374273 ], [ -83.272462990833844, 35.386989000387658 ], [ -83.272426990962302, 35.388193000562566 ], [ -83.271359990817842, 35.389053999971331 ], [ -83.26225999159648, 35.390652000194613 ], [ -83.261140991161994, 35.391341000087181 ], [ -83.261137991581663, 35.39353300012376 ], [ -83.256533991392672, 35.393670999979292 ], [ -83.248461991593032, 35.397122999907964 ], [ -83.24064499130057, 35.399304000547453 ], [ -83.239207990988717, 35.399091000216863 ], [ -83.234703990813188, 35.401313000029276 ], [ -83.233194990980138, 35.403167000387754 ], [ -83.228523990919157, 35.406155000524627 ], [ -83.225560991694365, 35.409892000087908 ], [ -83.221859991592453, 35.417964000721675 ], [ -83.221793990933449, 35.422828000184623 ], [ -83.218511991052651, 35.424668000390163 ], [ -83.214938991320651, 35.431243000058458 ], [ -83.207347991501862, 35.436430000226004 ], [ -83.203408991448995, 35.438363999905071 ], [ -83.200678991539263, 35.438718000281369 ], [ -83.196633991276002, 35.441993000293344 ], [ -83.189516990851914, 35.444990000584021 ], [ -83.182974990793781, 35.44527999999319 ], [ -83.179483991643565, 35.44394900044864 ], [ -83.176106990688965, 35.443878000422053 ], [ -83.170311991250728, 35.438613000126409 ], [ -83.169180990906909, 35.436115000286371 ], [ -83.169616991198794, 35.432864000718823 ], [ -83.167824991118906, 35.427613000367636 ], [ -83.164969990835189, 35.424277000371411 ], [ -83.163298991332326, 35.424103000301294 ], [ -83.164515991133129, 35.422394999885036 ], [ -83.165033991044538, 35.422623000186114 ], [ -83.166366991171955, 35.418316000657185 ], [ -83.167556991636459, 35.417332000503208 ], [ -83.17075499150414, 35.418128999901867 ], [ -83.171565991598357, 35.414876000585657 ], [ -83.170619991742043, 35.414363000071035 ], [ -83.168054990927899, 35.409197000326714 ], [ -83.165836990818306, 35.407244000555465 ], [ -83.168474991284995, 35.406766000078314 ], [ -83.168771991321108, 35.401178000485828 ], [ -83.170914991318242, 35.401853999909022 ], [ -83.171485991498642, 35.400004000603367 ], [ -83.169372991129777, 35.40000600049737 ], [ -83.168934991474671, 35.397438000458514 ], [ -83.167592991664947, 35.397028000399359 ], [ -83.168256991202099, 35.39578900040496 ], [ -83.167380990910289, 35.39326700056742 ], [ -83.167683991128555, 35.391129000332505 ], [ -83.166360991123398, 35.389634000488229 ], [ -83.167379990678626, 35.383497000156872 ], [ -83.166466991517808, 35.380748000414691 ], [ -83.164263991075586, 35.379017000079706 ], [ -83.15945199130384, 35.380216000438111 ], [ -83.155657991466057, 35.377818000323096 ], [ -83.153384991737255, 35.372564000263814 ], [ -83.152919990826135, 35.369267000350831 ], [ -83.153555991635102, 35.367506000300331 ], [ -83.157243990684222, 35.364590999954089 ], [ -83.160812991161592, 35.363953000495279 ], [ -83.162490991667752, 35.362138000201895 ], [ -83.158684991223978, 35.359236000200248 ], [ -83.161358991126519, 35.355912000119801 ], [ -83.160708991304404, 35.354789000610189 ], [ -83.161511991412112, 35.352989999973133 ], [ -83.165036991514043, 35.352661000661911 ], [ -83.169410991511313, 35.350011000148925 ], [ -83.171010991618658, 35.347353000495893 ], [ -83.177830991473101, 35.343797999955598 ], [ -83.18267899144017, 35.338961000490862 ], [ -83.182741990742173, 35.337857000237214 ], [ -83.189603990968635, 35.331884000758535 ], [ -83.187427991493408, 35.329374000053399 ], [ -83.188396990935814, 35.328135000386268 ], [ -83.188569991720499, 35.326036000020508 ], [ -83.191503991016589, 35.323564999863429 ], [ -83.191478991071605, 35.329051000149192 ], [ -83.196899991505376, 35.332224000191232 ], [ -83.197471991597851, 35.33637699990215 ], [ -83.200094990729511, 35.337053000145445 ], [ -83.201616991684233, 35.338803999922334 ], [ -83.201940990741861, 35.340295000369274 ], [ -83.201219990779023, 35.340681000122046 ], [ -83.199114991756986, 35.347179000310732 ], [ -83.2007209906904, 35.353099000187932 ], [ -83.203703991076665, 35.354986000144805 ], [ -83.209664990876348, 35.361675000131655 ], [ -83.220737990686075, 35.362404000045409 ], [ -83.228397991065805, 35.359614999983783 ], [ -83.23027899103991, 35.356680000156977 ], [ -83.231322991233981, 35.352341000723548 ], [ -83.232903991674803, 35.350826000411608 ], [ -83.235332990672077, 35.35014099996048 ], [ -83.238272991103045, 35.347374000469522 ], [ -83.239954991699733, 35.350869000409325 ], [ -83.244791990807755, 35.350208000564351 ], [ -83.251382991496797, 35.347222000663351 ], [ -83.257656990844211, 35.348083000459447 ], [ -83.26105099168241, 35.350079000185595 ], [ -83.260289990711257, 35.351478999886254 ], [ -83.266532991487296, 35.351688000288647 ], [ -83.267682991757241, 35.352532000577966 ], [ -83.271508991579381, 35.35070400008599 ] ] ] } },
{ "type": "Feature", "properties": { "county": "JACKSON", "precinct": "QUA", "enr_desc": "Qualla", "winner": "Julie Extine Painter", "winner_votes": 180, "winner_share": 53.731343283582092, "runner_up": "John A. Herrera", "runner_up_votes": 56, "runner_up_share": 16.716417910447763, "contest_votes": 335, "margin_of_victory": 37.014925373134332, "is_tie": false, "results": [ { "candidate": "Julie Extine Painter", "votes": 180, "share": 53.73134328358209 }, { "candidate": "John A. Herrera", "votes": 56, "share": 16.716417910447763 }, { "candidate": "Casey Walawender", "votes": 55, "share": 16.417910447761194 }, { "candidate": "German (Worm) Vivas", "votes": 44, "share": 13.134328358208954 } ], "participated": true, "map_key": "JACKSON_QUA" }, "geometry": { "type": "Polygon", "coordinates": [ [ [ -83.34825199171847, 35.406127000188356 ], [ -83.349934991365558, 35.409391000346886 ], [ -83.35207799091846, 35.411268000766896 ], [ -83.355651990787834, 35.409893000391577 ], [ -83.360703991068149, 35.411813000295027 ], [ -83.360650991342837, 35.414583000527713 ], [ -83.362596991282857, 35.417650000191038 ], [ -83.361627991195704, 35.419645000303596 ], [ -83.362518991167718, 35.421723000303203 ], [ -83.362088991412278, 35.423548000481773 ], [ -83.36376599155831, 35.426923000459098 ], [ -83.362634991507861, 35.429999000594563 ], [ -83.360983990903534, 35.431117000737871 ], [ -83.360398991359546, 35.43405400020675 ], [ -83.358186991104745, 35.4358180007087 ], [ -83.357389991320858, 35.437579000074408 ], [ -83.35913799156522, 35.439447000390295 ], [ -83.358972990830651, 35.440348000171554 ], [ -83.351725991085928, 35.468092000154428 ], [ -83.347099991548802, 35.471168000168099 ], [ -83.345409991737085, 35.473520999858096 ], [ -83.342911991535033, 35.472837000488788 ], [ -83.336220991395436, 35.474922000739554 ], [ -83.331968991743835, 35.469949000089812 ], [ -83.325190991587277, 35.468741000139126 ], [ -83.322254991339634, 35.466468000388041 ], [ -83.317881991207571, 35.465302000476221 ], [ -83.311800991438645, 35.47150099998121 ], [ -83.308930991314426, 35.479323000338212 ], [ -83.304914990883375, 35.478600000157613 ], [ -83.29704499126872, 35.484278000147697 ], [ -83.291652990831082, 35.483129000101066 ], [ -83.285277991302863, 35.488900000095718 ], [ -83.28491799161533, 35.490710000656435 ], [ -83.286394990690894, 35.492535000764569 ], [ -83.283462991522939, 35.497423000150945 ], [ -83.280175991205212, 35.499525000088937 ], [ -83.275356990990346, 35.500457000407302 ], [ -83.273406991332394, 35.502307999928448 ], [ -83.272404991683544, 35.504675000552403 ], [ -83.268581991208592, 35.506191000629926 ], [ -83.264351990871418, 35.506528999909925 ], [ -83.264487991643151, 35.510716000419549 ], [ -83.261770991507078, 35.514495000685386 ], [ -83.257148990820326, 35.513153000619134 ], [ -83.247228991587264, 35.516702000231462 ], [ -83.245804991532665, 35.518038000581498 ], [ -83.241832991655514, 35.519033000054186 ], [ -83.238832991280319, 35.522979999859558 ], [ -83.236072990714348, 35.524564000702625 ], [ -83.232677991217514, 35.52329200053876 ], [ -83.22749799168308, 35.525589000383256 ], [ -83.220010991638404, 35.524762000282863 ], [ -83.216401991683426, 35.526043000212624 ], [ -83.214888991203708, 35.523775000516601 ], [ -83.212129991106991, 35.521800999943686 ], [ -83.211096990687935, 35.519726000094529 ], [ -83.207682991054767, 35.518024000610914 ], [ -83.204826991717681, 35.519431000606403 ], [ -83.195513991745855, 35.519305999989008 ], [ -83.19148899128389, 35.51657100058582 ], [ -83.186321990845983, 35.514368000397539 ], [ -83.185897991654173, 35.511825000449207 ], [ -83.184525991279784, 35.510730000612945 ], [ -83.180427991530891, 35.510852000582865 ], [ -83.174550990676977, 35.509265000011084 ], [ -83.166424991472425, 35.509824000599771 ], [ -83.163710991226509, 35.50919199986911 ], [ -83.162172991044329, 35.504425000418017 ], [ -83.159996991732555, 35.50198599987683 ], [ -83.161387991033763, 35.497824000453775 ], [ -83.16110799110011, 35.496192000138961 ], [ -83.157002991509216, 35.495926999991646 ], [ -83.153909990808287, 35.494515000620787 ], [ -83.142086991330601, 35.493650000587174 ], [ -83.137463991429826, 35.489898000667672 ], [ -83.137408991767941, 35.488818000333836 ], [ -83.140487990867385, 35.484599000095258 ], [ -83.136452990715696, 35.479179000162631 ], [ -83.138002990793609, 35.475610000025419 ], [ -83.136408991726995, 35.473038000631853 ], [ -83.13769999147685, 35.464369000274566 ], [ -83.140305991257904, 35.461796000023263 ], [ -83.141592991248089, 35.457667000569337 ], [ -83.151774990863316, 35.449826000279252 ], [ -83.155627991006199, 35.448948000107571 ], [ -83.160071990671469, 35.446623000086205 ], [ -83.164573991259658, 35.44859699998316 ], [ -83.172334991288125, 35.447026000113858 ], [ -83.176106990688965, 35.443878000422053 ], [ -83.179483991643565, 35.44394900044864 ], [ -83.182974990793781, 35.44527999999319 ], [ -83.189516990851914, 35.444990000584021 ], [ -83.196633991276002, 35.441993000293344 ], [ -83.200678991539263, 35.438718000281369 ], [ -83.203408991448995, 35.438363999905071 ], [ -83.207347991501862, 35.436430000226004 ], [ -83.212641991006279, 35.439933000153815 ], [ -83.214763991731616, 35.443255000210215 ], [ -83.217297991294444, 35.444954000423877 ], [ -83.224509991292777, 35.443243000243186 ], [ -83.228151991286339, 35.44030799996051 ], [ -83.23452199132899, 35.440414000732247 ], [ -83.237774990712992, 35.438536000568845 ], [ -83.239222991185088, 35.439879000532756 ], [ -83.24155599142324, 35.439804999938772 ], [ -83.250592991608215, 35.443714000211038 ], [ -83.253046991676086, 35.439516000143733 ], [ -83.254710991460115, 35.439518999875965 ], [ -83.258685990768157, 35.437197000501477 ], [ -83.260147991051582, 35.435304000191152 ], [ -83.264247990775218, 35.433369000108662 ], [ -83.263674991226381, 35.430542999938538 ], [ -83.264213990716016, 35.427710000682552 ], [ -83.268923990961028, 35.426324000186099 ], [ -83.270774991301707, 35.422068000646277 ], [ -83.284888990792993, 35.41770700066661 ], [ -83.289435991517905, 35.415063000289301 ], [ -83.292110991014724, 35.414461000050544 ], [ -83.304790990956448, 35.402718000027974 ], [ -83.313532991342342, 35.404307000439033 ], [ -83.319153991316128, 35.403295000662723 ], [ -83.321252990699378, 35.404048000206615 ], [ -83.324025991033494, 35.40380700025586 ], [ -83.328893990943186, 35.40600900057666 ], [ -83.329439990764143, 35.405984000572502 ], [ -83.328634990825293, 35.404541999898044 ], [ -83.332112991407271, 35.401708999921546 ], [ -83.339857991331172, 35.40122700063764 ], [ -83.339789990849056, 35.402597000527251 ], [ -83.34825199171847, 35.406127000188356 ] ] ] } },
{ "type": "Feature", "properties": { "county": "JACKSON", "precinct": "RIV", "enr_desc": "River", "winner": "Casey Walawender", "winner_votes": 39, "winner_share": 41.48936170212766, "runner_up": "Julie Extine Painter", "runner_up_votes": 36, "runner_up_share": 38.297872340425535, "contest_votes": 94, "margin_of_victory": 3.1914893617021249, "is_tie": false, "results": [ { "candidate": "Casey Walawender", "votes": 39, "share": 41.48936170212766 }, { "candidate": "Julie Extine Painter", "votes": 36, "share": 38.297872340425535 }, { "candidate": "John A. Herrera", "votes": 16, "share": 17.02127659574468 }, { "candidate": "German (Worm) Vivas", "votes": 3, "share": 3.1914893617021276 } ], "participated": true, "map_key": "JACKSON_RIV" }, "geometry": { "type": "Polygon", "coordinates": [ [ [ -83.163608990906326, 35.244470000309917 ], [ -83.158559991187857, 35.249236000659742 ], [ -83.158359991690361, 35.252837000690036 ], [ -83.159061991393955, 35.253428000652178 ], [ -83.158242991075255, 35.258484999874177 ], [ -83.159029991281201, 35.259928000046074 ], [ -83.158371991705252, 35.261503000518005 ], [ -83.159300991193803, 35.26444400052781 ], [ -83.160887991036219, 35.265730000150832 ], [ -83.16202299172852, 35.26903400057985 ], [ -83.161500991460002, 35.270296000064256 ], [ -83.166488990699065, 35.280287000263343 ], [ -83.169086991611721, 35.282569000586932 ], [ -83.16458299097954, 35.287294000519196 ], [ -83.162339991574939, 35.288063000533391 ], [ -83.161417990944969, 35.289309000399832 ], [ -83.157185991687484, 35.28989100033241 ], [ -83.153170990886281, 35.293046000268049 ], [ -83.154165990946836, 35.294364000362016 ], [ -83.155688991561973, 35.294419999972099 ], [ -83.158199991346422, 35.296184000147242 ], [ -83.158882991158706, 35.29756199995149 ], [ -83.15649999145478, 35.301448000744209 ], [ -83.155602991035551, 35.305642000127989 ], [ -83.154583991698502, 35.305704000730181 ], [ -83.153413991329728, 35.312143000335588 ], [ -83.154183990747157, 35.3164530001389 ], [ -83.150833991015148, 35.316945000151982 ], [ -83.148405991233929, 35.319573000374483 ], [ -83.139522990854957, 35.321168000738602 ], [ -83.136474990784791, 35.318003000678289 ], [ -83.137119990734945, 35.313693000124644 ], [ -83.139237991111472, 35.311192000719004 ], [ -83.14308799087577, 35.308928000387745 ], [ -83.145414991618836, 35.309953000704454 ], [ -83.145529990816328, 35.308125000270543 ], [ -83.146769991276898, 35.306474999906321 ], [ -83.148152991219987, 35.306442000548067 ], [ -83.147952991575522, 35.30348300010359 ], [ -83.144923991632155, 35.3023680000938 ], [ -83.143276991625456, 35.299887000664562 ], [ -83.14360399115742, 35.297138000126331 ], [ -83.145242990986205, 35.297001000659577 ], [ -83.144477990745912, 35.295704000559873 ], [ -83.140027991440277, 35.293846000050998 ], [ -83.139283990966149, 35.292205000489723 ], [ -83.136766991597497, 35.291448999930296 ], [ -83.134072991377977, 35.288233000024114 ], [ -83.133436991560529, 35.294364999999743 ], [ -83.131104991464099, 35.295159000382043 ], [ -83.125523991368098, 35.29372799999225 ], [ -83.121452991317355, 35.291520999988592 ], [ -83.119831991761956, 35.288138000476387 ], [ -83.117127991755993, 35.286591000428857 ], [ -83.114259990790231, 35.282575000492088 ], [ -83.108908991150429, 35.281375000147094 ], [ -83.104353991065906, 35.28198000019124 ], [ -83.101628991251019, 35.280787000229935 ], [ -83.099432991727852, 35.281252000380732 ], [ -83.100114990823684, 35.277107999961856 ], [ -83.098456991429401, 35.275369999936146 ], [ -83.095648991207355, 35.274519000386896 ], [ -83.095595990902083, 35.273676000580409 ], [ -83.083284991783501, 35.276537000226377 ], [ -83.070426990706636, 35.275636000297347 ], [ -83.061758990962545, 35.275941000041541 ], [ -83.060015990772328, 35.271267999941792 ], [ -83.060850991623198, 35.263386999972681 ], [ -83.06221899180143, 35.259483000595701 ], [ -83.065402990928476, 35.254718000524861 ], [ -83.065384991227646, 35.251620000571052 ], [ -83.066499991401358, 35.249980000366349 ], [ -83.067299991348222, 35.250057000423951 ], [ -83.065364991078795, 35.246653000170156 ], [ -83.066969991533213, 35.244438000271089 ], [ -83.066343991461338, 35.244084999979918 ], [ -83.064835990907326, 35.245554000191369 ], [ -83.062813990716407, 35.24101700014014 ], [ -83.066799991414555, 35.237449000359405 ], [ -83.069554991469886, 35.23164100003968 ], [ -83.076188991351657, 35.227471000649501 ], [ -83.079201990829574, 35.224550000518342 ], [ -83.081206991738185, 35.225271000451286 ], [ -83.083510991743651, 35.227011000220187 ], [ -83.0829989909913, 35.228257000752002 ], [ -83.08140599123395, 35.228724000245393 ], [ -83.083902991008301, 35.230387999910171 ], [ -83.088080990945301, 35.227160999875998 ], [ -83.091126990900747, 35.226460000322341 ], [ -83.093401991007767, 35.222948000666747 ], [ -83.10010199077982, 35.221545000570472 ], [ -83.110225991113637, 35.224914999993828 ], [ -83.120186991551932, 35.223465000019068 ], [ -83.140511990941661, 35.223212000304919 ], [ -83.139295990743477, 35.226720999982852 ], [ -83.136630991468536, 35.227931000678538 ], [ -83.137738991699933, 35.2318820005096 ], [ -83.13591199134774, 35.232711000195955 ], [ -83.133809991425039, 35.235716000363418 ], [ -83.134129991012614, 35.236607000185288 ], [ -83.138040991330001, 35.237535000398296 ], [ -83.141734990879442, 35.241744000683767 ], [ -83.147954991133318, 35.242697000513765 ], [ -83.152749990842239, 35.241346000265409 ], [ -83.16032399093416, 35.242338000139668 ], [ -83.163608990906326, 35.244470000309917 ] ] ] } },
{ "type": "Feature", "properties": { "county": "JACKSON", "precinct": "SAV", "enr_desc": "Savannah", "winner": "Casey Walawender", "winner_votes": 55, "winner_share": 45.454545454545453, "runner_up": "Julie Extine Painter", "runner_up_votes": 37, "runner_up_share": 30.578512396694212, "contest_votes": 121, "margin_of_victory": 14.876033057851242, "is_tie": false, "results": [ { "candidate": "Casey Walawender", "votes": 55, "share": 45.45454545454545 }, { "candidate": "Julie Extine Painter", "votes": 37, "share": 30.57851239669421 }, { "candidate": "John A. Herrera", "votes": 25, "share": 20.66115702479339 }, { "candidate": "German (Worm) Vivas", "votes": 4, "share": 3.3057851239669422 } ], "participated": true, "map_key": "JACKSON_SAV" }, "geometry": { "type": "Polygon", "coordinates": [ [ [ -83.242865990911838, 35.239082000140741 ], [ -83.242657991705642, 35.237286000347254 ], [ -83.244948991272622, 35.234294000291136 ], [ -83.24527999075697, 35.231385000440802 ], [ -83.248511991084854, 35.232140000271137 ], [ -83.25136099171624, 35.23134400037236 ], [ -83.257128991292902, 35.231502999988962 ], [ -83.268105990749703, 35.229772000631982 ], [ -83.269157991568747, 35.228725000148351 ], [ -83.271553991450787, 35.228337000358749 ], [ -83.276954991015657, 35.22804500057746 ], [ -83.282419991245774, 35.22913200048152 ], [ -83.284438991389109, 35.231902000588271 ], [ -83.289096991756722, 35.232853000613119 ], [ -83.293275991066324, 35.235186000733073 ], [ -83.294183991485113, 35.236629000493281 ], [ -83.29434399078616, 35.241443999943982 ], [ -83.296805991069022, 35.242555000750599 ], [ -83.295446990724429, 35.247867000438546 ], [ -83.296203990951767, 35.252169000174383 ], [ -83.298308991153363, 35.255652000003167 ], [ -83.30827699094057, 35.257150000571528 ], [ -83.310951991728246, 35.259497000077467 ], [ -83.310077990977589, 35.261298000347232 ], [ -83.310019991262507, 35.264119000047472 ], [ -83.315965990752986, 35.264882000074834 ], [ -83.315770991608929, 35.266652000739747 ], [ -83.314087991695089, 35.269202000241137 ], [ -83.31578899140608, 35.272684999985927 ], [ -83.315659990912806, 35.27437499993183 ], [ -83.313637990993001, 35.276201999870878 ], [ -83.313143991167962, 35.280188999938972 ], [ -83.31203599174934, 35.281606000433641 ], [ -83.313661991501334, 35.284573000221322 ], [ -83.318444991550564, 35.289059000447764 ], [ -83.316697991497676, 35.292359000301488 ], [ -83.316371991074092, 35.295820000744378 ], [ -83.317259991120707, 35.298446000633994 ], [ -83.322641991462746, 35.301451000678476 ], [ -83.321806991765413, 35.30524600026429 ], [ -83.322955991571121, 35.307387000051321 ], [ -83.320226991391792, 35.308314000177376 ], [ -83.316489991557475, 35.311554000741324 ], [ -83.314456991290086, 35.311838000492145 ], [ -83.309558990692608, 35.309075999985019 ], [ -83.304964991623734, 35.303338999911716 ], [ -83.300689991431142, 35.302671000236103 ], [ -83.296616991146962, 35.306945000101074 ], [ -83.291617990693553, 35.307746000292099 ], [ -83.285212990954946, 35.306379000665032 ], [ -83.276382991791266, 35.312052000405089 ], [ -83.273884991705273, 35.311013999907985 ], [ -83.274251990963208, 35.310027000361629 ], [ -83.272266990942313, 35.308763000247176 ], [ -83.26477399156515, 35.310143000144684 ], [ -83.256090990841543, 35.310345000660682 ], [ -83.256006990738598, 35.311312000739179 ], [ -83.253034991405841, 35.313834999881394 ], [ -83.246308991036344, 35.314765000732606 ], [ -83.243243990842629, 35.316376000700586 ], [ -83.238930991192973, 35.312206000750436 ], [ -83.234957991759714, 35.31059700012527 ], [ -83.236035990829734, 35.305655999873686 ], [ -83.234127991081095, 35.303961000294962 ], [ -83.233992991762577, 35.299842000361501 ], [ -83.227612991745261, 35.295966000173109 ], [ -83.22317999141994, 35.296932000059257 ], [ -83.22036199169294, 35.290143000687209 ], [ -83.220411991427497, 35.285719000669737 ], [ -83.221916990793517, 35.280850999896067 ], [ -83.225708990863723, 35.273947000010914 ], [ -83.227380991788166, 35.268453000369327 ], [ -83.228775991726096, 35.26610500025847 ], [ -83.230781991777334, 35.264611000091975 ], [ -83.240017990890493, 35.258209999964883 ], [ -83.243960990726563, 35.256626999975332 ], [ -83.242865990911838, 35.239082000140741 ] ] ] } },
{ "type": "Feature", "properties": { "county": "JACKSON", "precinct": "SCC", "enr_desc": "Scotts Creek Combined", "winner": "Julie Extine Painter", "winner_votes": 86, "winner_share": 46.486486486486491, "runner_up": "Casey Walawender", "runner_up_votes": 54, "runner_up_share": 29.189189189189189, "contest_votes": 185, "margin_of_victory": 17.297297297297302, "is_tie": false, "results": [ { "candidate": "Julie Extine Painter", "votes": 86, "share": 46.48648648648649 }, { "candidate": "Casey Walawender", "votes": 54, "share": 29.18918918918919 }, { "candidate": "John A. Herrera", "votes": 42, "share": 22.702702702702705 }, { "candidate": "German (Worm) Vivas", "votes": 3, "share": 1.6216216216216217 } ], "participated": true, "map_key": "JACKSON_SCC" }, "geometry": { "type": "Polygon", "coordinates": [ [ [ -83.027922991021114, 35.383143000016588 ], [ -83.03734199101595, 35.375101000088947 ], [ -83.054777991676886, 35.368239999958433 ], [ -83.069071990697196, 35.367293000389118 ], [ -83.077146991214477, 35.369311000097291 ], [ -83.0799829913407, 35.371192000188877 ], [ -83.087597990791991, 35.370904000466247 ], [ -83.090077991206556, 35.373225000644538 ], [ -83.093687991314283, 35.374788000604426 ], [ -83.098620990783033, 35.374904000176521 ], [ -83.098837991570591, 35.372421000211027 ], [ -83.101595990926555, 35.368297000673415 ], [ -83.106242991509987, 35.365174000288832 ], [ -83.110190990707864, 35.36598300014748 ], [ -83.116238990866322, 35.369213000115785 ], [ -83.119926990936804, 35.36918200024455 ], [ -83.123072990754949, 35.370109999936993 ], [ -83.129302991753093, 35.369214000363321 ], [ -83.132195991308137, 35.367305000458032 ], [ -83.133962991181335, 35.367031000363717 ], [ -83.137877991267587, 35.368377999932562 ], [ -83.138583991129721, 35.366240000544622 ], [ -83.136733990733333, 35.364390000749559 ], [ -83.14445099142435, 35.362484999951661 ], [ -83.150568991501999, 35.362827000145224 ], [ -83.150177991330551, 35.365613000614175 ], [ -83.153555991635102, 35.367506000300331 ], [ -83.152919990826135, 35.369267000350831 ], [ -83.153384991737255, 35.372564000263814 ], [ -83.155657991466057, 35.377818000323096 ], [ -83.15945199130384, 35.380216000438111 ], [ -83.164263991075586, 35.379017000079706 ], [ -83.166466991517808, 35.380748000414691 ], [ -83.167379990678626, 35.383497000156872 ], [ -83.166360991123398, 35.389634000488229 ], [ -83.167683991128555, 35.391129000332505 ], [ -83.167380990910289, 35.39326700056742 ], [ -83.168256991202099, 35.39578900040496 ], [ -83.167592991664947, 35.397028000399359 ], [ -83.168934991474671, 35.397438000458514 ], [ -83.169372991129777, 35.40000600049737 ], [ -83.171485991498642, 35.400004000603367 ], [ -83.170914991318242, 35.401853999909022 ], [ -83.168771991321108, 35.401178000485828 ], [ -83.168474991284995, 35.406766000078314 ], [ -83.165836990818306, 35.407244000555465 ], [ -83.168054990927899, 35.409197000326714 ], [ -83.170619991742043, 35.414363000071035 ], [ -83.171565991598357, 35.414876000585657 ], [ -83.17075499150414, 35.418128999901867 ], [ -83.167556991636459, 35.417332000503208 ], [ -83.166366991171955, 35.418316000657185 ], [ -83.165033991044538, 35.422623000186114 ], [ -83.164515991133129, 35.422394999885036 ], [ -83.163298991332326, 35.424103000301294 ], [ -83.164969990835189, 35.424277000371411 ], [ -83.167824991118906, 35.427613000367636 ], [ -83.169616991198794, 35.432864000718823 ], [ -83.169180990906909, 35.436115000286371 ], [ -83.170311991250728, 35.438613000126409 ], [ -83.176106990688965, 35.443878000422053 ], [ -83.172334991288125, 35.447026000113858 ], [ -83.164573991259658, 35.44859699998316 ], [ -83.160071990671469, 35.446623000086205 ], [ -83.155627991006199, 35.448948000107571 ], [ -83.151774990863316, 35.449826000279252 ], [ -83.141592991248089, 35.457667000569337 ], [ -83.140305991257904, 35.461796000023263 ], [ -83.13769999147685, 35.464369000274566 ], [ -83.132058990796352, 35.463086999919256 ], [ -83.12208599133541, 35.4654649998796 ], [ -83.118313991042768, 35.464368000497437 ], [ -83.108966991424083, 35.464104999892292 ], [ -83.106891991197969, 35.462529000430102 ], [ -83.100256991117334, 35.461449000452639 ], [ -83.09143499111984, 35.457531000244458 ], [ -83.089874991597512, 35.454040000544872 ], [ -83.089987991009622, 35.448374999867703 ], [ -83.084409991058124, 35.447581000020179 ], [ -83.082347990744438, 35.448402000150793 ], [ -83.079472990812832, 35.44756500003804 ], [ -83.080352990942572, 35.441521000588928 ], [ -83.079080990955816, 35.439368000271543 ], [ -83.078827991023772, 35.436877000643875 ], [ -83.079988991521958, 35.434502000640904 ], [ -83.077118991021607, 35.43362200037803 ], [ -83.075243991404605, 35.430552000137453 ], [ -83.067727990789919, 35.429137000475542 ], [ -83.06442399176342, 35.426416000270393 ], [ -83.061785991604339, 35.425331000005691 ], [ -83.056280991300781, 35.425975000363437 ], [ -83.053280990945638, 35.423825000561308 ], [ -83.052883991139581, 35.421116000317419 ], [ -83.049077991776159, 35.419136000515522 ], [ -83.046527991553106, 35.416027000402309 ], [ -83.044641991419326, 35.415452000365264 ], [ -83.044885991305662, 35.40862599989471 ], [ -83.043320991123039, 35.405652000522103 ], [ -83.043673991521288, 35.402037000277083 ], [ -83.042819990823787, 35.398157000704593 ], [ -83.043723991048722, 35.394395000151661 ], [ -83.039640991146698, 35.393837999908307 ], [ -83.03830599103371, 35.391987000401784 ], [ -83.031901990883654, 35.387815000597584 ], [ -83.029912991600142, 35.387305000479905 ], [ -83.027660991732432, 35.385308000009367 ], [ -83.027922991021114, 35.383143000016588 ] ] ] } },
{ "type": "Feature", "properties": { "county": "JACKSON", "precinct": "WEB", "enr_desc": "Webster", "winner": "Casey Walawender", "winner_votes": 155, "winner_share": 43.175487465181057, "runner_up": "Julie Extine Painter", "runner_up_votes": 111, "runner_up_share": 30.919220055710305, "contest_votes": 359, "margin_of_victory": 12.256267409470752, "is_tie": false, "results": [ { "candidate": "Casey Walawender", "votes": 155, "share": 43.17548746518106 }, { "candidate": "Julie Extine Painter", "votes": 111, "share": 30.919220055710305 }, { "candidate": "John A. Herrera", "votes": 84, "share": 23.398328690807798 }, { "candidate": "German (Worm) Vivas", "votes": 9, "share": 2.5069637883008355 } ], "participated": true, "map_key": "JACKSON_WEB" }, "geometry": { "type": "Polygon", "coordinates": [ [ [ -83.271508991579381, 35.35070400008599 ], [ -83.267682991757241, 35.352532000577966 ], [ -83.266532991487296, 35.351688000288647 ], [ -83.260289990711257, 35.351478999886254 ], [ -83.26105099168241, 35.350079000185595 ], [ -83.257656990844211, 35.348083000459447 ], [ -83.251382991496797, 35.347222000663351 ], [ -83.244791990807755, 35.350208000564351 ], [ -83.239954991699733, 35.350869000409325 ], [ -83.238272991103045, 35.347374000469522 ], [ -83.235332990672077, 35.35014099996048 ], [ -83.232903991674803, 35.350826000411608 ], [ -83.231322991233981, 35.352341000723548 ], [ -83.23027899103991, 35.356680000156977 ], [ -83.228397991065805, 35.359614999983783 ], [ -83.220737990686075, 35.362404000045409 ], [ -83.209664990876348, 35.361675000131655 ], [ -83.203703991076665, 35.354986000144805 ], [ -83.2007209906904, 35.353099000187932 ], [ -83.199114991756986, 35.347179000310732 ], [ -83.201219990779023, 35.340681000122046 ], [ -83.201940990741861, 35.340295000369274 ], [ -83.201616991684233, 35.338803999922334 ], [ -83.200094990729511, 35.337053000145445 ], [ -83.197471991597851, 35.33637699990215 ], [ -83.196899991505376, 35.332224000191232 ], [ -83.191478991071605, 35.329051000149192 ], [ -83.191503991016589, 35.323564999863429 ], [ -83.19112199142117, 35.322764000017131 ], [ -83.192539991145239, 35.319876999899279 ], [ -83.194236990975796, 35.318154999930435 ], [ -83.195428990906223, 35.318296999896269 ], [ -83.199286991621321, 35.315166000141126 ], [ -83.203650990834475, 35.313427000147023 ], [ -83.207091991103354, 35.307745000257142 ], [ -83.210249991693573, 35.308638999990237 ], [ -83.212193991613788, 35.307052000606824 ], [ -83.212924991613789, 35.304694000726876 ], [ -83.214008991734943, 35.304350000029089 ], [ -83.214521991027652, 35.301287999861486 ], [ -83.220059990756255, 35.301433000187835 ], [ -83.220530990760594, 35.299785000215493 ], [ -83.22317999141994, 35.296932000059257 ], [ -83.227612991745261, 35.295966000173109 ], [ -83.233992991762577, 35.299842000361501 ], [ -83.234127991081095, 35.303961000294962 ], [ -83.236035990829734, 35.305655999873686 ], [ -83.234957991759714, 35.31059700012527 ], [ -83.238930991192973, 35.312206000750436 ], [ -83.243243990842629, 35.316376000700586 ], [ -83.243727990982279, 35.321517999886389 ], [ -83.245481990820053, 35.323755000361771 ], [ -83.247050991009587, 35.32407300058513 ], [ -83.247139990916054, 35.325941999902845 ], [ -83.245371991546961, 35.327129000514915 ], [ -83.245512991309809, 35.329100000674302 ], [ -83.244583991693418, 35.329915000582879 ], [ -83.24528899171446, 35.336787000711908 ], [ -83.246498990950343, 35.337557000306298 ], [ -83.251118991703621, 35.337285000215161 ], [ -83.25621799124734, 35.339554000649663 ], [ -83.259635991583337, 35.339069000489083 ], [ -83.262024991502429, 35.339726000276954 ], [ -83.267747990744311, 35.344476000236476 ], [ -83.27076699135516, 35.34843000075098 ], [ -83.271508991579381, 35.35070400008599 ] ] ] } }
]
}
