{
"type": "FeatureCollection",
"name": "jones_county_sheriff_rep",
"crs": { "type": "name", "properties": { "name": "urn:ogc:def:crs:OGC:1.3:CRS84" } },
"features": [
{ "type": "Feature", "properties": { "county": "JONES", "precinct": "P07", "enr_desc": "White Oak", "winner": "Matthew J. Wineman", "winner_votes": 47, "winner_share": 69.117647058823522, "runner_up": "Nathan Metts", "runner_up_votes": 21, "runner_up_share": 30.882352941176471, "contest_votes": 68, "margin_of_victory": 38.235294117647051, "is_tie": false, "results": [ { "candidate": "Matthew J. Wineman", "votes": 47, "share": 69.11764705882352 }, { "candidate": "Nathan Metts", "votes": 21, "share": 30.88235294117647 } ], "participated": true, "map_key": "JONES_P07" }, "geometry": { "type": "Polygon", "coordinates": [ [ [ -77.416433991737222, 34.930951000109985 ], [ -77.364227991617483, 34.972932000039187 ], [ -77.249522991046504, 34.954672999892495 ], [ -77.105201990745087, 34.933211000257792 ], [ -77.108850991195126, 34.830780000031325 ], [ -77.047248991250498, 34.836416000282128 ], [ -77.050032991333225, 34.833319999816979 ], [ -77.068084991385348, 34.820161999805208 ], [ -77.073342991576553, 34.817629999824767 ], [ -77.075506991169732, 34.814322999597024 ], [ -77.076959990770419, 34.813941999856006 ], [ -77.077315990906243, 34.812363000032043 ], [ -77.079828991680429, 34.81004099965768 ], [ -77.084951991509797, 34.811147999480909 ], [ -77.086663991805722, 34.809774000115873 ], [ -77.089594991730394, 34.809146999794109 ], [ -77.090081991301389, 34.808669000001601 ], [ -77.089381991354642, 34.807789999772837 ], [ -77.090281991080275, 34.806068999545694 ], [ -77.089495991543387, 34.805230999603012 ], [ -77.090675991182053, 34.803462000033818 ], [ -77.089871990968561, 34.800416999969087 ], [ -77.090730991568932, 34.799316000082612 ], [ -77.096149991793254, 34.79924299982266 ], [ -77.098784991647335, 34.801023000192608 ], [ -77.101562991214905, 34.80071499956297 ], [ -77.103731990766562, 34.802448000032307 ], [ -77.107381991085362, 34.803105999872351 ], [ -77.110269990932736, 34.801024999793782 ], [ -77.111202991204522, 34.798083000185578 ], [ -77.112687991116275, 34.796474999539143 ], [ -77.114552991763404, 34.797537999727915 ], [ -77.115565990980883, 34.797229999408657 ], [ -77.11619499172852, 34.793920999640292 ], [ -77.120032991111955, 34.794501000043269 ], [ -77.120664990831926, 34.793370000175834 ], [ -77.123513991679729, 34.792613999867676 ], [ -77.125392991787933, 34.793375999451086 ], [ -77.125494991764228, 34.796107999551772 ], [ -77.128125991469616, 34.795898000052546 ], [ -77.129102991323521, 34.79732799952189 ], [ -77.131204991738727, 34.798183999592375 ], [ -77.134232991143179, 34.796835999871647 ], [ -77.13571399161593, 34.79799299985298 ], [ -77.137278990839278, 34.797067999995839 ], [ -77.137783991379877, 34.79785900026512 ], [ -77.139572991075482, 34.796983000096724 ], [ -77.142229991021338, 34.797004000010723 ], [ -77.143252991208087, 34.793959000210961 ], [ -77.144190990975702, 34.793336000048605 ], [ -77.145310991181802, 34.794075999566211 ], [ -77.147046990964228, 34.793414999954493 ], [ -77.147753991067518, 34.794190999647313 ], [ -77.14996299126642, 34.792651000134462 ], [ -77.156326991504869, 34.793096999426695 ], [ -77.156802990988766, 34.794186999568431 ], [ -77.158441991181519, 34.793546999675129 ], [ -77.161514991730016, 34.795158999758598 ], [ -77.161601991687121, 34.793267999634601 ], [ -77.164381991192627, 34.79050099961168 ], [ -77.165332991337067, 34.790289000174873 ], [ -77.16663599146203, 34.791518000183167 ], [ -77.167768991333759, 34.791000000232799 ], [ -77.165379991231234, 34.787892999430639 ], [ -77.16219399173886, 34.78737399953269 ], [ -77.16246099135995, 34.786026000097664 ], [ -77.164061991462148, 34.785185999453738 ], [ -77.167311990942807, 34.785185999698214 ], [ -77.168927990867203, 34.781172999995711 ], [ -77.171460991630838, 34.780323000281292 ], [ -77.172981991555972, 34.780808000019164 ], [ -77.173322991094054, 34.781867999850974 ], [ -77.170187991172057, 34.785072999842939 ], [ -77.174043991350786, 34.78574199946209 ], [ -77.175259991098159, 34.787112000074863 ], [ -77.174467990755417, 34.788303999589246 ], [ -77.17133299131261, 34.789151000029996 ], [ -77.170865991410764, 34.790412000222538 ], [ -77.175817990760166, 34.791968999902252 ], [ -77.176127990993777, 34.79322999992705 ], [ -77.175130991201783, 34.795533999456083 ], [ -77.175754990779637, 34.796703000231162 ], [ -77.179665991083453, 34.79778199967803 ], [ -77.188014991614068, 34.802199000106363 ], [ -77.190506991774868, 34.802262999807134 ], [ -77.190811990999322, 34.803034999781431 ], [ -77.189222990745151, 34.806324999873333 ], [ -77.193103991170361, 34.806871000138933 ], [ -77.196224990994793, 34.810039999614396 ], [ -77.196111991079377, 34.811208999459623 ], [ -77.194126991488432, 34.811988000293383 ], [ -77.193116991291774, 34.814423000297765 ], [ -77.195105991533481, 34.81528199960416 ], [ -77.195778991443788, 34.817611000015823 ], [ -77.194602990766157, 34.81821300012377 ], [ -77.192210991636614, 34.817182999726313 ], [ -77.186363990996995, 34.819466999958053 ], [ -77.186324991342659, 34.821018999690246 ], [ -77.184727991483228, 34.821778999921435 ], [ -77.185950991683725, 34.823332000073215 ], [ -77.184303991029807, 34.826341999853142 ], [ -77.18238799103456, 34.82672299965347 ], [ -77.181841991597395, 34.828240999426228 ], [ -77.180538991525822, 34.828369999912503 ], [ -77.179514991034225, 34.829496999559538 ], [ -77.181252991198676, 34.83621099945217 ], [ -77.182539991200684, 34.83725999999389 ], [ -77.184953991584152, 34.836581000255443 ], [ -77.185443990960223, 34.835018999750936 ], [ -77.188682991119279, 34.833340999927103 ], [ -77.191706990829388, 34.833795999775134 ], [ -77.190807991796831, 34.832369999620681 ], [ -77.193295991305646, 34.831945000006812 ], [ -77.19409199092938, 34.832767999451178 ], [ -77.195196991058836, 34.83247099968564 ], [ -77.196279991241084, 34.834170000100706 ], [ -77.197261991388515, 34.832597999684914 ], [ -77.201937991370229, 34.834498999790853 ], [ -77.20138399077247, 34.836373999598067 ], [ -77.203272991088568, 34.837029999673035 ], [ -77.202941991644735, 34.837870999513143 ], [ -77.201532991585438, 34.838050999865864 ], [ -77.202070991321008, 34.839035000063639 ], [ -77.200997990898642, 34.840021999910746 ], [ -77.200853990807957, 34.84200799953242 ], [ -77.202020991135555, 34.841775999999129 ], [ -77.202133991272774, 34.842436999580038 ], [ -77.203439991273953, 34.842656999741514 ], [ -77.202302990773262, 34.843398999680886 ], [ -77.203326990940496, 34.844670000219971 ], [ -77.202710991230205, 34.845296999882059 ], [ -77.2050259908616, 34.845985999922462 ], [ -77.204583991318842, 34.847836999969708 ], [ -77.205917991619714, 34.847516999585189 ], [ -77.20560199118502, 34.848524999435099 ], [ -77.207582991344808, 34.850392999660876 ], [ -77.212202991065553, 34.85327799978738 ], [ -77.211351991583825, 34.853536000150108 ], [ -77.211205991417955, 34.855617999471129 ], [ -77.20988199108524, 34.856923999594571 ], [ -77.209963991665617, 34.858747000168165 ], [ -77.213030990854207, 34.860389000209878 ], [ -77.21377999182225, 34.861672999627224 ], [ -77.212847991665512, 34.862469999660647 ], [ -77.216701991583292, 34.865875999480892 ], [ -77.216590991332978, 34.867094999710446 ], [ -77.218310991444284, 34.868219000260261 ], [ -77.218815991396028, 34.870266999973829 ], [ -77.219576991277634, 34.870278999848082 ], [ -77.21927099126421, 34.871703999778191 ], [ -77.215883991395415, 34.873327999865673 ], [ -77.217095991138308, 34.875910000101733 ], [ -77.219587991115844, 34.877683999650955 ], [ -77.219545991627925, 34.878823999739474 ], [ -77.222429990828871, 34.88205799981921 ], [ -77.222848990836326, 34.883439000211531 ], [ -77.221516991051075, 34.883433999898742 ], [ -77.220829990780061, 34.884588999561238 ], [ -77.222002991169035, 34.886996999567536 ], [ -77.225298991449236, 34.887329000060475 ], [ -77.231132991077999, 34.885208000195881 ], [ -77.234111991513885, 34.886121000115558 ], [ -77.231873990750714, 34.892913999559816 ], [ -77.23333999110919, 34.893875999976245 ], [ -77.234306991159869, 34.891495999849234 ], [ -77.235744991774752, 34.892114999996615 ], [ -77.236323990926863, 34.893433999476173 ], [ -77.238770991769869, 34.893575999870428 ], [ -77.23901899150367, 34.894586999795749 ], [ -77.237019991645099, 34.898411999745385 ], [ -77.237356991271255, 34.899962000021176 ], [ -77.240154990885472, 34.898900000241213 ], [ -77.243784991407082, 34.90041399992419 ], [ -77.244070991397948, 34.899699999956233 ], [ -77.24501799076242, 34.900182999462025 ], [ -77.245904991155868, 34.899583000086103 ], [ -77.246458991679134, 34.900401999670621 ], [ -77.248332991490798, 34.900100999657596 ], [ -77.248732991528811, 34.90103699971182 ], [ -77.249819991744332, 34.900889000092775 ], [ -77.250621991543994, 34.901665999841875 ], [ -77.250508991815366, 34.903322999982642 ], [ -77.251473990742141, 34.902663000214325 ], [ -77.25221699121893, 34.903092999946786 ], [ -77.251101990899315, 34.905662999948255 ], [ -77.251554991098516, 34.906110000092447 ], [ -77.25064699132831, 34.906679999517067 ], [ -77.251476991608413, 34.908241999614042 ], [ -77.250415990979135, 34.908208000188921 ], [ -77.249998991033507, 34.90909499956981 ], [ -77.25073299179023, 34.909907999911084 ], [ -77.252041990811065, 34.90970899948654 ], [ -77.253214990803428, 34.91070999976187 ], [ -77.255707990957603, 34.910491000066926 ], [ -77.258138990983753, 34.908520999819899 ], [ -77.259325991359461, 34.908883999657974 ], [ -77.260730991518798, 34.911439000188452 ], [ -77.25929799103551, 34.913313999893191 ], [ -77.259717991136398, 34.914869999681997 ], [ -77.261664991696776, 34.916921999459596 ], [ -77.262228991759841, 34.918792999873858 ], [ -77.264615990809446, 34.91913000011175 ], [ -77.264199991102032, 34.919419999599285 ], [ -77.265134990911463, 34.920053999838935 ], [ -77.264122991472846, 34.921005000033787 ], [ -77.265461990916378, 34.921713000184702 ], [ -77.265526991638822, 34.923020000257587 ], [ -77.267167991361433, 34.923191000215397 ], [ -77.267646990855525, 34.925789999903579 ], [ -77.274077990968308, 34.927144000237838 ], [ -77.277006991787516, 34.926556999671767 ], [ -77.278740991391757, 34.928035999446394 ], [ -77.283296991524793, 34.927806000005759 ], [ -77.284663991802176, 34.928827999766348 ], [ -77.28469699077452, 34.930942999991913 ], [ -77.285317991419689, 34.931288999604284 ], [ -77.286771990871244, 34.930230000049868 ], [ -77.289537991437697, 34.931669000136658 ], [ -77.290546990970796, 34.930713999848713 ], [ -77.294637990997927, 34.930467000201979 ], [ -77.297887990942471, 34.933863000014348 ], [ -77.304303991461126, 34.934274999470723 ], [ -77.307306991350458, 34.937154999655924 ], [ -77.308892991601368, 34.937572000145579 ], [ -77.311555991268094, 34.936439999897388 ], [ -77.310935991780312, 34.935369000177069 ], [ -77.313443990846963, 34.932643999729194 ], [ -77.317019990729989, 34.932275999635081 ], [ -77.318960990975043, 34.934863000107576 ], [ -77.322648990998189, 34.934759999785442 ], [ -77.324091991626119, 34.936335999852233 ], [ -77.326880991580566, 34.937170999773137 ], [ -77.328159991159609, 34.938463999544418 ], [ -77.331996991460684, 34.939083000013163 ], [ -77.334624990882773, 34.938243999453341 ], [ -77.335607991581298, 34.936707999760571 ], [ -77.338799991762798, 34.935895000057883 ], [ -77.339642991147912, 34.934508000089664 ], [ -77.341737990856814, 34.934476999469858 ], [ -77.343190991018474, 34.931310000255515 ], [ -77.345814990786252, 34.930340000225783 ], [ -77.34823799164586, 34.930883999951575 ], [ -77.353116991292353, 34.930148000139091 ], [ -77.354743991438724, 34.929016000281045 ], [ -77.356825991568414, 34.929234000046904 ], [ -77.360351990868509, 34.925904000186385 ], [ -77.363139990912217, 34.92582499976897 ], [ -77.36358599088345, 34.924116999625994 ], [ -77.365346991576487, 34.923159999829892 ], [ -77.365062990837188, 34.919083999531814 ], [ -77.366541991665997, 34.915836000165847 ], [ -77.365806991411333, 34.912573000064555 ], [ -77.366767991504702, 34.908649999613338 ], [ -77.416433991737222, 34.930951000109985 ] ] ] } },
{ "type": "Feature", "properties": { "county": "JONES", "precinct": "P01", "enr_desc": "Beaver Creek", "winner": "Matthew J. Wineman", "winner_votes": 35, "winner_share": 71.428571428571431, "runner_up": "Nathan Metts", "runner_up_votes": 14, "runner_up_share": 28.571428571428569, "contest_votes": 49, "margin_of_victory": 42.857142857142861, "is_tie": false, "results": [ { "candidate": "Matthew J. Wineman", "votes": 35, "share": 71.42857142857143 }, { "candidate": "Nathan Metts", "votes": 14, "share": 28.57142857142857 } ], "participated": true, "map_key": "JONES_P01" }, "geometry": { "type": "Polygon", "coordinates": [ [ [ -77.338885991310292, 35.15525399973717 ], [ -77.354837991647827, 35.125255999673435 ], [ -77.363791991194873, 35.111034000018051 ], [ -77.370824991135038, 35.10445799973553 ], [ -77.372264991369548, 35.099678000258351 ], [ -77.371848991503839, 35.097228000275152 ], [ -77.376178991171756, 35.094792000194758 ], [ -77.3763799912808, 35.093263999559674 ], [ -77.379805990721337, 35.09977499948517 ], [ -77.383756991438887, 35.101536000107629 ], [ -77.386789990824795, 35.100322999753111 ], [ -77.387387991205941, 35.101730999495899 ], [ -77.385683991137185, 35.103637999763414 ], [ -77.386270990753573, 35.104125000306432 ], [ -77.390647991187706, 35.102748000173783 ], [ -77.391283991451402, 35.101852000008634 ], [ -77.390529990758438, 35.10047399992883 ], [ -77.390990991739542, 35.099854999776198 ], [ -77.396055991533473, 35.098305000281272 ], [ -77.396826990849547, 35.099308999797067 ], [ -77.397499991120313, 35.098066000197782 ], [ -77.398208991247031, 35.099637999617833 ], [ -77.399021991015502, 35.097674999560503 ], [ -77.401940991442387, 35.099075000299131 ], [ -77.40234099121497, 35.098718999646223 ], [ -77.401452991215464, 35.098189999823198 ], [ -77.40459099156709, 35.09653899983163 ], [ -77.403395991235797, 35.097819999779936 ], [ -77.405379991662031, 35.097523000231341 ], [ -77.403977990949755, 35.09872600010214 ], [ -77.405339991750253, 35.099658999488561 ], [ -77.403996991081073, 35.103124000125163 ], [ -77.406107991526127, 35.106217999948925 ], [ -77.40541199125299, 35.106876000122234 ], [ -77.40204099113177, 35.10588900001995 ], [ -77.402382991713523, 35.10645700009978 ], [ -77.401614991122059, 35.107116999941297 ], [ -77.402642991218997, 35.108591999634335 ], [ -77.403565991285191, 35.111233999901067 ], [ -77.408912991748721, 35.114147000079299 ], [ -77.408070990998155, 35.115422000160592 ], [ -77.409667991112983, 35.116212999837202 ], [ -77.409012991443888, 35.117933000041575 ], [ -77.411452991737576, 35.117894999757496 ], [ -77.413538991755885, 35.119070000269552 ], [ -77.414206991532836, 35.118696999987549 ], [ -77.414000991309294, 35.117317999919038 ], [ -77.415276991386378, 35.118494000179474 ], [ -77.417189991251462, 35.117460999607133 ], [ -77.419883991105308, 35.117285999865558 ], [ -77.420505991404482, 35.118268999692809 ], [ -77.419068991585846, 35.118581999974545 ], [ -77.418205991077571, 35.119777999914177 ], [ -77.420592990983195, 35.120802000213459 ], [ -77.42054599092387, 35.119296999831988 ], [ -77.422558991112666, 35.11899499982912 ], [ -77.424477991077538, 35.116945999956968 ], [ -77.426583991219559, 35.117457000150097 ], [ -77.429404991119654, 35.120010999743144 ], [ -77.43088999101866, 35.1191429994876 ], [ -77.431116991401282, 35.120983999815394 ], [ -77.432320990896201, 35.121566000168023 ], [ -77.431778991524411, 35.123010999643398 ], [ -77.436239990924165, 35.12721399987133 ], [ -77.436333991096362, 35.128851000068003 ], [ -77.432487991358144, 35.132504000014869 ], [ -77.433504990986805, 35.133327999866104 ], [ -77.435236991323265, 35.133290000314766 ], [ -77.436139991477532, 35.131208000333757 ], [ -77.439395991348931, 35.132636000273315 ], [ -77.440960991195638, 35.130558999837561 ], [ -77.443561991752858, 35.129148000099356 ], [ -77.448135991152199, 35.131328000052299 ], [ -77.453446990940492, 35.137327000033459 ], [ -77.455706990922081, 35.13620599973946 ], [ -77.461812991340025, 35.13776499979933 ], [ -77.463311991201621, 35.138829999530863 ], [ -77.467899991285407, 35.13939000022085 ], [ -77.47082199089661, 35.138059000080368 ], [ -77.471504990877378, 35.14063599993009 ], [ -77.47123399087279, 35.148837999563675 ], [ -77.471936991016278, 35.149584999714136 ], [ -77.475214990988576, 35.150522999501504 ], [ -77.479005991418461, 35.148286000291883 ], [ -77.48256399145653, 35.14879000012391 ], [ -77.483739991752856, 35.145894999850306 ], [ -77.485732991624744, 35.146399000195387 ], [ -77.489911991291549, 35.143859999541533 ], [ -77.49512299155036, 35.146185999808282 ], [ -77.504629991035969, 35.14694400025477 ], [ -77.510569991257938, 35.145150000299665 ], [ -77.512068990736523, 35.143782999668289 ], [ -77.516683991691181, 35.143657999756641 ], [ -77.52002599136587, 35.146339999836847 ], [ -77.524206991046498, 35.14519399954532 ], [ -77.526974990770711, 35.146160999889688 ], [ -77.529951990897459, 35.148554000130488 ], [ -77.507462990865918, 35.17281400033675 ], [ -77.527181991484852, 35.243000999644366 ], [ -77.473560991474201, 35.22892400033632 ], [ -77.45174499134005, 35.218716999910484 ], [ -77.338885991310292, 35.15525399973717 ] ] ] } },
{ "type": "Feature", "properties": { "county": "JONES", "precinct": "P02", "enr_desc": "Chinquapin", "winner": "Matthew J. Wineman", "winner_votes": 54, "winner_share": 81.818181818181827, "runner_up": "Nathan Metts", "runner_up_votes": 12, "runner_up_share": 18.181818181818183, "contest_votes": 66, "margin_of_victory": 63.63636363636364, "is_tie": false, "results": [ { "candidate": "Matthew J. Wineman", "votes": 54, "share": 81.81818181818183 }, { "candidate": "Nathan Metts", "votes": 12, "share": 18.181818181818183 } ], "participated": true, "map_key": "JONES_P02" }, "geometry": { "type": "Polygon", "coordinates": [ [ [ -77.538978990940549, 35.048554999664908 ], [ -77.553589990728653, 35.122998999824922 ], [ -77.529951990897459, 35.148554000130488 ], [ -77.526974990770711, 35.146160999889688 ], [ -77.524206991046498, 35.14519399954532 ], [ -77.52002599136587, 35.146339999836847 ], [ -77.516683991691181, 35.143657999756641 ], [ -77.512068990736523, 35.143782999668289 ], [ -77.510569991257938, 35.145150000299665 ], [ -77.504629991035969, 35.14694400025477 ], [ -77.49512299155036, 35.146185999808282 ], [ -77.489911991291549, 35.143859999541533 ], [ -77.485732991624744, 35.146399000195387 ], [ -77.483739991752856, 35.145894999850306 ], [ -77.48256399145653, 35.14879000012391 ], [ -77.479005991418461, 35.148286000291883 ], [ -77.475214990988576, 35.150522999501504 ], [ -77.471936991016278, 35.149584999714136 ], [ -77.47123399087279, 35.148837999563675 ], [ -77.471504990877378, 35.14063599993009 ], [ -77.47082199089661, 35.138059000080368 ], [ -77.467899991285407, 35.13939000022085 ], [ -77.463311991201621, 35.138829999530863 ], [ -77.461812991340025, 35.13776499979933 ], [ -77.455706990922081, 35.13620599973946 ], [ -77.453446990940492, 35.137327000033459 ], [ -77.448135991152199, 35.131328000052299 ], [ -77.443561991752858, 35.129148000099356 ], [ -77.440960991195638, 35.130558999837561 ], [ -77.439395991348931, 35.132636000273315 ], [ -77.436139991477532, 35.131208000333757 ], [ -77.435236991323265, 35.133290000314766 ], [ -77.433504990986805, 35.133327999866104 ], [ -77.432487991358144, 35.132504000014869 ], [ -77.436333991096362, 35.128851000068003 ], [ -77.436239990924165, 35.12721399987133 ], [ -77.431778991524411, 35.123010999643398 ], [ -77.432320990896201, 35.121566000168023 ], [ -77.431116991401282, 35.120983999815394 ], [ -77.43088999101866, 35.1191429994876 ], [ -77.429404991119654, 35.120010999743144 ], [ -77.426583991219559, 35.117457000150097 ], [ -77.424477991077538, 35.116945999956968 ], [ -77.422558991112666, 35.11899499982912 ], [ -77.42054599092387, 35.119296999831988 ], [ -77.420592990983195, 35.120802000213459 ], [ -77.418205991077571, 35.119777999914177 ], [ -77.419068991585846, 35.118581999974545 ], [ -77.420505991404482, 35.118268999692809 ], [ -77.419883991105308, 35.117285999865558 ], [ -77.417189991251462, 35.117460999607133 ], [ -77.415276991386378, 35.118494000179474 ], [ -77.414000991309294, 35.117317999919038 ], [ -77.414206991532836, 35.118696999987549 ], [ -77.413538991755885, 35.119070000269552 ], [ -77.411452991737576, 35.117894999757496 ], [ -77.409012991443888, 35.117933000041575 ], [ -77.409667991112983, 35.116212999837202 ], [ -77.408070990998155, 35.115422000160592 ], [ -77.408912991748721, 35.114147000079299 ], [ -77.403565991285191, 35.111233999901067 ], [ -77.402642991218997, 35.108591999634335 ], [ -77.403217991501762, 35.107004999559521 ], [ -77.407393991509551, 35.109752999905986 ], [ -77.411500990735561, 35.108607000118766 ], [ -77.411832990853313, 35.109561999895618 ], [ -77.41052499073426, 35.112392999850186 ], [ -77.414874991784771, 35.113498999538663 ], [ -77.415849991479845, 35.112745000277229 ], [ -77.417303991028163, 35.10877299959342 ], [ -77.42075099080833, 35.105000000210481 ], [ -77.422504991054637, 35.104129000197702 ], [ -77.422679991246326, 35.10149999944452 ], [ -77.426044990815541, 35.102322999741666 ], [ -77.428815990746216, 35.100870999938785 ], [ -77.428443990808745, 35.099773999906773 ], [ -77.4252179909803, 35.098947999956515 ], [ -77.418389991425329, 35.099586000182804 ], [ -77.420535991293463, 35.095627999636811 ], [ -77.42395499172089, 35.095943999469071 ], [ -77.426674991230684, 35.09520100031218 ], [ -77.427069991296136, 35.091733999873689 ], [ -77.426591991301066, 35.090536999547751 ], [ -77.42536899154949, 35.090094999973459 ], [ -77.422548991353295, 35.093777000145479 ], [ -77.419351990746506, 35.094795999800468 ], [ -77.417854990983884, 35.094501000275777 ], [ -77.416582991558158, 35.091143999786453 ], [ -77.420040990718491, 35.091402000120475 ], [ -77.422420991331734, 35.090171000256049 ], [ -77.419641991530455, 35.089122999610368 ], [ -77.420874990834776, 35.086977999584349 ], [ -77.420565991420332, 35.085985999754179 ], [ -77.419575991311717, 35.085572000196542 ], [ -77.419706991101435, 35.086287999521772 ], [ -77.417917991725446, 35.086330000114508 ], [ -77.420645991739917, 35.084104999639543 ], [ -77.421398991221693, 35.080538000095352 ], [ -77.417363991795241, 35.076999000188557 ], [ -77.414578991297034, 35.077311999454231 ], [ -77.417178990783242, 35.073462000237299 ], [ -77.418319991311904, 35.073755999704296 ], [ -77.419838991282674, 35.072399999886841 ], [ -77.421700991500074, 35.072768999770119 ], [ -77.424770991319065, 35.0700840001399 ], [ -77.428615991638495, 35.069787999694512 ], [ -77.429198990997989, 35.070431999475474 ], [ -77.429313990765152, 35.06948199959534 ], [ -77.431230991159595, 35.069295999578678 ], [ -77.429756991474903, 35.068299999913961 ], [ -77.430711991352268, 35.06751799962462 ], [ -77.432164991663115, 35.06802399965553 ], [ -77.433327990716393, 35.066698999784613 ], [ -77.434634990998603, 35.067169999509119 ], [ -77.433648991069902, 35.068402999451067 ], [ -77.435127990867542, 35.070161999913594 ], [ -77.436438990850419, 35.069300999699152 ], [ -77.43627999114041, 35.068223999871037 ], [ -77.439054990751998, 35.066950000092923 ], [ -77.440574991177868, 35.067346000101338 ], [ -77.440578991661013, 35.068976999833644 ], [ -77.438689991392422, 35.070247999771631 ], [ -77.438547990884473, 35.071756000230593 ], [ -77.440215991041896, 35.071769999473148 ], [ -77.439717991705436, 35.07283899948996 ], [ -77.441072991423297, 35.072427999627592 ], [ -77.441468990769252, 35.071451999715379 ], [ -77.442401991523639, 35.071799999832862 ], [ -77.444923991207475, 35.068719999987515 ], [ -77.44638699120965, 35.069473999989114 ], [ -77.44797999160761, 35.068926999916037 ], [ -77.450688991267455, 35.071597999552665 ], [ -77.452779990844647, 35.071617000003414 ], [ -77.454034991009678, 35.069517000078648 ], [ -77.455360991044486, 35.069363000040703 ], [ -77.456521991425447, 35.067668000252212 ], [ -77.456997991128731, 35.064686000036211 ], [ -77.460710991702314, 35.064785999852162 ], [ -77.46118199094488, 35.063356000290703 ], [ -77.460261991570704, 35.061498999477983 ], [ -77.462118991026173, 35.060795999965222 ], [ -77.464209990880519, 35.061713000041934 ], [ -77.465432991601844, 35.06072299959844 ], [ -77.466494990991194, 35.061201000172176 ], [ -77.469727991062058, 35.057914999652624 ], [ -77.475440991049652, 35.059934999736029 ], [ -77.538978990940549, 35.048554999664908 ] ] ] } },
{ "type": "Feature", "properties": { "county": "JONES", "precinct": "P03", "enr_desc": "Cypress Creek", "winner": "Matthew J. Wineman", "winner_votes": 73, "winner_share": 73.0, "runner_up": "Nathan Metts", "runner_up_votes": 27, "runner_up_share": 27.0, "contest_votes": 100, "margin_of_victory": 46.0, "is_tie": false, "results": [ { "candidate": "Matthew J. Wineman", "votes": 73, "share": 73.0 }, { "candidate": "Nathan Metts", "votes": 27, "share": 27.0 } ], "participated": true, "map_key": "JONES_P03" }, "geometry": { "type": "Polygon", "coordinates": [ [ [ -77.452143991219941, 34.946962999785114 ], [ -77.502770991211563, 34.969635000194842 ], [ -77.577571991683186, 34.978371000209556 ], [ -77.563764991196948, 35.034706000317911 ], [ -77.563116991490261, 35.03433199968606 ], [ -77.562266991436232, 35.030781999774135 ], [ -77.560668991449361, 35.028749999825109 ], [ -77.558460991375327, 35.030476999785918 ], [ -77.556168991131045, 35.029622999568453 ], [ -77.553469991036621, 35.030198999562288 ], [ -77.545017991567008, 35.025684999693915 ], [ -77.541524990929119, 35.028046000122295 ], [ -77.541430991780786, 35.032853000213585 ], [ -77.542564991464445, 35.034512000274049 ], [ -77.541175991381905, 35.035874999531238 ], [ -77.542123990857789, 35.037066999674352 ], [ -77.540654991332531, 35.038115999616728 ], [ -77.540252990819894, 35.04181799953804 ], [ -77.538541991203033, 35.04406999945413 ], [ -77.538978990940549, 35.048554999664908 ], [ -77.475440991049652, 35.059934999736029 ], [ -77.469727991062058, 35.057914999652624 ], [ -77.466494990991194, 35.061201000172176 ], [ -77.465432991601844, 35.06072299959844 ], [ -77.464209990880519, 35.061713000041934 ], [ -77.462118991026173, 35.060795999965222 ], [ -77.460261991570704, 35.061498999477983 ], [ -77.46118199094488, 35.063356000290703 ], [ -77.460710991702314, 35.064785999852162 ], [ -77.456997991128731, 35.064686000036211 ], [ -77.456521991425447, 35.067668000252212 ], [ -77.455360991044486, 35.069363000040703 ], [ -77.454034991009678, 35.069517000078648 ], [ -77.452779990844647, 35.071617000003414 ], [ -77.450688991267455, 35.071597999552665 ], [ -77.44797999160761, 35.068926999916037 ], [ -77.44638699120965, 35.069473999989114 ], [ -77.444923991207475, 35.068719999987515 ], [ -77.442401991523639, 35.071799999832862 ], [ -77.441468990769252, 35.071451999715379 ], [ -77.441072991423297, 35.072427999627592 ], [ -77.439717991705436, 35.07283899948996 ], [ -77.440215991041896, 35.071769999473148 ], [ -77.438547990884473, 35.071756000230593 ], [ -77.438689991392422, 35.070247999771631 ], [ -77.440578991661013, 35.068976999833644 ], [ -77.440574991177868, 35.067346000101338 ], [ -77.439054990751998, 35.066950000092923 ], [ -77.43627999114041, 35.068223999871037 ], [ -77.436438990850419, 35.069300999699152 ], [ -77.435127990867542, 35.070161999913594 ], [ -77.433648991069902, 35.068402999451067 ], [ -77.434634990998603, 35.067169999509119 ], [ -77.433327990716393, 35.066698999784613 ], [ -77.432164991663115, 35.06802399965553 ], [ -77.430711991352268, 35.06751799962462 ], [ -77.434000991292137, 35.049697000126038 ], [ -77.433592991365316, 35.045819000179598 ], [ -77.432359991302135, 35.043904999988882 ], [ -77.431871991083341, 35.040895999541256 ], [ -77.434914990982421, 35.035682999437938 ], [ -77.438175990793312, 35.033462000173273 ], [ -77.452143991219941, 34.946962999785114 ] ] ] } },
{ "type": "Feature", "properties": { "county": "JONES", "precinct": "P04", "enr_desc": "Pollocksville", "winner": "Matthew J. Wineman", "winner_votes": 147, "winner_share": 84.0, "runner_up": "Nathan Metts", "runner_up_votes": 28, "runner_up_share": 16.0, "contest_votes": 175, "margin_of_victory": 68.0, "is_tie": false, "results": [ { "candidate": "Matthew J. Wineman", "votes": 147, "share": 84.0 }, { "candidate": "Nathan Metts", "votes": 28, "share": 16.0 } ], "participated": true, "map_key": "JONES_P04" }, "geometry": { "type": "Polygon", "coordinates": [ [ [ -77.105201990745087, 34.933211000257792 ], [ -77.249522991046504, 34.954672999892495 ], [ -77.364227991617483, 34.972932000039187 ], [ -77.310517991641362, 35.015302000093641 ], [ -77.30627199162987, 35.017064000107219 ], [ -77.27895799150977, 35.037998999558496 ], [ -77.279558991559838, 35.040961999942773 ], [ -77.27747899176164, 35.043995999830258 ], [ -77.277406990890029, 35.045658999550589 ], [ -77.282160990910029, 35.050968999430182 ], [ -77.281003991650309, 35.055358999961214 ], [ -77.2838809908244, 35.05801300009233 ], [ -77.273066991220304, 35.079281999654981 ], [ -77.253644991215566, 35.11315400029644 ], [ -77.187678991319331, 35.081085999827053 ], [ -77.191024991079132, 35.076543999588225 ], [ -77.190815990938049, 35.072799999624593 ], [ -77.189133991404006, 35.07054299986175 ], [ -77.189421991741909, 35.066669999456892 ], [ -77.185422991658498, 35.063167999802353 ], [ -77.182383991564564, 35.062614999522701 ], [ -77.179110990903141, 35.058223999765509 ], [ -77.176869991160132, 35.057977000172613 ], [ -77.173873991447749, 35.059120000138691 ], [ -77.18059199113344, 35.055219999729104 ], [ -77.178978991684957, 35.055353999719955 ], [ -77.173851991682881, 35.058159000096062 ], [ -77.17188899090894, 35.06082599958286 ], [ -77.171018990964811, 35.060013999608529 ], [ -77.168837990970914, 35.060276000073536 ], [ -77.16776699117591, 35.062847999750886 ], [ -77.164330991391765, 35.065501999447186 ], [ -77.163109991209396, 35.063884999524873 ], [ -77.15993699094463, 35.062339999673036 ], [ -77.15668699177597, 35.06205699982123 ], [ -77.154798990811727, 35.062736999566297 ], [ -77.149845991491716, 35.057667999766274 ], [ -77.15091899126115, 35.057093000303894 ], [ -77.15210099174702, 35.054720000061806 ], [ -77.15065399077227, 35.055313999601417 ], [ -77.148344991018575, 35.054674999884689 ], [ -77.149828990815635, 35.055625999541256 ], [ -77.149648991689489, 35.056490999981818 ], [ -77.147004991513001, 35.05656399994465 ], [ -77.145190991360835, 35.060065999808934 ], [ -77.141662991766992, 35.061981000169162 ], [ -77.140237991538186, 35.062096999534958 ], [ -77.139337991286453, 35.060797000097303 ], [ -77.138387990872076, 35.061279000143259 ], [ -77.132252991079781, 35.067147999769595 ], [ -77.130360991670827, 35.072371000142276 ], [ -77.118602991463888, 35.073284000260266 ], [ -77.118296991206904, 35.0715829999127 ], [ -77.11817199099238, 35.073230000136959 ], [ -77.116064991023507, 35.074106999766585 ], [ -77.113573991557104, 35.072570000054156 ], [ -77.112998991753827, 35.070517999824773 ], [ -77.109655990824635, 35.068608999504605 ], [ -77.109088991528566, 35.066832999914617 ], [ -77.110356991437769, 35.065153999953594 ], [ -77.110205991726744, 35.064237999813891 ], [ -77.109212991200067, 35.064168999736751 ], [ -77.109552991556413, 35.06271299996299 ], [ -77.108538991674948, 35.059566999899921 ], [ -77.108984991724896, 35.056429999763964 ], [ -77.107868991298702, 35.05425400006218 ], [ -77.11030199091158, 35.045675999479769 ], [ -77.108389991046394, 35.044103999607366 ], [ -77.107504990793871, 35.041733000280715 ], [ -77.107199991085039, 35.039513000026467 ], [ -77.107870991124003, 35.038118999924997 ], [ -77.106707991220887, 35.036545000201862 ], [ -77.106464991713779, 35.034294999987786 ], [ -77.098790990796502, 35.026933999880839 ], [ -77.102355991307661, 35.02335900004968 ], [ -77.103064990783082, 35.017792999863559 ], [ -77.105201990745087, 34.933211000257792 ] ] ] } },
{ "type": "Feature", "properties": { "county": "JONES", "precinct": "P05", "enr_desc": "Trenton", "winner": "Matthew J. Wineman", "winner_votes": 60, "winner_share": 76.923076923076934, "runner_up": "Nathan Metts", "runner_up_votes": 18, "runner_up_share": 23.076923076923077, "contest_votes": 78, "margin_of_victory": 53.846153846153854, "is_tie": false, "results": [ { "candidate": "Matthew J. Wineman", "votes": 60, "share": 76.92307692307693 }, { "candidate": "Nathan Metts", "votes": 18, "share": 23.076923076923077 } ], "participated": true, "map_key": "JONES_P05" }, "geometry": { "type": "Polygon", "coordinates": [ [ [ -77.416433991737222, 34.930951000109985 ], [ -77.452143991219941, 34.946962999785114 ], [ -77.438175990793312, 35.033462000173273 ], [ -77.434914990982421, 35.035682999437938 ], [ -77.431871991083341, 35.040895999541256 ], [ -77.432359991302135, 35.043904999988882 ], [ -77.433592991365316, 35.045819000179598 ], [ -77.434000991292137, 35.049697000126038 ], [ -77.430711991352268, 35.06751799962462 ], [ -77.429756991474903, 35.068299999913961 ], [ -77.431230991159595, 35.069295999578678 ], [ -77.429313990765152, 35.06948199959534 ], [ -77.429198990997989, 35.070431999475474 ], [ -77.428615991638495, 35.069787999694512 ], [ -77.424770991319065, 35.0700840001399 ], [ -77.421700991500074, 35.072768999770119 ], [ -77.419838991282674, 35.072399999886841 ], [ -77.418319991311904, 35.073755999704296 ], [ -77.417178990783242, 35.073462000237299 ], [ -77.414578991297034, 35.077311999454231 ], [ -77.417363991795241, 35.076999000188557 ], [ -77.421398991221693, 35.080538000095352 ], [ -77.420645991739917, 35.084104999639543 ], [ -77.417917991725446, 35.086330000114508 ], [ -77.419706991101435, 35.086287999521772 ], [ -77.419575991311717, 35.085572000196542 ], [ -77.420565991420332, 35.085985999754179 ], [ -77.420874990834776, 35.086977999584349 ], [ -77.419641991530455, 35.089122999610368 ], [ -77.422420991331734, 35.090171000256049 ], [ -77.420040990718491, 35.091402000120475 ], [ -77.416582991558158, 35.091143999786453 ], [ -77.417854990983884, 35.094501000275777 ], [ -77.419351990746506, 35.094795999800468 ], [ -77.422548991353295, 35.093777000145479 ], [ -77.42536899154949, 35.090094999973459 ], [ -77.426591991301066, 35.090536999547751 ], [ -77.427069991296136, 35.091733999873689 ], [ -77.426674991230684, 35.09520100031218 ], [ -77.42395499172089, 35.095943999469071 ], [ -77.420535991293463, 35.095627999636811 ], [ -77.418389991425329, 35.099586000182804 ], [ -77.4252179909803, 35.098947999956515 ], [ -77.428443990808745, 35.099773999906773 ], [ -77.428815990746216, 35.100870999938785 ], [ -77.426044990815541, 35.102322999741666 ], [ -77.422679991246326, 35.10149999944452 ], [ -77.422504991054637, 35.104129000197702 ], [ -77.42075099080833, 35.105000000210481 ], [ -77.417303991028163, 35.10877299959342 ], [ -77.415849991479845, 35.112745000277229 ], [ -77.414874991784771, 35.113498999538663 ], [ -77.41052499073426, 35.112392999850186 ], [ -77.411832990853313, 35.109561999895618 ], [ -77.411500990735561, 35.108607000118766 ], [ -77.407393991509551, 35.109752999905986 ], [ -77.403217991501762, 35.107004999559521 ], [ -77.402642991218997, 35.108591999634335 ], [ -77.401614991122059, 35.107116999941297 ], [ -77.402382991713523, 35.10645700009978 ], [ -77.40204099113177, 35.10588900001995 ], [ -77.40541199125299, 35.106876000122234 ], [ -77.406107991526127, 35.106217999948925 ], [ -77.403996991081073, 35.103124000125163 ], [ -77.405339991750253, 35.099658999488561 ], [ -77.403977990949755, 35.09872600010214 ], [ -77.405379991662031, 35.097523000231341 ], [ -77.403395991235797, 35.097819999779936 ], [ -77.40459099156709, 35.09653899983163 ], [ -77.401452991215464, 35.098189999823198 ], [ -77.40234099121497, 35.098718999646223 ], [ -77.401940991442387, 35.099075000299131 ], [ -77.399021991015502, 35.097674999560503 ], [ -77.398208991247031, 35.099637999617833 ], [ -77.397499991120313, 35.098066000197782 ], [ -77.396826990849547, 35.099308999797067 ], [ -77.396055991533473, 35.098305000281272 ], [ -77.390990991739542, 35.099854999776198 ], [ -77.390529990758438, 35.10047399992883 ], [ -77.391283991451402, 35.101852000008634 ], [ -77.390647991187706, 35.102748000173783 ], [ -77.386270990753573, 35.104125000306432 ], [ -77.385683991137185, 35.103637999763414 ], [ -77.387387991205941, 35.101730999495899 ], [ -77.386789990824795, 35.100322999753111 ], [ -77.383756991438887, 35.101536000107629 ], [ -77.379805990721337, 35.09977499948517 ], [ -77.3763799912808, 35.093263999559674 ], [ -77.376178991171756, 35.094792000194758 ], [ -77.371848991503839, 35.097228000275152 ], [ -77.372264991369548, 35.099678000258351 ], [ -77.370824991135038, 35.10445799973553 ], [ -77.363791991194873, 35.111034000018051 ], [ -77.354837991647827, 35.125255999673435 ], [ -77.338885991310292, 35.15525399973717 ], [ -77.329243991331396, 35.149828999704539 ], [ -77.253644991215566, 35.11315400029644 ], [ -77.273066991220304, 35.079281999654981 ], [ -77.2838809908244, 35.05801300009233 ], [ -77.281003991650309, 35.055358999961214 ], [ -77.282160990910029, 35.050968999430182 ], [ -77.277406990890029, 35.045658999550589 ], [ -77.27747899176164, 35.043995999830258 ], [ -77.279558991559838, 35.040961999942773 ], [ -77.27895799150977, 35.037998999558496 ], [ -77.30627199162987, 35.017064000107219 ], [ -77.310517991641362, 35.015302000093641 ], [ -77.364227991617483, 34.972932000039187 ], [ -77.416433991737222, 34.930951000109985 ] ] ] } },
{ "type": "Feature", "properties": { "county": "JONES", "precinct": "P06", "enr_desc": "Tuckahoe", "winner": "Matthew J. Wineman", "winner_votes": 40, "winner_share": 55.555555555555557, "runner_up": "Nathan Metts", "runner_up_votes": 32, "runner_up_share": 44.444444444444443, "contest_votes": 72, "margin_of_victory": 11.111111111111114, "is_tie": false, "results": [ { "candidate": "Matthew J. Wineman", "votes": 40, "share": 55.55555555555556 }, { "candidate": "Nathan Metts", "votes": 32, "share": 44.44444444444444 } ], "participated": true, "map_key": "JONES_P06" }, "geometry": { "type": "Polygon", "coordinates": [ [ [ -77.577571991683186, 34.978371000209556 ], [ -77.638966991661135, 34.984460000004702 ], [ -77.67480499114518, 34.973900000241109 ], [ -77.731025991489489, 35.008138000189732 ], [ -77.601281991677695, 35.071367999617614 ], [ -77.553589990728653, 35.122998999824922 ], [ -77.538978990940549, 35.048554999664908 ], [ -77.538541991203033, 35.04406999945413 ], [ -77.540252990819894, 35.04181799953804 ], [ -77.540654991332531, 35.038115999616728 ], [ -77.542123990857789, 35.037066999674352 ], [ -77.541175991381905, 35.035874999531238 ], [ -77.542564991464445, 35.034512000274049 ], [ -77.541430991780786, 35.032853000213585 ], [ -77.541524990929119, 35.028046000122295 ], [ -77.545017991567008, 35.025684999693915 ], [ -77.553469991036621, 35.030198999562288 ], [ -77.556168991131045, 35.029622999568453 ], [ -77.558460991375327, 35.030476999785918 ], [ -77.560668991449361, 35.028749999825109 ], [ -77.562266991436232, 35.030781999774135 ], [ -77.563116991490261, 35.03433199968606 ], [ -77.563764991196948, 35.034706000317911 ], [ -77.577571991683186, 34.978371000209556 ] ] ] } }
]
}
