{
"type": "FeatureCollection",
"name": "lenoir_county_board_of_commissioners_district_02_rep",
"crs": { "type": "name", "properties": { "name": "urn:ogc:def:crs:OGC:1.3:CRS84" } },
"features": [
{ "type": "Feature", "properties": { "county": null, "precinct": null, "enr_desc": "Contentnea", "winner": null, "winner_votes": null, "winner_share": null, "runner_up": null, "runner_up_votes": null, "runner_up_share": null, "contest_votes": null, "margin_of_victory": null, "is_tie": false, "results": null, "participated": false, "map_key": null }, "geometry": { "type": "Polygon", "coordinates": [ [ [ -77.525020991511738, 35.307830000110684 ], [ -77.525776991743129, 35.311003999674135 ], [ -77.526837991774485, 35.31217199973954 ], [ -77.5313059915607, 35.313408999507999 ], [ -77.531649991285747, 35.315119999920704 ], [ -77.529952991384789, 35.316965999503708 ], [ -77.535917990703098, 35.320873999441417 ], [ -77.535922991165563, 35.322256999905221 ], [ -77.538247990698892, 35.324403999939257 ], [ -77.539175990809326, 35.331790000273806 ], [ -77.543825991429799, 35.335530999599854 ], [ -77.545570990938998, 35.34087799953253 ], [ -77.547518990679961, 35.342730000120689 ], [ -77.552565991299261, 35.343022000181044 ], [ -77.552619990963862, 35.350078999664774 ], [ -77.549980990817545, 35.353966999938663 ], [ -77.547422991451825, 35.354334999788357 ], [ -77.545422990726792, 35.357487000160894 ], [ -77.537389990807313, 35.355098999957065 ], [ -77.534953991045455, 35.358390999619211 ], [ -77.535796991355255, 35.36745499976341 ], [ -77.535143991652006, 35.372254999794023 ], [ -77.53971099161987, 35.38186299986846 ], [ -77.538600991414739, 35.3848369996035 ], [ -77.54078499145426, 35.395928999599128 ], [ -77.534172991091111, 35.398103999594987 ], [ -77.531738991515326, 35.401342000176129 ], [ -77.532621990768106, 35.402132000110356 ], [ -77.531964990978167, 35.403004000092444 ], [ -77.532762991611406, 35.40484499999576 ], [ -77.531365990889256, 35.408100999575936 ], [ -77.530172990947491, 35.407870999992966 ], [ -77.528598990680564, 35.409249999641695 ], [ -77.528258991476449, 35.411993000079526 ], [ -77.527210990687507, 35.413011999549205 ], [ -77.528337991762555, 35.414335999860555 ], [ -77.520622990716433, 35.414647999658996 ], [ -77.519824991109971, 35.415474000112503 ], [ -77.520565991543052, 35.417328999776892 ], [ -77.519326991424066, 35.416722999778692 ], [ -77.510437991249717, 35.421409000035865 ], [ -77.506515991253522, 35.421893999731381 ], [ -77.505972991585821, 35.421259999640192 ], [ -77.507458991555197, 35.419930000114391 ], [ -77.507408990787283, 35.419071000090298 ], [ -77.504582990808913, 35.41952700012623 ], [ -77.500933990775067, 35.418378999647864 ], [ -77.498406990973464, 35.416837000103072 ], [ -77.499129991487195, 35.414736999635487 ], [ -77.498658991485627, 35.413800999974491 ], [ -77.495652990952649, 35.412156000085481 ], [ -77.492619991129601, 35.411707000264627 ], [ -77.481708991584341, 35.414584999543898 ], [ -77.481224990853761, 35.4154799995178 ], [ -77.482681991519257, 35.422794999841045 ], [ -77.480111990819154, 35.424874999540286 ], [ -77.475514990966076, 35.426654999815618 ], [ -77.473646991162326, 35.426523999552522 ], [ -77.469917991650703, 35.420198000273231 ], [ -77.471266991596792, 35.41680300025665 ], [ -77.470721990841611, 35.409764999818663 ], [ -77.468953990858182, 35.407689999676847 ], [ -77.463651991271959, 35.404360999773701 ], [ -77.46492499144037, 35.402747000100504 ], [ -77.463433990903567, 35.402449999581307 ], [ -77.463260991614959, 35.401175999653425 ], [ -77.46078599122923, 35.400647000014743 ], [ -77.461481990749093, 35.399718999817644 ], [ -77.463178991053383, 35.400283999871085 ], [ -77.46318699176058, 35.399127999460283 ], [ -77.460724991176633, 35.397206000325156 ], [ -77.457222991406468, 35.396536999469426 ], [ -77.456060990867343, 35.3952730001105 ], [ -77.458281991139316, 35.394242999444131 ], [ -77.455770991464533, 35.392718999805936 ], [ -77.452070990967016, 35.394326000036145 ], [ -77.451147991588115, 35.393850999545869 ], [ -77.452238991071155, 35.392916999585552 ], [ -77.452025990800777, 35.39221999960958 ], [ -77.448487991413728, 35.392730000211152 ], [ -77.45041499152201, 35.391597999940579 ], [ -77.449427991102496, 35.389312999617374 ], [ -77.455031991035483, 35.385532999758908 ], [ -77.453627991692869, 35.383285999689257 ], [ -77.451437990824303, 35.382725999704938 ], [ -77.449792991582655, 35.381048000238721 ], [ -77.446083991554815, 35.381136999443989 ], [ -77.44509399153344, 35.380493999623866 ], [ -77.448798991408708, 35.37455099978424 ], [ -77.448316991489264, 35.371751000242064 ], [ -77.440406991373564, 35.367023999476082 ], [ -77.434838991522682, 35.368151999883331 ], [ -77.431773990805283, 35.367272999847771 ], [ -77.42713999155184, 35.359896000338729 ], [ -77.427429991678267, 35.354026999649477 ], [ -77.426447991292662, 35.349758999548278 ], [ -77.425190991718964, 35.349099999523951 ], [ -77.42266899142794, 35.349627999730671 ], [ -77.421443991605386, 35.348813999617313 ], [ -77.420819990933893, 35.351507000256916 ], [ -77.419050991124408, 35.352518999855953 ], [ -77.416423991727257, 35.35161100015236 ], [ -77.415556991157743, 35.352299999957111 ], [ -77.413254991252828, 35.351702999455277 ], [ -77.411330991402608, 35.351960999927961 ], [ -77.411176991268476, 35.352925999945633 ], [ -77.40820699178326, 35.353370999447755 ], [ -77.401313990894934, 35.348090999708063 ], [ -77.396726990879401, 35.346757999827688 ], [ -77.393399991343372, 35.346983999712563 ], [ -77.391755991764029, 35.345633999876618 ], [ -77.390793991549188, 35.341196000264034 ], [ -77.391025991697632, 35.339532999787657 ], [ -77.392023990843313, 35.339570999935404 ], [ -77.391351991621804, 35.339307999977351 ], [ -77.391461991144709, 35.338859999801805 ], [ -77.393416991658682, 35.340337000136124 ], [ -77.392827990854428, 35.340127999549736 ], [ -77.393894991161019, 35.342587000256152 ], [ -77.395157990850905, 35.343023999548045 ], [ -77.397815991619382, 35.341769000028506 ], [ -77.405249990931424, 35.340294999581609 ], [ -77.405380991517646, 35.340165000316361 ], [ -77.405172990852009, 35.339909999441531 ], [ -77.405154991314419, 35.339518000009207 ], [ -77.405564990992715, 35.340202999698775 ], [ -77.408673991305207, 35.339396000115897 ], [ -77.410922990830073, 35.337798999749317 ], [ -77.416038991777924, 35.33625999980049 ], [ -77.427517991717778, 35.338849999746024 ], [ -77.443636990784142, 35.33351300020108 ], [ -77.448211990698383, 35.33620599949684 ], [ -77.458532991100995, 35.334301999608471 ], [ -77.463895991112324, 35.328510000074886 ], [ -77.46942599084305, 35.319208999551329 ], [ -77.470928990839482, 35.318281999998113 ], [ -77.477222991015068, 35.319150999537122 ], [ -77.480285990795366, 35.318560999791458 ], [ -77.482406991256752, 35.317019999978918 ], [ -77.481758991666936, 35.315004000036701 ], [ -77.482616991262574, 35.314043000292784 ], [ -77.485449991035821, 35.313631999937897 ], [ -77.489076990778017, 35.318624999969948 ], [ -77.491465991211825, 35.317755999652249 ], [ -77.495077991151817, 35.319633999831034 ], [ -77.496105991409181, 35.319244000342458 ], [ -77.496149991225337, 35.317597999522405 ], [ -77.498456990944462, 35.318627999814076 ], [ -77.498753991606975, 35.31725700029569 ], [ -77.502722990849193, 35.317441000040724 ], [ -77.502446991343945, 35.316246000258232 ], [ -77.504012990951381, 35.316471999691032 ], [ -77.50410499117514, 35.315025000290184 ], [ -77.507542991410972, 35.31234800007546 ], [ -77.512010990849959, 35.311572000226711 ], [ -77.511592991507598, 35.308938999742686 ], [ -77.513381991066353, 35.306766000295532 ], [ -77.512209991689318, 35.304819999699653 ], [ -77.514974990728973, 35.304064999746636 ], [ -77.518270991655271, 35.300930999902974 ], [ -77.524793991682728, 35.305158999597211 ], [ -77.525020991511738, 35.307830000110684 ] ] ] } },
{ "type": "Feature", "properties": { "county": "LENOIR", "precinct": "FC", "enr_desc": "Falling Creek", "winner": "BJ Murphy", "winner_votes": 498.0, "winner_share": 90.545454545454547, "runner_up": "Stephen LaRoque", "runner_up_votes": 52.0, "runner_up_share": 9.454545454545455, "contest_votes": 550.0, "margin_of_victory": 81.090909090909093, "is_tie": false, "results": [ { "candidate": "BJ Murphy", "votes": 498, "share": 90.54545454545455 }, { "candidate": "Stephen LaRoque", "votes": 52, "share": 9.454545454545455 } ], "participated": true, "map_key": "LENOIR_FC" }, "geometry": { "type": "Polygon", "coordinates": [ [ [ -77.729070991041198, 35.218562999485911 ], [ -77.729329991374328, 35.218678999837543 ], [ -77.735985991330622, 35.231867000285682 ], [ -77.736736990888346, 35.231868999744997 ], [ -77.736129991590502, 35.234715000099094 ], [ -77.737580991149969, 35.239886000177748 ], [ -77.73738099158092, 35.242012000021234 ], [ -77.738607991044773, 35.244406999912457 ], [ -77.73690399142049, 35.256075999810797 ], [ -77.733377990784803, 35.255901000077458 ], [ -77.731993991414981, 35.266627000213241 ], [ -77.723946990807534, 35.264236999664242 ], [ -77.727965991282133, 35.273215999904359 ], [ -77.727303991678795, 35.285947000174239 ], [ -77.726432991390979, 35.289556999793668 ], [ -77.716529991186647, 35.284986999528911 ], [ -77.715988991570981, 35.289041999912079 ], [ -77.712066990985136, 35.292628999567754 ], [ -77.716349991717152, 35.295462000187698 ], [ -77.711327991348824, 35.299465000145425 ], [ -77.70670899103979, 35.301530000164853 ], [ -77.702101990964465, 35.298396000206196 ], [ -77.700415990847304, 35.299764000334946 ], [ -77.694833991579813, 35.301630000192915 ], [ -77.67962799173489, 35.319659000231823 ], [ -77.676136990986933, 35.320550999727217 ], [ -77.67210599155996, 35.326687000039236 ], [ -77.661491990979556, 35.331796000270437 ], [ -77.658101991626992, 35.319008999458681 ], [ -77.651157991502416, 35.312066000296255 ], [ -77.647968990881481, 35.305496999537702 ], [ -77.646742991549701, 35.301251999787993 ], [ -77.644088990888207, 35.297444999752621 ], [ -77.639663991110751, 35.293154999644621 ], [ -77.625124991167567, 35.287121999523919 ], [ -77.622263991116142, 35.283601999722869 ], [ -77.617635991433417, 35.270162000118866 ], [ -77.616299991666338, 35.26911599990347 ], [ -77.619704991105579, 35.268526999818619 ], [ -77.619043991554875, 35.266086999506896 ], [ -77.620151990917776, 35.264856999904708 ], [ -77.618471990883108, 35.263235999784683 ], [ -77.618654991197999, 35.261450999863833 ], [ -77.623498991733697, 35.260110999846091 ], [ -77.621255991664498, 35.257575999498037 ], [ -77.624203991173658, 35.257714000062656 ], [ -77.625370991398881, 35.256893000099446 ], [ -77.623058991478985, 35.254985000303094 ], [ -77.623074991644856, 35.25395300015019 ], [ -77.625102991630953, 35.253433999601135 ], [ -77.627799991085297, 35.254589999782283 ], [ -77.629869991686547, 35.253653999682392 ], [ -77.632566991008019, 35.254019999652556 ], [ -77.63342999156167, 35.25314199964059 ], [ -77.631683990889314, 35.251106000003396 ], [ -77.628744990709535, 35.250975999947237 ], [ -77.629249991675536, 35.247656999631886 ], [ -77.630533991240497, 35.247359999495103 ], [ -77.631468991379251, 35.249475000318355 ], [ -77.632728991324129, 35.249661999961774 ], [ -77.63357599098272, 35.247109000138323 ], [ -77.635166990820196, 35.246605999912326 ], [ -77.634829990703665, 35.249421000076893 ], [ -77.6358279913172, 35.250493000018189 ], [ -77.637284991224661, 35.249650999617558 ], [ -77.637676991122134, 35.247843000086995 ], [ -77.640018991719003, 35.249828999800215 ], [ -77.642251990831809, 35.249423999555503 ], [ -77.644679990692367, 35.245624999978538 ], [ -77.642755991068498, 35.244342999712039 ], [ -77.638952991490555, 35.244024999891835 ], [ -77.638779991608104, 35.242421999477585 ], [ -77.639575991036992, 35.241785999719326 ], [ -77.652817991235338, 35.239941999970256 ], [ -77.659835991037014, 35.235428000173435 ], [ -77.664468990899749, 35.235640000206743 ], [ -77.666141991004039, 35.232783000094081 ], [ -77.664556991486293, 35.230116999780414 ], [ -77.664863990905175, 35.228859999575477 ], [ -77.667313990868024, 35.227813000048684 ], [ -77.672949991487641, 35.228490000155837 ], [ -77.675761990881853, 35.223772999745677 ], [ -77.677339991654335, 35.223644999647753 ], [ -77.680288990932524, 35.226309999618117 ], [ -77.682869991568666, 35.225736999977464 ], [ -77.683905991368462, 35.224161999862623 ], [ -77.68619299154804, 35.225030999571658 ], [ -77.687921990928899, 35.226702000127318 ], [ -77.685551991660816, 35.228876999495483 ], [ -77.686936990768302, 35.230842999567827 ], [ -77.691065990807815, 35.229539000313906 ], [ -77.695806991231578, 35.226041999654889 ], [ -77.699770991757674, 35.227855999752336 ], [ -77.701371991157103, 35.227623999703951 ], [ -77.702336990738672, 35.22440899968317 ], [ -77.703793991497406, 35.223605999810189 ], [ -77.705911990731849, 35.223978000003797 ], [ -77.709760990776189, 35.226561000301771 ], [ -77.710832991640217, 35.224621999905331 ], [ -77.710596991526586, 35.221846999940595 ], [ -77.7137989911202, 35.221179999716 ], [ -77.717422990724486, 35.215015000094688 ], [ -77.721060991101965, 35.215429999661268 ], [ -77.721365990892338, 35.218492000069524 ], [ -77.723128990978196, 35.219798999779876 ], [ -77.725000991463617, 35.219802999611836 ], [ -77.727075991092306, 35.218374999777097 ], [ -77.729070991041198, 35.218562999485911 ] ] ] } },
{ "type": "Feature", "properties": { "county": null, "precinct": null, "enr_desc": "Kinston -1", "winner": null, "winner_votes": null, "winner_share": null, "runner_up": null, "runner_up_votes": null, "runner_up_share": null, "contest_votes": null, "margin_of_victory": null, "is_tie": false, "results": null, "participated": false, "map_key": null }, "geometry": { "type": "Polygon", "coordinates": [ [ [ -77.572171991577989, 35.241428999857888 ], [ -77.580133991194401, 35.244225999480271 ], [ -77.582960990943391, 35.246595999559389 ], [ -77.586545990775036, 35.253393000175635 ], [ -77.589616991436898, 35.256608999479838 ], [ -77.583950991700434, 35.257884999889711 ], [ -77.583152990799405, 35.258921999722737 ], [ -77.582883991181319, 35.260289999933121 ], [ -77.581160991072807, 35.26025899982421 ], [ -77.567907990956783, 35.260112999672515 ], [ -77.567342991240352, 35.258810000251486 ], [ -77.567593990979233, 35.25252899972687 ], [ -77.558040990938864, 35.243879999876043 ], [ -77.56047599148043, 35.241540999651527 ], [ -77.563603990816844, 35.240720999636068 ], [ -77.568587991626302, 35.240588999902073 ], [ -77.572171991577989, 35.241428999857888 ] ] ] } },
{ "type": "Feature", "properties": { "county": null, "precinct": null, "enr_desc": "Kinston-2", "winner": null, "winner_votes": null, "winner_share": null, "runner_up": null, "runner_up_votes": null, "runner_up_share": null, "contest_votes": null, "margin_of_victory": null, "is_tie": false, "results": null, "participated": false, "map_key": null }, "geometry": { "type": "Polygon", "coordinates": [ [ [ -77.567907990956783, 35.260112999672515 ], [ -77.581160991072807, 35.26025899982421 ], [ -77.58099899160851, 35.268732999636235 ], [ -77.571970991350966, 35.268541999851458 ], [ -77.569640990694992, 35.27124599993823 ], [ -77.566079990771797, 35.270857999929653 ], [ -77.563563990876418, 35.268733999592015 ], [ -77.565555990874003, 35.268396999591616 ], [ -77.563847990838013, 35.265859999983405 ], [ -77.566796991370182, 35.267705000292736 ], [ -77.567840991211156, 35.266208000022054 ], [ -77.567907990956783, 35.260112999672515 ] ] ] } },
{ "type": "Feature", "properties": { "county": null, "precinct": null, "enr_desc": "Institute", "winner": null, "winner_votes": null, "winner_share": null, "runner_up": null, "runner_up_votes": null, "runner_up_share": null, "contest_votes": null, "margin_of_victory": null, "is_tie": false, "results": null, "participated": false, "map_key": null }, "geometry": { "type": "Polygon", "coordinates": [ [ [ -77.726432991390979, 35.289556999793668 ], [ -77.737478991732843, 35.300430999938037 ], [ -77.74774699082802, 35.303202999606022 ], [ -77.751859990878842, 35.303545999472298 ], [ -77.754009990814922, 35.313041000351468 ], [ -77.766072990789013, 35.333137000098404 ], [ -77.754401990938618, 35.340313999475789 ], [ -77.747784991012054, 35.3415860002629 ], [ -77.748796990852171, 35.349062999809398 ], [ -77.748275991725905, 35.352360999637561 ], [ -77.745868991398609, 35.359238999913146 ], [ -77.740616991191189, 35.366233999798602 ], [ -77.739928990836674, 35.369166999723262 ], [ -77.741175990724741, 35.371965999488147 ], [ -77.697515991061707, 35.377096999551163 ], [ -77.696210991056944, 35.375351000122762 ], [ -77.697156991140659, 35.371197999539866 ], [ -77.694701990729897, 35.368600000073847 ], [ -77.694150991031393, 35.365577000148669 ], [ -77.690145990940891, 35.364282999641446 ], [ -77.690027991141136, 35.362533999596813 ], [ -77.690875990967953, 35.361083999573111 ], [ -77.690138991290269, 35.359689000225657 ], [ -77.686604991454985, 35.357234000246038 ], [ -77.68233199156866, 35.349749000228122 ], [ -77.680574991715474, 35.347997999790969 ], [ -77.677678991097451, 35.347323999973611 ], [ -77.67317399137103, 35.347889000038172 ], [ -77.664624990982986, 35.352054999666407 ], [ -77.660841991098067, 35.352813999488376 ], [ -77.659682991747971, 35.347534000193818 ], [ -77.661491990979556, 35.331796000270437 ], [ -77.67210599155996, 35.326687000039236 ], [ -77.676136990986933, 35.320550999727217 ], [ -77.67962799173489, 35.319659000231823 ], [ -77.694833991579813, 35.301630000192915 ], [ -77.700415990847304, 35.299764000334946 ], [ -77.702101990964465, 35.298396000206196 ], [ -77.70670899103979, 35.301530000164853 ], [ -77.711327991348824, 35.299465000145425 ], [ -77.716349991717152, 35.295462000187698 ], [ -77.712066990985136, 35.292628999567754 ], [ -77.715988991570981, 35.289041999912079 ], [ -77.716529991186647, 35.284986999528911 ], [ -77.726432991390979, 35.289556999793668 ] ] ] } },
{ "type": "Feature", "properties": { "county": null, "precinct": null, "enr_desc": "Kinston-3", "winner": null, "winner_votes": null, "winner_share": null, "runner_up": null, "runner_up_votes": null, "runner_up_share": null, "contest_votes": null, "margin_of_victory": null, "is_tie": false, "results": null, "participated": false, "map_key": null }, "geometry": { "type": "Polygon", "coordinates": [ [ [ -77.583152990799405, 35.258921999722737 ], [ -77.584456990836458, 35.260994999487487 ], [ -77.587610991377801, 35.262550999466789 ], [ -77.598046991534815, 35.263440999666805 ], [ -77.605499991472897, 35.265543999895861 ], [ -77.616021991653568, 35.267096000063532 ], [ -77.619043991554875, 35.266086999506896 ], [ -77.619704991105579, 35.268526999818619 ], [ -77.616299991666338, 35.26911599990347 ], [ -77.606435990860888, 35.270822999471484 ], [ -77.607037991182409, 35.274199999658926 ], [ -77.601449991764412, 35.274317999528293 ], [ -77.594583991578276, 35.272704000257157 ], [ -77.591777991596842, 35.27221499988584 ], [ -77.590957991728359, 35.272825999999142 ], [ -77.59060099074749, 35.271828999770428 ], [ -77.580952991057941, 35.270454000205774 ], [ -77.58099899160851, 35.268732999636235 ], [ -77.581160991072807, 35.26025899982421 ], [ -77.582883991181319, 35.260289999933121 ], [ -77.583152990799405, 35.258921999722737 ] ] ] } },
{ "type": "Feature", "properties": { "county": null, "precinct": null, "enr_desc": "Kinston-4", "winner": null, "winner_votes": null, "winner_share": null, "runner_up": null, "runner_up_votes": null, "runner_up_share": null, "contest_votes": null, "margin_of_victory": null, "is_tie": false, "results": null, "participated": false, "map_key": null }, "geometry": { "type": "Polygon", "coordinates": [ [ [ -77.616299991666338, 35.26911599990347 ], [ -77.617635991433417, 35.270162000118866 ], [ -77.622263991116142, 35.283601999722869 ], [ -77.625124991167567, 35.287121999523919 ], [ -77.619192990831223, 35.289973999709105 ], [ -77.615254991278135, 35.29787900015252 ], [ -77.609259991190683, 35.296504999999598 ], [ -77.60592799123755, 35.296882999523561 ], [ -77.600801990839983, 35.295326999587409 ], [ -77.596533991623346, 35.288444999843229 ], [ -77.593111991504799, 35.28570400009756 ], [ -77.594492991754876, 35.280545000244587 ], [ -77.593744991532176, 35.277489000124177 ], [ -77.594583991578276, 35.272704000257157 ], [ -77.601449991764412, 35.274317999528293 ], [ -77.607037991182409, 35.274199999658926 ], [ -77.606435990860888, 35.270822999471484 ], [ -77.616299991666338, 35.26911599990347 ] ] ] } },
{ "type": "Feature", "properties": { "county": null, "precinct": null, "enr_desc": "Kinston-5", "winner": null, "winner_votes": null, "winner_share": null, "runner_up": null, "runner_up_votes": null, "runner_up_share": null, "contest_votes": null, "margin_of_victory": null, "is_tie": false, "results": null, "participated": false, "map_key": null }, "geometry": { "type": "Polygon", "coordinates": [ [ [ -77.580952991057941, 35.270454000205774 ], [ -77.59060099074749, 35.271828999770428 ], [ -77.590957991728359, 35.272825999999142 ], [ -77.591777991596842, 35.27221499988584 ], [ -77.594583991578276, 35.272704000257157 ], [ -77.593744991532176, 35.277489000124177 ], [ -77.594492991754876, 35.280545000244587 ], [ -77.593111991504799, 35.28570400009756 ], [ -77.589352991752591, 35.284865999923674 ], [ -77.588266990896059, 35.282443000228149 ], [ -77.583940990922173, 35.283518000279294 ], [ -77.582984991563265, 35.284517999595913 ], [ -77.580607990775903, 35.283671000238627 ], [ -77.580784991767175, 35.276996000325099 ], [ -77.580952991057941, 35.270454000205774 ] ] ] } },
{ "type": "Feature", "properties": { "county": null, "precinct": null, "enr_desc": "Kinston-6", "winner": null, "winner_votes": null, "winner_share": null, "runner_up": null, "runner_up_votes": null, "runner_up_share": null, "contest_votes": null, "margin_of_victory": null, "is_tie": false, "results": null, "participated": false, "map_key": null }, "geometry": { "type": "Polygon", "coordinates": [ [ [ -77.580784991767175, 35.276996000325099 ], [ -77.580607990775903, 35.283671000238627 ], [ -77.580111990956297, 35.293265999530632 ], [ -77.567990991612405, 35.304322000184449 ], [ -77.566853990700963, 35.306308999690543 ], [ -77.566774991020665, 35.308513999980711 ], [ -77.565606990809229, 35.307774000309024 ], [ -77.56115599078079, 35.311008999709102 ], [ -77.556325991092407, 35.312793999923713 ], [ -77.550652990739451, 35.31182499984201 ], [ -77.549329990830785, 35.310877999654892 ], [ -77.541191991212813, 35.311393999686985 ], [ -77.536381991253648, 35.309344999546106 ], [ -77.533037991002843, 35.311251999770555 ], [ -77.5313059915607, 35.313408999507999 ], [ -77.526837991774485, 35.31217199973954 ], [ -77.525776991743129, 35.311003999674135 ], [ -77.525020991511738, 35.307830000110684 ], [ -77.548847991420516, 35.289427999661051 ], [ -77.564896990897495, 35.275507999562791 ], [ -77.568384991148662, 35.278259999842476 ], [ -77.570937991212645, 35.279160000066476 ], [ -77.580784991767175, 35.276996000325099 ] ] ] } },
{ "type": "Feature", "properties": { "county": null, "precinct": null, "enr_desc": "Kinston-7", "winner": null, "winner_votes": null, "winner_share": null, "runner_up": null, "runner_up_votes": null, "runner_up_share": null, "contest_votes": null, "margin_of_victory": null, "is_tie": false, "results": null, "participated": false, "map_key": null }, "geometry": { "type": "Polygon", "coordinates": [ [ [ -77.58099899160851, 35.268732999636235 ], [ -77.580952991057941, 35.270454000205774 ], [ -77.580784991767175, 35.276996000325099 ], [ -77.570937991212645, 35.279160000066476 ], [ -77.568384991148662, 35.278259999842476 ], [ -77.564896990897495, 35.275507999562791 ], [ -77.548847991420516, 35.289427999661051 ], [ -77.525020991511738, 35.307830000110684 ], [ -77.524793991682728, 35.305158999597211 ], [ -77.518270991655271, 35.300930999902974 ], [ -77.514974990728973, 35.304064999746636 ], [ -77.512209991689318, 35.304819999699653 ], [ -77.513381991066353, 35.306766000295532 ], [ -77.511592991507598, 35.308938999742686 ], [ -77.512010990849959, 35.311572000226711 ], [ -77.507542991410972, 35.31234800007546 ], [ -77.50410499117514, 35.315025000290184 ], [ -77.504012990951381, 35.316471999691032 ], [ -77.502446991343945, 35.316246000258232 ], [ -77.502722990849193, 35.317441000040724 ], [ -77.498753991606975, 35.31725700029569 ], [ -77.498456990944462, 35.318627999814076 ], [ -77.496149991225337, 35.317597999522405 ], [ -77.496105991409181, 35.319244000342458 ], [ -77.495077991151817, 35.319633999831034 ], [ -77.491465991211825, 35.317755999652249 ], [ -77.489076990778017, 35.318624999969948 ], [ -77.485449991035821, 35.313631999937897 ], [ -77.482616991262574, 35.314043000292784 ], [ -77.481758991666936, 35.315004000036701 ], [ -77.478933991106246, 35.31420300031472 ], [ -77.478286991056606, 35.313040000224873 ], [ -77.478758991065462, 35.312071000003279 ], [ -77.480516991341872, 35.310972000312695 ], [ -77.483424991369674, 35.310725999656732 ], [ -77.48496799087566, 35.308979999982391 ], [ -77.489869991442077, 35.30795699989568 ], [ -77.490685991686192, 35.306074999500659 ], [ -77.488185991466267, 35.302086000229572 ], [ -77.488127991582402, 35.300461999889187 ], [ -77.495386991008857, 35.296401999887465 ], [ -77.500945991418476, 35.290227999890682 ], [ -77.501044990953446, 35.287301999783928 ], [ -77.496633991481957, 35.284662999489342 ], [ -77.496672991278416, 35.283858000171257 ], [ -77.507411990938195, 35.279278999841054 ], [ -77.507874991665787, 35.277177000028416 ], [ -77.510507991509655, 35.276479999506222 ], [ -77.51042899090551, 35.274188999728871 ], [ -77.50760599150118, 35.270308000203826 ], [ -77.509527990863916, 35.266455000146109 ], [ -77.515714991051325, 35.266556999521228 ], [ -77.518377991274875, 35.263401999858182 ], [ -77.524378990972096, 35.262995999771405 ], [ -77.526809991424884, 35.261846000271035 ], [ -77.530933990776731, 35.257729999465283 ], [ -77.532897991084653, 35.254509999997467 ], [ -77.539206990995339, 35.252112999631564 ], [ -77.540582991461065, 35.246845999541215 ], [ -77.545587990733324, 35.24617999991419 ], [ -77.551550991092085, 35.248868000226395 ], [ -77.551625991451985, 35.257406000285222 ], [ -77.552313991258686, 35.257072999926947 ], [ -77.554728991486286, 35.258533999968222 ], [ -77.554143990873683, 35.270150000175228 ], [ -77.559867990742333, 35.270448000212873 ], [ -77.559897991146286, 35.265357000295445 ], [ -77.56163299160248, 35.26557699988907 ], [ -77.561545990804049, 35.266954999807886 ], [ -77.562729990901332, 35.267191000119091 ], [ -77.563563990876418, 35.268733999592015 ], [ -77.566079990771797, 35.270857999929653 ], [ -77.569640990694992, 35.27124599993823 ], [ -77.571970991350966, 35.268541999851458 ], [ -77.58099899160851, 35.268732999636235 ] ] ] } },
{ "type": "Feature", "properties": { "county": null, "precinct": null, "enr_desc": "Kinston-8", "winner": null, "winner_votes": null, "winner_share": null, "runner_up": null, "runner_up_votes": null, "runner_up_share": null, "contest_votes": null, "margin_of_victory": null, "is_tie": false, "results": null, "participated": false, "map_key": null }, "geometry": { "type": "Polygon", "coordinates": [ [ [ -77.558040990938864, 35.243879999876043 ], [ -77.567593990979233, 35.25252899972687 ], [ -77.567342991240352, 35.258810000251486 ], [ -77.567907990956783, 35.260112999672515 ], [ -77.567840991211156, 35.266208000022054 ], [ -77.566796991370182, 35.267705000292736 ], [ -77.563847990838013, 35.265859999983405 ], [ -77.565555990874003, 35.268396999591616 ], [ -77.563563990876418, 35.268733999592015 ], [ -77.562729990901332, 35.267191000119091 ], [ -77.561545990804049, 35.266954999807886 ], [ -77.56163299160248, 35.26557699988907 ], [ -77.559897991146286, 35.265357000295445 ], [ -77.559867990742333, 35.270448000212873 ], [ -77.554143990873683, 35.270150000175228 ], [ -77.554728991486286, 35.258533999968222 ], [ -77.552313991258686, 35.257072999926947 ], [ -77.551625991451985, 35.257406000285222 ], [ -77.551550991092085, 35.248868000226395 ], [ -77.555497990976889, 35.248324999644346 ], [ -77.557052990865728, 35.246636999629047 ], [ -77.558040990938864, 35.243879999876043 ] ] ] } },
{ "type": "Feature", "properties": { "county": null, "precinct": null, "enr_desc": "Kinston-9", "winner": null, "winner_votes": null, "winner_share": null, "runner_up": null, "runner_up_votes": null, "runner_up_share": null, "contest_votes": null, "margin_of_victory": null, "is_tie": false, "results": null, "participated": false, "map_key": null }, "geometry": { "type": "Polygon", "coordinates": [ [ [ -77.625124991167567, 35.287121999523919 ], [ -77.639663991110751, 35.293154999644621 ], [ -77.644088990888207, 35.297444999752621 ], [ -77.646742991549701, 35.301251999787993 ], [ -77.647968990881481, 35.305496999537702 ], [ -77.643633990864416, 35.306182999956484 ], [ -77.642487991191118, 35.307354999694155 ], [ -77.639399991561319, 35.30690000018469 ], [ -77.636223991657772, 35.308386000146307 ], [ -77.633174991359951, 35.306848000052973 ], [ -77.62408999122411, 35.305358999944033 ], [ -77.620905990873908, 35.304080000029032 ], [ -77.612561991447336, 35.306031000241127 ], [ -77.601919991628904, 35.304408999674827 ], [ -77.588653991754498, 35.308747999616941 ], [ -77.586968991589146, 35.310045999817987 ], [ -77.580070991213717, 35.30780799990675 ], [ -77.577043991067342, 35.30604000000487 ], [ -77.576317991423807, 35.307047999916819 ], [ -77.572742991425841, 35.306888000228305 ], [ -77.570193990991129, 35.308362999507729 ], [ -77.566774991020665, 35.308513999980711 ], [ -77.566853990700963, 35.306308999690543 ], [ -77.567990991612405, 35.304322000184449 ], [ -77.580111990956297, 35.293265999530632 ], [ -77.580607990775903, 35.283671000238627 ], [ -77.582984991563265, 35.284517999595913 ], [ -77.583940990922173, 35.283518000279294 ], [ -77.588266990896059, 35.282443000228149 ], [ -77.589352991752591, 35.284865999923674 ], [ -77.593111991504799, 35.28570400009756 ], [ -77.596533991623346, 35.288444999843229 ], [ -77.600801990839983, 35.295326999587409 ], [ -77.60592799123755, 35.296882999523561 ], [ -77.609259991190683, 35.296504999999598 ], [ -77.615254991278135, 35.29787900015252 ], [ -77.619192990831223, 35.289973999709105 ], [ -77.625124991167567, 35.287121999523919 ] ] ] } },
{ "type": "Feature", "properties": { "county": "LENOIR", "precinct": "MH", "enr_desc": "Moseley Hall", "winner": "BJ Murphy", "winner_votes": 338.0, "winner_share": 91.105121293800536, "runner_up": "Stephen LaRoque", "runner_up_votes": 33.0, "runner_up_share": 8.8948787061994601, "contest_votes": 371.0, "margin_of_victory": 82.210242587601073, "is_tie": false, "results": [ { "candidate": "BJ Murphy", "votes": 338, "share": 91.10512129380054 }, { "candidate": "Stephen LaRoque", "votes": 33, "share": 8.89487870619946 } ], "participated": true, "map_key": "LENOIR_MH" }, "geometry": { "type": "Polygon", "coordinates": [ [ [ -77.729329991374328, 35.218678999837543 ], [ -77.736699991202073, 35.22154200033404 ], [ -77.739014991056067, 35.219670000258041 ], [ -77.7432749915925, 35.219609999776502 ], [ -77.743680991044414, 35.217794999552638 ], [ -77.742924991700463, 35.2162099998488 ], [ -77.744082990782502, 35.21566799957376 ], [ -77.745369991619299, 35.215474000322715 ], [ -77.748419991257876, 35.217190000292355 ], [ -77.7524509915077, 35.21732400028371 ], [ -77.757072991750462, 35.220993999679614 ], [ -77.760126991760885, 35.2205539994726 ], [ -77.763383990794182, 35.224631999604846 ], [ -77.769806991550126, 35.224971999492631 ], [ -77.772713991429384, 35.229244999774544 ], [ -77.777094991148559, 35.232276000302932 ], [ -77.77898499087317, 35.231949999723881 ], [ -77.779254991176515, 35.230918999932513 ], [ -77.775276991726514, 35.229905999642988 ], [ -77.774386991454975, 35.228493999483938 ], [ -77.774687991296688, 35.227306999777618 ], [ -77.777844991699325, 35.22641300019199 ], [ -77.781865991720323, 35.229138999661366 ], [ -77.783757991607303, 35.226650999617817 ], [ -77.784979991066507, 35.226544999930837 ], [ -77.789012991550123, 35.229564000093113 ], [ -77.788240991367473, 35.231191999865452 ], [ -77.789318991172038, 35.232053999798033 ], [ -77.792061991461722, 35.229988000170664 ], [ -77.796309990796516, 35.232670999636056 ], [ -77.79861899146961, 35.232897999908246 ], [ -77.802181991598658, 35.232298000076803 ], [ -77.807148990731264, 35.232964999987153 ], [ -77.813634991063097, 35.231677000017697 ], [ -77.823198990713863, 35.233176000233151 ], [ -77.826821990923634, 35.231862999525354 ], [ -77.830885991778445, 35.233455000014004 ], [ -77.824179990960332, 35.343810999928657 ], [ -77.819269990853016, 35.351998999969247 ], [ -77.81804699147483, 35.357434999656967 ], [ -77.814742991003172, 35.361748999571795 ], [ -77.811306991427301, 35.363887999554954 ], [ -77.806247991358916, 35.36875399977334 ], [ -77.777668990755387, 35.367663999674043 ], [ -77.741175990724741, 35.371965999488147 ], [ -77.739928990836674, 35.369166999723262 ], [ -77.740616991191189, 35.366233999798602 ], [ -77.745868991398609, 35.359238999913146 ], [ -77.748275991725905, 35.352360999637561 ], [ -77.748796990852171, 35.349062999809398 ], [ -77.747784991012054, 35.3415860002629 ], [ -77.754401990938618, 35.340313999475789 ], [ -77.766072990789013, 35.333137000098404 ], [ -77.754009990814922, 35.313041000351468 ], [ -77.751859990878842, 35.303545999472298 ], [ -77.74774699082802, 35.303202999606022 ], [ -77.737478991732843, 35.300430999938037 ], [ -77.726432991390979, 35.289556999793668 ], [ -77.727303991678795, 35.285947000174239 ], [ -77.727965991282133, 35.273215999904359 ], [ -77.723946990807534, 35.264236999664242 ], [ -77.731993991414981, 35.266627000213241 ], [ -77.733377990784803, 35.255901000077458 ], [ -77.73690399142049, 35.256075999810797 ], [ -77.738607991044773, 35.244406999912457 ], [ -77.73738099158092, 35.242012000021234 ], [ -77.737580991149969, 35.239886000177748 ], [ -77.736129991590502, 35.234715000099094 ], [ -77.736736990888346, 35.231868999744997 ], [ -77.735985991330622, 35.231867000285682 ], [ -77.729329991374328, 35.218678999837543 ] ] ] } },
{ "type": "Feature", "properties": { "county": null, "precinct": null, "enr_desc": "Neuse", "winner": null, "winner_votes": null, "winner_share": null, "runner_up": null, "runner_up_votes": null, "runner_up_share": null, "contest_votes": null, "margin_of_victory": null, "is_tie": false, "results": null, "participated": false, "map_key": null }, "geometry": { "type": "Polygon", "coordinates": [ [ [ -77.717121990795746, 35.181388000048756 ], [ -77.715759991515242, 35.183306999780299 ], [ -77.715876991342029, 35.185114999516934 ], [ -77.717808991441245, 35.187287999588825 ], [ -77.71787699176663, 35.191819000169467 ], [ -77.720039991165393, 35.197011999510984 ], [ -77.719683990983228, 35.203140999748747 ], [ -77.722249990782444, 35.205196999916879 ], [ -77.726069991487648, 35.206793000089675 ], [ -77.729054990876804, 35.211477000197412 ], [ -77.729070991041198, 35.218562999485911 ], [ -77.727075991092306, 35.218374999777097 ], [ -77.725000991463617, 35.219802999611836 ], [ -77.723128990978196, 35.219798999779876 ], [ -77.721365990892338, 35.218492000069524 ], [ -77.721060991101965, 35.215429999661268 ], [ -77.717422990724486, 35.215015000094688 ], [ -77.7137989911202, 35.221179999716 ], [ -77.710596991526586, 35.221846999940595 ], [ -77.710832991640217, 35.224621999905331 ], [ -77.709760990776189, 35.226561000301771 ], [ -77.705911990731849, 35.223978000003797 ], [ -77.703793991497406, 35.223605999810189 ], [ -77.702336990738672, 35.22440899968317 ], [ -77.701371991157103, 35.227623999703951 ], [ -77.699770991757674, 35.227855999752336 ], [ -77.695806991231578, 35.226041999654889 ], [ -77.691065990807815, 35.229539000313906 ], [ -77.686936990768302, 35.230842999567827 ], [ -77.685551991660816, 35.228876999495483 ], [ -77.687921990928899, 35.226702000127318 ], [ -77.68619299154804, 35.225030999571658 ], [ -77.683905991368462, 35.224161999862623 ], [ -77.682869991568666, 35.225736999977464 ], [ -77.680288990932524, 35.226309999618117 ], [ -77.677339991654335, 35.223644999647753 ], [ -77.675761990881853, 35.223772999745677 ], [ -77.672949991487641, 35.228490000155837 ], [ -77.667313990868024, 35.227813000048684 ], [ -77.664863990905175, 35.228859999575477 ], [ -77.664556991486293, 35.230116999780414 ], [ -77.666141991004039, 35.232783000094081 ], [ -77.664468990899749, 35.235640000206743 ], [ -77.659835991037014, 35.235428000173435 ], [ -77.652817991235338, 35.239941999970256 ], [ -77.639575991036992, 35.241785999719326 ], [ -77.638779991608104, 35.242421999477585 ], [ -77.638952991490555, 35.244024999891835 ], [ -77.642755991068498, 35.244342999712039 ], [ -77.644679990692367, 35.245624999978538 ], [ -77.642251990831809, 35.249423999555503 ], [ -77.640018991719003, 35.249828999800215 ], [ -77.637676991122134, 35.247843000086995 ], [ -77.637284991224661, 35.249650999617558 ], [ -77.6358279913172, 35.250493000018189 ], [ -77.634829990703665, 35.249421000076893 ], [ -77.635166990820196, 35.246605999912326 ], [ -77.63357599098272, 35.247109000138323 ], [ -77.632728991324129, 35.249661999961774 ], [ -77.631468991379251, 35.249475000318355 ], [ -77.630533991240497, 35.247359999495103 ], [ -77.629249991675536, 35.247656999631886 ], [ -77.628744990709535, 35.250975999947237 ], [ -77.631683990889314, 35.251106000003396 ], [ -77.63342999156167, 35.25314199964059 ], [ -77.632566991008019, 35.254019999652556 ], [ -77.629869991686547, 35.253653999682392 ], [ -77.627799991085297, 35.254589999782283 ], [ -77.625102991630953, 35.253433999601135 ], [ -77.623074991644856, 35.25395300015019 ], [ -77.623058991478985, 35.254985000303094 ], [ -77.625370991398881, 35.256893000099446 ], [ -77.624203991173658, 35.257714000062656 ], [ -77.621255991664498, 35.257575999498037 ], [ -77.623498991733697, 35.260110999846091 ], [ -77.618654991197999, 35.261450999863833 ], [ -77.618471990883108, 35.263235999784683 ], [ -77.620151990917776, 35.264856999904708 ], [ -77.619043991554875, 35.266086999506896 ], [ -77.616021991653568, 35.267096000063532 ], [ -77.605499991472897, 35.265543999895861 ], [ -77.598046991534815, 35.263440999666805 ], [ -77.587610991377801, 35.262550999466789 ], [ -77.584456990836458, 35.260994999487487 ], [ -77.583152990799405, 35.258921999722737 ], [ -77.583950991700434, 35.257884999889711 ], [ -77.589616991436898, 35.256608999479838 ], [ -77.586545990775036, 35.253393000175635 ], [ -77.582960990943391, 35.246595999559389 ], [ -77.580133991194401, 35.244225999480271 ], [ -77.572171991577989, 35.241428999857888 ], [ -77.574902991301286, 35.239610999927038 ], [ -77.572747991741281, 35.238671000261299 ], [ -77.574134990846616, 35.23633499991314 ], [ -77.574415990965647, 35.231592000080255 ], [ -77.576613991653204, 35.223538999503823 ], [ -77.575898991677349, 35.220328999687631 ], [ -77.57967799091557, 35.216287999859908 ], [ -77.579927990978462, 35.215052000331589 ], [ -77.582409990684695, 35.213541000326963 ], [ -77.586174991433595, 35.214134999785351 ], [ -77.592617991345833, 35.212898000298999 ], [ -77.593537991491345, 35.211822000276904 ], [ -77.592532991649364, 35.21010500033524 ], [ -77.593117990852065, 35.207885000188398 ], [ -77.592279990980771, 35.205779000016356 ], [ -77.592668990832664, 35.202437999831709 ], [ -77.594062991447487, 35.201430000311355 ], [ -77.602175991698118, 35.199229999761208 ], [ -77.605323991282688, 35.195795999875614 ], [ -77.612043991597005, 35.194144999980558 ], [ -77.616728990793774, 35.191931000018833 ], [ -77.619082991052792, 35.191919000055691 ], [ -77.620117991547644, 35.190874000178354 ], [ -77.628332991628696, 35.188363999860556 ], [ -77.637402991471319, 35.186549000250359 ], [ -77.643284991502384, 35.187375000102229 ], [ -77.647103991480506, 35.186529999644627 ], [ -77.649975991716488, 35.18495100024267 ], [ -77.654913991726389, 35.179664999767901 ], [ -77.661018991073462, 35.176920000167044 ], [ -77.662552991518297, 35.17396800021578 ], [ -77.662553990901188, 35.169001000190399 ], [ -77.664811990839695, 35.166529999868821 ], [ -77.667209991671754, 35.161906999725332 ], [ -77.67256199096245, 35.158841000010071 ], [ -77.675042991287867, 35.157970999695948 ], [ -77.682009990709759, 35.157994000173218 ], [ -77.6883919916895, 35.162421000057023 ], [ -77.69025299075804, 35.162594999995356 ], [ -77.700198990859235, 35.176402999701025 ], [ -77.701924991362262, 35.177453000035008 ], [ -77.707546991083234, 35.177792000209024 ], [ -77.709570991716987, 35.176310999708313 ], [ -77.714469991728635, 35.176104999775653 ], [ -77.716521991156753, 35.174716999916328 ], [ -77.721664991365145, 35.175037999681855 ], [ -77.723119991152458, 35.175889999737088 ], [ -77.723328990711082, 35.178001000014554 ], [ -77.722434991467352, 35.179591999965716 ], [ -77.718227991432542, 35.180437000175068 ], [ -77.717121990795746, 35.181388000048756 ] ] ] } },
{ "type": "Feature", "properties": { "county": null, "precinct": null, "enr_desc": "Pink Hill-1", "winner": null, "winner_votes": null, "winner_share": null, "runner_up": null, "runner_up_votes": null, "runner_up_share": null, "contest_votes": null, "margin_of_victory": null, "is_tie": false, "results": null, "participated": false, "map_key": null }, "geometry": { "type": "Polygon", "coordinates": [ [ [ -77.67879699090868, 35.033618999718364 ], [ -77.679480991171602, 35.036018000154549 ], [ -77.68330799132697, 35.04134600010795 ], [ -77.684775991286614, 35.050907999531276 ], [ -77.687621990990195, 35.055641000171462 ], [ -77.702538991556779, 35.051042999766757 ], [ -77.703880990788676, 35.052785999717159 ], [ -77.706860991648313, 35.054281000310588 ], [ -77.708920991017507, 35.057046000005371 ], [ -77.714412991745405, 35.060018000266432 ], [ -77.71547499105256, 35.063391000021156 ], [ -77.715196991337436, 35.068611000253291 ], [ -77.715912991194429, 35.07253500034512 ], [ -77.72035599126977, 35.080450000081335 ], [ -77.719877990717407, 35.08331199996622 ], [ -77.716819991088002, 35.089216000086687 ], [ -77.690669991248697, 35.107280999816332 ], [ -77.69093499119252, 35.110160999622906 ], [ -77.685555990723756, 35.112505000330835 ], [ -77.681765991469248, 35.112556999621006 ], [ -77.677720990798761, 35.110722000311824 ], [ -77.67644799138283, 35.108175999885852 ], [ -77.665334991766343, 35.103212999884171 ], [ -77.661713991176967, 35.102617000035643 ], [ -77.660878991613274, 35.101541000156665 ], [ -77.653888991398645, 35.100829999835327 ], [ -77.650322991381387, 35.103140999884722 ], [ -77.646508991315883, 35.099065999609245 ], [ -77.646342991065922, 35.097944999592904 ], [ -77.641723991135009, 35.099119999651506 ], [ -77.63817199144637, 35.098034999960923 ], [ -77.637320990868588, 35.096866000135343 ], [ -77.634006991093599, 35.095742999491783 ], [ -77.629606990998383, 35.095535000110978 ], [ -77.625541990840304, 35.094251999937434 ], [ -77.622257990815541, 35.091525000269286 ], [ -77.62091899075341, 35.088754999792847 ], [ -77.621723990913353, 35.085526999746975 ], [ -77.617989991378721, 35.081820999560207 ], [ -77.615956991536777, 35.080998000278889 ], [ -77.611976991225291, 35.082716999507383 ], [ -77.606629990841455, 35.082559000161979 ], [ -77.606293991608112, 35.080727999658528 ], [ -77.6046509917674, 35.079858999484209 ], [ -77.604761991101356, 35.078280000292814 ], [ -77.603563991426412, 35.077867999567601 ], [ -77.602896991176792, 35.078578000122334 ], [ -77.598043991440136, 35.074875000158059 ], [ -77.601281991677695, 35.071367999617614 ], [ -77.67879699090868, 35.033618999718364 ] ] ] } },
{ "type": "Feature", "properties": { "county": null, "precinct": null, "enr_desc": "Pink Hill-2", "winner": null, "winner_votes": null, "winner_share": null, "runner_up": null, "runner_up_votes": null, "runner_up_share": null, "contest_votes": null, "margin_of_victory": null, "is_tie": false, "results": null, "participated": false, "map_key": null }, "geometry": { "type": "Polygon", "coordinates": [ [ [ -77.749549991487015, 35.108060000224626 ], [ -77.740442991020359, 35.104775999956303 ], [ -77.732853990942644, 35.103724999924779 ], [ -77.728391990731424, 35.104118000117694 ], [ -77.725538991731852, 35.105995999484044 ], [ -77.721769991411819, 35.106892999487776 ], [ -77.716029991264691, 35.104170999881802 ], [ -77.705883990704166, 35.102752999940876 ], [ -77.699310991053153, 35.104906999464603 ], [ -77.693489991618776, 35.109599999578634 ], [ -77.69093499119252, 35.110160999622906 ], [ -77.690669991248697, 35.107280999816332 ], [ -77.716819991088002, 35.089216000086687 ], [ -77.719877990717407, 35.08331199996622 ], [ -77.72035599126977, 35.080450000081335 ], [ -77.715912991194429, 35.07253500034512 ], [ -77.715196991337436, 35.068611000253291 ], [ -77.71547499105256, 35.063391000021156 ], [ -77.714412991745405, 35.060018000266432 ], [ -77.708920991017507, 35.057046000005371 ], [ -77.706860991648313, 35.054281000310588 ], [ -77.703880990788676, 35.052785999717159 ], [ -77.702538991556779, 35.051042999766757 ], [ -77.687621990990195, 35.055641000171462 ], [ -77.684775991286614, 35.050907999531276 ], [ -77.68330799132697, 35.04134600010795 ], [ -77.679480991171602, 35.036018000154549 ], [ -77.67879699090868, 35.033618999718364 ], [ -77.731025991489489, 35.008138000189732 ], [ -77.74603699111529, 35.02233999971196 ], [ -77.747225990806427, 35.051377000088507 ], [ -77.748899991491641, 35.051331000330464 ], [ -77.749179991103816, 35.058106000088088 ], [ -77.747506991243483, 35.058225000107967 ], [ -77.749549991487015, 35.108060000224626 ] ] ] } },
{ "type": "Feature", "properties": { "county": null, "precinct": null, "enr_desc": "Sandhill", "winner": null, "winner_votes": null, "winner_share": null, "runner_up": null, "runner_up_votes": null, "runner_up_share": null, "contest_votes": null, "margin_of_victory": null, "is_tie": false, "results": null, "participated": false, "map_key": null }, "geometry": { "type": "Polygon", "coordinates": [ [ [ -77.527181991484852, 35.243000999644366 ], [ -77.528138991278169, 35.243975999951097 ], [ -77.528902991470119, 35.247706999456327 ], [ -77.52700999156572, 35.247232999835035 ], [ -77.525725990707897, 35.248469000315502 ], [ -77.52410799134222, 35.247713000278694 ], [ -77.522767991647655, 35.248216000181017 ], [ -77.519383990893488, 35.25098699988088 ], [ -77.518823991572873, 35.255152999883386 ], [ -77.517232991627466, 35.255952999645558 ], [ -77.517482991025915, 35.256777000256541 ], [ -77.516645991030202, 35.257119999463896 ], [ -77.515502991296842, 35.256295999912801 ], [ -77.515473991579881, 35.25780699999742 ], [ -77.514719991053425, 35.258103999507611 ], [ -77.512264991568131, 35.257576999896401 ], [ -77.512179991766374, 35.258996000174434 ], [ -77.510840991300384, 35.259155000080035 ], [ -77.510839991419161, 35.261123999675284 ], [ -77.508994991589148, 35.265654999880525 ], [ -77.509527990863916, 35.266455000146109 ], [ -77.50760599150118, 35.270308000203826 ], [ -77.51042899090551, 35.274188999728871 ], [ -77.510507991509655, 35.276479999506222 ], [ -77.507874991665787, 35.277177000028416 ], [ -77.507411990938195, 35.279278999841054 ], [ -77.496672991278416, 35.283858000171257 ], [ -77.496633991481957, 35.284662999489342 ], [ -77.501044990953446, 35.287301999783928 ], [ -77.500945991418476, 35.290227999890682 ], [ -77.495386991008857, 35.296401999887465 ], [ -77.488127991582402, 35.300461999889187 ], [ -77.488185991466267, 35.302086000229572 ], [ -77.490685991686192, 35.306074999500659 ], [ -77.489869991442077, 35.30795699989568 ], [ -77.48496799087566, 35.308979999982391 ], [ -77.483424991369674, 35.310725999656732 ], [ -77.480516991341872, 35.310972000312695 ], [ -77.478758991065462, 35.312071000003279 ], [ -77.478286991056606, 35.313040000224873 ], [ -77.478933991106246, 35.31420300031472 ], [ -77.481758991666936, 35.315004000036701 ], [ -77.482406991256752, 35.317019999978918 ], [ -77.480285990795366, 35.318560999791458 ], [ -77.477222991015068, 35.319150999537122 ], [ -77.470928990839482, 35.318281999998113 ], [ -77.46942599084305, 35.319208999551329 ], [ -77.463895991112324, 35.328510000074886 ], [ -77.458532991100995, 35.334301999608471 ], [ -77.448211990698383, 35.33620599949684 ], [ -77.443636990784142, 35.33351300020108 ], [ -77.427517991717778, 35.338849999746024 ], [ -77.416038991777924, 35.33625999980049 ], [ -77.410922990830073, 35.337798999749317 ], [ -77.410088990771655, 35.33487999975975 ], [ -77.410497991494921, 35.331868000040323 ], [ -77.411278991145124, 35.333235999598543 ], [ -77.414214991534976, 35.333968999812036 ], [ -77.415106991195913, 35.3332959995181 ], [ -77.414039991605051, 35.33123799965631 ], [ -77.41468699129922, 35.330412999454573 ], [ -77.417270990885896, 35.331191000043468 ], [ -77.419601991635972, 35.330572000021661 ], [ -77.421348991560691, 35.331330999737105 ], [ -77.42241799087472, 35.329024999698852 ], [ -77.423348991703094, 35.328743999733874 ], [ -77.425121991089526, 35.329952999928608 ], [ -77.428459991538659, 35.329845999500876 ], [ -77.429297991586878, 35.330561000156443 ], [ -77.43131899164112, 35.329780999484051 ], [ -77.432142991186936, 35.327837000253865 ], [ -77.431391990777584, 35.326464999488813 ], [ -77.432294991313526, 35.324478999972271 ], [ -77.431132990881707, 35.312906999856267 ], [ -77.43883699071732, 35.311457999970138 ], [ -77.44053699098879, 35.303508999829809 ], [ -77.449135991545447, 35.301839000187492 ], [ -77.449608991337385, 35.299425999572982 ], [ -77.448444990979922, 35.297339000272181 ], [ -77.446412991590677, 35.296172999734587 ], [ -77.446595991204433, 35.293572999889605 ], [ -77.439929991201723, 35.289592999882565 ], [ -77.440588991064715, 35.284573999545266 ], [ -77.437655991124572, 35.276986999850649 ], [ -77.431775991644045, 35.271184000332234 ], [ -77.428843991367216, 35.266120999809146 ], [ -77.428608990940248, 35.264075999786705 ], [ -77.426171991275865, 35.262375000110794 ], [ -77.425636990735711, 35.259024999599141 ], [ -77.426848991687237, 35.256058999633794 ], [ -77.43256599099125, 35.250176999782326 ], [ -77.445906991512814, 35.246579000110728 ], [ -77.464315990843204, 35.239154999625733 ], [ -77.465615991221881, 35.234617999543516 ], [ -77.473293991711742, 35.231063999785881 ], [ -77.473691990845793, 35.228984999998772 ], [ -77.527181991484852, 35.243000999644366 ] ] ] } },
{ "type": "Feature", "properties": { "county": null, "precinct": null, "enr_desc": "Southwest", "winner": null, "winner_votes": null, "winner_share": null, "runner_up": null, "runner_up_votes": null, "runner_up_share": null, "contest_votes": null, "margin_of_victory": null, "is_tie": false, "results": null, "participated": false, "map_key": null }, "geometry": { "type": "Polygon", "coordinates": [ [ [ -77.534680990777872, 35.143433999840781 ], [ -77.540842991461261, 35.14999200023987 ], [ -77.549772991007188, 35.155993000021851 ], [ -77.55350799154472, 35.157565999736057 ], [ -77.556430991530107, 35.163399000011161 ], [ -77.559988991465829, 35.17653799995054 ], [ -77.561493991602347, 35.176507999513959 ], [ -77.579018991439725, 35.183239999545386 ], [ -77.577930991168387, 35.190001999625416 ], [ -77.579061991249745, 35.191824999707556 ], [ -77.572801991477462, 35.197550999967625 ], [ -77.569523990898659, 35.199488999785927 ], [ -77.56915999151893, 35.201797999950251 ], [ -77.573941991735012, 35.207511999933878 ], [ -77.578579991250209, 35.210433000013232 ], [ -77.578698990961371, 35.214887000145545 ], [ -77.57967799091557, 35.216287999859908 ], [ -77.575898991677349, 35.220328999687631 ], [ -77.576613991653204, 35.223538999503823 ], [ -77.574415990965647, 35.231592000080255 ], [ -77.574134990846616, 35.23633499991314 ], [ -77.572747991741281, 35.238671000261299 ], [ -77.574902991301286, 35.239610999927038 ], [ -77.572171991577989, 35.241428999857888 ], [ -77.568587991626302, 35.240588999902073 ], [ -77.563603990816844, 35.240720999636068 ], [ -77.56047599148043, 35.241540999651527 ], [ -77.558040990938864, 35.243879999876043 ], [ -77.557052990865728, 35.246636999629047 ], [ -77.555497990976889, 35.248324999644346 ], [ -77.551550991092085, 35.248868000226395 ], [ -77.545587990733324, 35.24617999991419 ], [ -77.540582991461065, 35.246845999541215 ], [ -77.539206990995339, 35.252112999631564 ], [ -77.532897991084653, 35.254509999997467 ], [ -77.530933990776731, 35.257729999465283 ], [ -77.526809991424884, 35.261846000271035 ], [ -77.524378990972096, 35.262995999771405 ], [ -77.518377991274875, 35.263401999858182 ], [ -77.515714991051325, 35.266556999521228 ], [ -77.509527990863916, 35.266455000146109 ], [ -77.508994991589148, 35.265654999880525 ], [ -77.510839991419161, 35.261123999675284 ], [ -77.510840991300384, 35.259155000080035 ], [ -77.512179991766374, 35.258996000174434 ], [ -77.512264991568131, 35.257576999896401 ], [ -77.514719991053425, 35.258103999507611 ], [ -77.515473991579881, 35.25780699999742 ], [ -77.515502991296842, 35.256295999912801 ], [ -77.516645991030202, 35.257119999463896 ], [ -77.517482991025915, 35.256777000256541 ], [ -77.517232991627466, 35.255952999645558 ], [ -77.518823991572873, 35.255152999883386 ], [ -77.519383990893488, 35.25098699988088 ], [ -77.522767991647655, 35.248216000181017 ], [ -77.52410799134222, 35.247713000278694 ], [ -77.525725990707897, 35.248469000315502 ], [ -77.52700999156572, 35.247232999835035 ], [ -77.528902991470119, 35.247706999456327 ], [ -77.528138991278169, 35.243975999951097 ], [ -77.527181991484852, 35.243000999644366 ], [ -77.507462990865918, 35.17281400033675 ], [ -77.534680990777872, 35.143433999840781 ] ] ] } },
{ "type": "Feature", "properties": { "county": null, "precinct": null, "enr_desc": "Trent-1", "winner": null, "winner_votes": null, "winner_share": null, "runner_up": null, "runner_up_votes": null, "runner_up_share": null, "contest_votes": null, "margin_of_victory": null, "is_tie": false, "results": null, "participated": false, "map_key": null }, "geometry": { "type": "Polygon", "coordinates": [ [ [ -77.63817199144637, 35.098034999960923 ], [ -77.641723991135009, 35.099119999651506 ], [ -77.646342991065922, 35.097944999592904 ], [ -77.646508991315883, 35.099065999609245 ], [ -77.650322991381387, 35.103140999884722 ], [ -77.653888991398645, 35.100829999835327 ], [ -77.660878991613274, 35.101541000156665 ], [ -77.661713991176967, 35.102617000035643 ], [ -77.665334991766343, 35.103212999884171 ], [ -77.67644799138283, 35.108175999885852 ], [ -77.677720990798761, 35.110722000311824 ], [ -77.681765991469248, 35.112556999621006 ], [ -77.685555990723756, 35.112505000330835 ], [ -77.69093499119252, 35.110160999622906 ], [ -77.693489991618776, 35.109599999578634 ], [ -77.699310991053153, 35.104906999464603 ], [ -77.705883990704166, 35.102752999940876 ], [ -77.716029991264691, 35.104170999881802 ], [ -77.721769991411819, 35.106892999487776 ], [ -77.725538991731852, 35.105995999484044 ], [ -77.728391990731424, 35.104118000117694 ], [ -77.732853990942644, 35.103724999924779 ], [ -77.740442991020359, 35.104775999956303 ], [ -77.749549991487015, 35.108060000224626 ], [ -77.767917990783147, 35.143205999749775 ], [ -77.766040991226475, 35.145318999686083 ], [ -77.763482990796746, 35.152434999863551 ], [ -77.763715991606418, 35.160325999924112 ], [ -77.76174099108205, 35.167721999821545 ], [ -77.751398991239455, 35.177039999702487 ], [ -77.738608991060261, 35.184233000283712 ], [ -77.720338991440855, 35.183521999954152 ], [ -77.72016799083471, 35.181431000058012 ], [ -77.717121990795746, 35.181388000048756 ], [ -77.718227991432542, 35.180437000175068 ], [ -77.722434991467352, 35.179591999965716 ], [ -77.723328990711082, 35.178001000014554 ], [ -77.723119991152458, 35.175889999737088 ], [ -77.721664991365145, 35.175037999681855 ], [ -77.716521991156753, 35.174716999916328 ], [ -77.714469991728635, 35.176104999775653 ], [ -77.709570991716987, 35.176310999708313 ], [ -77.707546991083234, 35.177792000209024 ], [ -77.701924991362262, 35.177453000035008 ], [ -77.700198990859235, 35.176402999701025 ], [ -77.69025299075804, 35.162594999995356 ], [ -77.6883919916895, 35.162421000057023 ], [ -77.682009990709759, 35.157994000173218 ], [ -77.675042991287867, 35.157970999695948 ], [ -77.67256199096245, 35.158841000010071 ], [ -77.672438991527642, 35.153833000114837 ], [ -77.669066991463623, 35.142963999892395 ], [ -77.671702991067392, 35.141603000128782 ], [ -77.665483991491371, 35.130869000081546 ], [ -77.660818991181856, 35.131952000178323 ], [ -77.657714990887385, 35.128923000139885 ], [ -77.652680991071705, 35.128247999776882 ], [ -77.642492991695008, 35.132068999841891 ], [ -77.642664991323869, 35.123941999705032 ], [ -77.637499991458881, 35.103854000162848 ], [ -77.63817199144637, 35.098034999960923 ] ] ] } },
{ "type": "Feature", "properties": { "county": null, "precinct": null, "enr_desc": "Trent-2", "winner": null, "winner_votes": null, "winner_share": null, "runner_up": null, "runner_up_votes": null, "runner_up_share": null, "contest_votes": null, "margin_of_victory": null, "is_tie": false, "results": null, "participated": false, "map_key": null }, "geometry": { "type": "Polygon", "coordinates": [ [ [ -77.767917990783147, 35.143205999749775 ], [ -77.76917699144569, 35.145576000182785 ], [ -77.834248991724905, 35.177846000061706 ], [ -77.830885991778445, 35.233455000014004 ], [ -77.826821990923634, 35.231862999525354 ], [ -77.823198990713863, 35.233176000233151 ], [ -77.813634991063097, 35.231677000017697 ], [ -77.807148990731264, 35.232964999987153 ], [ -77.802181991598658, 35.232298000076803 ], [ -77.79861899146961, 35.232897999908246 ], [ -77.796309990796516, 35.232670999636056 ], [ -77.792061991461722, 35.229988000170664 ], [ -77.789318991172038, 35.232053999798033 ], [ -77.788240991367473, 35.231191999865452 ], [ -77.789012991550123, 35.229564000093113 ], [ -77.784979991066507, 35.226544999930837 ], [ -77.783757991607303, 35.226650999617817 ], [ -77.781865991720323, 35.229138999661366 ], [ -77.777844991699325, 35.22641300019199 ], [ -77.774687991296688, 35.227306999777618 ], [ -77.774386991454975, 35.228493999483938 ], [ -77.775276991726514, 35.229905999642988 ], [ -77.779254991176515, 35.230918999932513 ], [ -77.77898499087317, 35.231949999723881 ], [ -77.777094991148559, 35.232276000302932 ], [ -77.772713991429384, 35.229244999774544 ], [ -77.769806991550126, 35.224971999492631 ], [ -77.763383990794182, 35.224631999604846 ], [ -77.760126991760885, 35.2205539994726 ], [ -77.757072991750462, 35.220993999679614 ], [ -77.7524509915077, 35.21732400028371 ], [ -77.748419991257876, 35.217190000292355 ], [ -77.745369991619299, 35.215474000322715 ], [ -77.744082990782502, 35.21566799957376 ], [ -77.742924991700463, 35.2162099998488 ], [ -77.743680991044414, 35.217794999552638 ], [ -77.7432749915925, 35.219609999776502 ], [ -77.739014991056067, 35.219670000258041 ], [ -77.736699991202073, 35.22154200033404 ], [ -77.729329991374328, 35.218678999837543 ], [ -77.729070991041198, 35.218562999485911 ], [ -77.729054990876804, 35.211477000197412 ], [ -77.726069991487648, 35.206793000089675 ], [ -77.722249990782444, 35.205196999916879 ], [ -77.719683990983228, 35.203140999748747 ], [ -77.720039991165393, 35.197011999510984 ], [ -77.71787699176663, 35.191819000169467 ], [ -77.717808991441245, 35.187287999588825 ], [ -77.715876991342029, 35.185114999516934 ], [ -77.715759991515242, 35.183306999780299 ], [ -77.717121990795746, 35.181388000048756 ], [ -77.72016799083471, 35.181431000058012 ], [ -77.720338991440855, 35.183521999954152 ], [ -77.738608991060261, 35.184233000283712 ], [ -77.751398991239455, 35.177039999702487 ], [ -77.76174099108205, 35.167721999821545 ], [ -77.763715991606418, 35.160325999924112 ], [ -77.763482990796746, 35.152434999863551 ], [ -77.766040991226475, 35.145318999686083 ], [ -77.767917990783147, 35.143205999749775 ] ] ] } },
{ "type": "Feature", "properties": { "county": null, "precinct": null, "enr_desc": "Vance", "winner": null, "winner_votes": null, "winner_share": null, "runner_up": null, "runner_up_votes": null, "runner_up_share": null, "contest_votes": null, "margin_of_victory": null, "is_tie": false, "results": null, "participated": false, "map_key": null }, "geometry": { "type": "Polygon", "coordinates": [ [ [ -77.661491990979556, 35.331796000270437 ], [ -77.659682991747971, 35.347534000193818 ], [ -77.660841991098067, 35.352813999488376 ], [ -77.658647991580281, 35.353957999649147 ], [ -77.653222991519556, 35.352491999976912 ], [ -77.647999991288771, 35.355316999934203 ], [ -77.643353991181229, 35.354327999899766 ], [ -77.637313991173173, 35.354455000343265 ], [ -77.634530990764503, 35.356752999675471 ], [ -77.632706991706343, 35.361005000252142 ], [ -77.629582991158941, 35.363308000066823 ], [ -77.627433991517748, 35.366618999939007 ], [ -77.61807299150405, 35.372608999859452 ], [ -77.615409991021409, 35.374978999734772 ], [ -77.613821990932735, 35.377824000132463 ], [ -77.606956991256581, 35.379496999489817 ], [ -77.602874990986379, 35.37499799987954 ], [ -77.59539399162351, 35.375582000254468 ], [ -77.593188990961181, 35.374059999528598 ], [ -77.589322991243677, 35.373762999848992 ], [ -77.584666990862175, 35.379699999766892 ], [ -77.581304991046565, 35.377965999889682 ], [ -77.580195991093163, 35.379755999652048 ], [ -77.576656990711825, 35.379879999816765 ], [ -77.572081991207753, 35.382311999725594 ], [ -77.566381991183462, 35.382982000137957 ], [ -77.564882991204001, 35.383908000153291 ], [ -77.565663990674125, 35.385777999875998 ], [ -77.56450899145662, 35.387674999554839 ], [ -77.561461991179186, 35.387276999980529 ], [ -77.54078499145426, 35.395928999599128 ], [ -77.538600991414739, 35.3848369996035 ], [ -77.53971099161987, 35.38186299986846 ], [ -77.535143991652006, 35.372254999794023 ], [ -77.535796991355255, 35.36745499976341 ], [ -77.534953991045455, 35.358390999619211 ], [ -77.537389990807313, 35.355098999957065 ], [ -77.545422990726792, 35.357487000160894 ], [ -77.547422991451825, 35.354334999788357 ], [ -77.549980990817545, 35.353966999938663 ], [ -77.552619990963862, 35.350078999664774 ], [ -77.552565991299261, 35.343022000181044 ], [ -77.547518990679961, 35.342730000120689 ], [ -77.545570990938998, 35.34087799953253 ], [ -77.543825991429799, 35.335530999599854 ], [ -77.539175990809326, 35.331790000273806 ], [ -77.538247990698892, 35.324403999939257 ], [ -77.535922991165563, 35.322256999905221 ], [ -77.535917990703098, 35.320873999441417 ], [ -77.529952991384789, 35.316965999503708 ], [ -77.531649991285747, 35.315119999920704 ], [ -77.5313059915607, 35.313408999507999 ], [ -77.533037991002843, 35.311251999770555 ], [ -77.536381991253648, 35.309344999546106 ], [ -77.541191991212813, 35.311393999686985 ], [ -77.549329990830785, 35.310877999654892 ], [ -77.550652990739451, 35.31182499984201 ], [ -77.556325991092407, 35.312793999923713 ], [ -77.56115599078079, 35.311008999709102 ], [ -77.565606990809229, 35.307774000309024 ], [ -77.566774991020665, 35.308513999980711 ], [ -77.570193990991129, 35.308362999507729 ], [ -77.572742991425841, 35.306888000228305 ], [ -77.576317991423807, 35.307047999916819 ], [ -77.577043991067342, 35.30604000000487 ], [ -77.580070991213717, 35.30780799990675 ], [ -77.586968991589146, 35.310045999817987 ], [ -77.588653991754498, 35.308747999616941 ], [ -77.601919991628904, 35.304408999674827 ], [ -77.612561991447336, 35.306031000241127 ], [ -77.620905990873908, 35.304080000029032 ], [ -77.62408999122411, 35.305358999944033 ], [ -77.633174991359951, 35.306848000052973 ], [ -77.636223991657772, 35.308386000146307 ], [ -77.639399991561319, 35.30690000018469 ], [ -77.642487991191118, 35.307354999694155 ], [ -77.643633990864416, 35.306182999956484 ], [ -77.647968990881481, 35.305496999537702 ], [ -77.651157991502416, 35.312066000296255 ], [ -77.658101991626992, 35.319008999458681 ], [ -77.661491990979556, 35.331796000270437 ] ] ] } },
{ "type": "Feature", "properties": { "county": null, "precinct": null, "enr_desc": "Woodington", "winner": null, "winner_votes": null, "winner_share": null, "runner_up": null, "runner_up_votes": null, "runner_up_share": null, "contest_votes": null, "margin_of_victory": null, "is_tie": false, "results": null, "participated": false, "map_key": null }, "geometry": { "type": "Polygon", "coordinates": [ [ [ -77.598043991440136, 35.074875000158059 ], [ -77.602896991176792, 35.078578000122334 ], [ -77.603563991426412, 35.077867999567601 ], [ -77.604761991101356, 35.078280000292814 ], [ -77.6046509917674, 35.079858999484209 ], [ -77.606293991608112, 35.080727999658528 ], [ -77.606629990841455, 35.082559000161979 ], [ -77.611976991225291, 35.082716999507383 ], [ -77.615956991536777, 35.080998000278889 ], [ -77.617989991378721, 35.081820999560207 ], [ -77.621723990913353, 35.085526999746975 ], [ -77.62091899075341, 35.088754999792847 ], [ -77.622257990815541, 35.091525000269286 ], [ -77.625541990840304, 35.094251999937434 ], [ -77.629606990998383, 35.095535000110978 ], [ -77.634006991093599, 35.095742999491783 ], [ -77.637320990868588, 35.096866000135343 ], [ -77.63817199144637, 35.098034999960923 ], [ -77.637499991458881, 35.103854000162848 ], [ -77.642664991323869, 35.123941999705032 ], [ -77.642492991695008, 35.132068999841891 ], [ -77.652680991071705, 35.128247999776882 ], [ -77.657714990887385, 35.128923000139885 ], [ -77.660818991181856, 35.131952000178323 ], [ -77.665483991491371, 35.130869000081546 ], [ -77.671702991067392, 35.141603000128782 ], [ -77.669066991463623, 35.142963999892395 ], [ -77.672438991527642, 35.153833000114837 ], [ -77.67256199096245, 35.158841000010071 ], [ -77.667209991671754, 35.161906999725332 ], [ -77.664811990839695, 35.166529999868821 ], [ -77.662553990901188, 35.169001000190399 ], [ -77.662552991518297, 35.17396800021578 ], [ -77.661018991073462, 35.176920000167044 ], [ -77.654913991726389, 35.179664999767901 ], [ -77.649975991716488, 35.18495100024267 ], [ -77.647103991480506, 35.186529999644627 ], [ -77.643284991502384, 35.187375000102229 ], [ -77.637402991471319, 35.186549000250359 ], [ -77.628332991628696, 35.188363999860556 ], [ -77.620117991547644, 35.190874000178354 ], [ -77.619082991052792, 35.191919000055691 ], [ -77.616728990793774, 35.191931000018833 ], [ -77.612043991597005, 35.194144999980558 ], [ -77.605323991282688, 35.195795999875614 ], [ -77.602175991698118, 35.199229999761208 ], [ -77.594062991447487, 35.201430000311355 ], [ -77.592668990832664, 35.202437999831709 ], [ -77.592279990980771, 35.205779000016356 ], [ -77.593117990852065, 35.207885000188398 ], [ -77.592532991649364, 35.21010500033524 ], [ -77.593537991491345, 35.211822000276904 ], [ -77.592617991345833, 35.212898000298999 ], [ -77.586174991433595, 35.214134999785351 ], [ -77.582409990684695, 35.213541000326963 ], [ -77.579927990978462, 35.215052000331589 ], [ -77.57967799091557, 35.216287999859908 ], [ -77.578698990961371, 35.214887000145545 ], [ -77.578579991250209, 35.210433000013232 ], [ -77.573941991735012, 35.207511999933878 ], [ -77.56915999151893, 35.201797999950251 ], [ -77.569523990898659, 35.199488999785927 ], [ -77.572801991477462, 35.197550999967625 ], [ -77.579061991249745, 35.191824999707556 ], [ -77.577930991168387, 35.190001999625416 ], [ -77.579018991439725, 35.183239999545386 ], [ -77.561493991602347, 35.176507999513959 ], [ -77.559988991465829, 35.17653799995054 ], [ -77.556430991530107, 35.163399000011161 ], [ -77.55350799154472, 35.157565999736057 ], [ -77.549772991007188, 35.155993000021851 ], [ -77.540842991461261, 35.14999200023987 ], [ -77.534680990777872, 35.143433999840781 ], [ -77.598043991440136, 35.074875000158059 ] ] ] } }
]
}
