{
"type": "FeatureCollection",
"name": "lincoln_county_clerk_of_superior_court_rep",
"crs": { "type": "name", "properties": { "name": "urn:ogc:def:crs:OGC:1.3:CRS84" } },
"features": [
{ "type": "Feature", "properties": { "county": "LINCOLN", "precinct": "BC13", "enr_desc": "Boger City", "winner": "Stacey Leonard Crouse", "winner_votes": 63, "winner_share": 46.32352941176471, "runner_up": "Frank Runyon", "runner_up_votes": 37, "runner_up_share": 27.205882352941174, "contest_votes": 136, "margin_of_victory": 19.117647058823536, "is_tie": false, "results": [ { "candidate": "Stacey Leonard Crouse", "votes": 63, "share": 46.32352941176471 }, { "candidate": "Frank Runyon", "votes": 37, "share": 27.205882352941174 }, { "candidate": "Dawn Short", "votes": 29, "share": 21.323529411764707 }, { "candidate": "Phil McNeill", "votes": 7, "share": 5.147058823529411 } ], "participated": true, "map_key": "LINCOLN_BC13" }, "geometry": { "type": "Polygon", "coordinates": [ [ [ -81.213875991484045, 35.476024000508581 ], [ -81.219036990783778, 35.477500000130689 ], [ -81.229349991010253, 35.477174000500462 ], [ -81.239543991189038, 35.474570999719838 ], [ -81.240123990799461, 35.476431000458305 ], [ -81.24659999071676, 35.494375000516413 ], [ -81.241971990844249, 35.499044000534525 ], [ -81.239889991340334, 35.504890000053841 ], [ -81.236962991679775, 35.502765999773054 ], [ -81.229067991551105, 35.505448000276147 ], [ -81.215105991670228, 35.504197000301986 ], [ -81.211589990826155, 35.504558999838686 ], [ -81.212010991071807, 35.488746000604138 ], [ -81.21384099095188, 35.481003000201149 ], [ -81.213875991484045, 35.476024000508581 ] ] ] } },
{ "type": "Feature", "properties": { "county": "LINCOLN", "precinct": "AS25", "enr_desc": "Asbury", "winner": "Stacey Leonard Crouse", "winner_votes": 206, "winner_share": 53.367875647668392, "runner_up": "Frank Runyon", "runner_up_votes": 115, "runner_up_share": 29.792746113989637, "contest_votes": 386, "margin_of_victory": 23.575129533678755, "is_tie": false, "results": [ { "candidate": "Stacey Leonard Crouse", "votes": 206, "share": 53.36787564766839 }, { "candidate": "Frank Runyon", "votes": 115, "share": 29.792746113989637 }, { "candidate": "Dawn Short", "votes": 40, "share": 10.362694300518134 }, { "candidate": "Phil McNeill", "votes": 25, "share": 6.476683937823833 } ], "participated": true, "map_key": "LINCOLN_AS25" }, "geometry": { "type": "Polygon", "coordinates": [ [ [ -81.189580991437751, 35.473652000546082 ], [ -81.201033990750901, 35.478054000591769 ], [ -81.213875991484045, 35.476024000508581 ], [ -81.21384099095188, 35.481003000201149 ], [ -81.212010991071807, 35.488746000604138 ], [ -81.211589990826155, 35.504558999838686 ], [ -81.208411990880421, 35.502219000195481 ], [ -81.204801990905509, 35.503963000039391 ], [ -81.197843990822832, 35.50146599974893 ], [ -81.195022991071326, 35.499219000467782 ], [ -81.190549991716594, 35.49956200011674 ], [ -81.189586991089399, 35.498910000183493 ], [ -81.183592990913922, 35.502159000327836 ], [ -81.176479991654119, 35.504212000217379 ], [ -81.173564990869522, 35.504707000381423 ], [ -81.169685990792075, 35.501170999905042 ], [ -81.160702990836171, 35.497825999725677 ], [ -81.159334991366677, 35.495917000129495 ], [ -81.160261990983685, 35.493773999867649 ], [ -81.16003399132687, 35.491684000012739 ], [ -81.162477990714649, 35.490068000150124 ], [ -81.16704399156643, 35.490103000413207 ], [ -81.170229991436969, 35.489109000051826 ], [ -81.175824990722703, 35.485113999960063 ], [ -81.182934991260254, 35.484151000485028 ], [ -81.18664599087387, 35.481960000497665 ], [ -81.18744299156927, 35.479409000222603 ], [ -81.189703991067475, 35.480196000511206 ], [ -81.190297991660444, 35.477885999952854 ], [ -81.189580991437751, 35.473652000546082 ] ] ] } },
{ "type": "Feature", "properties": { "county": "LINCOLN", "precinct": "BS26", "enr_desc": "Buffalo Shoals", "winner": "Frank Runyon", "winner_votes": 127, "winner_share": 40.575079872204469, "runner_up": "Stacey Leonard Crouse", "runner_up_votes": 127, "runner_up_share": 40.575079872204469, "contest_votes": 313, "margin_of_victory": 0.0, "is_tie": true, "results": [ { "candidate": "Frank Runyon", "votes": 127, "share": 40.57507987220447 }, { "candidate": "Stacey Leonard Crouse", "votes": 127, "share": 40.57507987220447 }, { "candidate": "Dawn Short", "votes": 44, "share": 14.057507987220447 }, { "candidate": "Phil McNeill", "votes": 15, "share": 4.792332268370607 } ], "participated": true, "map_key": "LINCOLN_BS26" }, "geometry": { "type": "Polygon", "coordinates": [ [ [ -81.211589990826155, 35.504558999838686 ], [ -81.201863991746549, 35.535604999784852 ], [ -81.202471991172374, 35.535982000338691 ], [ -81.200686990747897, 35.537634000400814 ], [ -81.200178991647419, 35.541451000291246 ], [ -81.195261991215517, 35.555335000343504 ], [ -81.164567991260327, 35.554372000410858 ], [ -81.172492991076339, 35.54620000000169 ], [ -81.174681991266652, 35.545722000122467 ], [ -81.166869990700562, 35.542178999718395 ], [ -81.162120990851349, 35.538753000116834 ], [ -81.162738990762151, 35.53043600051214 ], [ -81.162178990831862, 35.526763999770488 ], [ -81.160460990935675, 35.522826000384711 ], [ -81.160773991646352, 35.520907000086204 ], [ -81.165528990807587, 35.517308000501671 ], [ -81.170792991117295, 35.518266999969086 ], [ -81.179997991379793, 35.510925000152994 ], [ -81.183933991065615, 35.50890800039214 ], [ -81.176479991654119, 35.504212000217379 ], [ -81.183592990913922, 35.502159000327836 ], [ -81.189586991089399, 35.498910000183493 ], [ -81.190549991716594, 35.49956200011674 ], [ -81.195022991071326, 35.499219000467782 ], [ -81.197843990822832, 35.50146599974893 ], [ -81.204801990905509, 35.503963000039391 ], [ -81.208411990880421, 35.502219000195481 ], [ -81.211589990826155, 35.504558999838686 ] ] ] } },
{ "type": "Feature", "properties": { "county": "LINCOLN", "precinct": "CF19", "enr_desc": "Cowans Ford", "winner": "Stacey Leonard Crouse", "winner_votes": 161, "winner_share": 57.295373665480433, "runner_up": "Frank Runyon", "runner_up_votes": 52, "runner_up_share": 18.505338078291814, "contest_votes": 281, "margin_of_victory": 38.790035587188619, "is_tie": false, "results": [ { "candidate": "Stacey Leonard Crouse", "votes": 161, "share": 57.29537366548043 }, { "candidate": "Frank Runyon", "votes": 52, "share": 18.505338078291814 }, { "candidate": "Phil McNeill", "votes": 38, "share": 13.523131672597867 }, { "candidate": "Dawn Short", "votes": 30, "share": 10.676156583629894 } ], "participated": true, "map_key": "LINCOLN_CF19" }, "geometry": { "type": "Polygon", "coordinates": [ [ [ -80.997221991612179, 35.446358000039574 ], [ -80.992318991770588, 35.45398800050512 ], [ -80.992607991424606, 35.460633000507094 ], [ -80.98996999176255, 35.46009500039758 ], [ -80.989064990942339, 35.460870000006047 ], [ -80.985138991339412, 35.460613000399114 ], [ -80.98404499152322, 35.461714000320384 ], [ -80.982858991411845, 35.461718999741372 ], [ -80.983339991455139, 35.463634999691266 ], [ -80.985347991239479, 35.46495800039682 ], [ -80.987708991067876, 35.464208000339497 ], [ -80.985572991050603, 35.465123999994105 ], [ -80.987086991502906, 35.4655799998907 ], [ -80.987467991374231, 35.467559999813524 ], [ -80.988999991141839, 35.467787999831849 ], [ -80.991481990728829, 35.470083000090654 ], [ -80.987745991385566, 35.468769000264459 ], [ -80.987803990985768, 35.47109899979619 ], [ -80.9858619911993, 35.466834000564248 ], [ -80.984250991054267, 35.467182000565018 ], [ -80.983856991434791, 35.466604000586543 ], [ -80.982757991083758, 35.467541000322349 ], [ -80.98134899105267, 35.465643000071914 ], [ -80.979934991316881, 35.466233999944919 ], [ -80.978751990967069, 35.465082000042415 ], [ -80.977540990973779, 35.466589000442021 ], [ -80.977838991044351, 35.467986000199858 ], [ -80.976403991500234, 35.468259000543249 ], [ -80.977335991294169, 35.469858000468676 ], [ -80.976573990701297, 35.470553999789715 ], [ -80.975515991554005, 35.469307000365937 ], [ -80.974632990813674, 35.469370000184369 ], [ -80.97519099124878, 35.468426000390068 ], [ -80.973829991702516, 35.468164999804749 ], [ -80.972968990768337, 35.468985999854404 ], [ -80.972630991391085, 35.466679000384119 ], [ -80.971251991611453, 35.467876999692088 ], [ -80.971408990764004, 35.469166000381357 ], [ -80.97004499162307, 35.46880499981043 ], [ -80.967779990990522, 35.465418000299401 ], [ -80.966861991227006, 35.465904000501119 ], [ -80.967130991304074, 35.468887000033362 ], [ -80.964362991660963, 35.470094999699647 ], [ -80.964777990682279, 35.471714000362844 ], [ -80.968798990878526, 35.472719000146746 ], [ -80.969337990896449, 35.472205999905327 ], [ -80.970284991370207, 35.473354000160882 ], [ -80.972358991323787, 35.47332600007627 ], [ -80.973885991313637, 35.474548000101059 ], [ -80.9754759906738, 35.474043000061727 ], [ -80.975936991086201, 35.474923000200285 ], [ -80.979680990868403, 35.476057000200555 ], [ -80.979220991406962, 35.476301000083026 ], [ -80.980555991608071, 35.477678000530801 ], [ -80.976317991434044, 35.475490000509119 ], [ -80.961437991361251, 35.473400999956553 ], [ -80.950451991089992, 35.47308799974455 ], [ -80.951730990776198, 35.469198000359846 ], [ -80.951367991034076, 35.466710000246103 ], [ -80.949787991605902, 35.464441999983109 ], [ -80.943250990972956, 35.459372999733667 ], [ -80.942379991753469, 35.455147000423892 ], [ -80.943085991394241, 35.452916000274996 ], [ -80.946117990775306, 35.44971800045635 ], [ -80.950253991379824, 35.447467000163954 ], [ -80.952109991067331, 35.444743999842203 ], [ -80.953357991625879, 35.440713999706446 ], [ -80.957314991438238, 35.43599200008363 ], [ -80.958698991720539, 35.432133999769768 ], [ -80.956517991756954, 35.427503000137762 ], [ -80.962545991768053, 35.428842000421618 ], [ -80.982340991035201, 35.441566000554637 ], [ -80.992114990684172, 35.443643000082965 ], [ -80.997221991612179, 35.446358000039574 ] ] ] } },
{ "type": "Feature", "properties": { "county": "LINCOLN", "precinct": "DN29", "enr_desc": "Denver", "winner": "Stacey Leonard Crouse", "winner_votes": 154, "winner_share": 36.930455635491604, "runner_up": "Frank Runyon", "runner_up_votes": 140, "runner_up_share": 33.573141486810556, "contest_votes": 417, "margin_of_victory": 3.3573141486810485, "is_tie": false, "results": [ { "candidate": "Stacey Leonard Crouse", "votes": 154, "share": 36.930455635491604 }, { "candidate": "Frank Runyon", "votes": 140, "share": 33.573141486810556 }, { "candidate": "Dawn Short", "votes": 81, "share": 19.424460431654676 }, { "candidate": "Phil McNeill", "votes": 42, "share": 10.071942446043165 } ], "participated": true, "map_key": "LINCOLN_DN29" }, "geometry": { "type": "Polygon", "coordinates": [ [ [ -81.011135991291624, 35.52263900019593 ], [ -81.019779991089976, 35.528088999733846 ], [ -81.042317991231712, 35.53727299976012 ], [ -81.051088991348109, 35.547188000111973 ], [ -81.054223991207422, 35.549287000173926 ], [ -81.05848799095088, 35.550506999782215 ], [ -80.960024990963774, 35.547020000032326 ], [ -80.958801991394651, 35.544612000372055 ], [ -80.952408991365431, 35.540834000144137 ], [ -80.941620991141534, 35.532254000222117 ], [ -80.940008990973311, 35.53042900001293 ], [ -80.939733991243145, 35.528630999866436 ], [ -80.941698991277732, 35.526488000318508 ], [ -80.944778990878959, 35.526006000286749 ], [ -80.949403990829424, 35.528448000360328 ], [ -80.953852991389326, 35.532325000501778 ], [ -80.955337990993854, 35.532568000473319 ], [ -80.956579991254543, 35.531570999963378 ], [ -80.972214991469016, 35.532778000497181 ], [ -80.97566699170082, 35.532205000426835 ], [ -80.977988990952525, 35.530042999997406 ], [ -80.976772991684371, 35.527113000550649 ], [ -80.976532991520671, 35.523843000579042 ], [ -80.99637099086884, 35.521747000063485 ], [ -81.001489991180847, 35.519984000571306 ], [ -81.004469991621804, 35.517771999793375 ], [ -81.011135991291624, 35.52263900019593 ] ] ] } },
{ "type": "Feature", "properties": { "county": "LINCOLN", "precinct": "DV08", "enr_desc": "Daniels/Vale", "winner": "Frank Runyon", "winner_votes": 202, "winner_share": 37.827715355805239, "runner_up": "Stacey Leonard Crouse", "runner_up_votes": 195, "runner_up_share": 36.516853932584269, "contest_votes": 534, "margin_of_victory": 1.3108614232209703, "is_tie": false, "results": [ { "candidate": "Frank Runyon", "votes": 202, "share": 37.82771535580524 }, { "candidate": "Stacey Leonard Crouse", "votes": 195, "share": 36.51685393258427 }, { "candidate": "Dawn Short", "votes": 114, "share": 21.34831460674157 }, { "candidate": "Phil McNeill", "votes": 23, "share": 4.307116104868914 } ], "participated": true, "map_key": "LINCOLN_DV08" }, "geometry": { "type": "Polygon", "coordinates": [ [ [ -81.283908991441976, 35.480790000017805 ], [ -81.288612991537875, 35.483891999869051 ], [ -81.292294991490991, 35.488062999757766 ], [ -81.298556991620515, 35.490116000519272 ], [ -81.301880991673997, 35.49322200001496 ], [ -81.303120990672468, 35.493392000363038 ], [ -81.305802991041702, 35.491976999918684 ], [ -81.314161991281154, 35.491885000283901 ], [ -81.318472991689248, 35.496061000162236 ], [ -81.3349619912413, 35.495150000300107 ], [ -81.338419990821464, 35.497589000423318 ], [ -81.344849990970772, 35.499217999994734 ], [ -81.347636991413594, 35.498927000370429 ], [ -81.34735699164402, 35.49691899999177 ], [ -81.349988991412573, 35.496733000362838 ], [ -81.35378399106726, 35.499338999943021 ], [ -81.354649990751525, 35.501214999817336 ], [ -81.359884991352331, 35.503323000115785 ], [ -81.362939990710032, 35.502760000292803 ], [ -81.363059991253692, 35.50134700001307 ], [ -81.364832990870212, 35.500370999857218 ], [ -81.368695991757789, 35.499618000182124 ], [ -81.3705999908954, 35.500480000087229 ], [ -81.371507990833251, 35.499863000387634 ], [ -81.373433991299109, 35.494546000217078 ], [ -81.372711991663692, 35.490408999934822 ], [ -81.375771991263775, 35.484574000166099 ], [ -81.400976990661391, 35.490384999840813 ], [ -81.402594991474345, 35.492676000347515 ], [ -81.404225991712678, 35.498409000028722 ], [ -81.407863991395587, 35.500589000141723 ], [ -81.408469990838043, 35.501699000307703 ], [ -81.409670990747529, 35.506419999925278 ], [ -81.408829991174912, 35.512871000036938 ], [ -81.41006199128698, 35.514382000189258 ], [ -81.410634991385962, 35.517837000443159 ], [ -81.412647991290697, 35.520816000413575 ], [ -81.412802991282689, 35.524227000351289 ], [ -81.417230991741263, 35.524739000372463 ], [ -81.416397990874032, 35.527638000079222 ], [ -81.412900991220965, 35.531393000125348 ], [ -81.415520991270355, 35.539493000483994 ], [ -81.422832991164725, 35.548031999798233 ], [ -81.426865991505863, 35.54813399976706 ], [ -81.429367990975436, 35.549783999948325 ], [ -81.429889991671899, 35.551295000126132 ], [ -81.43267599115616, 35.553539000088485 ], [ -81.433233991535104, 35.557752000447891 ], [ -81.4385579912785, 35.564829999737036 ], [ -81.292533991204962, 35.55927600060501 ], [ -81.291456991693636, 35.558343000089508 ], [ -81.291951991356285, 35.55682600055939 ], [ -81.290309990957027, 35.557285000098297 ], [ -81.284859991597386, 35.555398000018371 ], [ -81.284043990993084, 35.55437099981679 ], [ -81.284715990864527, 35.552104000238195 ], [ -81.286109990717492, 35.550636000445643 ], [ -81.289737991190393, 35.552060999905748 ], [ -81.2951109916429, 35.55081000008034 ], [ -81.297861991476566, 35.552047999739138 ], [ -81.29951599104389, 35.551053999760285 ], [ -81.299310991295926, 35.546257999938604 ], [ -81.294386991378218, 35.546259000026211 ], [ -81.296420991093129, 35.542677000358218 ], [ -81.290663990961349, 35.543264000344031 ], [ -81.28837399087476, 35.54155599978386 ], [ -81.290208990823601, 35.541683000497791 ], [ -81.291818991209382, 35.540368000098837 ], [ -81.293575990714288, 35.536082000280459 ], [ -81.290344991546419, 35.529757000478781 ], [ -81.290484990716806, 35.526892999924343 ], [ -81.289457990829462, 35.526035000522683 ], [ -81.286642991458038, 35.525683000588494 ], [ -81.286306991446338, 35.524326000039601 ], [ -81.287193991030335, 35.523629999843827 ], [ -81.291148991652946, 35.523687000197633 ], [ -81.291482990721804, 35.52278799975322 ], [ -81.292465991056574, 35.522775000036681 ], [ -81.292557990880127, 35.521644000194875 ], [ -81.290166991122277, 35.518539999962968 ], [ -81.284097991045471, 35.517483999833722 ], [ -81.285813991727494, 35.514144000033063 ], [ -81.284474990983327, 35.511991000415932 ], [ -81.28820399106192, 35.513214000477802 ], [ -81.287909990800117, 35.510043000560692 ], [ -81.283836991128553, 35.506776999874617 ], [ -81.281388991628376, 35.507537000406742 ], [ -81.278860991589724, 35.507210999928226 ], [ -81.276218990793765, 35.501854000548235 ], [ -81.274979990920485, 35.501281000039519 ], [ -81.273564991576265, 35.502609000530605 ], [ -81.272930991458665, 35.500625000168995 ], [ -81.274701991397635, 35.498079999760066 ], [ -81.274363990975488, 35.49233200033644 ], [ -81.277754991385166, 35.490414000024202 ], [ -81.278362991079661, 35.488631999888149 ], [ -81.282470991750145, 35.487275999929366 ], [ -81.280507990930815, 35.483465000184275 ], [ -81.283908991441976, 35.480790000017805 ] ] ] } },
{ "type": "Feature", "properties": { "county": "LINCOLN", "precinct": "DW28", "enr_desc": "Denver West", "winner": "Stacey Leonard Crouse", "winner_votes": 145, "winner_share": 41.666666666666671, "runner_up": "Frank Runyon", "runner_up_votes": 100, "runner_up_share": 28.735632183908045, "contest_votes": 348, "margin_of_victory": 12.931034482758626, "is_tie": false, "results": [ { "candidate": "Stacey Leonard Crouse", "votes": 145, "share": 41.66666666666667 }, { "candidate": "Frank Runyon", "votes": 100, "share": 28.735632183908045 }, { "candidate": "Dawn Short", "votes": 60, "share": 17.24137931034483 }, { "candidate": "Phil McNeill", "votes": 43, "share": 12.35632183908046 } ], "participated": true, "map_key": "LINCOLN_DW28" }, "geometry": { "type": "Polygon", "coordinates": [ [ [ -81.033611991692339, 35.454193999797567 ], [ -81.048886991129805, 35.456203000383546 ], [ -81.060092991277443, 35.458580999916954 ], [ -81.07133599129547, 35.457955999756486 ], [ -81.079094991352505, 35.45985000044633 ], [ -81.082263991725384, 35.46278600017429 ], [ -81.081421990945344, 35.491099000513415 ], [ -81.08133099148688, 35.551400000343264 ], [ -81.05848799095088, 35.550506999782215 ], [ -81.054223991207422, 35.549287000173926 ], [ -81.051088991348109, 35.547188000111973 ], [ -81.042317991231712, 35.53727299976012 ], [ -81.019779991089976, 35.528088999733846 ], [ -81.011135991291624, 35.52263900019593 ], [ -81.011691990940093, 35.519960999968148 ], [ -81.010043990977792, 35.510969000153885 ], [ -81.012175991527457, 35.504752000372676 ], [ -81.010025991503753, 35.490122999840736 ], [ -81.008175990969292, 35.483506999821579 ], [ -81.009031990960892, 35.477165000404206 ], [ -81.012496991754446, 35.477578999849413 ], [ -81.012107991700788, 35.475923000400911 ], [ -81.012693990706737, 35.477367999837433 ], [ -81.012615991419935, 35.476596000063374 ], [ -81.019550990887709, 35.478030999774248 ], [ -81.022041990729136, 35.479375999761018 ], [ -81.022211990768469, 35.48260199975909 ], [ -81.018685990763842, 35.488230000581794 ], [ -81.018186990929337, 35.494274000539683 ], [ -81.019249991330057, 35.497025000112075 ], [ -81.029010991684558, 35.491298000054783 ], [ -81.029783991691318, 35.490255000521913 ], [ -81.029355991638781, 35.488318999755627 ], [ -81.03009799137115, 35.485731999922137 ], [ -81.03212799072196, 35.482057000529608 ], [ -81.031183991119718, 35.475695000398893 ], [ -81.031974991587134, 35.472083000463947 ], [ -81.033328991307229, 35.470105000179153 ], [ -81.034634991403564, 35.462807000298461 ], [ -81.034750990876915, 35.458456000042538 ], [ -81.033611991692339, 35.454193999797567 ] ] ] } },
{ "type": "Feature", "properties": { "county": "LINCOLN", "precinct": "HC33", "enr_desc": "Howards Creek", "winner": "Stacey Leonard Crouse", "winner_votes": 227, "winner_share": 44.077669902912618, "runner_up": "Frank Runyon", "runner_up_votes": 178, "runner_up_share": 34.563106796116507, "contest_votes": 515, "margin_of_victory": 9.5145631067961105, "is_tie": false, "results": [ { "candidate": "Stacey Leonard Crouse", "votes": 227, "share": 44.07766990291262 }, { "candidate": "Frank Runyon", "votes": 178, "share": 34.56310679611651 }, { "candidate": "Dawn Short", "votes": 82, "share": 15.922330097087379 }, { "candidate": "Phil McNeill", "votes": 28, "share": 5.436893203883495 } ], "participated": true, "map_key": "LINCOLN_HC33" }, "geometry": { "type": "Polygon", "coordinates": [ [ [ -81.289707991733181, 35.413877000461348 ], [ -81.361119991274791, 35.416542000222456 ], [ -81.365199991410563, 35.418375000267751 ], [ -81.369516991524165, 35.421830000468347 ], [ -81.371258991466803, 35.423712000303617 ], [ -81.372333991614084, 35.428215999857336 ], [ -81.376350991070893, 35.43093800016598 ], [ -81.374954991121712, 35.432431000069585 ], [ -81.37640699067525, 35.435086000141894 ], [ -81.377534990688886, 35.441296000216639 ], [ -81.38092399160368, 35.440971000317575 ], [ -81.380681991640216, 35.443800000238632 ], [ -81.384448991408576, 35.444935999996531 ], [ -81.384659991201303, 35.44719499973727 ], [ -81.389258991452266, 35.443618999916644 ], [ -81.391637991443829, 35.446311999960926 ], [ -81.3934569908821, 35.451181000574188 ], [ -81.391479991441855, 35.453185000280918 ], [ -81.390895990998828, 35.455710000589008 ], [ -81.391250991717627, 35.457016000383184 ], [ -81.39295299171205, 35.457242000421864 ], [ -81.393395990700583, 35.459339999936887 ], [ -81.392707991383162, 35.461941000188006 ], [ -81.393959991083733, 35.462486000106331 ], [ -81.396793991496949, 35.460959000124689 ], [ -81.397701990710672, 35.461614000030799 ], [ -81.397310991761572, 35.462953000349309 ], [ -81.398962991229752, 35.467907000267857 ], [ -81.397435990761807, 35.471240000122258 ], [ -81.395494991189167, 35.472185000231015 ], [ -81.39546599077147, 35.475813999785501 ], [ -81.397436991710393, 35.481536000457382 ], [ -81.398400991277569, 35.487382999722278 ], [ -81.400976990661391, 35.490384999840813 ], [ -81.375771991263775, 35.484574000166099 ], [ -81.372711991663692, 35.490408999934822 ], [ -81.373433991299109, 35.494546000217078 ], [ -81.371507990833251, 35.499863000387634 ], [ -81.3705999908954, 35.500480000087229 ], [ -81.368695991757789, 35.499618000182124 ], [ -81.364832990870212, 35.500370999857218 ], [ -81.363059991253692, 35.50134700001307 ], [ -81.362939990710032, 35.502760000292803 ], [ -81.359884991352331, 35.503323000115785 ], [ -81.354649990751525, 35.501214999817336 ], [ -81.35378399106726, 35.499338999943021 ], [ -81.349988991412573, 35.496733000362838 ], [ -81.34735699164402, 35.49691899999177 ], [ -81.347636991413594, 35.498927000370429 ], [ -81.344849990970772, 35.499217999994734 ], [ -81.338419990821464, 35.497589000423318 ], [ -81.3349619912413, 35.495150000300107 ], [ -81.318472991689248, 35.496061000162236 ], [ -81.314161991281154, 35.491885000283901 ], [ -81.305802991041702, 35.491976999918684 ], [ -81.303120990672468, 35.493392000363038 ], [ -81.301880991673997, 35.49322200001496 ], [ -81.298556991620515, 35.490116000519272 ], [ -81.292294991490991, 35.488062999757766 ], [ -81.288612991537875, 35.483891999869051 ], [ -81.283908991441976, 35.480790000017805 ], [ -81.283994990874731, 35.479429999899821 ], [ -81.283109991330122, 35.478725000164559 ], [ -81.289707991733181, 35.413877000461348 ] ] ] } },
{ "type": "Feature", "properties": { "county": "LINCOLN", "precinct": "IS20", "enr_desc": "Iron Station South", "winner": "Stacey Leonard Crouse", "winner_votes": 90, "winner_share": 36.734693877551024, "runner_up": "Frank Runyon", "runner_up_votes": 75, "runner_up_share": 30.612244897959183, "contest_votes": 245, "margin_of_victory": 6.1224489795918409, "is_tie": false, "results": [ { "candidate": "Stacey Leonard Crouse", "votes": 90, "share": 36.734693877551024 }, { "candidate": "Frank Runyon", "votes": 75, "share": 30.612244897959183 }, { "candidate": "Dawn Short", "votes": 56, "share": 22.857142857142858 }, { "candidate": "Phil McNeill", "votes": 24, "share": 9.795918367346939 } ], "participated": true, "map_key": "LINCOLN_IS20" }, "geometry": { "type": "Polygon", "coordinates": [ [ [ -81.177639990693805, 35.439120000418335 ], [ -81.173884991750739, 35.440440000074751 ], [ -81.168247991286563, 35.439815999793389 ], [ -81.167786991710656, 35.447362999735113 ], [ -81.16681799102588, 35.448341999738616 ], [ -81.157106991346041, 35.447060000013899 ], [ -81.15484999121233, 35.449081000569869 ], [ -81.149632991564019, 35.449625000162243 ], [ -81.144721991239621, 35.451763999712639 ], [ -81.138855991466926, 35.450977000398282 ], [ -81.136434991738966, 35.452606000257703 ], [ -81.134049991542113, 35.449559999770209 ], [ -81.131933991355922, 35.449621000309477 ], [ -81.130929991020537, 35.44800300027827 ], [ -81.121274990777835, 35.447867999715278 ], [ -81.11943999108604, 35.448965000447345 ], [ -81.118006991422419, 35.446697999806581 ], [ -81.115646991613843, 35.447395000500705 ], [ -81.110599991528829, 35.444841999830977 ], [ -81.108813990833625, 35.443016999991954 ], [ -81.106215991542911, 35.444174000469204 ], [ -81.105397991282786, 35.443686999809657 ], [ -81.105126990842209, 35.441908999917509 ], [ -81.102546990681361, 35.442621000582264 ], [ -81.096752991767261, 35.439048000205233 ], [ -81.092886990804004, 35.438452999756521 ], [ -81.091392990891805, 35.439093000277133 ], [ -81.093633991284307, 35.435745000147698 ], [ -81.093107991376101, 35.433721999888895 ], [ -81.094441991309083, 35.430955000250044 ], [ -81.091797991120359, 35.428471000450109 ], [ -81.091585991403576, 35.427109999888998 ], [ -81.089516991436724, 35.426228999938203 ], [ -81.088487991730887, 35.42835999994589 ], [ -81.086189990739953, 35.427366000004284 ], [ -81.083550990944644, 35.424436000231744 ], [ -81.083825991382483, 35.406272000272274 ], [ -81.177944991744155, 35.409573000329289 ], [ -81.175853990776062, 35.409685000478952 ], [ -81.17505599131367, 35.410671000007483 ], [ -81.173869991668468, 35.414237999711062 ], [ -81.171242990950688, 35.416875000559784 ], [ -81.166594991588482, 35.424429000569965 ], [ -81.170596990673758, 35.432003999796642 ], [ -81.174913991751382, 35.432925000474079 ], [ -81.17487599168588, 35.436494999861985 ], [ -81.177639990693805, 35.439120000418335 ] ] ] } },
{ "type": "Feature", "properties": { "county": "LINCOLN", "precinct": "IS23", "enr_desc": "Iron Station", "winner": "Stacey Leonard Crouse", "winner_votes": 151, "winner_share": 44.94047619047619, "runner_up": "Frank Runyon", "runner_up_votes": 109, "runner_up_share": 32.44047619047619, "contest_votes": 336, "margin_of_victory": 12.5, "is_tie": false, "results": [ { "candidate": "Stacey Leonard Crouse", "votes": 151, "share": 44.94047619047619 }, { "candidate": "Frank Runyon", "votes": 109, "share": 32.44047619047619 }, { "candidate": "Dawn Short", "votes": 47, "share": 13.988095238095239 }, { "candidate": "Phil McNeill", "votes": 29, "share": 8.630952380952381 } ], "participated": true, "map_key": "LINCOLN_IS23" }, "geometry": { "type": "Polygon", "coordinates": [ [ [ -81.177639990693805, 35.439120000418335 ], [ -81.178007991068029, 35.440352999879757 ], [ -81.180324991423817, 35.442011999745482 ], [ -81.184183991694951, 35.443370999950979 ], [ -81.185763991449747, 35.447788000346627 ], [ -81.186824990706398, 35.448811000129133 ], [ -81.185698991072499, 35.457135000412904 ], [ -81.190602990956322, 35.469050000463646 ], [ -81.190588991268896, 35.472305999718891 ], [ -81.189580991437751, 35.473652000546082 ], [ -81.190297991660444, 35.477885999952854 ], [ -81.189703991067475, 35.480196000511206 ], [ -81.18744299156927, 35.479409000222603 ], [ -81.18664599087387, 35.481960000497665 ], [ -81.182934991260254, 35.484151000485028 ], [ -81.175824990722703, 35.485113999960063 ], [ -81.170229991436969, 35.489109000051826 ], [ -81.16704399156643, 35.490103000413207 ], [ -81.162477990714649, 35.490068000150124 ], [ -81.16003399132687, 35.491684000012739 ], [ -81.152092990961691, 35.496652000320417 ], [ -81.147798991426242, 35.49752099998679 ], [ -81.146421991604271, 35.498845000089396 ], [ -81.145502991568023, 35.497102999852899 ], [ -81.146960990979252, 35.494261999810774 ], [ -81.146229991381233, 35.491603999890067 ], [ -81.148426991533739, 35.490823000485527 ], [ -81.148349991630184, 35.490065000357347 ], [ -81.145262991022449, 35.490029999817018 ], [ -81.147465990845305, 35.48757500016454 ], [ -81.146702990705009, 35.486553000377462 ], [ -81.143702991090549, 35.485440999750345 ], [ -81.146118990850212, 35.483102000273327 ], [ -81.146436990774504, 35.481843000461581 ], [ -81.144203991669727, 35.481500000455654 ], [ -81.143186990866724, 35.480406000519224 ], [ -81.13859799127934, 35.479747000094569 ], [ -81.138729991276122, 35.475894999741804 ], [ -81.133039990855352, 35.474960000084273 ], [ -81.129294990705475, 35.476163000564313 ], [ -81.127972991184819, 35.475643000372912 ], [ -81.126637990813094, 35.472308000149049 ], [ -81.125639991074635, 35.472579999748241 ], [ -81.125060991679021, 35.474398000586895 ], [ -81.123979990742598, 35.474486000046632 ], [ -81.122720991028729, 35.472010000275986 ], [ -81.121141991020934, 35.474138000358963 ], [ -81.119692990730925, 35.470187000610615 ], [ -81.116600991735126, 35.47259499991808 ], [ -81.112928991040903, 35.478112999778354 ], [ -81.107970991407953, 35.480010000184052 ], [ -81.103280991137893, 35.480103999968463 ], [ -81.098157990721162, 35.476572000310824 ], [ -81.082263991725384, 35.46278600017429 ], [ -81.083550990944644, 35.424436000231744 ], [ -81.086189990739953, 35.427366000004284 ], [ -81.088487991730887, 35.42835999994589 ], [ -81.089516991436724, 35.426228999938203 ], [ -81.091585991403576, 35.427109999888998 ], [ -81.091797991120359, 35.428471000450109 ], [ -81.094441991309083, 35.430955000250044 ], [ -81.093107991376101, 35.433721999888895 ], [ -81.093633991284307, 35.435745000147698 ], [ -81.091392990891805, 35.439093000277133 ], [ -81.092886990804004, 35.438452999756521 ], [ -81.096752991767261, 35.439048000205233 ], [ -81.102546990681361, 35.442621000582264 ], [ -81.105126990842209, 35.441908999917509 ], [ -81.105397991282786, 35.443686999809657 ], [ -81.106215991542911, 35.444174000469204 ], [ -81.108813990833625, 35.443016999991954 ], [ -81.110599991528829, 35.444841999830977 ], [ -81.115646991613843, 35.447395000500705 ], [ -81.118006991422419, 35.446697999806581 ], [ -81.11943999108604, 35.448965000447345 ], [ -81.121274990777835, 35.447867999715278 ], [ -81.130929991020537, 35.44800300027827 ], [ -81.131933991355922, 35.449621000309477 ], [ -81.134049991542113, 35.449559999770209 ], [ -81.136434991738966, 35.452606000257703 ], [ -81.138855991466926, 35.450977000398282 ], [ -81.144721991239621, 35.451763999712639 ], [ -81.149632991564019, 35.449625000162243 ], [ -81.15484999121233, 35.449081000569869 ], [ -81.157106991346041, 35.447060000013899 ], [ -81.16681799102588, 35.448341999738616 ], [ -81.167786991710656, 35.447362999735113 ], [ -81.168247991286563, 35.439815999793389 ], [ -81.173884991750739, 35.440440000074751 ], [ -81.177639990693805, 35.439120000418335 ] ] ] } },
{ "type": "Feature", "properties": { "county": "LINCOLN", "precinct": "LB34", "enr_desc": "Laboratory", "winner": "Frank Runyon", "winner_votes": 166, "winner_share": 47.02549575070821, "runner_up": "Stacey Leonard Crouse", "runner_up_votes": 123, "runner_up_share": 34.844192634560905, "contest_votes": 353, "margin_of_victory": 12.181303116147305, "is_tie": false, "results": [ { "candidate": "Frank Runyon", "votes": 166, "share": 47.02549575070821 }, { "candidate": "Stacey Leonard Crouse", "votes": 123, "share": 34.844192634560905 }, { "candidate": "Dawn Short", "votes": 54, "share": 15.29745042492918 }, { "candidate": "Phil McNeill", "votes": 10, "share": 2.8328611898017 } ], "participated": true, "map_key": "LINCOLN_LB34" }, "geometry": { "type": "Polygon", "coordinates": [ [ [ -81.289707991733181, 35.413877000461348 ], [ -81.283109991330122, 35.478725000164559 ], [ -81.278143990789602, 35.476904999833401 ], [ -81.274937991065485, 35.47382800032203 ], [ -81.275344991250023, 35.471448000077253 ], [ -81.273984991059365, 35.468015000205455 ], [ -81.271886991109582, 35.468259000364029 ], [ -81.270771991477545, 35.472875000229386 ], [ -81.269200991564205, 35.47292300039873 ], [ -81.268666990877378, 35.468568000071095 ], [ -81.267246991687372, 35.466206999919855 ], [ -81.265902991629744, 35.463451000218328 ], [ -81.266586991584447, 35.458455000274924 ], [ -81.265804991157182, 35.457241000157403 ], [ -81.26414599143969, 35.456806000351513 ], [ -81.263438991039735, 35.45773800057728 ], [ -81.264301991083215, 35.459406000495278 ], [ -81.261126990970496, 35.459980999950439 ], [ -81.259726991733771, 35.458997000091692 ], [ -81.259759990850483, 35.455922999745354 ], [ -81.257757991605885, 35.454876999744634 ], [ -81.257132991577734, 35.455598000202912 ], [ -81.256731991657787, 35.454686999929429 ], [ -81.259445991141519, 35.451358000441665 ], [ -81.260608991055236, 35.447178000373846 ], [ -81.252422990894573, 35.450164000462031 ], [ -81.246222991610537, 35.446030000410587 ], [ -81.239345991413089, 35.443952999729156 ], [ -81.236900991614789, 35.445454000043924 ], [ -81.228468990892182, 35.44636200036306 ], [ -81.225191991358599, 35.444969999776944 ], [ -81.224558990811317, 35.443578000212305 ], [ -81.223643991082938, 35.444830000497426 ], [ -81.222511991536706, 35.444862000263065 ], [ -81.215745990685974, 35.435477999771784 ], [ -81.213312991255862, 35.434521999864629 ], [ -81.213698991262845, 35.423185000095692 ], [ -81.217975991027529, 35.410963000323633 ], [ -81.233598991647966, 35.411551000438706 ], [ -81.233542990813916, 35.410905000586794 ], [ -81.240915991345545, 35.411909000601412 ], [ -81.289707991733181, 35.413877000461348 ] ] ] } },
{ "type": "Feature", "properties": { "county": "LINCOLN", "precinct": "LI14", "enr_desc": "Lithia", "winner": "Stacey Leonard Crouse", "winner_votes": 135, "winner_share": 55.102040816326522, "runner_up": "Frank Runyon", "runner_up_votes": 65, "runner_up_share": 26.530612244897959, "contest_votes": 245, "margin_of_victory": 28.571428571428562, "is_tie": false, "results": [ { "candidate": "Stacey Leonard Crouse", "votes": 135, "share": 55.10204081632652 }, { "candidate": "Frank Runyon", "votes": 65, "share": 26.53061224489796 }, { "candidate": "Dawn Short", "votes": 32, "share": 13.061224489795919 }, { "candidate": "Phil McNeill", "votes": 13, "share": 5.3061224489795915 } ], "participated": true, "map_key": "LINCOLN_LI14" }, "geometry": { "type": "Polygon", "coordinates": [ [ [ -81.213312991255862, 35.434521999864629 ], [ -81.215745990685974, 35.435477999771784 ], [ -81.222511991536706, 35.444862000263065 ], [ -81.223643991082938, 35.444830000497426 ], [ -81.224558990811317, 35.443578000212305 ], [ -81.225191991358599, 35.444969999776944 ], [ -81.228468990892182, 35.44636200036306 ], [ -81.236900991614789, 35.445454000043924 ], [ -81.239345991413089, 35.443952999729156 ], [ -81.246222991610537, 35.446030000410587 ], [ -81.252422990894573, 35.450164000462031 ], [ -81.245567991456184, 35.452060999973099 ], [ -81.243411990968355, 35.45380499994161 ], [ -81.239360991565846, 35.470126000299913 ], [ -81.239543991189038, 35.474570999719838 ], [ -81.229349991010253, 35.477174000500462 ], [ -81.219036990783778, 35.477500000130689 ], [ -81.213875991484045, 35.476024000508581 ], [ -81.213312991255862, 35.434521999864629 ] ] ] } },
{ "type": "Feature", "properties": { "county": "LINCOLN", "precinct": "LN11", "enr_desc": "Lincolnton/North", "winner": "Stacey Leonard Crouse", "winner_votes": 125, "winner_share": 53.879310344827594, "runner_up": "Frank Runyon", "runner_up_votes": 54, "runner_up_share": 23.275862068965516, "contest_votes": 232, "margin_of_victory": 30.603448275862078, "is_tie": false, "results": [ { "candidate": "Stacey Leonard Crouse", "votes": 125, "share": 53.879310344827594 }, { "candidate": "Frank Runyon", "votes": 54, "share": 23.275862068965516 }, { "candidate": "Dawn Short", "votes": 40, "share": 17.24137931034483 }, { "candidate": "Phil McNeill", "votes": 13, "share": 5.603448275862069 } ], "participated": true, "map_key": "LINCOLN_LN11" }, "geometry": { "type": "Polygon", "coordinates": [ [ [ -81.267246991687372, 35.466206999919855 ], [ -81.268666990877378, 35.468568000071095 ], [ -81.269200991564205, 35.47292300039873 ], [ -81.267050991325604, 35.474998000129858 ], [ -81.267732991601832, 35.478073000232243 ], [ -81.263894990972062, 35.482343000240931 ], [ -81.257140990753328, 35.483494000227722 ], [ -81.24659999071676, 35.494375000516413 ], [ -81.240123990799461, 35.476431000458305 ], [ -81.256628991520444, 35.471476000185213 ], [ -81.256301991057001, 35.470821000452752 ], [ -81.257024991573203, 35.470584000303454 ], [ -81.257318991005135, 35.471169999963017 ], [ -81.262164991517039, 35.469675000118912 ], [ -81.264680990939212, 35.467121000034368 ], [ -81.267246991687372, 35.466206999919855 ] ] ] } },
{ "type": "Feature", "properties": { "county": "LINCOLN", "precinct": "LS12", "enr_desc": "Lincolnton/South", "winner": "Stacey Leonard Crouse", "winner_votes": 143, "winner_share": 64.705882352941174, "runner_up": "Dawn Short", "runner_up_votes": 36, "runner_up_share": 16.289592760180994, "contest_votes": 221, "margin_of_victory": 48.41628959276018, "is_tie": false, "results": [ { "candidate": "Stacey Leonard Crouse", "votes": 143, "share": 64.70588235294117 }, { "candidate": "Dawn Short", "votes": 36, "share": 16.289592760180994 }, { "candidate": "Frank Runyon", "votes": 32, "share": 14.479638009049776 }, { "candidate": "Phil McNeill", "votes": 10, "share": 4.524886877828054 } ], "participated": true, "map_key": "LINCOLN_LS12" }, "geometry": { "type": "Polygon", "coordinates": [ [ [ -81.267246991687372, 35.466206999919855 ], [ -81.264680990939212, 35.467121000034368 ], [ -81.262164991517039, 35.469675000118912 ], [ -81.257318991005135, 35.471169999963017 ], [ -81.257024991573203, 35.470584000303454 ], [ -81.256301991057001, 35.470821000452752 ], [ -81.256628991520444, 35.471476000185213 ], [ -81.240123990799461, 35.476431000458305 ], [ -81.239543991189038, 35.474570999719838 ], [ -81.239360991565846, 35.470126000299913 ], [ -81.243411990968355, 35.45380499994161 ], [ -81.245567991456184, 35.452060999973099 ], [ -81.252422990894573, 35.450164000462031 ], [ -81.260608991055236, 35.447178000373846 ], [ -81.259445991141519, 35.451358000441665 ], [ -81.256731991657787, 35.454686999929429 ], [ -81.257132991577734, 35.455598000202912 ], [ -81.257757991605885, 35.454876999744634 ], [ -81.259759990850483, 35.455922999745354 ], [ -81.259726991733771, 35.458997000091692 ], [ -81.261126990970496, 35.459980999950439 ], [ -81.264301991083215, 35.459406000495278 ], [ -81.263438991039735, 35.45773800057728 ], [ -81.26414599143969, 35.456806000351513 ], [ -81.265804991157182, 35.457241000157403 ], [ -81.266586991584447, 35.458455000274924 ], [ -81.265902991629744, 35.463451000218328 ], [ -81.267246991687372, 35.466206999919855 ] ] ] } },
{ "type": "Feature", "properties": { "county": "LINCOLN", "precinct": "LW18", "enr_desc": "Lowesville West", "winner": "Frank Runyon", "winner_votes": 66, "winner_share": 38.372093023255815, "runner_up": "Stacey Leonard Crouse", "runner_up_votes": 51, "runner_up_share": 29.651162790697676, "contest_votes": 172, "margin_of_victory": 8.720930232558139, "is_tie": false, "results": [ { "candidate": "Frank Runyon", "votes": 66, "share": 38.372093023255815 }, { "candidate": "Stacey Leonard Crouse", "votes": 51, "share": 29.651162790697676 }, { "candidate": "Dawn Short", "votes": 40, "share": 23.25581395348837 }, { "candidate": "Phil McNeill", "votes": 15, "share": 8.720930232558139 } ], "participated": true, "map_key": "LINCOLN_LW18" }, "geometry": { "type": "Polygon", "coordinates": [ [ [ -81.083825991382483, 35.406272000272274 ], [ -81.083550990944644, 35.424436000231744 ], [ -81.082263991725384, 35.46278600017429 ], [ -81.079094991352505, 35.45985000044633 ], [ -81.07133599129547, 35.457955999756486 ], [ -81.060092991277443, 35.458580999916954 ], [ -81.048886991129805, 35.456203000383546 ], [ -81.033611991692339, 35.454193999797567 ], [ -81.03435399158721, 35.451693000562145 ], [ -81.032778991180692, 35.442394000452438 ], [ -81.033720991127922, 35.439124000588627 ], [ -81.032710991614806, 35.437599000103717 ], [ -81.03065299147184, 35.437173000403561 ], [ -81.031044991646567, 35.434516000494156 ], [ -81.029754991717596, 35.434334000466521 ], [ -81.027499991469355, 35.431785000227741 ], [ -81.027669990882956, 35.430108999836911 ], [ -81.024783991604465, 35.429155000033802 ], [ -81.025223991704763, 35.427882000510273 ], [ -81.030293990864493, 35.423610000450381 ], [ -81.029346991696471, 35.422094999798119 ], [ -81.030938990781706, 35.420494999868531 ], [ -81.029624990709195, 35.420278000592702 ], [ -81.028837991531432, 35.41869600034331 ], [ -81.030422991306992, 35.417922000586167 ], [ -81.028130991345748, 35.416327999895223 ], [ -81.030189991571902, 35.409890999903688 ], [ -81.029317990923516, 35.407647000334947 ], [ -81.030822991443998, 35.406898000092887 ], [ -81.030674990674214, 35.404402000105087 ], [ -81.083825991382483, 35.406272000272274 ] ] ] } },
{ "type": "Feature", "properties": { "county": "LINCOLN", "precinct": "LW31", "enr_desc": "Lowesville", "winner": "Stacey Leonard Crouse", "winner_votes": 200, "winner_share": 32.102728731942214, "runner_up": "Frank Runyon", "runner_up_votes": 191, "runner_up_share": 30.658105939004816, "contest_votes": 623, "margin_of_victory": 1.4446227929373983, "is_tie": false, "results": [ { "candidate": "Stacey Leonard Crouse", "votes": 200, "share": 32.102728731942214 }, { "candidate": "Frank Runyon", "votes": 191, "share": 30.658105939004816 }, { "candidate": "Dawn Short", "votes": 138, "share": 22.150882825040128 }, { "candidate": "Phil McNeill", "votes": 94, "share": 15.08828250401284 } ], "participated": true, "map_key": "LINCOLN_LW31" }, "geometry": { "type": "Polygon", "coordinates": [ [ [ -81.030674990674214, 35.404402000105087 ], [ -81.030822991443998, 35.406898000092887 ], [ -81.029317990923516, 35.407647000334947 ], [ -81.030189991571902, 35.409890999903688 ], [ -81.028130991345748, 35.416327999895223 ], [ -81.030422991306992, 35.417922000586167 ], [ -81.028837991531432, 35.41869600034331 ], [ -81.029624990709195, 35.420278000592702 ], [ -81.030938990781706, 35.420494999868531 ], [ -81.029346991696471, 35.422094999798119 ], [ -81.030293990864493, 35.423610000450381 ], [ -81.025223991704763, 35.427882000510273 ], [ -81.024783991604465, 35.429155000033802 ], [ -81.027669990882956, 35.430108999836911 ], [ -81.027499991469355, 35.431785000227741 ], [ -81.029754991717596, 35.434334000466521 ], [ -81.031044991646567, 35.434516000494156 ], [ -81.03065299147184, 35.437173000403561 ], [ -81.032710991614806, 35.437599000103717 ], [ -81.033720991127922, 35.439124000588627 ], [ -81.032778991180692, 35.442394000452438 ], [ -81.03435399158721, 35.451693000562145 ], [ -81.033611991692339, 35.454193999797567 ], [ -81.006032991561796, 35.450685999959447 ], [ -80.997221991612179, 35.446358000039574 ], [ -80.992114990684172, 35.443643000082965 ], [ -80.982340991035201, 35.441566000554637 ], [ -80.962545991768053, 35.428842000421618 ], [ -80.956517991756954, 35.427503000137762 ], [ -80.955158991292251, 35.420390999721043 ], [ -80.958330990995663, 35.414114000005085 ], [ -80.958743991651929, 35.411755999996693 ], [ -80.956927991696944, 35.403721000530702 ], [ -80.954859991322692, 35.400077999836611 ], [ -81.030674990674214, 35.404402000105087 ] ] ] } },
{ "type": "Feature", "properties": { "county": "LINCOLN", "precinct": "NB35", "enr_desc": "North Brook 3A", "winner": "Dawn Short", "winner_votes": 354, "winner_share": 44.923857868020306, "runner_up": "Frank Runyon", "runner_up_votes": 248, "runner_up_share": 31.472081218274113, "contest_votes": 788, "margin_of_victory": 13.451776649746193, "is_tie": false, "results": [ { "candidate": "Dawn Short", "votes": 354, "share": 44.923857868020306 }, { "candidate": "Frank Runyon", "votes": 248, "share": 31.472081218274113 }, { "candidate": "Stacey Leonard Crouse", "votes": 167, "share": 21.19289340101523 }, { "candidate": "Phil McNeill", "votes": 19, "share": 2.4111675126903553 } ], "participated": true, "map_key": "LINCOLN_NB35" }, "geometry": { "type": "Polygon", "coordinates": [ [ [ -81.4385579912785, 35.564829999737036 ], [ -81.433233991535104, 35.557752000447891 ], [ -81.43267599115616, 35.553539000088485 ], [ -81.429889991671899, 35.551295000126132 ], [ -81.429367990975436, 35.549783999948325 ], [ -81.426865991505863, 35.54813399976706 ], [ -81.422832991164725, 35.548031999798233 ], [ -81.415520991270355, 35.539493000483994 ], [ -81.412900991220965, 35.531393000125348 ], [ -81.416397990874032, 35.527638000079222 ], [ -81.417230991741263, 35.524739000372463 ], [ -81.412802991282689, 35.524227000351289 ], [ -81.412647991290697, 35.520816000413575 ], [ -81.410634991385962, 35.517837000443159 ], [ -81.41006199128698, 35.514382000189258 ], [ -81.408829991174912, 35.512871000036938 ], [ -81.409670990747529, 35.506419999925278 ], [ -81.408469990838043, 35.501699000307703 ], [ -81.407863991395587, 35.500589000141723 ], [ -81.404225991712678, 35.498409000028722 ], [ -81.402594991474345, 35.492676000347515 ], [ -81.400976990661391, 35.490384999840813 ], [ -81.398400991277569, 35.487382999722278 ], [ -81.397436991710393, 35.481536000457382 ], [ -81.39546599077147, 35.475813999785501 ], [ -81.395494991189167, 35.472185000231015 ], [ -81.397435990761807, 35.471240000122258 ], [ -81.398962991229752, 35.467907000267857 ], [ -81.397310991761572, 35.462953000349309 ], [ -81.397701990710672, 35.461614000030799 ], [ -81.396793991496949, 35.460959000124689 ], [ -81.393959991083733, 35.462486000106331 ], [ -81.392707991383162, 35.461941000188006 ], [ -81.393395990700583, 35.459339999936887 ], [ -81.39295299171205, 35.457242000421864 ], [ -81.391250991717627, 35.457016000383184 ], [ -81.390895990998828, 35.455710000589008 ], [ -81.391479991441855, 35.453185000280918 ], [ -81.3934569908821, 35.451181000574188 ], [ -81.391637991443829, 35.446311999960926 ], [ -81.389258991452266, 35.443618999916644 ], [ -81.384659991201303, 35.44719499973727 ], [ -81.384448991408576, 35.444935999996531 ], [ -81.380681991640216, 35.443800000238632 ], [ -81.38092399160368, 35.440971000317575 ], [ -81.377534990688886, 35.441296000216639 ], [ -81.37640699067525, 35.435086000141894 ], [ -81.374954991121712, 35.432431000069585 ], [ -81.376350991070893, 35.43093800016598 ], [ -81.372333991614084, 35.428215999857336 ], [ -81.371258991466803, 35.423712000303617 ], [ -81.369516991524165, 35.421830000468347 ], [ -81.365199991410563, 35.418375000267751 ], [ -81.361119991274791, 35.416542000222456 ], [ -81.455599991634784, 35.41981100047628 ], [ -81.458629991581233, 35.423317000554363 ], [ -81.465147991605193, 35.438215000227004 ], [ -81.466611991680324, 35.43980000041055 ], [ -81.466916990781627, 35.442208000175263 ], [ -81.470028991668158, 35.449192999901513 ], [ -81.481382991769678, 35.471503000618029 ], [ -81.491669991737012, 35.486822999841117 ], [ -81.495243991707767, 35.494098000543296 ], [ -81.513003991645405, 35.523317000344321 ], [ -81.510570990727402, 35.529814999793849 ], [ -81.50946299145339, 35.536049999965293 ], [ -81.509217991747207, 35.550352000085446 ], [ -81.515420991597111, 35.558297000099287 ], [ -81.537598991607965, 35.564228000489351 ], [ -81.535402991026871, 35.56813700001765 ], [ -81.4385579912785, 35.564829999737036 ] ] ] } },
{ "type": "Feature", "properties": { "county": "LINCOLN", "precinct": "OB21", "enr_desc": "Ore Bank", "winner": "Stacey Leonard Crouse", "winner_votes": 189, "winner_share": 45.107398568019093, "runner_up": "Frank Runyon", "runner_up_votes": 147, "runner_up_share": 35.083532219570408, "contest_votes": 419, "margin_of_victory": 10.023866348448685, "is_tie": false, "results": [ { "candidate": "Stacey Leonard Crouse", "votes": 189, "share": 45.10739856801909 }, { "candidate": "Frank Runyon", "votes": 147, "share": 35.08353221957041 }, { "candidate": "Dawn Short", "votes": 46, "share": 10.978520286396181 }, { "candidate": "Phil McNeill", "votes": 37, "share": 8.83054892601432 } ], "participated": true, "map_key": "LINCOLN_OB21" }, "geometry": { "type": "Polygon", "coordinates": [ [ [ -81.16003399132687, 35.491684000012739 ], [ -81.160261990983685, 35.493773999867649 ], [ -81.159334991366677, 35.495917000129495 ], [ -81.160702990836171, 35.497825999725677 ], [ -81.169685990792075, 35.501170999905042 ], [ -81.173564990869522, 35.504707000381423 ], [ -81.176479991654119, 35.504212000217379 ], [ -81.183933991065615, 35.50890800039214 ], [ -81.179997991379793, 35.510925000152994 ], [ -81.170792991117295, 35.518266999969086 ], [ -81.165528990807587, 35.517308000501671 ], [ -81.160773991646352, 35.520907000086204 ], [ -81.160460990935675, 35.522826000384711 ], [ -81.162178990831862, 35.526763999770488 ], [ -81.162738990762151, 35.53043600051214 ], [ -81.162120990851349, 35.538753000116834 ], [ -81.157421990746926, 35.537970999787049 ], [ -81.152264991093816, 35.53501199977844 ], [ -81.147953990923639, 35.535551000217701 ], [ -81.142062991482916, 35.534803999967487 ], [ -81.135306991302073, 35.531776000412087 ], [ -81.132464991093485, 35.529308999945428 ], [ -81.135699990689446, 35.525105000236032 ], [ -81.140011990738685, 35.521837000096937 ], [ -81.137834991453317, 35.521120000093596 ], [ -81.133206990905805, 35.517464999795358 ], [ -81.123780991070021, 35.515784999971082 ], [ -81.12015899102407, 35.514034999810754 ], [ -81.11241199079474, 35.505888000491048 ], [ -81.108559990994166, 35.503427999734704 ], [ -81.104384991094804, 35.496480999815894 ], [ -81.100662991226713, 35.493590000221253 ], [ -81.098691991675935, 35.490957000139034 ], [ -81.087457991738347, 35.487702000485449 ], [ -81.085085991704872, 35.491040999908947 ], [ -81.081421990945344, 35.491099000513415 ], [ -81.082263991725384, 35.46278600017429 ], [ -81.098157990721162, 35.476572000310824 ], [ -81.103280991137893, 35.480103999968463 ], [ -81.107970991407953, 35.480010000184052 ], [ -81.112928991040903, 35.478112999778354 ], [ -81.116600991735126, 35.47259499991808 ], [ -81.119692990730925, 35.470187000610615 ], [ -81.121141991020934, 35.474138000358963 ], [ -81.122720991028729, 35.472010000275986 ], [ -81.123979990742598, 35.474486000046632 ], [ -81.125060991679021, 35.474398000586895 ], [ -81.125639991074635, 35.472579999748241 ], [ -81.126637990813094, 35.472308000149049 ], [ -81.127972991184819, 35.475643000372912 ], [ -81.129294990705475, 35.476163000564313 ], [ -81.133039990855352, 35.474960000084273 ], [ -81.138729991276122, 35.475894999741804 ], [ -81.13859799127934, 35.479747000094569 ], [ -81.143186990866724, 35.480406000519224 ], [ -81.144203991669727, 35.481500000455654 ], [ -81.146436990774504, 35.481843000461581 ], [ -81.146118990850212, 35.483102000273327 ], [ -81.143702991090549, 35.485440999750345 ], [ -81.146702990705009, 35.486553000377462 ], [ -81.147465990845305, 35.48757500016454 ], [ -81.145262991022449, 35.490029999817018 ], [ -81.148349991630184, 35.490065000357347 ], [ -81.148426991533739, 35.490823000485527 ], [ -81.146229991381233, 35.491603999890067 ], [ -81.146960990979252, 35.494261999810774 ], [ -81.145502991568023, 35.497102999852899 ], [ -81.146421991604271, 35.498845000089396 ], [ -81.147798991426242, 35.49752099998679 ], [ -81.152092990961691, 35.496652000320417 ], [ -81.16003399132687, 35.491684000012739 ] ] ] } },
{ "type": "Feature", "properties": { "county": "LINCOLN", "precinct": "PC22", "enr_desc": "Pumpkin Center", "winner": "Stacey Leonard Crouse", "winner_votes": 174, "winner_share": 45.430809399477809, "runner_up": "Frank Runyon", "runner_up_votes": 139, "runner_up_share": 36.29242819843342, "contest_votes": 383, "margin_of_victory": 9.138381201044389, "is_tie": false, "results": [ { "candidate": "Stacey Leonard Crouse", "votes": 174, "share": 45.43080939947781 }, { "candidate": "Frank Runyon", "votes": 139, "share": 36.29242819843342 }, { "candidate": "Dawn Short", "votes": 41, "share": 10.704960835509137 }, { "candidate": "Phil McNeill", "votes": 29, "share": 7.5718015665796345 } ], "participated": true, "map_key": "LINCOLN_PC22" }, "geometry": { "type": "Polygon", "coordinates": [ [ [ -81.162120990851349, 35.538753000116834 ], [ -81.166869990700562, 35.542178999718395 ], [ -81.174681991266652, 35.545722000122467 ], [ -81.172492991076339, 35.54620000000169 ], [ -81.164567991260327, 35.554372000410858 ], [ -81.08133099148688, 35.551400000343264 ], [ -81.081421990945344, 35.491099000513415 ], [ -81.085085991704872, 35.491040999908947 ], [ -81.087457991738347, 35.487702000485449 ], [ -81.098691991675935, 35.490957000139034 ], [ -81.100662991226713, 35.493590000221253 ], [ -81.104384991094804, 35.496480999815894 ], [ -81.108559990994166, 35.503427999734704 ], [ -81.11241199079474, 35.505888000491048 ], [ -81.12015899102407, 35.514034999810754 ], [ -81.123780991070021, 35.515784999971082 ], [ -81.133206990905805, 35.517464999795358 ], [ -81.137834991453317, 35.521120000093596 ], [ -81.140011990738685, 35.521837000096937 ], [ -81.135699990689446, 35.525105000236032 ], [ -81.132464991093485, 35.529308999945428 ], [ -81.135306991302073, 35.531776000412087 ], [ -81.142062991482916, 35.534803999967487 ], [ -81.147953990923639, 35.535551000217701 ], [ -81.152264991093816, 35.53501199977844 ], [ -81.157421990746926, 35.537970999787049 ], [ -81.162120990851349, 35.538753000116834 ] ] ] } },
{ "type": "Feature", "properties": { "county": "LINCOLN", "precinct": "SL24", "enr_desc": "Salem", "winner": "Stacey Leonard Crouse", "winner_votes": 168, "winner_share": 56.375838926174495, "runner_up": "Frank Runyon", "runner_up_votes": 75, "runner_up_share": 25.167785234899331, "contest_votes": 298, "margin_of_victory": 31.208053691275165, "is_tie": false, "results": [ { "candidate": "Stacey Leonard Crouse", "votes": 168, "share": 56.375838926174495 }, { "candidate": "Frank Runyon", "votes": 75, "share": 25.16778523489933 }, { "candidate": "Dawn Short", "votes": 37, "share": 12.416107382550337 }, { "candidate": "Phil McNeill", "votes": 18, "share": 6.0402684563758395 } ], "participated": true, "map_key": "LINCOLN_SL24" }, "geometry": { "type": "Polygon", "coordinates": [ [ [ -81.217975991027529, 35.410963000323633 ], [ -81.213698991262845, 35.423185000095692 ], [ -81.213312991255862, 35.434521999864629 ], [ -81.213875991484045, 35.476024000508581 ], [ -81.201033990750901, 35.478054000591769 ], [ -81.189580991437751, 35.473652000546082 ], [ -81.190588991268896, 35.472305999718891 ], [ -81.190602990956322, 35.469050000463646 ], [ -81.185698991072499, 35.457135000412904 ], [ -81.186824990706398, 35.448811000129133 ], [ -81.185763991449747, 35.447788000346627 ], [ -81.184183991694951, 35.443370999950979 ], [ -81.180324991423817, 35.442011999745482 ], [ -81.178007991068029, 35.440352999879757 ], [ -81.177639990693805, 35.439120000418335 ], [ -81.17487599168588, 35.436494999861985 ], [ -81.174913991751382, 35.432925000474079 ], [ -81.170596990673758, 35.432003999796642 ], [ -81.166594991588482, 35.424429000569965 ], [ -81.171242990950688, 35.416875000559784 ], [ -81.173869991668468, 35.414237999711062 ], [ -81.17505599131367, 35.410671000007483 ], [ -81.175853990776062, 35.409685000478952 ], [ -81.177944991744155, 35.409573000329289 ], [ -81.217975991027529, 35.410963000323633 ] ] ] } },
{ "type": "Feature", "properties": { "county": "LINCOLN", "precinct": "ST36", "enr_desc": "Startown", "winner": "Stacey Leonard Crouse", "winner_votes": 184, "winner_share": 41.441441441441441, "runner_up": "Frank Runyon", "runner_up_votes": 146, "runner_up_share": 32.882882882882889, "contest_votes": 444, "margin_of_victory": 8.558558558558552, "is_tie": false, "results": [ { "candidate": "Stacey Leonard Crouse", "votes": 184, "share": 41.44144144144144 }, { "candidate": "Frank Runyon", "votes": 146, "share": 32.88288288288289 }, { "candidate": "Dawn Short", "votes": 89, "share": 20.045045045045047 }, { "candidate": "Phil McNeill", "votes": 25, "share": 5.63063063063063 } ], "participated": true, "map_key": "LINCOLN_ST36" }, "geometry": { "type": "Polygon", "coordinates": [ [ [ -81.269200991564205, 35.47292300039873 ], [ -81.270771991477545, 35.472875000229386 ], [ -81.271886991109582, 35.468259000364029 ], [ -81.273984991059365, 35.468015000205455 ], [ -81.275344991250023, 35.471448000077253 ], [ -81.274937991065485, 35.47382800032203 ], [ -81.278143990789602, 35.476904999833401 ], [ -81.283109991330122, 35.478725000164559 ], [ -81.283994990874731, 35.479429999899821 ], [ -81.283908991441976, 35.480790000017805 ], [ -81.280507990930815, 35.483465000184275 ], [ -81.282470991750145, 35.487275999929366 ], [ -81.278362991079661, 35.488631999888149 ], [ -81.277754991385166, 35.490414000024202 ], [ -81.274363990975488, 35.49233200033644 ], [ -81.274701991397635, 35.498079999760066 ], [ -81.272930991458665, 35.500625000168995 ], [ -81.273564991576265, 35.502609000530605 ], [ -81.274979990920485, 35.501281000039519 ], [ -81.276218990793765, 35.501854000548235 ], [ -81.278860991589724, 35.507210999928226 ], [ -81.281388991628376, 35.507537000406742 ], [ -81.283836991128553, 35.506776999874617 ], [ -81.287909990800117, 35.510043000560692 ], [ -81.28820399106192, 35.513214000477802 ], [ -81.284474990983327, 35.511991000415932 ], [ -81.285813991727494, 35.514144000033063 ], [ -81.284097991045471, 35.517483999833722 ], [ -81.290166991122277, 35.518539999962968 ], [ -81.292557990880127, 35.521644000194875 ], [ -81.292465991056574, 35.522775000036681 ], [ -81.291482990721804, 35.52278799975322 ], [ -81.291148991652946, 35.523687000197633 ], [ -81.287193991030335, 35.523629999843827 ], [ -81.286306991446338, 35.524326000039601 ], [ -81.286642991458038, 35.525683000588494 ], [ -81.289457990829462, 35.526035000522683 ], [ -81.290484990716806, 35.526892999924343 ], [ -81.290344991546419, 35.529757000478781 ], [ -81.293575990714288, 35.536082000280459 ], [ -81.291818991209382, 35.540368000098837 ], [ -81.290208990823601, 35.541683000497791 ], [ -81.28837399087476, 35.54155599978386 ], [ -81.290663990961349, 35.543264000344031 ], [ -81.296420991093129, 35.542677000358218 ], [ -81.294386991378218, 35.546259000026211 ], [ -81.299310991295926, 35.546257999938604 ], [ -81.29951599104389, 35.551053999760285 ], [ -81.297861991476566, 35.552047999739138 ], [ -81.2951109916429, 35.55081000008034 ], [ -81.289737991190393, 35.552060999905748 ], [ -81.286109990717492, 35.550636000445643 ], [ -81.284715990864527, 35.552104000238195 ], [ -81.284043990993084, 35.55437099981679 ], [ -81.284859991597386, 35.555398000018371 ], [ -81.290309990957027, 35.557285000098297 ], [ -81.291951991356285, 35.55682600055939 ], [ -81.291456991693636, 35.558343000089508 ], [ -81.292533991204962, 35.55927600060501 ], [ -81.195261991215517, 35.555335000343504 ], [ -81.200178991647419, 35.541451000291246 ], [ -81.200686990747897, 35.537634000400814 ], [ -81.202471991172374, 35.535982000338691 ], [ -81.201863991746549, 35.535604999784852 ], [ -81.211589990826155, 35.504558999838686 ], [ -81.215105991670228, 35.504197000301986 ], [ -81.229067991551105, 35.505448000276147 ], [ -81.236962991679775, 35.502765999773054 ], [ -81.239889991340334, 35.504890000053841 ], [ -81.241971990844249, 35.499044000534525 ], [ -81.24659999071676, 35.494375000516413 ], [ -81.257140990753328, 35.483494000227722 ], [ -81.263894990972062, 35.482343000240931 ], [ -81.267732991601832, 35.478073000232243 ], [ -81.267050991325604, 35.474998000129858 ], [ -81.269200991564205, 35.47292300039873 ] ] ] } },
{ "type": "Feature", "properties": { "county": "LINCOLN", "precinct": "TA37", "enr_desc": "Triangle A", "winner": "Stacey Leonard Crouse", "winner_votes": 209, "winner_share": 33.069620253164558, "runner_up": "Frank Runyon", "runner_up_votes": 193, "runner_up_share": 30.537974683544306, "contest_votes": 632, "margin_of_victory": 2.5316455696202524, "is_tie": false, "results": [ { "candidate": "Stacey Leonard Crouse", "votes": 209, "share": 33.06962025316456 }, { "candidate": "Frank Runyon", "votes": 193, "share": 30.537974683544306 }, { "candidate": "Dawn Short", "votes": 134, "share": 21.202531645569618 }, { "candidate": "Phil McNeill", "votes": 96, "share": 15.18987341772152 } ], "participated": true, "map_key": "LINCOLN_TA37" }, "geometry": { "type": "Polygon", "coordinates": [ [ [ -81.009031990960892, 35.477165000404206 ], [ -81.004113991159343, 35.477596000012177 ], [ -81.000722991103075, 35.475325000390789 ], [ -80.997395991667815, 35.474632999952576 ], [ -80.995752990993878, 35.47737800055431 ], [ -80.991055991101504, 35.480722999880435 ], [ -80.988386991694455, 35.481679000100293 ], [ -80.991950991118372, 35.484907999985246 ], [ -80.991592991596761, 35.486035999714566 ], [ -80.989377991431354, 35.485573000027799 ], [ -80.985303991599693, 35.492011000130184 ], [ -80.981881991422057, 35.493873999789571 ], [ -80.972292990703025, 35.495576000058861 ], [ -80.956765990671542, 35.490692000026286 ], [ -80.952757991210746, 35.490580999988282 ], [ -80.948722991115019, 35.49166899980326 ], [ -80.945324990921407, 35.483617000171755 ], [ -80.947860991489193, 35.480697999881336 ], [ -80.950451991089992, 35.47308799974455 ], [ -80.961437991361251, 35.473400999956553 ], [ -80.976317991434044, 35.475490000509119 ], [ -80.980555991608071, 35.477678000530801 ], [ -80.979220991406962, 35.476301000083026 ], [ -80.979680990868403, 35.476057000200555 ], [ -80.975936991086201, 35.474923000200285 ], [ -80.9754759906738, 35.474043000061727 ], [ -80.973885991313637, 35.474548000101059 ], [ -80.972358991323787, 35.47332600007627 ], [ -80.970284991370207, 35.473354000160882 ], [ -80.969337990896449, 35.472205999905327 ], [ -80.968798990878526, 35.472719000146746 ], [ -80.964777990682279, 35.471714000362844 ], [ -80.964362991660963, 35.470094999699647 ], [ -80.967130991304074, 35.468887000033362 ], [ -80.966861991227006, 35.465904000501119 ], [ -80.967779990990522, 35.465418000299401 ], [ -80.97004499162307, 35.46880499981043 ], [ -80.971408990764004, 35.469166000381357 ], [ -80.971251991611453, 35.467876999692088 ], [ -80.972630991391085, 35.466679000384119 ], [ -80.972968990768337, 35.468985999854404 ], [ -80.973829991702516, 35.468164999804749 ], [ -80.97519099124878, 35.468426000390068 ], [ -80.974632990813674, 35.469370000184369 ], [ -80.975515991554005, 35.469307000365937 ], [ -80.976573990701297, 35.470553999789715 ], [ -80.977335991294169, 35.469858000468676 ], [ -80.976403991500234, 35.468259000543249 ], [ -80.977838991044351, 35.467986000199858 ], [ -80.977540990973779, 35.466589000442021 ], [ -80.978751990967069, 35.465082000042415 ], [ -80.979934991316881, 35.466233999944919 ], [ -80.98134899105267, 35.465643000071914 ], [ -80.982757991083758, 35.467541000322349 ], [ -80.983856991434791, 35.466604000586543 ], [ -80.984250991054267, 35.467182000565018 ], [ -80.9858619911993, 35.466834000564248 ], [ -80.987803990985768, 35.47109899979619 ], [ -80.987745991385566, 35.468769000264459 ], [ -80.991481990728829, 35.470083000090654 ], [ -80.988999991141839, 35.467787999831849 ], [ -80.987467991374231, 35.467559999813524 ], [ -80.987086991502906, 35.4655799998907 ], [ -80.985572991050603, 35.465123999994105 ], [ -80.987708991067876, 35.464208000339497 ], [ -80.985347991239479, 35.46495800039682 ], [ -80.983339991455139, 35.463634999691266 ], [ -80.982858991411845, 35.461718999741372 ], [ -80.98404499152322, 35.461714000320384 ], [ -80.985138991339412, 35.460613000399114 ], [ -80.989064990942339, 35.460870000006047 ], [ -80.98996999176255, 35.46009500039758 ], [ -80.992607991424606, 35.460633000507094 ], [ -80.992318991770588, 35.45398800050512 ], [ -80.997221991612179, 35.446358000039574 ], [ -81.006032991561796, 35.450685999959447 ], [ -81.033611991692339, 35.454193999797567 ], [ -81.034750990876915, 35.458456000042538 ], [ -81.034634991403564, 35.462807000298461 ], [ -81.033328991307229, 35.470105000179153 ], [ -81.031974991587134, 35.472083000463947 ], [ -81.031183991119718, 35.475695000398893 ], [ -81.03212799072196, 35.482057000529608 ], [ -81.03009799137115, 35.485731999922137 ], [ -81.029355991638781, 35.488318999755627 ], [ -81.029783991691318, 35.490255000521913 ], [ -81.029010991684558, 35.491298000054783 ], [ -81.019249991330057, 35.497025000112075 ], [ -81.018186990929337, 35.494274000539683 ], [ -81.018685990763842, 35.488230000581794 ], [ -81.022211990768469, 35.48260199975909 ], [ -81.022041990729136, 35.479375999761018 ], [ -81.019550990887709, 35.478030999774248 ], [ -81.012615991419935, 35.476596000063374 ], [ -81.012693990706737, 35.477367999837433 ], [ -81.012107991700788, 35.475923000400911 ], [ -81.012496991754446, 35.477578999849413 ], [ -81.009031990960892, 35.477165000404206 ] ] ] } },
{ "type": "Feature", "properties": { "county": "LINCOLN", "precinct": "WP32", "enr_desc": "Westport", "winner": "Stacey Leonard Crouse", "winner_votes": 314, "winner_share": 35.763097949886102, "runner_up": "Frank Runyon", "runner_up_votes": 302, "runner_up_share": 34.396355353075172, "contest_votes": 878, "margin_of_victory": 1.3667425968109299, "is_tie": false, "results": [ { "candidate": "Stacey Leonard Crouse", "votes": 314, "share": 35.7630979498861 }, { "candidate": "Frank Runyon", "votes": 302, "share": 34.39635535307517 }, { "candidate": "Dawn Short", "votes": 157, "share": 17.88154897494305 }, { "candidate": "Phil McNeill", "votes": 105, "share": 11.958997722095672 } ], "participated": true, "map_key": "LINCOLN_WP32" }, "geometry": { "type": "Polygon", "coordinates": [ [ [ -81.009031990960892, 35.477165000404206 ], [ -81.008175990969292, 35.483506999821579 ], [ -81.010025991503753, 35.490122999840736 ], [ -81.012175991527457, 35.504752000372676 ], [ -81.010043990977792, 35.510969000153885 ], [ -81.011691990940093, 35.519960999968148 ], [ -81.011135991291624, 35.52263900019593 ], [ -81.004469991621804, 35.517771999793375 ], [ -81.001489991180847, 35.519984000571306 ], [ -80.99637099086884, 35.521747000063485 ], [ -80.976532991520671, 35.523843000579042 ], [ -80.976772991684371, 35.527113000550649 ], [ -80.977988990952525, 35.530042999997406 ], [ -80.97566699170082, 35.532205000426835 ], [ -80.972214991469016, 35.532778000497181 ], [ -80.956579991254543, 35.531570999963378 ], [ -80.957749990663885, 35.523657999730325 ], [ -80.955979991536125, 35.515072000106535 ], [ -80.962813991682921, 35.507801999877728 ], [ -80.963272991092552, 35.503993000110157 ], [ -80.962141991539866, 35.498655999788049 ], [ -80.96037999098273, 35.496151000480559 ], [ -80.957887991595172, 35.494645000025855 ], [ -80.948722991115019, 35.49166899980326 ], [ -80.952757991210746, 35.490580999988282 ], [ -80.956765990671542, 35.490692000026286 ], [ -80.972292990703025, 35.495576000058861 ], [ -80.981881991422057, 35.493873999789571 ], [ -80.985303991599693, 35.492011000130184 ], [ -80.989377991431354, 35.485573000027799 ], [ -80.991592991596761, 35.486035999714566 ], [ -80.991950991118372, 35.484907999985246 ], [ -80.988386991694455, 35.481679000100293 ], [ -80.991055991101504, 35.480722999880435 ], [ -80.995752990993878, 35.47737800055431 ], [ -80.997395991667815, 35.474632999952576 ], [ -81.000722991103075, 35.475325000390789 ], [ -81.004113991159343, 35.477596000012177 ], [ -81.009031990960892, 35.477165000404206 ] ] ] } }
]
}
