{
"type": "FeatureCollection",
"name": "macon_county_sheriff_rep",
"crs": { "type": "name", "properties": { "name": "urn:ogc:def:crs:OGC:1.3:CRS84" } },
"features": [
{ "type": "Feature", "properties": { "county": "MACON", "precinct": "12", "enr_desc": "Cartoogechaye", "winner": "Brent Holbrooks", "winner_votes": 331, "winner_share": 68.24742268041237, "runner_up": "Bob Cook", "runner_up_votes": 154, "runner_up_share": 31.752577319587626, "contest_votes": 485, "margin_of_victory": 36.494845360824741, "is_tie": false, "results": [ { "candidate": "Brent Holbrooks", "votes": 331, "share": 68.24742268041237 }, { "candidate": "Bob Cook", "votes": 154, "share": 31.752577319587626 } ], "participated": true, "map_key": "MACON_12" }, "geometry": { "type": "Polygon", "coordinates": [ [ [ -83.537910990948262, 35.03527600072141 ], [ -83.543327991088546, 35.03854400031549 ], [ -83.547795991267179, 35.039448000001563 ], [ -83.552224991233359, 35.039577000142899 ], [ -83.557358991709222, 35.03863600041165 ], [ -83.558411991376204, 35.039133999897309 ], [ -83.563108991369873, 35.048314000210787 ], [ -83.566716991449013, 35.051281000140087 ], [ -83.56614199105212, 35.054216999933033 ], [ -83.564126991415264, 35.056763999951656 ], [ -83.563977990853232, 35.05821900050654 ], [ -83.562198991424466, 35.059536000271002 ], [ -83.563819991736523, 35.062808000079762 ], [ -83.567992991611931, 35.06690599990484 ], [ -83.566946991110811, 35.070982000353467 ], [ -83.575309991069787, 35.0716510007328 ], [ -83.578728991644539, 35.077126000236589 ], [ -83.580492991240618, 35.077111000264203 ], [ -83.581886990757425, 35.078113999967499 ], [ -83.585086991051099, 35.081792000050257 ], [ -83.583387991159412, 35.086954000390435 ], [ -83.586616990917335, 35.091582000025923 ], [ -83.591361991710315, 35.092241000605696 ], [ -83.594555990964395, 35.094616000140327 ], [ -83.596588991349975, 35.094321000217427 ], [ -83.600984990937675, 35.099802000253938 ], [ -83.605588991645291, 35.101909000563317 ], [ -83.611306991711899, 35.102123000036741 ], [ -83.617908991672465, 35.105960000705565 ], [ -83.618753991046646, 35.108592000200503 ], [ -83.614570991428479, 35.113106000367239 ], [ -83.616723991401216, 35.115385000019614 ], [ -83.616844991020429, 35.119131000472564 ], [ -83.618890990866817, 35.119408000503988 ], [ -83.620021991565324, 35.125976999881992 ], [ -83.619059991458386, 35.128382000298323 ], [ -83.6236879907363, 35.128603000147571 ], [ -83.625203991185444, 35.130613000360526 ], [ -83.626714991562935, 35.131246000355866 ], [ -83.627149991528356, 35.129748999882416 ], [ -83.624921991346184, 35.127014000071291 ], [ -83.62498399181338, 35.12517400053175 ], [ -83.626540990840837, 35.124493999979194 ], [ -83.629666991129398, 35.125562000173069 ], [ -83.632385990940691, 35.125086999934446 ], [ -83.633460990917143, 35.124044000025783 ], [ -83.633865991433055, 35.121451999979776 ], [ -83.634927990924027, 35.121161000530819 ], [ -83.637343991713649, 35.12365200003623 ], [ -83.637417991616005, 35.126208000551081 ], [ -83.640356990790536, 35.130648000369774 ], [ -83.643924991725981, 35.132237000649774 ], [ -83.642742991674695, 35.13295299993527 ], [ -83.639341991466296, 35.132375000301572 ], [ -83.637716991658664, 35.132841000363072 ], [ -83.637021991082094, 35.134608000557236 ], [ -83.639870991041434, 35.138493000120114 ], [ -83.642016991148481, 35.139149000735067 ], [ -83.643858991371175, 35.136871000669736 ], [ -83.6495329908023, 35.134540000669027 ], [ -83.651854991545747, 35.135546999930966 ], [ -83.640031991648925, 35.14232400034583 ], [ -83.637996991208908, 35.141860000603515 ], [ -83.636893991509538, 35.142883000010769 ], [ -83.63684799138835, 35.145170000553243 ], [ -83.631076990968722, 35.147883000644569 ], [ -83.628040990946943, 35.14803100064016 ], [ -83.620753991231936, 35.146176000294062 ], [ -83.617597991386319, 35.144050000525347 ], [ -83.615996990902687, 35.143852000463184 ], [ -83.611377990852048, 35.145684000662328 ], [ -83.609779991632621, 35.148242000398547 ], [ -83.607473990969851, 35.145861999928826 ], [ -83.605052991614144, 35.145918000253118 ], [ -83.598918991351184, 35.150559000473365 ], [ -83.586311991230943, 35.146797000210178 ], [ -83.578965990778599, 35.146304000096016 ], [ -83.577546991244461, 35.150274000219483 ], [ -83.579174991108999, 35.155195000772856 ], [ -83.576152991324136, 35.160665000288425 ], [ -83.579112990995412, 35.169285000608141 ], [ -83.577912991517294, 35.170945000680334 ], [ -83.575252991136111, 35.171065000117935 ], [ -83.574702991396933, 35.172689000180682 ], [ -83.572620991238637, 35.174478999983776 ], [ -83.568791990938706, 35.174949999942633 ], [ -83.562414991777132, 35.178779000112478 ], [ -83.562158991456016, 35.182574000449726 ], [ -83.560584990717416, 35.18466500058242 ], [ -83.549014990801894, 35.186818000303084 ], [ -83.542300990721856, 35.184231000507808 ], [ -83.538394990778457, 35.18790100058893 ], [ -83.52756499117298, 35.190513000086206 ], [ -83.518532991520161, 35.18746800003337 ], [ -83.513222991012057, 35.188228000779176 ], [ -83.505121991387341, 35.185965000370466 ], [ -83.496766991099008, 35.186949000137595 ], [ -83.492515990917752, 35.186331000639214 ], [ -83.486331991216304, 35.186945000140071 ], [ -83.485475991145719, 35.191978000509472 ], [ -83.478947991513323, 35.194360000722575 ], [ -83.478204991013058, 35.195499000200392 ], [ -83.473782991280913, 35.197776000634256 ], [ -83.470292991545847, 35.197925000280897 ], [ -83.468271991482695, 35.194874000015098 ], [ -83.465707991434897, 35.194640000014623 ], [ -83.465614990976718, 35.195181000704046 ], [ -83.463271991359917, 35.192634000571005 ], [ -83.458920991238642, 35.192069000431118 ], [ -83.452783991239087, 35.189030000161438 ], [ -83.451029991007516, 35.184950000077542 ], [ -83.449035991386467, 35.183111000530722 ], [ -83.449097991631049, 35.176226000560185 ], [ -83.444542990878801, 35.173782000011869 ], [ -83.444017991482696, 35.172101000297964 ], [ -83.445157991254703, 35.170295000234539 ], [ -83.444306991329427, 35.169643000088051 ], [ -83.445424990950443, 35.168338000384402 ], [ -83.44558399076746, 35.164850000480044 ], [ -83.445898990798639, 35.158017000016663 ], [ -83.446759990792657, 35.157436000073311 ], [ -83.446158991536791, 35.156108999892659 ], [ -83.445191991799021, 35.155976000713444 ], [ -83.444753991796674, 35.153417000303207 ], [ -83.446542990787208, 35.15326200015739 ], [ -83.448511991562881, 35.151499000110718 ], [ -83.448411990879137, 35.149483000580162 ], [ -83.450249991255532, 35.148257000443174 ], [ -83.449630991577806, 35.147278000663405 ], [ -83.450532991448284, 35.146859000499795 ], [ -83.450134991307664, 35.145864000739714 ], [ -83.451904990792031, 35.145470000531965 ], [ -83.452398991694437, 35.143987000389181 ], [ -83.459404990874546, 35.13741300078194 ], [ -83.459512991414257, 35.133686000719301 ], [ -83.454958991702227, 35.129896000034513 ], [ -83.455315990926579, 35.125610000023912 ], [ -83.451751991090077, 35.121737000145281 ], [ -83.452462990885422, 35.119468000728965 ], [ -83.450255991451556, 35.1178010001248 ], [ -83.449358991101846, 35.114876000145223 ], [ -83.444504991715064, 35.115518000599039 ], [ -83.445713991566834, 35.109151000429243 ], [ -83.441666991805903, 35.106210000744625 ], [ -83.441938991188351, 35.100937000010539 ], [ -83.441262990833593, 35.098013000581645 ], [ -83.442699991783613, 35.095905000557281 ], [ -83.445739991143739, 35.093870000041356 ], [ -83.448137991011407, 35.090964000135756 ], [ -83.448062991126747, 35.088189999885223 ], [ -83.450580990879629, 35.083934000112862 ], [ -83.458072991191216, 35.074744000568586 ], [ -83.46255799083427, 35.066622000649133 ], [ -83.465882990722662, 35.065327000086896 ], [ -83.471271991125434, 35.061577000678071 ], [ -83.476610991423485, 35.060504000170965 ], [ -83.479912990869394, 35.061018000407998 ], [ -83.483509991069369, 35.062737000034062 ], [ -83.491003991540367, 35.068744000142352 ], [ -83.492847991174258, 35.068282000031012 ], [ -83.496233991225992, 35.06527100059872 ], [ -83.498978991292617, 35.064025000465946 ], [ -83.503476990719662, 35.063927000218413 ], [ -83.506859991665962, 35.062832000484825 ], [ -83.516325990781681, 35.055719000396358 ], [ -83.519222991690441, 35.054704000510661 ], [ -83.522631991561013, 35.050389000358358 ], [ -83.523232991385569, 35.048192000597126 ], [ -83.529060991517895, 35.045085000050136 ], [ -83.530734990973187, 35.04156200029329 ], [ -83.534162990906836, 35.039880999923739 ], [ -83.537910990948262, 35.03527600072141 ] ] ] } },
{ "type": "Feature", "properties": { "county": "MACON", "precinct": "1", "enr_desc": "North Franklin", "winner": "Brent Holbrooks", "winner_votes": 392, "winner_share": 72.862453531598518, "runner_up": "Bob Cook", "runner_up_votes": 146, "runner_up_share": 27.137546468401485, "contest_votes": 538, "margin_of_victory": 45.724907063197037, "is_tie": false, "results": [ { "candidate": "Brent Holbrooks", "votes": 392, "share": 72.86245353159852 }, { "candidate": "Bob Cook", "votes": 146, "share": 27.137546468401485 } ], "participated": true, "map_key": "MACON_1" }, "geometry": { "type": "Polygon", "coordinates": [ [ [ -83.44558399076746, 35.164850000480044 ], [ -83.445424990950443, 35.168338000384402 ], [ -83.444306991329427, 35.169643000088051 ], [ -83.445157991254703, 35.170295000234539 ], [ -83.444017991482696, 35.172101000297964 ], [ -83.444542990878801, 35.173782000011869 ], [ -83.449097991631049, 35.176226000560185 ], [ -83.449035991386467, 35.183111000530722 ], [ -83.451029991007516, 35.184950000077542 ], [ -83.452783991239087, 35.189030000161438 ], [ -83.443463991270519, 35.190885999906051 ], [ -83.437556991525938, 35.194457000571433 ], [ -83.43604699141359, 35.194654000014907 ], [ -83.435019990705229, 35.193618000180727 ], [ -83.417892991207694, 35.188594000012763 ], [ -83.413613991010934, 35.19132300070433 ], [ -83.416313991273057, 35.193774000322321 ], [ -83.417491991319011, 35.199725000680317 ], [ -83.41386299126053, 35.202930000520119 ], [ -83.412662991357053, 35.204855000369022 ], [ -83.413059991555457, 35.206143000568154 ], [ -83.409409990973415, 35.208457999898229 ], [ -83.408053990959246, 35.211124000519789 ], [ -83.406090991241243, 35.212594000117697 ], [ -83.400021991203644, 35.211900000031527 ], [ -83.396118991197994, 35.215741999879242 ], [ -83.393351991031452, 35.215260000633762 ], [ -83.391036991082416, 35.216852000501348 ], [ -83.390096991228376, 35.216421000492836 ], [ -83.390424991498435, 35.212574000555854 ], [ -83.393014991015377, 35.208638000639787 ], [ -83.393481991346789, 35.203263000745366 ], [ -83.388129991516792, 35.19778500025847 ], [ -83.385300991739058, 35.197184000672344 ], [ -83.384777991006288, 35.194989000719303 ], [ -83.381190991229715, 35.190969000215368 ], [ -83.376414990825808, 35.187821000510645 ], [ -83.372070991638566, 35.186089000634418 ], [ -83.374585991427409, 35.183701000662779 ], [ -83.388318991424981, 35.179882000081939 ], [ -83.390358990708307, 35.180744000062681 ], [ -83.392705991070841, 35.178384000038527 ], [ -83.399661990749777, 35.175012000397203 ], [ -83.402494991617388, 35.171334000160464 ], [ -83.407295991385908, 35.170705000081746 ], [ -83.409830990935532, 35.168724000310547 ], [ -83.412963991276555, 35.168212999875003 ], [ -83.41534899151236, 35.166761999888074 ], [ -83.423324991732812, 35.167566000503562 ], [ -83.426533991078117, 35.169268000501845 ], [ -83.43405299080699, 35.166911000383998 ], [ -83.44051399081863, 35.163668999953622 ], [ -83.44558399076746, 35.164850000480044 ] ] ] } },
{ "type": "Feature", "properties": { "county": "MACON", "precinct": "4", "enr_desc": "Iotla", "winner": "Brent Holbrooks", "winner_votes": 294, "winner_share": 74.430379746835442, "runner_up": "Bob Cook", "runner_up_votes": 101, "runner_up_share": 25.569620253164555, "contest_votes": 395, "margin_of_victory": 48.860759493670884, "is_tie": false, "results": [ { "candidate": "Brent Holbrooks", "votes": 294, "share": 74.43037974683544 }, { "candidate": "Bob Cook", "votes": 101, "share": 25.569620253164555 } ], "participated": true, "map_key": "MACON_4" }, "geometry": { "type": "Polygon", "coordinates": [ [ [ -83.452783991239087, 35.189030000161438 ], [ -83.458920991238642, 35.192069000431118 ], [ -83.463271991359917, 35.192634000571005 ], [ -83.465614990976718, 35.195181000704046 ], [ -83.465707991434897, 35.194640000014623 ], [ -83.468271991482695, 35.194874000015098 ], [ -83.470292991545847, 35.197925000280897 ], [ -83.473782991280913, 35.197776000634256 ], [ -83.473372990806965, 35.206286000434766 ], [ -83.470722991329382, 35.206758000065165 ], [ -83.470947991173432, 35.211849000008186 ], [ -83.472027990728066, 35.211833000162322 ], [ -83.471781990753811, 35.214280000116467 ], [ -83.464517991459985, 35.214170000656409 ], [ -83.466653991751727, 35.216503999862518 ], [ -83.459084991267574, 35.220213000551595 ], [ -83.451983991752073, 35.22027700030781 ], [ -83.445914990995618, 35.221849000114155 ], [ -83.443142991515458, 35.220874000670527 ], [ -83.442938991710761, 35.22219100047495 ], [ -83.441466991124756, 35.222061000703782 ], [ -83.440811990821274, 35.22305900029626 ], [ -83.439796990770446, 35.227715000463647 ], [ -83.440171991631686, 35.231290000209739 ], [ -83.439845990802155, 35.23773300043753 ], [ -83.434060991757619, 35.236430999919278 ], [ -83.426132990946172, 35.239937999903304 ], [ -83.42096399113953, 35.237555000525646 ], [ -83.417357991740047, 35.238467000143558 ], [ -83.414677991244645, 35.236665000668012 ], [ -83.412447990720779, 35.236580000756462 ], [ -83.407677991032301, 35.23474000044358 ], [ -83.404736991219664, 35.234400000246531 ], [ -83.403266991411414, 35.235475000634146 ], [ -83.395978990939312, 35.234404000052187 ], [ -83.395840990993563, 35.235072999935653 ], [ -83.392312991543747, 35.233023999897114 ], [ -83.391646991548029, 35.228308999899689 ], [ -83.385229990758276, 35.225692000676304 ], [ -83.378765991723682, 35.225369000293803 ], [ -83.377375990970194, 35.224651000577133 ], [ -83.376795991292823, 35.223243000325617 ], [ -83.379325990907759, 35.218441000150371 ], [ -83.379109991785086, 35.217465000499352 ], [ -83.376400991166378, 35.216828000188791 ], [ -83.374830990910795, 35.221047000563701 ], [ -83.373053991476496, 35.221544000259236 ], [ -83.370349990720982, 35.218141000323492 ], [ -83.366895991524231, 35.217067000684025 ], [ -83.36716499122933, 35.215194000050744 ], [ -83.368412991525616, 35.214013000731399 ], [ -83.371891991705496, 35.211966000652083 ], [ -83.373186991747446, 35.207621000272063 ], [ -83.374085991058465, 35.206795000335525 ], [ -83.375418990966764, 35.20650700012142 ], [ -83.378224991291233, 35.207697000250093 ], [ -83.380033990749055, 35.207059000229428 ], [ -83.384561990762876, 35.201822000295032 ], [ -83.385300991739058, 35.197184000672344 ], [ -83.388129991516792, 35.19778500025847 ], [ -83.393481991346789, 35.203263000745366 ], [ -83.393014991015377, 35.208638000639787 ], [ -83.390424991498435, 35.212574000555854 ], [ -83.390096991228376, 35.216421000492836 ], [ -83.391036991082416, 35.216852000501348 ], [ -83.393351991031452, 35.215260000633762 ], [ -83.396118991197994, 35.215741999879242 ], [ -83.400021991203644, 35.211900000031527 ], [ -83.406090991241243, 35.212594000117697 ], [ -83.408053990959246, 35.211124000519789 ], [ -83.409409990973415, 35.208457999898229 ], [ -83.413059991555457, 35.206143000568154 ], [ -83.412662991357053, 35.204855000369022 ], [ -83.41386299126053, 35.202930000520119 ], [ -83.417491991319011, 35.199725000680317 ], [ -83.416313991273057, 35.193774000322321 ], [ -83.413613991010934, 35.19132300070433 ], [ -83.417892991207694, 35.188594000012763 ], [ -83.435019990705229, 35.193618000180727 ], [ -83.43604699141359, 35.194654000014907 ], [ -83.437556991525938, 35.194457000571433 ], [ -83.443463991270519, 35.190885999906051 ], [ -83.452783991239087, 35.189030000161438 ] ] ] } },
{ "type": "Feature", "properties": { "county": "MACON", "precinct": "2", "enr_desc": "South Franklin", "winner": "Brent Holbrooks", "winner_votes": 162, "winner_share": 64.8, "runner_up": "Bob Cook", "runner_up_votes": 88, "runner_up_share": 35.2, "contest_votes": 250, "margin_of_victory": 29.6, "is_tie": false, "results": [ { "candidate": "Brent Holbrooks", "votes": 162, "share": 64.8 }, { "candidate": "Bob Cook", "votes": 88, "share": 35.199999999999996 } ], "participated": true, "map_key": "MACON_2" }, "geometry": { "type": "Polygon", "coordinates": [ [ [ -83.44558399076746, 35.164850000480044 ], [ -83.44051399081863, 35.163668999953622 ], [ -83.43405299080699, 35.166911000383998 ], [ -83.426533991078117, 35.169268000501845 ], [ -83.423324991732812, 35.167566000503562 ], [ -83.41534899151236, 35.166761999888074 ], [ -83.412963991276555, 35.168212999875003 ], [ -83.409830990935532, 35.168724000310547 ], [ -83.407295991385908, 35.170705000081746 ], [ -83.402494991617388, 35.171334000160464 ], [ -83.399661990749777, 35.175012000397203 ], [ -83.392705991070841, 35.178384000038527 ], [ -83.390358990708307, 35.180744000062681 ], [ -83.388318991424981, 35.179882000081939 ], [ -83.374585991427409, 35.183701000662779 ], [ -83.372070991638566, 35.186089000634418 ], [ -83.371448991477962, 35.18300199992089 ], [ -83.36989199140271, 35.180789000308359 ], [ -83.371237991331185, 35.177392000174912 ], [ -83.370161991211589, 35.175276000256396 ], [ -83.373146990980374, 35.171097000633928 ], [ -83.378005991596225, 35.167453000495144 ], [ -83.377892990799282, 35.166397000356028 ], [ -83.375626991669733, 35.164570000460905 ], [ -83.375306991398233, 35.162386000508207 ], [ -83.377102991445923, 35.157976999942498 ], [ -83.38038299138384, 35.156096000310782 ], [ -83.382165991345119, 35.155707000567936 ], [ -83.381695991277368, 35.153846000334809 ], [ -83.383457991585445, 35.154086000403744 ], [ -83.385334991430511, 35.158963000702357 ], [ -83.384528991742172, 35.160856999934097 ], [ -83.385695991064438, 35.161602000259606 ], [ -83.386446991185295, 35.160870000314837 ], [ -83.38700099174342, 35.156007999925784 ], [ -83.388155991716587, 35.155546000155773 ], [ -83.389746991158148, 35.156710000646683 ], [ -83.389877990895215, 35.158211000274903 ], [ -83.396550990767579, 35.159363000033863 ], [ -83.400033991354519, 35.158249000433671 ], [ -83.403142990975525, 35.160963000296348 ], [ -83.405276991432601, 35.161728000747267 ], [ -83.406177991019703, 35.161508999982978 ], [ -83.406666991277291, 35.159716000120156 ], [ -83.40926299103009, 35.159666000048269 ], [ -83.409681991248846, 35.155892000471042 ], [ -83.411057991405897, 35.153403999891374 ], [ -83.414519991725257, 35.153554000725421 ], [ -83.416062991079798, 35.154666000652163 ], [ -83.416892991687462, 35.154100000407936 ], [ -83.418804990758787, 35.15521500032078 ], [ -83.420750991303166, 35.154427000129438 ], [ -83.423484991767197, 35.155749000088846 ], [ -83.426381991230556, 35.161958000143159 ], [ -83.428951991301872, 35.162531000240349 ], [ -83.432515990901805, 35.164904000098652 ], [ -83.436026991572319, 35.16357300022058 ], [ -83.438397990715657, 35.160434999957104 ], [ -83.441626991070848, 35.159902000528994 ], [ -83.441143990781597, 35.156927000338882 ], [ -83.445191991799021, 35.155976000713444 ], [ -83.446158991536791, 35.156108999892659 ], [ -83.446759990792657, 35.157436000073311 ], [ -83.445898990798639, 35.158017000016663 ], [ -83.44558399076746, 35.164850000480044 ] ] ] } },
{ "type": "Feature", "properties": { "county": "MACON", "precinct": "3", "enr_desc": "East Franklin", "winner": "Brent Holbrooks", "winner_votes": 403, "winner_share": 69.72318339100346, "runner_up": "Bob Cook", "runner_up_votes": 175, "runner_up_share": 30.276816608996537, "contest_votes": 578, "margin_of_victory": 39.446366782006919, "is_tie": false, "results": [ { "candidate": "Brent Holbrooks", "votes": 403, "share": 69.72318339100346 }, { "candidate": "Bob Cook", "votes": 175, "share": 30.276816608996537 } ], "participated": true, "map_key": "MACON_3" }, "geometry": { "type": "Polygon", "coordinates": [ [ [ -83.38126099168187, 35.109356000363078 ], [ -83.376350991560429, 35.115741000379742 ], [ -83.378213991100083, 35.11990699996251 ], [ -83.375310991752428, 35.120631000446238 ], [ -83.373731991478806, 35.122367000552927 ], [ -83.374494990965744, 35.125918000695656 ], [ -83.377194991317879, 35.124344000549542 ], [ -83.379225991642258, 35.124759000109826 ], [ -83.379400991350494, 35.126339000338881 ], [ -83.377766991018589, 35.127478000581831 ], [ -83.379196990725845, 35.130064000472728 ], [ -83.377405990793733, 35.131844000736798 ], [ -83.378002990985564, 35.133760000497723 ], [ -83.377355991156165, 35.135711000728804 ], [ -83.377781991302484, 35.139874000660797 ], [ -83.376651991596916, 35.141629999859227 ], [ -83.376663991300049, 35.145190000507739 ], [ -83.37430899178004, 35.146298999960123 ], [ -83.37381099170716, 35.148530999911316 ], [ -83.375608990908177, 35.150218000030051 ], [ -83.378170991386312, 35.148797000005665 ], [ -83.379093990987556, 35.149243000327026 ], [ -83.38038299138384, 35.156096000310782 ], [ -83.377102991445923, 35.157976999942498 ], [ -83.375306991398233, 35.162386000508207 ], [ -83.375626991669733, 35.164570000460905 ], [ -83.377892990799282, 35.166397000356028 ], [ -83.378005991596225, 35.167453000495144 ], [ -83.373146990980374, 35.171097000633928 ], [ -83.370161991211589, 35.175276000256396 ], [ -83.371237991331185, 35.177392000174912 ], [ -83.36989199140271, 35.180789000308359 ], [ -83.371448991477962, 35.18300199992089 ], [ -83.372070991638566, 35.186089000634418 ], [ -83.376414990825808, 35.187821000510645 ], [ -83.381190991229715, 35.190969000215368 ], [ -83.384777991006288, 35.194989000719303 ], [ -83.385300991739058, 35.197184000672344 ], [ -83.384561990762876, 35.201822000295032 ], [ -83.380033990749055, 35.207059000229428 ], [ -83.378224991291233, 35.207697000250093 ], [ -83.375418990966764, 35.20650700012142 ], [ -83.374085991058465, 35.206795000335525 ], [ -83.373186991747446, 35.207621000272063 ], [ -83.371891991705496, 35.211966000652083 ], [ -83.368412991525616, 35.214013000731399 ], [ -83.366103990707074, 35.210515000322587 ], [ -83.36410299120115, 35.210445000746994 ], [ -83.362519991645115, 35.208517000222486 ], [ -83.36492299081705, 35.208659000181207 ], [ -83.364208990966759, 35.206232999956143 ], [ -83.364664991198367, 35.203320000307357 ], [ -83.362866990959432, 35.201254000498899 ], [ -83.356780991060887, 35.200867000633409 ], [ -83.35690099175909, 35.199837000097958 ], [ -83.350682991119712, 35.198691999879223 ], [ -83.352032991412997, 35.197497000105592 ], [ -83.351993991067587, 35.194651000347015 ], [ -83.350052991151514, 35.19219600036125 ], [ -83.350353991122461, 35.188853999868783 ], [ -83.348667991449005, 35.184424000339632 ], [ -83.347572990704691, 35.18318100035826 ], [ -83.34839199076994, 35.18318500044105 ], [ -83.348834991787513, 35.179486000716622 ], [ -83.35027499141593, 35.179229000013592 ], [ -83.350491991407736, 35.17752100035262 ], [ -83.351770991069415, 35.177334999910251 ], [ -83.351704991081164, 35.175604000745764 ], [ -83.352678990924971, 35.175561000670953 ], [ -83.352081991561931, 35.174660000040291 ], [ -83.352591991559834, 35.170773000280612 ], [ -83.355369991498961, 35.170759000543796 ], [ -83.354959991095384, 35.169688000226323 ], [ -83.352323991795814, 35.169943000344787 ], [ -83.350166991645523, 35.165154000721074 ], [ -83.352234990921929, 35.16345400038815 ], [ -83.351720991097054, 35.162855000478331 ], [ -83.349826991716853, 35.161462000480519 ], [ -83.346523991195284, 35.160638000292721 ], [ -83.346507991480607, 35.158715000300617 ], [ -83.344465991164313, 35.154227000396588 ], [ -83.344816990732525, 35.153293999889904 ], [ -83.341176990918171, 35.147483000469933 ], [ -83.341215991679391, 35.143860999925927 ], [ -83.342243990984699, 35.140853999885046 ], [ -83.341191991405523, 35.136900000524854 ], [ -83.337391991519695, 35.13316000043212 ], [ -83.337668991643469, 35.124877000031148 ], [ -83.339903991505622, 35.121650000211538 ], [ -83.343225991701715, 35.1213369999317 ], [ -83.346319991145435, 35.11908100053698 ], [ -83.34631499104259, 35.117749999931895 ], [ -83.34859799106583, 35.115197000030371 ], [ -83.351431990918286, 35.114099000374061 ], [ -83.354543991310834, 35.11029000055499 ], [ -83.356855991028311, 35.108863999953442 ], [ -83.359410991765628, 35.108392000276197 ], [ -83.364005991625675, 35.111898000252801 ], [ -83.36903899080319, 35.109365000271978 ], [ -83.371064991358907, 35.109372000331248 ], [ -83.371495991543441, 35.110030000021403 ], [ -83.374047991728304, 35.108869000323658 ], [ -83.38126099168187, 35.109356000363078 ] ] ] } },
{ "type": "Feature", "properties": { "county": "MACON", "precinct": "5", "enr_desc": "Union", "winner": "Brent Holbrooks", "winner_votes": 453, "winner_share": 67.011834319526628, "runner_up": "Bob Cook", "runner_up_votes": 223, "runner_up_share": 32.988165680473372, "contest_votes": 676, "margin_of_victory": 34.023668639053255, "is_tie": false, "results": [ { "candidate": "Brent Holbrooks", "votes": 453, "share": 67.01183431952663 }, { "candidate": "Bob Cook", "votes": 223, "share": 32.98816568047337 } ], "participated": true, "map_key": "MACON_5" }, "geometry": { "type": "Polygon", "coordinates": [ [ [ -83.445739991143739, 35.093870000041356 ], [ -83.442699991783613, 35.095905000557281 ], [ -83.441262990833593, 35.098013000581645 ], [ -83.441938991188351, 35.100937000010539 ], [ -83.441666991805903, 35.106210000744625 ], [ -83.445713991566834, 35.109151000429243 ], [ -83.444504991715064, 35.115518000599039 ], [ -83.449358991101846, 35.114876000145223 ], [ -83.450255991451556, 35.1178010001248 ], [ -83.452462990885422, 35.119468000728965 ], [ -83.451751991090077, 35.121737000145281 ], [ -83.455315990926579, 35.125610000023912 ], [ -83.454958991702227, 35.129896000034513 ], [ -83.459512991414257, 35.133686000719301 ], [ -83.459404990874546, 35.13741300078194 ], [ -83.452398991694437, 35.143987000389181 ], [ -83.451904990792031, 35.145470000531965 ], [ -83.450134991307664, 35.145864000739714 ], [ -83.450532991448284, 35.146859000499795 ], [ -83.449630991577806, 35.147278000663405 ], [ -83.450249991255532, 35.148257000443174 ], [ -83.448411990879137, 35.149483000580162 ], [ -83.448511991562881, 35.151499000110718 ], [ -83.446542990787208, 35.15326200015739 ], [ -83.444753991796674, 35.153417000303207 ], [ -83.445191991799021, 35.155976000713444 ], [ -83.441143990781597, 35.156927000338882 ], [ -83.441626991070848, 35.159902000528994 ], [ -83.438397990715657, 35.160434999957104 ], [ -83.436026991572319, 35.16357300022058 ], [ -83.432515990901805, 35.164904000098652 ], [ -83.428951991301872, 35.162531000240349 ], [ -83.426381991230556, 35.161958000143159 ], [ -83.423484991767197, 35.155749000088846 ], [ -83.420750991303166, 35.154427000129438 ], [ -83.418804990758787, 35.15521500032078 ], [ -83.416892991687462, 35.154100000407936 ], [ -83.416062991079798, 35.154666000652163 ], [ -83.414519991725257, 35.153554000725421 ], [ -83.411057991405897, 35.153403999891374 ], [ -83.409681991248846, 35.155892000471042 ], [ -83.40926299103009, 35.159666000048269 ], [ -83.406666991277291, 35.159716000120156 ], [ -83.406177991019703, 35.161508999982978 ], [ -83.405276991432601, 35.161728000747267 ], [ -83.403142990975525, 35.160963000296348 ], [ -83.400033991354519, 35.158249000433671 ], [ -83.396550990767579, 35.159363000033863 ], [ -83.389877990895215, 35.158211000274903 ], [ -83.389746991158148, 35.156710000646683 ], [ -83.388155991716587, 35.155546000155773 ], [ -83.38700099174342, 35.156007999925784 ], [ -83.386446991185295, 35.160870000314837 ], [ -83.385695991064438, 35.161602000259606 ], [ -83.384528991742172, 35.160856999934097 ], [ -83.385334991430511, 35.158963000702357 ], [ -83.383457991585445, 35.154086000403744 ], [ -83.381695991277368, 35.153846000334809 ], [ -83.382165991345119, 35.155707000567936 ], [ -83.38038299138384, 35.156096000310782 ], [ -83.379093990987556, 35.149243000327026 ], [ -83.378170991386312, 35.148797000005665 ], [ -83.375608990908177, 35.150218000030051 ], [ -83.37381099170716, 35.148530999911316 ], [ -83.37430899178004, 35.146298999960123 ], [ -83.376663991300049, 35.145190000507739 ], [ -83.376651991596916, 35.141629999859227 ], [ -83.377781991302484, 35.139874000660797 ], [ -83.377355991156165, 35.135711000728804 ], [ -83.378002990985564, 35.133760000497723 ], [ -83.377405990793733, 35.131844000736798 ], [ -83.379196990725845, 35.130064000472728 ], [ -83.377766991018589, 35.127478000581831 ], [ -83.379400991350494, 35.126339000338881 ], [ -83.379225991642258, 35.124759000109826 ], [ -83.377194991317879, 35.124344000549542 ], [ -83.374494990965744, 35.125918000695656 ], [ -83.373731991478806, 35.122367000552927 ], [ -83.375310991752428, 35.120631000446238 ], [ -83.378213991100083, 35.11990699996251 ], [ -83.376350991560429, 35.115741000379742 ], [ -83.38126099168187, 35.109356000363078 ], [ -83.383034991726817, 35.107059000666766 ], [ -83.382887991070675, 35.105367000480292 ], [ -83.384440991402499, 35.104204000490974 ], [ -83.389211991060364, 35.104583000529551 ], [ -83.398486991667809, 35.100908000685862 ], [ -83.399929991009571, 35.102149000540642 ], [ -83.404773990774515, 35.102862000705983 ], [ -83.404674990988241, 35.104926000741308 ], [ -83.410851991641977, 35.104351000183861 ], [ -83.413848991508999, 35.102497999940034 ], [ -83.416536991669815, 35.101882000460243 ], [ -83.420530991036486, 35.092847999892712 ], [ -83.420832991198026, 35.088679000034759 ], [ -83.427609990842257, 35.088757000539601 ], [ -83.427758991563294, 35.090119000233329 ], [ -83.433681991820052, 35.090604000644042 ], [ -83.433799990863406, 35.089389000566719 ], [ -83.437872991104513, 35.092035000197548 ], [ -83.442029990786068, 35.091781000200193 ], [ -83.445739991143739, 35.093870000041356 ] ] ] } },
{ "type": "Feature", "properties": { "county": "MACON", "precinct": "6", "enr_desc": "Millshoal", "winner": "Brent Holbrooks", "winner_votes": 384, "winner_share": 69.314079422382662, "runner_up": "Bob Cook", "runner_up_votes": 170, "runner_up_share": 30.685920577617328, "contest_votes": 554, "margin_of_victory": 38.628158844765338, "is_tie": false, "results": [ { "candidate": "Brent Holbrooks", "votes": 384, "share": 69.31407942238266 }, { "candidate": "Bob Cook", "votes": 170, "share": 30.685920577617328 } ], "participated": true, "map_key": "MACON_6" }, "geometry": { "type": "Polygon", "coordinates": [ [ [ -83.222836990973377, 35.192415000245987 ], [ -83.232857991570498, 35.191355999906897 ], [ -83.233999991132308, 35.19293000058375 ], [ -83.237315991355331, 35.191611000282322 ], [ -83.236238991101175, 35.192745000137378 ], [ -83.237430991130708, 35.193457000500921 ], [ -83.237009990954959, 35.196689000431689 ], [ -83.238632990897273, 35.197881000163584 ], [ -83.239547991739101, 35.196748000703721 ], [ -83.243914991296464, 35.196784000263825 ], [ -83.241219990786448, 35.199125000121441 ], [ -83.247173991134005, 35.203696000515947 ], [ -83.252459991638332, 35.212683000111184 ], [ -83.254310991730904, 35.210785000299914 ], [ -83.260040990804242, 35.207970000324693 ], [ -83.261693991759486, 35.211394000332952 ], [ -83.262400990691972, 35.216460999956134 ], [ -83.265208991250162, 35.217083000106463 ], [ -83.267521991760276, 35.215688000129788 ], [ -83.271878990973846, 35.215919000744648 ], [ -83.276027990886362, 35.208247000731411 ], [ -83.278896991370004, 35.209448999992283 ], [ -83.282743991434344, 35.208235999869672 ], [ -83.286052991268718, 35.208375000053003 ], [ -83.288818991508066, 35.210377000353951 ], [ -83.289680991694198, 35.213540000380156 ], [ -83.291200991789651, 35.211979000225128 ], [ -83.295778991519597, 35.211356000265511 ], [ -83.297594990969657, 35.209771000178172 ], [ -83.298865991615003, 35.210061000508077 ], [ -83.299955991377388, 35.207802000422845 ], [ -83.303936991021573, 35.206905000267987 ], [ -83.305979991551283, 35.204804000656075 ], [ -83.304669990838519, 35.20156700042714 ], [ -83.304787990858671, 35.199396000552753 ], [ -83.306796991057752, 35.193850000174919 ], [ -83.308459991794166, 35.192260000578827 ], [ -83.307879991304716, 35.189054000443846 ], [ -83.314004991589727, 35.186557000588977 ], [ -83.315189991273428, 35.184492999991804 ], [ -83.317939991399328, 35.183345000434187 ], [ -83.317416990970003, 35.181813000201686 ], [ -83.325287991126146, 35.181915000018975 ], [ -83.327136990907931, 35.183279000692309 ], [ -83.327548991393598, 35.185623000062421 ], [ -83.32840399074594, 35.185844000222616 ], [ -83.33234899106715, 35.185834000034177 ], [ -83.332364991441665, 35.18525099993083 ], [ -83.334386990873469, 35.185412999940631 ], [ -83.338837990930486, 35.183758000212201 ], [ -83.339889990887826, 35.184148999971868 ], [ -83.339745991292034, 35.185571000188908 ], [ -83.343567991207451, 35.186862000067961 ], [ -83.346022991309681, 35.186322000643266 ], [ -83.345823990714379, 35.185247999992797 ], [ -83.346905991478792, 35.184229000656245 ], [ -83.348667991449005, 35.184424000339632 ], [ -83.350353991122461, 35.188853999868783 ], [ -83.350052991151514, 35.19219600036125 ], [ -83.351993991067587, 35.194651000347015 ], [ -83.352032991412997, 35.197497000105592 ], [ -83.350682991119712, 35.198691999879223 ], [ -83.35690099175909, 35.199837000097958 ], [ -83.356780991060887, 35.200867000633409 ], [ -83.362866990959432, 35.201254000498899 ], [ -83.364664991198367, 35.203320000307357 ], [ -83.364208990966759, 35.206232999956143 ], [ -83.36492299081705, 35.208659000181207 ], [ -83.362519991645115, 35.208517000222486 ], [ -83.36410299120115, 35.210445000746994 ], [ -83.366103990707074, 35.210515000322587 ], [ -83.368412991525616, 35.214013000731399 ], [ -83.36716499122933, 35.215194000050744 ], [ -83.366895991524231, 35.217067000684025 ], [ -83.370349990720982, 35.218141000323492 ], [ -83.373053991476496, 35.221544000259236 ], [ -83.374830990910795, 35.221047000563701 ], [ -83.376400991166378, 35.216828000188791 ], [ -83.379109991785086, 35.217465000499352 ], [ -83.379325990907759, 35.218441000150371 ], [ -83.376795991292823, 35.223243000325617 ], [ -83.377375990970194, 35.224651000577133 ], [ -83.378765991723682, 35.225369000293803 ], [ -83.377995991441381, 35.233373000475289 ], [ -83.379795991001828, 35.233421999958004 ], [ -83.379791991456358, 35.234973000037058 ], [ -83.377148991633561, 35.236128000076292 ], [ -83.377751990793172, 35.237393000210176 ], [ -83.377229991438398, 35.244795000618517 ], [ -83.375380990736531, 35.244406000649811 ], [ -83.374461990685646, 35.24715999997575 ], [ -83.369946991462513, 35.248554000287271 ], [ -83.367856991437094, 35.250378000571068 ], [ -83.365706991485595, 35.249512000616555 ], [ -83.363758991286318, 35.250871000573063 ], [ -83.363573990710677, 35.252403000087611 ], [ -83.362537990767507, 35.252172000514122 ], [ -83.359787991548615, 35.25392100057865 ], [ -83.354774991542726, 35.252421000031667 ], [ -83.352472991293411, 35.253061000377393 ], [ -83.352720991348505, 35.252478000527113 ], [ -83.351431991323111, 35.252262999903181 ], [ -83.351337991498085, 35.251251000024503 ], [ -83.339347991510039, 35.250847000071722 ], [ -83.338676991452132, 35.25647400026638 ], [ -83.337259991183913, 35.256929000637172 ], [ -83.335795991551848, 35.259853000357857 ], [ -83.331809991605027, 35.259249999988086 ], [ -83.329637991662594, 35.257926000085654 ], [ -83.323840990852005, 35.258531000221744 ], [ -83.323981991498954, 35.262417000440529 ], [ -83.314900991503535, 35.268047000215923 ], [ -83.315929990724072, 35.264796000372151 ], [ -83.310019991262507, 35.264119000047472 ], [ -83.310077990977589, 35.261298000347232 ], [ -83.310951991728246, 35.259497000077467 ], [ -83.308510991040279, 35.257290000384053 ], [ -83.298308991153363, 35.255652000003167 ], [ -83.296203990951767, 35.252169000174383 ], [ -83.295446990724429, 35.247867000438546 ], [ -83.296805991069022, 35.242555000750599 ], [ -83.29434399078616, 35.241443999943982 ], [ -83.294015991427699, 35.236074000401786 ], [ -83.289096991756722, 35.232853000613119 ], [ -83.284438991389109, 35.231902000588271 ], [ -83.282419991245774, 35.22913200048152 ], [ -83.276954991015657, 35.22804500057746 ], [ -83.27222799165807, 35.228285000675541 ], [ -83.269157991568747, 35.228725000148351 ], [ -83.268105990749703, 35.229772000631982 ], [ -83.257128991292902, 35.231502999988962 ], [ -83.25136099171624, 35.23134400037236 ], [ -83.248511991084854, 35.232140000271137 ], [ -83.245450991539713, 35.231328000002392 ], [ -83.244948991272622, 35.234294000291136 ], [ -83.242657991705642, 35.237286000347254 ], [ -83.243068991727242, 35.239114000482928 ], [ -83.232807991228654, 35.240152000026782 ], [ -83.227370991346433, 35.238664999856006 ], [ -83.224331991697056, 35.238644999935289 ], [ -83.221446990760725, 35.228900000098847 ], [ -83.219324990923567, 35.227252999995322 ], [ -83.216644991723598, 35.223284000463082 ], [ -83.218465990724823, 35.221176999977253 ], [ -83.218391991177299, 35.217045000021493 ], [ -83.217508991080678, 35.214417999969555 ], [ -83.216040991240703, 35.213163000562325 ], [ -83.216286991543981, 35.208602000313533 ], [ -83.21938699090714, 35.206273000765805 ], [ -83.21947899120407, 35.201151000235754 ], [ -83.217654990927826, 35.200016000207867 ], [ -83.217856990993525, 35.198548000563321 ], [ -83.219236991439573, 35.197245999873417 ], [ -83.218522991248733, 35.193617000227533 ], [ -83.221692991140415, 35.19331000069154 ], [ -83.222836990973377, 35.192415000245987 ] ] ] } },
{ "type": "Feature", "properties": { "county": "MACON", "precinct": "7", "enr_desc": "Ellijay", "winner": "Brent Holbrooks", "winner_votes": 364, "winner_share": 71.512770137524555, "runner_up": "Bob Cook", "runner_up_votes": 145, "runner_up_share": 28.487229862475445, "contest_votes": 509, "margin_of_victory": 43.02554027504911, "is_tie": false, "results": [ { "candidate": "Brent Holbrooks", "votes": 364, "share": 71.51277013752456 }, { "candidate": "Bob Cook", "votes": 145, "share": 28.487229862475445 } ], "participated": true, "map_key": "MACON_7" }, "geometry": { "type": "Polygon", "coordinates": [ [ [ -83.325437991631418, 35.11035300042456 ], [ -83.332023991146343, 35.118433000061771 ], [ -83.333659991090116, 35.123211000102877 ], [ -83.336012991089902, 35.123439000198694 ], [ -83.337668991643469, 35.124877000031148 ], [ -83.337391991519695, 35.13316000043212 ], [ -83.341191991405523, 35.136900000524854 ], [ -83.342243990984699, 35.140853999885046 ], [ -83.341215991679391, 35.143860999925927 ], [ -83.341176990918171, 35.147483000469933 ], [ -83.344816990732525, 35.153293999889904 ], [ -83.344465991164313, 35.154227000396588 ], [ -83.346507991480607, 35.158715000300617 ], [ -83.346523991195284, 35.160638000292721 ], [ -83.349826991716853, 35.161462000480519 ], [ -83.351720991097054, 35.162855000478331 ], [ -83.352234990921929, 35.16345400038815 ], [ -83.350166991645523, 35.165154000721074 ], [ -83.352323991795814, 35.169943000344787 ], [ -83.354959991095384, 35.169688000226323 ], [ -83.355369991498961, 35.170759000543796 ], [ -83.352591991559834, 35.170773000280612 ], [ -83.352081991561931, 35.174660000040291 ], [ -83.352678990924971, 35.175561000670953 ], [ -83.351704991081164, 35.175604000745764 ], [ -83.351770991069415, 35.177334999910251 ], [ -83.350491991407736, 35.17752100035262 ], [ -83.35027499141593, 35.179229000013592 ], [ -83.348834991787513, 35.179486000716622 ], [ -83.34839199076994, 35.18318500044105 ], [ -83.347572990704691, 35.18318100035826 ], [ -83.348667991449005, 35.184424000339632 ], [ -83.346905991478792, 35.184229000656245 ], [ -83.345823990714379, 35.185247999992797 ], [ -83.346022991309681, 35.186322000643266 ], [ -83.343567991207451, 35.186862000067961 ], [ -83.339745991292034, 35.185571000188908 ], [ -83.339889990887826, 35.184148999971868 ], [ -83.338837990930486, 35.183758000212201 ], [ -83.334386990873469, 35.185412999940631 ], [ -83.332364991441665, 35.18525099993083 ], [ -83.33234899106715, 35.185834000034177 ], [ -83.32840399074594, 35.185844000222616 ], [ -83.327548991393598, 35.185623000062421 ], [ -83.327136990907931, 35.183279000692309 ], [ -83.325287991126146, 35.181915000018975 ], [ -83.317416990970003, 35.181813000201686 ], [ -83.317939991399328, 35.183345000434187 ], [ -83.315189991273428, 35.184492999991804 ], [ -83.314004991589727, 35.186557000588977 ], [ -83.307879991304716, 35.189054000443846 ], [ -83.308459991794166, 35.192260000578827 ], [ -83.306796991057752, 35.193850000174919 ], [ -83.304787990858671, 35.199396000552753 ], [ -83.304669990838519, 35.20156700042714 ], [ -83.305979991551283, 35.204804000656075 ], [ -83.303936991021573, 35.206905000267987 ], [ -83.299955991377388, 35.207802000422845 ], [ -83.298865991615003, 35.210061000508077 ], [ -83.297594990969657, 35.209771000178172 ], [ -83.295778991519597, 35.211356000265511 ], [ -83.291200991789651, 35.211979000225128 ], [ -83.289680991694198, 35.213540000380156 ], [ -83.288818991508066, 35.210377000353951 ], [ -83.286052991268718, 35.208375000053003 ], [ -83.282743991434344, 35.208235999869672 ], [ -83.278896991370004, 35.209448999992283 ], [ -83.276027990886362, 35.208247000731411 ], [ -83.271878990973846, 35.215919000744648 ], [ -83.267521991760276, 35.215688000129788 ], [ -83.265208991250162, 35.217083000106463 ], [ -83.262400990691972, 35.216460999956134 ], [ -83.261693991759486, 35.211394000332952 ], [ -83.260040990804242, 35.207970000324693 ], [ -83.254310991730904, 35.210785000299914 ], [ -83.252459991638332, 35.212683000111184 ], [ -83.247173991134005, 35.203696000515947 ], [ -83.241219990786448, 35.199125000121441 ], [ -83.243914991296464, 35.196784000263825 ], [ -83.239547991739101, 35.196748000703721 ], [ -83.238632990897273, 35.197881000163584 ], [ -83.237009990954959, 35.196689000431689 ], [ -83.237430991130708, 35.193457000500921 ], [ -83.236238991101175, 35.192745000137378 ], [ -83.237315991355331, 35.191611000282322 ], [ -83.233999991132308, 35.19293000058375 ], [ -83.232857991570498, 35.191355999906897 ], [ -83.222836990973377, 35.192415000245987 ], [ -83.224483991124885, 35.188210000452443 ], [ -83.223898991471444, 35.180540000306543 ], [ -83.225343991405893, 35.176990000031957 ], [ -83.224298991515823, 35.175843000145939 ], [ -83.233183991791591, 35.178733000439202 ], [ -83.235506991089181, 35.177442000030275 ], [ -83.236644991426147, 35.177829999883642 ], [ -83.240935991242793, 35.174045000277637 ], [ -83.243923991605527, 35.173765000063526 ], [ -83.249538990918879, 35.175974999944906 ], [ -83.251685991800585, 35.174293000711508 ], [ -83.253407991091265, 35.171300000285328 ], [ -83.254988991302994, 35.17048499991332 ], [ -83.259738991717668, 35.171109999901873 ], [ -83.262406991656832, 35.173166999982165 ], [ -83.26623699145037, 35.170990000630006 ], [ -83.268368991777265, 35.170917000538459 ], [ -83.268245990961859, 35.165641000209156 ], [ -83.270005991606169, 35.164011000338377 ], [ -83.268239990918502, 35.161952000078522 ], [ -83.268501991350519, 35.160572000448511 ], [ -83.272370991016956, 35.162652000744238 ], [ -83.271971990990451, 35.159943000202325 ], [ -83.272835990702191, 35.159814000191197 ], [ -83.272543991750396, 35.153818999885921 ], [ -83.273325991406296, 35.153796000313662 ], [ -83.270496991601604, 35.152711000386205 ], [ -83.270826991412832, 35.152098000164607 ], [ -83.275613991413266, 35.152423999938769 ], [ -83.27707199091823, 35.149819999944569 ], [ -83.279217990924238, 35.149640999961449 ], [ -83.285462991577063, 35.146387000169646 ], [ -83.288296991213016, 35.141476000052315 ], [ -83.287201990932502, 35.140522000550483 ], [ -83.288343991725952, 35.138709000452195 ], [ -83.29058999170195, 35.13884999986486 ], [ -83.291131991351222, 35.138160000295422 ], [ -83.291316990776437, 35.136919000397413 ], [ -83.289509991168273, 35.135565999996061 ], [ -83.290831991710647, 35.134696000298163 ], [ -83.291886991704104, 35.130189000179243 ], [ -83.296687991002031, 35.128211000145583 ], [ -83.300322991535168, 35.129928000197211 ], [ -83.303088991145046, 35.129925000080362 ], [ -83.303909990805423, 35.127595000074095 ], [ -83.301357991710574, 35.127377000463561 ], [ -83.302811991078713, 35.125203000106715 ], [ -83.304534991191403, 35.12520200024349 ], [ -83.307377991338996, 35.11741700060248 ], [ -83.309957991700301, 35.118886000285229 ], [ -83.31588399129086, 35.11483200039649 ], [ -83.320487991756124, 35.110424000197142 ], [ -83.323005991130515, 35.109766000648321 ], [ -83.325437991631418, 35.11035300042456 ] ] ] } },
{ "type": "Feature", "properties": { "county": "MACON", "precinct": "8", "enr_desc": "Sugarfork", "winner": "Brent Holbrooks", "winner_votes": 95, "winner_share": 81.196581196581192, "runner_up": "Bob Cook", "runner_up_votes": 22, "runner_up_share": 18.803418803418804, "contest_votes": 117, "margin_of_victory": 62.393162393162385, "is_tie": false, "results": [ { "candidate": "Brent Holbrooks", "votes": 95, "share": 81.19658119658119 }, { "candidate": "Bob Cook", "votes": 22, "share": 18.803418803418804 } ], "participated": true, "map_key": "MACON_8" }, "geometry": { "type": "Polygon", "coordinates": [ [ [ -83.283975990818689, 35.071464000263795 ], [ -83.286759991394376, 35.075295000207014 ], [ -83.292890990738869, 35.078831000414823 ], [ -83.298118991020843, 35.084936000597892 ], [ -83.304385991740816, 35.085723000375708 ], [ -83.306019991369979, 35.091446000365139 ], [ -83.308968991049355, 35.096468000368432 ], [ -83.311624991280127, 35.097755000694441 ], [ -83.313004990866474, 35.099790000300537 ], [ -83.316013990999409, 35.101529000234002 ], [ -83.320649990856083, 35.102929999967337 ], [ -83.32090399087329, 35.105334000177251 ], [ -83.325437991631418, 35.11035300042456 ], [ -83.323005991130515, 35.109766000648321 ], [ -83.320487991756124, 35.110424000197142 ], [ -83.31588399129086, 35.11483200039649 ], [ -83.309957991700301, 35.118886000285229 ], [ -83.307377991338996, 35.11741700060248 ], [ -83.304534991191403, 35.12520200024349 ], [ -83.302811991078713, 35.125203000106715 ], [ -83.301357991710574, 35.127377000463561 ], [ -83.303909990805423, 35.127595000074095 ], [ -83.303088991145046, 35.129925000080362 ], [ -83.300322991535168, 35.129928000197211 ], [ -83.296687991002031, 35.128211000145583 ], [ -83.291886991704104, 35.130189000179243 ], [ -83.290831991710647, 35.134696000298163 ], [ -83.289509991168273, 35.135565999996061 ], [ -83.291316990776437, 35.136919000397413 ], [ -83.291131991351222, 35.138160000295422 ], [ -83.29058999170195, 35.13884999986486 ], [ -83.288343991725952, 35.138709000452195 ], [ -83.287201990932502, 35.140522000550483 ], [ -83.288296991213016, 35.141476000052315 ], [ -83.285462991577063, 35.146387000169646 ], [ -83.279217990924238, 35.149640999961449 ], [ -83.27707199091823, 35.149819999944569 ], [ -83.275613991413266, 35.152423999938769 ], [ -83.270826991412832, 35.152098000164607 ], [ -83.270496991601604, 35.152711000386205 ], [ -83.273325991406296, 35.153796000313662 ], [ -83.272543991750396, 35.153818999885921 ], [ -83.272835990702191, 35.159814000191197 ], [ -83.271971990990451, 35.159943000202325 ], [ -83.272370991016956, 35.162652000744238 ], [ -83.268501991350519, 35.160572000448511 ], [ -83.268239990918502, 35.161952000078522 ], [ -83.270005991606169, 35.164011000338377 ], [ -83.268245990961859, 35.165641000209156 ], [ -83.268368991777265, 35.170917000538459 ], [ -83.26623699145037, 35.170990000630006 ], [ -83.262406991656832, 35.173166999982165 ], [ -83.259738991717668, 35.171109999901873 ], [ -83.254988991302994, 35.17048499991332 ], [ -83.253407991091265, 35.171300000285328 ], [ -83.251685991800585, 35.174293000711508 ], [ -83.249538990918879, 35.175974999944906 ], [ -83.243923991605527, 35.173765000063526 ], [ -83.240935991242793, 35.174045000277637 ], [ -83.236644991426147, 35.177829999883642 ], [ -83.235506991089181, 35.177442000030275 ], [ -83.233183991791591, 35.178733000439202 ], [ -83.224298991515823, 35.175843000145939 ], [ -83.222529990859016, 35.167826999882749 ], [ -83.223714990813988, 35.1650970002351 ], [ -83.223156990954806, 35.159601000125207 ], [ -83.22379599079018, 35.157386000414206 ], [ -83.220625991746132, 35.158858000453364 ], [ -83.213073991004578, 35.158257000079189 ], [ -83.209963990803871, 35.154520000737868 ], [ -83.209619990999613, 35.150588000207009 ], [ -83.206653991436497, 35.149734000601534 ], [ -83.206245991721488, 35.148266000660186 ], [ -83.204016990788858, 35.146024000559379 ], [ -83.201354991172508, 35.145668000516146 ], [ -83.196761991518983, 35.141464000472986 ], [ -83.194402990884612, 35.140526000296738 ], [ -83.190694991728577, 35.135503000611159 ], [ -83.196227991112906, 35.133403000080932 ], [ -83.203233991161795, 35.128766000085484 ], [ -83.212265990785923, 35.118643000767555 ], [ -83.21147999101143, 35.111436000000481 ], [ -83.207904991416669, 35.11043400025742 ], [ -83.208005991321969, 35.107281000342823 ], [ -83.202583991457175, 35.104831000219619 ], [ -83.205750991379333, 35.104188000717471 ], [ -83.206480991729933, 35.102054000277008 ], [ -83.208423991739664, 35.101076000727737 ], [ -83.207916990909908, 35.09858000043905 ], [ -83.210874991042971, 35.096342000651056 ], [ -83.212635991524223, 35.095388000396504 ], [ -83.213778991036975, 35.0958670004133 ], [ -83.217949990701626, 35.099588999959586 ], [ -83.22318999099744, 35.097017000720392 ], [ -83.231270991688604, 35.097200999988154 ], [ -83.232402991365987, 35.098435000009424 ], [ -83.233172990918433, 35.102196000525844 ], [ -83.233924990746502, 35.101735000248262 ], [ -83.235804991569026, 35.102381000278129 ], [ -83.236150990922042, 35.10441800021384 ], [ -83.237812991466242, 35.10443000037467 ], [ -83.241525990744535, 35.100707999887028 ], [ -83.240906991005701, 35.099004000729686 ], [ -83.241456991528665, 35.09793499986943 ], [ -83.245000990839259, 35.096071000702722 ], [ -83.247244991321736, 35.092480000255385 ], [ -83.245053991022871, 35.090978000572193 ], [ -83.246499991504109, 35.087301999856116 ], [ -83.24803899157223, 35.086053000199946 ], [ -83.251345991033304, 35.085445000505359 ], [ -83.254172991662998, 35.08747799985882 ], [ -83.256890991665472, 35.080186999967552 ], [ -83.26225899177382, 35.078357000550199 ], [ -83.27233799137349, 35.077942000653159 ], [ -83.281087991013877, 35.071815000637521 ], [ -83.283975990818689, 35.071464000263795 ] ] ] } },
{ "type": "Feature", "properties": { "county": "MACON", "precinct": "9", "enr_desc": "Highlands", "winner": "Brent Holbrooks", "winner_votes": 333, "winner_share": 62.593984962406012, "runner_up": "Bob Cook", "runner_up_votes": 199, "runner_up_share": 37.406015037593988, "contest_votes": 532, "margin_of_victory": 25.187969924812023, "is_tie": false, "results": [ { "candidate": "Brent Holbrooks", "votes": 333, "share": 62.59398496240601 }, { "candidate": "Bob Cook", "votes": 199, "share": 37.40601503759399 } ], "participated": true, "map_key": "MACON_9" }, "geometry": { "type": "Polygon", "coordinates": [ [ [ -83.288934991230988, 34.996612000406401 ], [ -83.288519990740099, 35.003775000263857 ], [ -83.286257991692679, 35.005933000201502 ], [ -83.285394991787697, 35.02041399996024 ], [ -83.285990991777609, 35.034746000546015 ], [ -83.287621991153344, 35.036373000162314 ], [ -83.287897991527913, 35.03775699993286 ], [ -83.28285099111514, 35.046645000207192 ], [ -83.283554990930924, 35.049371000694578 ], [ -83.28744699167386, 35.052636999902859 ], [ -83.288823991832558, 35.055642000708609 ], [ -83.28919799174362, 35.056276000190806 ], [ -83.287858991440629, 35.057161999955618 ], [ -83.289054990771689, 35.057282000702514 ], [ -83.288044991177415, 35.058979000759038 ], [ -83.286442990841522, 35.059341000709395 ], [ -83.285945990765313, 35.064326000059175 ], [ -83.281883991153236, 35.066495999941502 ], [ -83.282218990833371, 35.070272000356788 ], [ -83.283975990818689, 35.071464000263795 ], [ -83.281087991013877, 35.071815000637521 ], [ -83.27233799137349, 35.077942000653159 ], [ -83.26225899177382, 35.078357000550199 ], [ -83.256890991665472, 35.080186999967552 ], [ -83.254172991662998, 35.08747799985882 ], [ -83.251345991033304, 35.085445000505359 ], [ -83.24803899157223, 35.086053000199946 ], [ -83.246499991504109, 35.087301999856116 ], [ -83.245053991022871, 35.090978000572193 ], [ -83.247244991321736, 35.092480000255385 ], [ -83.245000990839259, 35.096071000702722 ], [ -83.241456991528665, 35.09793499986943 ], [ -83.240906991005701, 35.099004000729686 ], [ -83.241525990744535, 35.100707999887028 ], [ -83.237812991466242, 35.10443000037467 ], [ -83.236150990922042, 35.10441800021384 ], [ -83.235804991569026, 35.102381000278129 ], [ -83.233924990746502, 35.101735000248262 ], [ -83.233172990918433, 35.102196000525844 ], [ -83.232402991365987, 35.098435000009424 ], [ -83.231270991688604, 35.097200999988154 ], [ -83.22318999099744, 35.097017000720392 ], [ -83.217949990701626, 35.099588999959586 ], [ -83.213778991036975, 35.0958670004133 ], [ -83.212635991524223, 35.095388000396504 ], [ -83.210874991042971, 35.096342000651056 ], [ -83.207916990909908, 35.09858000043905 ], [ -83.208423991739664, 35.101076000727737 ], [ -83.206480991729933, 35.102054000277008 ], [ -83.205750991379333, 35.104188000717471 ], [ -83.202583991457175, 35.104831000219619 ], [ -83.208005991321969, 35.107281000342823 ], [ -83.207904991416669, 35.11043400025742 ], [ -83.21147999101143, 35.111436000000481 ], [ -83.212265990785923, 35.118643000767555 ], [ -83.203233991161795, 35.128766000085484 ], [ -83.196227991112906, 35.133403000080932 ], [ -83.190694991728577, 35.135503000611159 ], [ -83.188898991614366, 35.1351840004371 ], [ -83.186571991608176, 35.133275000341321 ], [ -83.186060991691463, 35.128401000336993 ], [ -83.183865990971057, 35.127323000583452 ], [ -83.182935991141221, 35.125046000136429 ], [ -83.183027991727016, 35.1189350003201 ], [ -83.181423991591956, 35.117175000043517 ], [ -83.178970990921641, 35.116181000411203 ], [ -83.177555990869067, 35.10890000048353 ], [ -83.173649991030615, 35.107167000255792 ], [ -83.172023990754141, 35.105040000323214 ], [ -83.166955991530813, 35.104625999963453 ], [ -83.159748991714338, 35.097890999970893 ], [ -83.155002991678074, 35.099160000672001 ], [ -83.151644991196832, 35.098679000231414 ], [ -83.150893991751445, 35.097628000043166 ], [ -83.151074991553102, 35.096044000249925 ], [ -83.149474990797984, 35.09545299999607 ], [ -83.147073991802344, 35.092508000474965 ], [ -83.147562991340635, 35.088688000620031 ], [ -83.146471991755973, 35.085992000241831 ], [ -83.144981991343215, 35.085083000677336 ], [ -83.143341991017564, 35.078921000258937 ], [ -83.143477991671404, 35.077877000073016 ], [ -83.148756991537638, 35.07861499987736 ], [ -83.1553669916795, 35.077808000215953 ], [ -83.157576991443179, 35.078354000403074 ], [ -83.158257991776921, 35.077553000258028 ], [ -83.15811299091979, 35.075041000446809 ], [ -83.16693699172265, 35.070192000309099 ], [ -83.171934991269424, 35.069238000547259 ], [ -83.171813991156469, 35.065490000607795 ], [ -83.169426991747429, 35.063757999846771 ], [ -83.169423991723505, 35.061540000101616 ], [ -83.171211991627885, 35.060516000082551 ], [ -83.163886991593472, 35.05665800013891 ], [ -83.155260991259681, 35.05646299990611 ], [ -83.148473991031096, 35.053882000086304 ], [ -83.141892990954389, 35.045443999878934 ], [ -83.139951991180524, 35.044494000690534 ], [ -83.139572990786476, 35.041893000247228 ], [ -83.136190990773088, 35.038527000131147 ], [ -83.131121991440097, 35.039260999975141 ], [ -83.130876991384682, 35.036799000609747 ], [ -83.132816991593373, 35.033959000102058 ], [ -83.130933990915167, 35.031425000748477 ], [ -83.131191991105453, 35.029462000204475 ], [ -83.130166990771315, 35.026367000575441 ], [ -83.12621499168263, 35.022813000666808 ], [ -83.126866990797382, 35.02061799991683 ], [ -83.125680991759424, 35.018433000324279 ], [ -83.126345991247916, 35.015796000635234 ], [ -83.119663991017816, 35.013448000065154 ], [ -83.117286991716142, 35.011695000485226 ], [ -83.114571991658195, 35.013367000424509 ], [ -83.112625991386324, 35.01321900069663 ], [ -83.111641991383436, 35.010921999927305 ], [ -83.108568991674886, 35.009560000565031 ], [ -83.108396991022587, 35.004473000451057 ], [ -83.109664990917608, 35.002927000670859 ], [ -83.108612991216745, 35.000659000280116 ], [ -83.110609991235464, 35.001303000433843 ], [ -83.288934991230988, 34.996612000406401 ] ] ] } },
{ "type": "Feature", "properties": { "county": "MACON", "precinct": "10", "enr_desc": "Flats", "winner": "Brent Holbrooks", "winner_votes": 48, "winner_share": 60.75949367088608, "runner_up": "Bob Cook", "runner_up_votes": 31, "runner_up_share": 39.24050632911392, "contest_votes": 79, "margin_of_victory": 21.51898734177216, "is_tie": false, "results": [ { "candidate": "Brent Holbrooks", "votes": 48, "share": 60.75949367088608 }, { "candidate": "Bob Cook", "votes": 31, "share": 39.24050632911392 } ], "participated": true, "map_key": "MACON_10" }, "geometry": { "type": "Polygon", "coordinates": [ [ [ -83.367757991166442, 34.995139000640741 ], [ -83.367600990815134, 35.001844000529957 ], [ -83.359775990895585, 35.006885000671076 ], [ -83.356653990834175, 35.012498000223211 ], [ -83.357641991647625, 35.015914000193483 ], [ -83.355873991118571, 35.01708799994887 ], [ -83.351861991554514, 35.016999000613062 ], [ -83.343125991397599, 35.030240999870479 ], [ -83.339504990959597, 35.03310000035011 ], [ -83.339307991137829, 35.035787000439953 ], [ -83.337234991675402, 35.040066999951854 ], [ -83.33708199104187, 35.047096000186237 ], [ -83.331532991516468, 35.049814000488169 ], [ -83.332453991073052, 35.053964999991983 ], [ -83.318193990985989, 35.05373299997413 ], [ -83.317469991685797, 35.052956000190697 ], [ -83.314189991371592, 35.052550000164253 ], [ -83.313421991298497, 35.057305000076049 ], [ -83.304821991413789, 35.058226000323074 ], [ -83.305063991443305, 35.056686000022317 ], [ -83.302891991706474, 35.055841000238949 ], [ -83.288823991832558, 35.055642000708609 ], [ -83.28744699167386, 35.052636999902859 ], [ -83.283554990930924, 35.049371000694578 ], [ -83.28285099111514, 35.046645000207192 ], [ -83.287897991527913, 35.03775699993286 ], [ -83.287621991153344, 35.036373000162314 ], [ -83.285990991777609, 35.034746000546015 ], [ -83.285394991787697, 35.02041399996024 ], [ -83.286257991692679, 35.005933000201502 ], [ -83.288519990740099, 35.003775000263857 ], [ -83.288934991230988, 34.996612000406401 ], [ -83.367757991166442, 34.995139000640741 ] ] ] } },
{ "type": "Feature", "properties": { "county": "MACON", "precinct": "11", "enr_desc": "Smithbridge", "winner": "Brent Holbrooks", "winner_votes": 436, "winner_share": 62.733812949640289, "runner_up": "Bob Cook", "runner_up_votes": 259, "runner_up_share": 37.266187050359711, "contest_votes": 695, "margin_of_victory": 25.467625899280577, "is_tie": false, "results": [ { "candidate": "Brent Holbrooks", "votes": 436, "share": 62.73381294964029 }, { "candidate": "Bob Cook", "votes": 259, "share": 37.26618705035971 } ], "participated": true, "map_key": "MACON_11" }, "geometry": { "type": "Polygon", "coordinates": [ [ [ -83.367757991166442, 34.995139000640741 ], [ -83.48294899115669, 34.993301000411535 ], [ -83.486455991763961, 34.998524999867044 ], [ -83.493279991370514, 34.998889000533289 ], [ -83.498729990872988, 35.000419000707915 ], [ -83.500069990720363, 35.001609000135495 ], [ -83.504598991498824, 35.000658999883683 ], [ -83.507009990957002, 35.001654000329204 ], [ -83.508751991098194, 35.004489000425082 ], [ -83.510359990974635, 35.005155000691126 ], [ -83.514081991719749, 35.004144000114167 ], [ -83.514741991137342, 35.002847000311554 ], [ -83.516674990865852, 35.001871000429404 ], [ -83.517983991732109, 34.997417000398016 ], [ -83.52076399091338, 34.996612000271575 ], [ -83.522643991501596, 34.999433999983559 ], [ -83.52200499112719, 35.003618999900283 ], [ -83.524407991134311, 35.007471000182008 ], [ -83.527079991262752, 35.009214000727766 ], [ -83.521932990932996, 35.013234000242612 ], [ -83.521249991506551, 35.018246000561916 ], [ -83.531104990959648, 35.026222000553091 ], [ -83.536259990735005, 35.032109000139613 ], [ -83.537910990948262, 35.03527600072141 ], [ -83.534162990906836, 35.039880999923739 ], [ -83.530734990973187, 35.04156200029329 ], [ -83.529060991517895, 35.045085000050136 ], [ -83.523232991385569, 35.048192000597126 ], [ -83.522631991561013, 35.050389000358358 ], [ -83.519222991690441, 35.054704000510661 ], [ -83.516325990781681, 35.055719000396358 ], [ -83.506859991665962, 35.062832000484825 ], [ -83.503476990719662, 35.063927000218413 ], [ -83.498978991292617, 35.064025000465946 ], [ -83.496233991225992, 35.06527100059872 ], [ -83.492847991174258, 35.068282000031012 ], [ -83.491003991540367, 35.068744000142352 ], [ -83.483509991069369, 35.062737000034062 ], [ -83.479912990869394, 35.061018000407998 ], [ -83.476610991423485, 35.060504000170965 ], [ -83.471271991125434, 35.061577000678071 ], [ -83.465882990722662, 35.065327000086896 ], [ -83.46255799083427, 35.066622000649133 ], [ -83.458072991191216, 35.074744000568586 ], [ -83.450580990879629, 35.083934000112862 ], [ -83.448062991126747, 35.088189999885223 ], [ -83.448137991011407, 35.090964000135756 ], [ -83.445739991143739, 35.093870000041356 ], [ -83.442029990786068, 35.091781000200193 ], [ -83.437872991104513, 35.092035000197548 ], [ -83.433799990863406, 35.089389000566719 ], [ -83.433681991820052, 35.090604000644042 ], [ -83.427758991563294, 35.090119000233329 ], [ -83.427609990842257, 35.088757000539601 ], [ -83.420832991198026, 35.088679000034759 ], [ -83.420530991036486, 35.092847999892712 ], [ -83.416536991669815, 35.101882000460243 ], [ -83.413848991508999, 35.102497999940034 ], [ -83.410851991641977, 35.104351000183861 ], [ -83.404674990988241, 35.104926000741308 ], [ -83.404773990774515, 35.102862000705983 ], [ -83.399929991009571, 35.102149000540642 ], [ -83.398486991667809, 35.100908000685862 ], [ -83.389211991060364, 35.104583000529551 ], [ -83.384440991402499, 35.104204000490974 ], [ -83.382887991070675, 35.105367000480292 ], [ -83.383034991726817, 35.107059000666766 ], [ -83.38126099168187, 35.109356000363078 ], [ -83.374047991728304, 35.108869000323658 ], [ -83.371495991543441, 35.110030000021403 ], [ -83.371064991358907, 35.109372000331248 ], [ -83.36903899080319, 35.109365000271978 ], [ -83.364005991625675, 35.111898000252801 ], [ -83.359410991765628, 35.108392000276197 ], [ -83.356855991028311, 35.108863999953442 ], [ -83.354543991310834, 35.11029000055499 ], [ -83.351431990918286, 35.114099000374061 ], [ -83.34859799106583, 35.115197000030371 ], [ -83.34631499104259, 35.117749999931895 ], [ -83.346319991145435, 35.11908100053698 ], [ -83.343225991701715, 35.1213369999317 ], [ -83.339903991505622, 35.121650000211538 ], [ -83.337668991643469, 35.124877000031148 ], [ -83.336012991089902, 35.123439000198694 ], [ -83.333659991090116, 35.123211000102877 ], [ -83.332023991146343, 35.118433000061771 ], [ -83.325437991631418, 35.11035300042456 ], [ -83.32090399087329, 35.105334000177251 ], [ -83.320649990856083, 35.102929999967337 ], [ -83.316013990999409, 35.101529000234002 ], [ -83.313004990866474, 35.099790000300537 ], [ -83.311624991280127, 35.097755000694441 ], [ -83.308968991049355, 35.096468000368432 ], [ -83.306019991369979, 35.091446000365139 ], [ -83.304385991740816, 35.085723000375708 ], [ -83.298118991020843, 35.084936000597892 ], [ -83.292890990738869, 35.078831000414823 ], [ -83.286759991394376, 35.075295000207014 ], [ -83.283975990818689, 35.071464000263795 ], [ -83.282218990833371, 35.070272000356788 ], [ -83.281883991153236, 35.066495999941502 ], [ -83.285945990765313, 35.064326000059175 ], [ -83.286442990841522, 35.059341000709395 ], [ -83.288044991177415, 35.058979000759038 ], [ -83.289054990771689, 35.057282000702514 ], [ -83.287858991440629, 35.057161999955618 ], [ -83.28919799174362, 35.056276000190806 ], [ -83.288823991832558, 35.055642000708609 ], [ -83.302891991706474, 35.055841000238949 ], [ -83.305063991443305, 35.056686000022317 ], [ -83.304821991413789, 35.058226000323074 ], [ -83.313421991298497, 35.057305000076049 ], [ -83.314189991371592, 35.052550000164253 ], [ -83.317469991685797, 35.052956000190697 ], [ -83.318193990985989, 35.05373299997413 ], [ -83.332453991073052, 35.053964999991983 ], [ -83.331532991516468, 35.049814000488169 ], [ -83.33708199104187, 35.047096000186237 ], [ -83.337234991675402, 35.040066999951854 ], [ -83.339307991137829, 35.035787000439953 ], [ -83.339504990959597, 35.03310000035011 ], [ -83.343125991397599, 35.030240999870479 ], [ -83.351861991554514, 35.016999000613062 ], [ -83.355873991118571, 35.01708799994887 ], [ -83.357641991647625, 35.015914000193483 ], [ -83.356653990834175, 35.012498000223211 ], [ -83.359775990895585, 35.006885000671076 ], [ -83.367600990815134, 35.001844000529957 ], [ -83.367757991166442, 34.995139000640741 ] ] ] } },
{ "type": "Feature", "properties": { "county": "MACON", "precinct": "13", "enr_desc": "Nantahala", "winner": "Brent Holbrooks", "winner_votes": 115, "winner_share": 90.551181102362193, "runner_up": "Bob Cook", "runner_up_votes": 12, "runner_up_share": 9.4488188976377945, "contest_votes": 127, "margin_of_victory": 81.1023622047244, "is_tie": false, "results": [ { "candidate": "Brent Holbrooks", "votes": 115, "share": 90.5511811023622 }, { "candidate": "Bob Cook", "votes": 12, "share": 9.448818897637794 } ], "participated": true, "map_key": "MACON_13" }, "geometry": { "type": "Polygon", "coordinates": [ [ [ -83.580477991152733, 35.2914600000422 ], [ -83.581604990854714, 35.289074000670119 ], [ -83.581588991312032, 35.286401000030096 ], [ -83.583470991567779, 35.283864000377015 ], [ -83.581844991801148, 35.283020000601333 ], [ -83.58224199095558, 35.281563000726081 ], [ -83.580417990873556, 35.278895999933724 ], [ -83.576576991775212, 35.276646000132196 ], [ -83.576581990958317, 35.275030000008329 ], [ -83.57545299113012, 35.273536999958964 ], [ -83.572551991729313, 35.271393000003378 ], [ -83.572861990911463, 35.268658000161402 ], [ -83.568780990982049, 35.262208000023634 ], [ -83.569371990799269, 35.260595000012792 ], [ -83.567863991703149, 35.259212999865653 ], [ -83.567706991194498, 35.256530000726755 ], [ -83.566205991377544, 35.254495000072161 ], [ -83.566929991428438, 35.251394000543421 ], [ -83.559117991350632, 35.243304000687679 ], [ -83.55878999114438, 35.239914000253556 ], [ -83.559527991641289, 35.235844000638238 ], [ -83.557182991704437, 35.233829000091426 ], [ -83.562409991780683, 35.224042000728481 ], [ -83.559827991600272, 35.216945000435544 ], [ -83.561784991111296, 35.213898000078544 ], [ -83.567857990913311, 35.208821000240654 ], [ -83.566362990741979, 35.200581000605872 ], [ -83.563278991780948, 35.198752000568035 ], [ -83.56209099085568, 35.19703000007658 ], [ -83.563409991042633, 35.190750000598058 ], [ -83.560584990717416, 35.18466500058242 ], [ -83.562158991456016, 35.182574000449726 ], [ -83.562414991777132, 35.178779000112478 ], [ -83.568791990938706, 35.174949999942633 ], [ -83.572620991238637, 35.174478999983776 ], [ -83.574702991396933, 35.172689000180682 ], [ -83.575252991136111, 35.171065000117935 ], [ -83.577912991517294, 35.170945000680334 ], [ -83.579112990995412, 35.169285000608141 ], [ -83.576152991324136, 35.160665000288425 ], [ -83.579174991108999, 35.155195000772856 ], [ -83.577546991244461, 35.150274000219483 ], [ -83.578965990778599, 35.146304000096016 ], [ -83.586311991230943, 35.146797000210178 ], [ -83.598918991351184, 35.150559000473365 ], [ -83.605052991614144, 35.145918000253118 ], [ -83.607473990969851, 35.145861999928826 ], [ -83.609779991632621, 35.148242000398547 ], [ -83.611377990852048, 35.145684000662328 ], [ -83.615996990902687, 35.143852000463184 ], [ -83.617597991386319, 35.144050000525347 ], [ -83.620753991231936, 35.146176000294062 ], [ -83.628040990946943, 35.14803100064016 ], [ -83.631076990968722, 35.147883000644569 ], [ -83.63684799138835, 35.145170000553243 ], [ -83.636893991509538, 35.142883000010769 ], [ -83.637996991208908, 35.141860000603515 ], [ -83.640031991648925, 35.14232400034583 ], [ -83.651854991545747, 35.135546999930966 ], [ -83.654928991224338, 35.135808000415203 ], [ -83.655010991298852, 35.137518000203372 ], [ -83.657091990914196, 35.138981000185474 ], [ -83.657300991377269, 35.139950000514958 ], [ -83.649391991109482, 35.140526000401231 ], [ -83.645026990764137, 35.145215000062215 ], [ -83.649190991584547, 35.147465000013327 ], [ -83.647873990978212, 35.150213000020379 ], [ -83.648107991696151, 35.152584000310192 ], [ -83.651946991681413, 35.153899000029448 ], [ -83.65368099104731, 35.157001000068675 ], [ -83.659823991257298, 35.1603040007844 ], [ -83.660298991568609, 35.158814000747363 ], [ -83.659414991418828, 35.154489000201082 ], [ -83.665916991270706, 35.150066000210501 ], [ -83.66780299165255, 35.150471999931597 ], [ -83.66952999152403, 35.154276000776875 ], [ -83.673145991636659, 35.156970000378543 ], [ -83.676119991462798, 35.1566120000887 ], [ -83.67792499128845, 35.155552000310074 ], [ -83.680502991544415, 35.156988000186765 ], [ -83.683573991202252, 35.156930000185795 ], [ -83.684355991562043, 35.157766000733595 ], [ -83.685865991365176, 35.157063000006133 ], [ -83.687119991075519, 35.154110999915645 ], [ -83.693806990709632, 35.15611500004109 ], [ -83.698759991123211, 35.153801000071397 ], [ -83.699516991174448, 35.152463000105151 ], [ -83.704691991284676, 35.153506000662752 ], [ -83.707468991037146, 35.153102999954839 ], [ -83.710295990765559, 35.154763000350883 ], [ -83.71444199128652, 35.155283000129003 ], [ -83.720781991101347, 35.151217000194066 ], [ -83.721702991051856, 35.149480000517947 ], [ -83.726556991675693, 35.145272000226271 ], [ -83.730553991058358, 35.148001000500301 ], [ -83.735848990865662, 35.154461000226689 ], [ -83.738128991657533, 35.155950000769174 ], [ -83.737090991690593, 35.159705999979231 ], [ -83.735040990706892, 35.163404000210399 ], [ -83.733141991760618, 35.165080000674024 ], [ -83.732606990981125, 35.16915000013001 ], [ -83.730565991199086, 35.17176499995081 ], [ -83.731507990967387, 35.172241000708595 ], [ -83.732301991630194, 35.174816000046896 ], [ -83.731107991615559, 35.17683300027258 ], [ -83.731638991367717, 35.178411000256723 ], [ -83.726284991199009, 35.181593000770562 ], [ -83.725257991264115, 35.183527000172155 ], [ -83.716194991397444, 35.186471000695491 ], [ -83.712732990771599, 35.189084000528823 ], [ -83.711877991477792, 35.190354000072467 ], [ -83.712296990957739, 35.193481999958607 ], [ -83.711337991291487, 35.195658999922493 ], [ -83.716271990718951, 35.199724000326206 ], [ -83.719466991152018, 35.196752999956232 ], [ -83.72590199173311, 35.198497999976219 ], [ -83.728824991391093, 35.200862000506788 ], [ -83.725968991130642, 35.20403400026246 ], [ -83.725151991470597, 35.206497000272549 ], [ -83.72321099122496, 35.207669000361918 ], [ -83.722650990889292, 35.209758000284445 ], [ -83.719072991723777, 35.210469999909883 ], [ -83.713042991159242, 35.213180000567789 ], [ -83.71143799156178, 35.215859000164222 ], [ -83.711495991599293, 35.217379000262575 ], [ -83.709988990938896, 35.218941000377484 ], [ -83.707565991510791, 35.219212000698526 ], [ -83.698448991288359, 35.223927000483442 ], [ -83.693787991489913, 35.228718000178631 ], [ -83.693259991130404, 35.232065000469987 ], [ -83.690471990683648, 35.234813000095308 ], [ -83.69011299096077, 35.23749700063204 ], [ -83.691887990980476, 35.239913000791368 ], [ -83.691663991034773, 35.242761999903195 ], [ -83.695169991230358, 35.243777000784547 ], [ -83.697815990731996, 35.247442000251723 ], [ -83.699032990702662, 35.247086999972069 ], [ -83.702771990781372, 35.248520000544211 ], [ -83.700456991072613, 35.252334000190139 ], [ -83.694803990991247, 35.25730300002904 ], [ -83.692289991628812, 35.263283999884209 ], [ -83.690066991097524, 35.265318999918705 ], [ -83.686962991195017, 35.271163000147716 ], [ -83.684799990984814, 35.272746000694298 ], [ -83.684063991185653, 35.276355000300661 ], [ -83.68011399125983, 35.279500000306115 ], [ -83.678681991326727, 35.279109000301553 ], [ -83.672814991119381, 35.282796000326933 ], [ -83.580477991152733, 35.2914600000422 ] ] ] } },
{ "type": "Feature", "properties": { "county": "MACON", "precinct": "14", "enr_desc": "Burningtown", "winner": "Brent Holbrooks", "winner_votes": 196, "winner_share": 81.327800829875514, "runner_up": "Bob Cook", "runner_up_votes": 45, "runner_up_share": 18.672199170124482, "contest_votes": 241, "margin_of_victory": 62.655601659751028, "is_tie": false, "results": [ { "candidate": "Brent Holbrooks", "votes": 196, "share": 81.32780082987551 }, { "candidate": "Bob Cook", "votes": 45, "share": 18.672199170124482 } ], "participated": true, "map_key": "MACON_14" }, "geometry": { "type": "Polygon", "coordinates": [ [ [ -83.473782991280913, 35.197776000634256 ], [ -83.478204991013058, 35.195499000200392 ], [ -83.478947991513323, 35.194360000722575 ], [ -83.485475991145719, 35.191978000509472 ], [ -83.486331991216304, 35.186945000140071 ], [ -83.492515990917752, 35.186331000639214 ], [ -83.496766991099008, 35.186949000137595 ], [ -83.505121991387341, 35.185965000370466 ], [ -83.513222991012057, 35.188228000779176 ], [ -83.518532991520161, 35.18746800003337 ], [ -83.52756499117298, 35.190513000086206 ], [ -83.538394990778457, 35.18790100058893 ], [ -83.542300990721856, 35.184231000507808 ], [ -83.549014990801894, 35.186818000303084 ], [ -83.560584990717416, 35.18466500058242 ], [ -83.563409991042633, 35.190750000598058 ], [ -83.56209099085568, 35.19703000007658 ], [ -83.563278991780948, 35.198752000568035 ], [ -83.566362990741979, 35.200581000605872 ], [ -83.567857990913311, 35.208821000240654 ], [ -83.561784991111296, 35.213898000078544 ], [ -83.559827991600272, 35.216945000435544 ], [ -83.562409991780683, 35.224042000728481 ], [ -83.557182991704437, 35.233829000091426 ], [ -83.559527991641289, 35.235844000638238 ], [ -83.55878999114438, 35.239914000253556 ], [ -83.559117991350632, 35.243304000687679 ], [ -83.566929991428438, 35.251394000543421 ], [ -83.566205991377544, 35.254495000072161 ], [ -83.567706991194498, 35.256530000726755 ], [ -83.567863991703149, 35.259212999865653 ], [ -83.569371990799269, 35.260595000012792 ], [ -83.568780990982049, 35.262208000023634 ], [ -83.572861990911463, 35.268658000161402 ], [ -83.572551991729313, 35.271393000003378 ], [ -83.57545299113012, 35.273536999958964 ], [ -83.576581990958317, 35.275030000008329 ], [ -83.576576991775212, 35.276646000132196 ], [ -83.580417990873556, 35.278895999933724 ], [ -83.58224199095558, 35.281563000726081 ], [ -83.581844991801148, 35.283020000601333 ], [ -83.583470991567779, 35.283864000377015 ], [ -83.581588991312032, 35.286401000030096 ], [ -83.581604990854714, 35.289074000670119 ], [ -83.580477991152733, 35.2914600000422 ], [ -83.497916991620386, 35.299300999943704 ], [ -83.491159990816072, 35.291561000326183 ], [ -83.490719991773886, 35.288070000049267 ], [ -83.489664991194786, 35.286816000505119 ], [ -83.485629990844515, 35.28628000065585 ], [ -83.484254991648342, 35.288618000240838 ], [ -83.482855991063118, 35.289159000536991 ], [ -83.478927991549369, 35.288532000233637 ], [ -83.475960991337146, 35.286566000575704 ], [ -83.472721991358185, 35.286154000349619 ], [ -83.471162990807727, 35.284181000084381 ], [ -83.471938991762798, 35.281481000165371 ], [ -83.470193991278379, 35.276961000409301 ], [ -83.463030991328779, 35.272352999956205 ], [ -83.458730990715608, 35.270720000608023 ], [ -83.461426990882799, 35.267352999980055 ], [ -83.461484991177869, 35.263823000483086 ], [ -83.458292991288346, 35.262640000112398 ], [ -83.457230990971681, 35.261376999941511 ], [ -83.457471990802432, 35.258189000706722 ], [ -83.456853991765442, 35.258517000039404 ], [ -83.455671991648771, 35.254377000576703 ], [ -83.457418991252766, 35.251149999969229 ], [ -83.456553991376254, 35.251268999996171 ], [ -83.456065991074937, 35.248583000491983 ], [ -83.456877991114865, 35.247978000155946 ], [ -83.457253991159661, 35.245544000278215 ], [ -83.455360991503326, 35.238971000457219 ], [ -83.454226991374199, 35.237827000252473 ], [ -83.452138991780473, 35.239812000070501 ], [ -83.452670990885352, 35.240407000006876 ], [ -83.446860991021282, 35.2416840006331 ], [ -83.445401991459704, 35.241180000488633 ], [ -83.445156991381666, 35.234599000197314 ], [ -83.441791991419663, 35.234485999949015 ], [ -83.442007990989865, 35.231814000132374 ], [ -83.440171991631686, 35.231290000209739 ], [ -83.439796990770446, 35.227715000463647 ], [ -83.440811990821274, 35.22305900029626 ], [ -83.441466991124756, 35.222061000703782 ], [ -83.442938991710761, 35.22219100047495 ], [ -83.443142991515458, 35.220874000670527 ], [ -83.445914990995618, 35.221849000114155 ], [ -83.451983991752073, 35.22027700030781 ], [ -83.459084991267574, 35.220213000551595 ], [ -83.466653991751727, 35.216503999862518 ], [ -83.464517991459985, 35.214170000656409 ], [ -83.471781990753811, 35.214280000116467 ], [ -83.472027990728066, 35.211833000162322 ], [ -83.470947991173432, 35.211849000008186 ], [ -83.470722991329382, 35.206758000065165 ], [ -83.473372990806965, 35.206286000434766 ], [ -83.473782991280913, 35.197776000634256 ] ] ] } },
{ "type": "Feature", "properties": { "county": "MACON", "precinct": "15", "enr_desc": "Cowee", "winner": "Brent Holbrooks", "winner_votes": 413, "winner_share": 69.645868465430013, "runner_up": "Bob Cook", "runner_up_votes": 180, "runner_up_share": 30.354131534569984, "contest_votes": 593, "margin_of_victory": 39.291736930860026, "is_tie": false, "results": [ { "candidate": "Brent Holbrooks", "votes": 413, "share": 69.64586846543001 }, { "candidate": "Bob Cook", "votes": 180, "share": 30.354131534569984 } ], "participated": true, "map_key": "MACON_15" }, "geometry": { "type": "Polygon", "coordinates": [ [ [ -83.378765991723682, 35.225369000293803 ], [ -83.385229990758276, 35.225692000676304 ], [ -83.391646991548029, 35.228308999899689 ], [ -83.392312991543747, 35.233023999897114 ], [ -83.395840990993563, 35.235072999935653 ], [ -83.395978990939312, 35.234404000052187 ], [ -83.403266991411414, 35.235475000634146 ], [ -83.404736991219664, 35.234400000246531 ], [ -83.407677991032301, 35.23474000044358 ], [ -83.412447990720779, 35.236580000756462 ], [ -83.414677991244645, 35.236665000668012 ], [ -83.417357991740047, 35.238467000143558 ], [ -83.42096399113953, 35.237555000525646 ], [ -83.426132990946172, 35.239937999903304 ], [ -83.434060991757619, 35.236430999919278 ], [ -83.439845990802155, 35.23773300043753 ], [ -83.440171991631686, 35.231290000209739 ], [ -83.442007990989865, 35.231814000132374 ], [ -83.441791991419663, 35.234485999949015 ], [ -83.445156991381666, 35.234599000197314 ], [ -83.445401991459704, 35.241180000488633 ], [ -83.446860991021282, 35.2416840006331 ], [ -83.452670990885352, 35.240407000006876 ], [ -83.452138991780473, 35.239812000070501 ], [ -83.454226991374199, 35.237827000252473 ], [ -83.455360991503326, 35.238971000457219 ], [ -83.457253991159661, 35.245544000278215 ], [ -83.456877991114865, 35.247978000155946 ], [ -83.456065991074937, 35.248583000491983 ], [ -83.456553991376254, 35.251268999996171 ], [ -83.457418991252766, 35.251149999969229 ], [ -83.455671991648771, 35.254377000576703 ], [ -83.456853991765442, 35.258517000039404 ], [ -83.457471990802432, 35.258189000706722 ], [ -83.457230990971681, 35.261376999941511 ], [ -83.458292991288346, 35.262640000112398 ], [ -83.461484991177869, 35.263823000483086 ], [ -83.461426990882799, 35.267352999980055 ], [ -83.458730990715608, 35.270720000608023 ], [ -83.463030991328779, 35.272352999956205 ], [ -83.470193991278379, 35.276961000409301 ], [ -83.471938991762798, 35.281481000165371 ], [ -83.471162990807727, 35.284181000084381 ], [ -83.472721991358185, 35.286154000349619 ], [ -83.475960991337146, 35.286566000575704 ], [ -83.478927991549369, 35.288532000233637 ], [ -83.482855991063118, 35.289159000536991 ], [ -83.484254991648342, 35.288618000240838 ], [ -83.485629990844515, 35.28628000065585 ], [ -83.489664991194786, 35.286816000505119 ], [ -83.490719991773886, 35.288070000049267 ], [ -83.491159990816072, 35.291561000326183 ], [ -83.497916991620386, 35.299300999943704 ], [ -83.495009991614921, 35.299823999964289 ], [ -83.493630991033072, 35.302702000244302 ], [ -83.48986799158358, 35.305574000190255 ], [ -83.486664991219357, 35.305430000324122 ], [ -83.484542991470136, 35.303573999898845 ], [ -83.482582991692809, 35.303405000569882 ], [ -83.480968991043071, 35.301989000416491 ], [ -83.477833991176112, 35.301043000365418 ], [ -83.473830991167461, 35.297611000054509 ], [ -83.467381991150575, 35.297778000291707 ], [ -83.463608991437866, 35.298973000254342 ], [ -83.461343991103988, 35.301725000082101 ], [ -83.457908991678877, 35.301852000151932 ], [ -83.455889991371421, 35.302797000563011 ], [ -83.454851990948981, 35.306758999900872 ], [ -83.453762991462966, 35.307277000113373 ], [ -83.453542990746712, 35.309611999902494 ], [ -83.45246499082026, 35.31113400023542 ], [ -83.452838991563311, 35.313071000595279 ], [ -83.452065991698788, 35.314204000381949 ], [ -83.448123991607559, 35.31667099992427 ], [ -83.442289991263223, 35.316511000262935 ], [ -83.440807990714234, 35.31720500045337 ], [ -83.437744990911256, 35.321915000274721 ], [ -83.432504990859542, 35.325173000677765 ], [ -83.430933991086661, 35.324215000135609 ], [ -83.428368991118901, 35.32454800062132 ], [ -83.428063991656614, 35.323022000408983 ], [ -83.425468990947849, 35.321549000637667 ], [ -83.421750990813067, 35.317622000738282 ], [ -83.415853991154478, 35.319459000176167 ], [ -83.410917991720197, 35.31652799996894 ], [ -83.40636999093411, 35.321321000377132 ], [ -83.404261991003665, 35.324900000066727 ], [ -83.401079991704478, 35.326193000144684 ], [ -83.399563991334531, 35.327770000696617 ], [ -83.397229991735855, 35.327685000391327 ], [ -83.391396991505758, 35.325522000139053 ], [ -83.386303990899236, 35.326781000277016 ], [ -83.379319991680362, 35.325506000047881 ], [ -83.372455991495798, 35.329095000297457 ], [ -83.369032991395983, 35.326916000170066 ], [ -83.364227990722739, 35.32599300018731 ], [ -83.357249991170832, 35.329683000491656 ], [ -83.347271990883186, 35.32847700022338 ], [ -83.3444719915571, 35.3299520007456 ], [ -83.339608991320461, 35.330993000127883 ], [ -83.336863990905442, 35.329446999907816 ], [ -83.334383991563413, 35.325803000416947 ], [ -83.33376799100877, 35.323424000416267 ], [ -83.334230991748356, 35.32035000057968 ], [ -83.332156991078136, 35.317530000317767 ], [ -83.331881991185256, 35.315953000484733 ], [ -83.330493991466213, 35.315020000454901 ], [ -83.324509991548481, 35.31417700066023 ], [ -83.321086991012834, 35.311888000127659 ], [ -83.321753991376639, 35.309037000632131 ], [ -83.322965990891589, 35.307647000095322 ], [ -83.321806991765413, 35.30524600026429 ], [ -83.322641991462746, 35.301451000678476 ], [ -83.316985991252523, 35.29811600034855 ], [ -83.316296991201128, 35.294022000754126 ], [ -83.318444991550564, 35.289059000447764 ], [ -83.313661991501334, 35.284573000221322 ], [ -83.31203599174934, 35.281606000433641 ], [ -83.313143991167962, 35.280188999938972 ], [ -83.313637990993001, 35.276201999870878 ], [ -83.315659990912806, 35.27437499993183 ], [ -83.31578899140608, 35.272684999985927 ], [ -83.314087991664522, 35.269450000162905 ], [ -83.314900991503535, 35.268047000215923 ], [ -83.323981991498954, 35.262417000440529 ], [ -83.323840990852005, 35.258531000221744 ], [ -83.329637991662594, 35.257926000085654 ], [ -83.331809991605027, 35.259249999988086 ], [ -83.335795991551848, 35.259853000357857 ], [ -83.337259991183913, 35.256929000637172 ], [ -83.338676991452132, 35.25647400026638 ], [ -83.339347991510039, 35.250847000071722 ], [ -83.351337991498085, 35.251251000024503 ], [ -83.351431991323111, 35.252262999903181 ], [ -83.352720991348505, 35.252478000527113 ], [ -83.352472991293411, 35.253061000377393 ], [ -83.354774991542726, 35.252421000031667 ], [ -83.359787991548615, 35.25392100057865 ], [ -83.362537990767507, 35.252172000514122 ], [ -83.363573990710677, 35.252403000087611 ], [ -83.363758991286318, 35.250871000573063 ], [ -83.365706991485595, 35.249512000616555 ], [ -83.367856991437094, 35.250378000571068 ], [ -83.369946991462513, 35.248554000287271 ], [ -83.374461990685646, 35.24715999997575 ], [ -83.375380990736531, 35.244406000649811 ], [ -83.377229991438398, 35.244795000618517 ], [ -83.377751990793172, 35.237393000210176 ], [ -83.377148991633561, 35.236128000076292 ], [ -83.379791991456358, 35.234973000037058 ], [ -83.379795991001828, 35.233421999958004 ], [ -83.377995991441381, 35.233373000475289 ], [ -83.378765991723682, 35.225369000293803 ] ] ] } }
]
}
