{
"type": "FeatureCollection",
"name": "mcdowell_county_sheriff_rep",
"crs": { "type": "name", "properties": { "name": "urn:ogc:def:crs:OGC:1.3:CRS84" } },
"features": [
{ "type": "Feature", "properties": { "county": "MCDOWELL", "precinct": "CCREEK", "enr_desc": "Crooked Creek", "winner": "Nathan Mace", "winner_votes": 89, "winner_share": 44.949494949494948, "runner_up": "Bryon Crisp", "runner_up_votes": 61, "runner_up_share": 30.808080808080806, "contest_votes": 198, "margin_of_victory": 14.141414141414142, "is_tie": false, "results": [ { "candidate": "Nathan Mace", "votes": 89, "share": 44.94949494949495 }, { "candidate": "Bryon Crisp", "votes": 61, "share": 30.808080808080806 }, { "candidate": "J. S. Calvert", "votes": 43, "share": 21.71717171717172 }, { "candidate": "Brent Allen Rumfelt", "votes": 5, "share": 2.525252525252525 } ], "participated": true, "map_key": "MCDOWELL_CCREEK" }, "geometry": { "type": "Polygon", "coordinates": [ [ [ -82.267358990842354, 35.572213000557859 ], [ -82.218345991296644, 35.597180000262327 ], [ -82.188573990926059, 35.615322000154634 ], [ -82.177362990672961, 35.616247000680126 ], [ -82.177504991361658, 35.614012000284873 ], [ -82.179321990955074, 35.612176999966728 ], [ -82.177117990710045, 35.606193000574784 ], [ -82.173429991058072, 35.605690000266939 ], [ -82.171220991347198, 35.603703000220712 ], [ -82.170122991185281, 35.604007999858858 ], [ -82.167243991497557, 35.602530999840134 ], [ -82.166952991729232, 35.601005000355848 ], [ -82.168026991189578, 35.599966999939504 ], [ -82.166114991044793, 35.596343999793575 ], [ -82.164575991571468, 35.597322000346217 ], [ -82.163051991637175, 35.596345000011809 ], [ -82.161341991484036, 35.599443000082587 ], [ -82.159504991059208, 35.600589000001008 ], [ -82.153293991123903, 35.601038999871697 ], [ -82.150938990961407, 35.599813000186558 ], [ -82.14857799158105, 35.600055000299086 ], [ -82.150811991041849, 35.601395000560288 ], [ -82.150298990930779, 35.604482000626149 ], [ -82.147255991055317, 35.604774000546485 ], [ -82.141159991723498, 35.602623999880407 ], [ -82.139934991115396, 35.603332000643242 ], [ -82.139024991255852, 35.605364999921719 ], [ -82.13668999102994, 35.605133999930267 ], [ -82.135148991130364, 35.606172000382458 ], [ -82.128796991139666, 35.604059000636362 ], [ -82.125988990714177, 35.606294000536764 ], [ -82.125882991265399, 35.608696000616291 ], [ -82.123077991374515, 35.610315999777463 ], [ -82.122601991242135, 35.612949000611927 ], [ -82.124183991273966, 35.613756000547539 ], [ -82.122825991593047, 35.615569999994825 ], [ -82.120901991436924, 35.616335000645115 ], [ -82.117635991139849, 35.614599999962174 ], [ -82.115941990710866, 35.616673000018636 ], [ -82.113404990924607, 35.617899999857727 ], [ -82.113284991169976, 35.618827999914942 ], [ -82.111218991541094, 35.618944000131982 ], [ -82.102823991333665, 35.606954000632058 ], [ -82.106131991564069, 35.60432300033743 ], [ -82.106178990867349, 35.602809999983286 ], [ -82.108346991052258, 35.600658999889752 ], [ -82.108719991039635, 35.59886300026831 ], [ -82.10582699140754, 35.595260000666507 ], [ -82.102059991666636, 35.593570000628837 ], [ -82.099819991507943, 35.591084000595174 ], [ -82.098580991280144, 35.587302000096081 ], [ -82.100540991603864, 35.583557999901593 ], [ -82.100348991593165, 35.582156999879331 ], [ -82.096910991480541, 35.580296999929722 ], [ -82.098115991318295, 35.579534000142871 ], [ -82.102468991142558, 35.580155999819709 ], [ -82.116212991251444, 35.573582999793949 ], [ -82.121179991093342, 35.572138999944876 ], [ -82.123867991292514, 35.564713000369949 ], [ -82.128448991273231, 35.56176700063569 ], [ -82.134234990776605, 35.559492999871253 ], [ -82.138425991325491, 35.554514000138909 ], [ -82.142066990976062, 35.552015000117606 ], [ -82.148027990777663, 35.545344999798459 ], [ -82.147189991351169, 35.541919000258368 ], [ -82.144224991347272, 35.537542999790048 ], [ -82.153705990870804, 35.527582000211957 ], [ -82.154410991023539, 35.526095000175808 ], [ -82.153871991385856, 35.523178999988062 ], [ -82.155031990908213, 35.520397000379923 ], [ -82.209930991315758, 35.549073999969927 ], [ -82.219980990686224, 35.553141000021974 ], [ -82.251250991717754, 35.559943000101732 ], [ -82.267358990842354, 35.572213000557859 ] ] ] } },
{ "type": "Feature", "properties": { "county": "MCDOWELL", "precinct": "DYSART", "enr_desc": "Dysartsville", "winner": "Nathan Mace", "winner_votes": 94, "winner_share": 40.0, "runner_up": "Bryon Crisp", "runner_up_votes": 69, "runner_up_share": 29.361702127659573, "contest_votes": 235, "margin_of_victory": 10.638297872340427, "is_tie": false, "results": [ { "candidate": "Nathan Mace", "votes": 94, "share": 40.0 }, { "candidate": "Bryon Crisp", "votes": 69, "share": 29.361702127659573 }, { "candidate": "J. S. Calvert", "votes": 65, "share": 27.659574468085108 }, { "candidate": "Brent Allen Rumfelt", "votes": 7, "share": 2.9787234042553195 } ], "participated": true, "map_key": "MCDOWELL_DYSART" }, "geometry": { "type": "Polygon", "coordinates": [ [ [ -81.894782991761588, 35.541975000314757 ], [ -81.904602990985396, 35.561196000394609 ], [ -81.91216999115359, 35.579375000494366 ], [ -81.930901991174466, 35.617423000347024 ], [ -81.922090990795056, 35.622878000425466 ], [ -81.921337990820732, 35.633887000070565 ], [ -81.916965991603476, 35.634565999920106 ], [ -81.9084129907734, 35.639617000391411 ], [ -81.9011939908345, 35.640088000420569 ], [ -81.898131990949253, 35.641210000148057 ], [ -81.894987990677123, 35.644526999781299 ], [ -81.900846991035024, 35.651223000629528 ], [ -81.906915991038943, 35.654683000308474 ], [ -81.907341990943834, 35.659789999840548 ], [ -81.909456991335773, 35.6618050003853 ], [ -81.908999991366159, 35.664295000425291 ], [ -81.903792991256125, 35.666916999913447 ], [ -81.903007990779059, 35.669340999802941 ], [ -81.901538990863799, 35.670691000322364 ], [ -81.903765990967855, 35.67396800037109 ], [ -81.90626299114048, 35.675141000074618 ], [ -81.906598991594208, 35.676051999835501 ], [ -81.903457990734594, 35.676217999944804 ], [ -81.902961991573477, 35.679844000049663 ], [ -81.90078599165642, 35.679908000622966 ], [ -81.900110990927573, 35.682320000108518 ], [ -81.895560990958828, 35.6840619998421 ], [ -81.898146991325021, 35.685949000110234 ], [ -81.899416991696754, 35.688229999926484 ], [ -81.894202991312227, 35.689971000638252 ], [ -81.884292991147689, 35.689789999942178 ], [ -81.8723019906773, 35.694883000224429 ], [ -81.86796799074294, 35.69597500056431 ], [ -81.864740990696092, 35.695799000610037 ], [ -81.861443991267393, 35.694035000409826 ], [ -81.8241219914254, 35.574983000208348 ], [ -81.828375991617435, 35.573917999980587 ], [ -81.829449991564132, 35.571847000099758 ], [ -81.82949499122671, 35.567684000246061 ], [ -81.831796991594643, 35.566024000061098 ], [ -81.833819991506871, 35.562857000217839 ], [ -81.834161991486596, 35.560426999940965 ], [ -81.833175991102507, 35.559829999763565 ], [ -81.833428991737122, 35.558993000131558 ], [ -81.839466990664093, 35.555990999996006 ], [ -81.840972990848314, 35.554148999900256 ], [ -81.841112991277825, 35.550406999918785 ], [ -81.842360990888338, 35.549731000407476 ], [ -81.843915991183025, 35.546337000597397 ], [ -81.843743991285919, 35.544034000244288 ], [ -81.842467991136076, 35.542263000553312 ], [ -81.894782991761588, 35.541975000314757 ] ] ] } },
{ "type": "Feature", "properties": { "county": "MCDOWELL", "precinct": "FORT 1", "enr_desc": "Old Fort 1", "winner": "Nathan Mace", "winner_votes": 59, "winner_share": 44.360902255639097, "runner_up": "J. S. Calvert", "runner_up_votes": 44, "runner_up_share": 33.082706766917291, "contest_votes": 133, "margin_of_victory": 11.278195488721806, "is_tie": false, "results": [ { "candidate": "Nathan Mace", "votes": 59, "share": 44.3609022556391 }, { "candidate": "J. S. Calvert", "votes": 44, "share": 33.08270676691729 }, { "candidate": "Bryon Crisp", "votes": 21, "share": 15.789473684210526 }, { "candidate": "Brent Allen Rumfelt", "votes": 9, "share": 6.7669172932330826 } ], "participated": true, "map_key": "MCDOWELL_FORT 1" }, "geometry": { "type": "Polygon", "coordinates": [ [ [ -82.200911991374568, 35.733565000269031 ], [ -82.197019991079358, 35.732525000341781 ], [ -82.185171991357464, 35.726813000165265 ], [ -82.142639991330725, 35.705348000398388 ], [ -82.130744991628973, 35.6982910002626 ], [ -82.132026990699487, 35.696308999975507 ], [ -82.135268991313652, 35.695710000088177 ], [ -82.135425990763366, 35.694331999863827 ], [ -82.129416990696683, 35.691437000656059 ], [ -82.128045990919915, 35.690011999860104 ], [ -82.131301991309584, 35.687094000578334 ], [ -82.131734990647658, 35.684678000345805 ], [ -82.134484991721777, 35.682328000114616 ], [ -82.132366990761895, 35.678717000124436 ], [ -82.132738991724722, 35.676233000001439 ], [ -82.129670991495004, 35.671621000609051 ], [ -82.129860991256933, 35.669664000316033 ], [ -82.127402991523738, 35.668410000286762 ], [ -82.123727991182534, 35.668246000175508 ], [ -82.117066991633976, 35.669038000212765 ], [ -82.11526299073509, 35.670248000283166 ], [ -82.10901899070123, 35.669360000490606 ], [ -82.105069991695032, 35.667459000169494 ], [ -82.105552991233125, 35.665950000615055 ], [ -82.108180991684719, 35.664431000504784 ], [ -82.104416990823452, 35.661520000234248 ], [ -82.113557990777764, 35.65697600009868 ], [ -82.126302991282245, 35.655156999819852 ], [ -82.132974991569753, 35.650469000337701 ], [ -82.138924991359673, 35.65075299997747 ], [ -82.141029991664197, 35.649403000139309 ], [ -82.142727990775214, 35.644853000347787 ], [ -82.144662991394469, 35.643148000312841 ], [ -82.161836991010006, 35.637615000673492 ], [ -82.178569990991832, 35.629184000499627 ], [ -82.186984991442969, 35.628936000422229 ], [ -82.188429991214605, 35.633914000578038 ], [ -82.19131499067224, 35.635769000127617 ], [ -82.200397991055823, 35.631798000496538 ], [ -82.202838990956693, 35.630005999981528 ], [ -82.206704990983837, 35.630804000398889 ], [ -82.21120499080412, 35.634238000347437 ], [ -82.216930991707216, 35.635952000473914 ], [ -82.218790991058285, 35.635952000334839 ], [ -82.220968991259767, 35.634607000648025 ], [ -82.224831990808596, 35.633716000439748 ], [ -82.234398990895357, 35.634993000214017 ], [ -82.240887990703101, 35.633446000642465 ], [ -82.246347991640718, 35.633624000454319 ], [ -82.256251990656281, 35.627513000442505 ], [ -82.265347990698473, 35.624558000558778 ], [ -82.26660399098698, 35.624828000294023 ], [ -82.272650990744538, 35.621948999822983 ], [ -82.271561991740768, 35.624465000338141 ], [ -82.274115991482702, 35.628883000492294 ], [ -82.27346899108575, 35.629816999992045 ], [ -82.271441991502172, 35.630140000541786 ], [ -82.270874991181302, 35.631927000073567 ], [ -82.276122991450364, 35.637689000666981 ], [ -82.280302991204579, 35.638355000136102 ], [ -82.281905990976526, 35.639382000030565 ], [ -82.283189991004406, 35.643086999840961 ], [ -82.283012991357893, 35.64686800015901 ], [ -82.28559799114015, 35.648055999881819 ], [ -82.286679991499554, 35.652759999803337 ], [ -82.285869991049893, 35.656959000338965 ], [ -82.286570991245014, 35.657931000393596 ], [ -82.28553299152712, 35.659701000581236 ], [ -82.285638991176896, 35.661233000395974 ], [ -82.280390991479123, 35.667531000130694 ], [ -82.281117991610159, 35.670211999979209 ], [ -82.283545991381857, 35.674148000246284 ], [ -82.284212991386653, 35.676769999804669 ], [ -82.295014991285825, 35.684043000018526 ], [ -82.292581991412504, 35.689241000666399 ], [ -82.289089991238768, 35.693933000150963 ], [ -82.289062990822728, 35.695945000025176 ], [ -82.283651990684447, 35.698697000057884 ], [ -82.281217991597686, 35.702170000250895 ], [ -82.275543991119704, 35.704436999962297 ], [ -82.270275990692582, 35.703881000447957 ], [ -82.266423991522458, 35.700362000219606 ], [ -82.263890991240174, 35.700558000656571 ], [ -82.257841991555694, 35.698852000187372 ], [ -82.252419991286445, 35.70613700042697 ], [ -82.244581991518359, 35.709006999843069 ], [ -82.242295990739805, 35.713027000391854 ], [ -82.237870991637095, 35.713312000515984 ], [ -82.234370991588165, 35.714694000582952 ], [ -82.230996991626952, 35.717625000121622 ], [ -82.224567991631133, 35.718698999925671 ], [ -82.223543990734143, 35.720436000406423 ], [ -82.221232991140909, 35.721212000402666 ], [ -82.219750990856852, 35.722750000413711 ], [ -82.21645699124764, 35.72425199978106 ], [ -82.213732990878981, 35.724242000063143 ], [ -82.21045899112147, 35.726165999861941 ], [ -82.207554990957533, 35.729882000362473 ], [ -82.205613991186837, 35.730657000040992 ], [ -82.203956991471301, 35.732823000634127 ], [ -82.200911991374568, 35.733565000269031 ] ] ] } },
{ "type": "Feature", "properties": { "county": "MCDOWELL", "precinct": "FORT 2", "enr_desc": "Old Fort 2", "winner": "Nathan Mace", "winner_votes": 61, "winner_share": 50.833333333333329, "runner_up": "J. S. Calvert", "runner_up_votes": 36, "runner_up_share": 30.0, "contest_votes": 120, "margin_of_victory": 20.833333333333329, "is_tie": false, "results": [ { "candidate": "Nathan Mace", "votes": 61, "share": 50.83333333333333 }, { "candidate": "J. S. Calvert", "votes": 36, "share": 30.0 }, { "candidate": "Bryon Crisp", "votes": 19, "share": 15.833333333333332 }, { "candidate": "Brent Allen Rumfelt", "votes": 4, "share": 3.3333333333333335 } ], "participated": true, "map_key": "MCDOWELL_FORT 2" }, "geometry": { "type": "Polygon", "coordinates": [ [ [ -82.267358990842354, 35.572213000557859 ], [ -82.291025990751237, 35.59132200038048 ], [ -82.291933991493138, 35.594962000465337 ], [ -82.289599991645119, 35.596693000217357 ], [ -82.288878991166428, 35.599391000114259 ], [ -82.28751199135182, 35.601040000264454 ], [ -82.282268990713533, 35.603083000585116 ], [ -82.282141991261483, 35.605924000540291 ], [ -82.280431991072433, 35.608759000499404 ], [ -82.277313991552163, 35.610320000148207 ], [ -82.27218599139745, 35.611907000006013 ], [ -82.270200990797036, 35.611575999862765 ], [ -82.265131990777462, 35.613746000234379 ], [ -82.264510990678247, 35.617670000471456 ], [ -82.269810991301838, 35.62151200042566 ], [ -82.272650990744538, 35.621948999822983 ], [ -82.26660399098698, 35.624828000294023 ], [ -82.265347990698473, 35.624558000558778 ], [ -82.256251990656281, 35.627513000442505 ], [ -82.246347991640718, 35.633624000454319 ], [ -82.240887990703101, 35.633446000642465 ], [ -82.234398990895357, 35.634993000214017 ], [ -82.224831990808596, 35.633716000439748 ], [ -82.220968991259767, 35.634607000648025 ], [ -82.218790991058285, 35.635952000334839 ], [ -82.216930991707216, 35.635952000473914 ], [ -82.21120499080412, 35.634238000347437 ], [ -82.206704990983837, 35.630804000398889 ], [ -82.202838990956693, 35.630005999981528 ], [ -82.200397991055823, 35.631798000496538 ], [ -82.19131499067224, 35.635769000127617 ], [ -82.188429991214605, 35.633914000578038 ], [ -82.186984991442969, 35.628936000422229 ], [ -82.178569990991832, 35.629184000499627 ], [ -82.161836991010006, 35.637615000673492 ], [ -82.144662991394469, 35.643148000312841 ], [ -82.142727990775214, 35.644853000347787 ], [ -82.141029991664197, 35.649403000139309 ], [ -82.138924991359673, 35.65075299997747 ], [ -82.132974991569753, 35.650469000337701 ], [ -82.126302991282245, 35.655156999819852 ], [ -82.113557990777764, 35.65697600009868 ], [ -82.104416990823452, 35.661520000234248 ], [ -82.099623990652518, 35.657268000287736 ], [ -82.096724990907958, 35.656131000560713 ], [ -82.096570990822784, 35.654271000517646 ], [ -82.09878899090495, 35.653233000538982 ], [ -82.102697991413663, 35.653045000346857 ], [ -82.101761990862897, 35.6466140004447 ], [ -82.106163991042919, 35.64619500021152 ], [ -82.10817199159375, 35.644336999788209 ], [ -82.110548991450756, 35.645250000024113 ], [ -82.113346990824979, 35.644616000233633 ], [ -82.115115991612342, 35.642494000100662 ], [ -82.113996991276252, 35.640587999884538 ], [ -82.110763990785301, 35.638026999882285 ], [ -82.111651991464896, 35.636317999788744 ], [ -82.109077990729688, 35.633515999794604 ], [ -82.106829990952519, 35.633638000356086 ], [ -82.10296399088314, 35.631529000437226 ], [ -82.103865991303053, 35.630407000228629 ], [ -82.105367990936813, 35.631604999811188 ], [ -82.107944990713165, 35.631362000503962 ], [ -82.107505991052676, 35.627856000475958 ], [ -82.109092990834881, 35.627613000350046 ], [ -82.109276991354648, 35.62938800034425 ], [ -82.110885991284917, 35.629513999967202 ], [ -82.110145991366892, 35.624969000143281 ], [ -82.105942991671469, 35.621942000107765 ], [ -82.109011991459653, 35.620968000412951 ], [ -82.110087990714035, 35.619175999942399 ], [ -82.111218991541094, 35.618944000131982 ], [ -82.113284991169976, 35.618827999914942 ], [ -82.113404990924607, 35.617899999857727 ], [ -82.115941990710866, 35.616673000018636 ], [ -82.117635991139849, 35.614599999962174 ], [ -82.120901991436924, 35.616335000645115 ], [ -82.122825991593047, 35.615569999994825 ], [ -82.124183991273966, 35.613756000547539 ], [ -82.122601991242135, 35.612949000611927 ], [ -82.123077991374515, 35.610315999777463 ], [ -82.125882991265399, 35.608696000616291 ], [ -82.125988990714177, 35.606294000536764 ], [ -82.128796991139666, 35.604059000636362 ], [ -82.135148991130364, 35.606172000382458 ], [ -82.13668999102994, 35.605133999930267 ], [ -82.139024991255852, 35.605364999921719 ], [ -82.139934991115396, 35.603332000643242 ], [ -82.141159991723498, 35.602623999880407 ], [ -82.147255991055317, 35.604774000546485 ], [ -82.150298990930779, 35.604482000626149 ], [ -82.150811991041849, 35.601395000560288 ], [ -82.14857799158105, 35.600055000299086 ], [ -82.150938990961407, 35.599813000186558 ], [ -82.153293991123903, 35.601038999871697 ], [ -82.159504991059208, 35.600589000001008 ], [ -82.161341991484036, 35.599443000082587 ], [ -82.163051991637175, 35.596345000011809 ], [ -82.164575991571468, 35.597322000346217 ], [ -82.166114991044793, 35.596343999793575 ], [ -82.168026991189578, 35.599966999939504 ], [ -82.166952991729232, 35.601005000355848 ], [ -82.167243991497557, 35.602530999840134 ], [ -82.170122991185281, 35.604007999858858 ], [ -82.171220991347198, 35.603703000220712 ], [ -82.173429991058072, 35.605690000266939 ], [ -82.177117990710045, 35.606193000574784 ], [ -82.179321990955074, 35.612176999966728 ], [ -82.177504991361658, 35.614012000284873 ], [ -82.177362990672961, 35.616247000680126 ], [ -82.188573990926059, 35.615322000154634 ], [ -82.218345991296644, 35.597180000262327 ], [ -82.267358990842354, 35.572213000557859 ] ] ] } },
{ "type": "Feature", "properties": { "county": "MCDOWELL", "precinct": "GLENWD", "enr_desc": "Glenwood", "winner": "Nathan Mace", "winner_votes": 140, "winner_share": 62.780269058295971, "runner_up": "J. S. Calvert", "runner_up_votes": 42, "runner_up_share": 18.834080717488789, "contest_votes": 223, "margin_of_victory": 43.946188340807183, "is_tie": false, "results": [ { "candidate": "Nathan Mace", "votes": 140, "share": 62.78026905829597 }, { "candidate": "J. S. Calvert", "votes": 42, "share": 18.83408071748879 }, { "candidate": "Bryon Crisp", "votes": 35, "share": 15.695067264573993 }, { "candidate": "Brent Allen Rumfelt", "votes": 6, "share": 2.690582959641256 } ], "participated": true, "map_key": "MCDOWELL_GLENWD" }, "geometry": { "type": "Polygon", "coordinates": [ [ [ -81.894782991761588, 35.541975000314757 ], [ -81.904953991738296, 35.541917000383563 ], [ -81.920898991547574, 35.533660999940388 ], [ -81.921187990957321, 35.535178999917242 ], [ -81.924050991000982, 35.534020999774796 ], [ -81.933120991578249, 35.536074000279839 ], [ -81.957325991767462, 35.527774000547289 ], [ -81.967618990767534, 35.526007000366114 ], [ -81.978001991585202, 35.530637000448998 ], [ -81.979434990951731, 35.532923000280377 ], [ -81.986208990936518, 35.538076000441983 ], [ -81.985517991068249, 35.539929000185481 ], [ -81.986251991059618, 35.540709000480469 ], [ -81.989384990880566, 35.541383000036348 ], [ -81.994456990719229, 35.544041000476547 ], [ -81.999137991505464, 35.54831700029191 ], [ -81.999396990730574, 35.549450000668969 ], [ -82.002732991314588, 35.551811000612922 ], [ -81.997943991511363, 35.558124000300865 ], [ -82.008426991737409, 35.56372800041278 ], [ -82.012614991406664, 35.564125000128207 ], [ -82.014112990793862, 35.565849000593147 ], [ -82.013033991312369, 35.569135999882533 ], [ -82.010745991406935, 35.570671999817783 ], [ -82.009021991227868, 35.573575000088304 ], [ -82.010130990755215, 35.577302999907552 ], [ -82.009615991298844, 35.579002999867669 ], [ -82.007445991490059, 35.581337000655601 ], [ -82.00347299121816, 35.58234400037113 ], [ -82.008417991263585, 35.592259999811802 ], [ -82.012132990717134, 35.59778800049147 ], [ -82.026696991350633, 35.610724000500305 ], [ -82.029546991549822, 35.611877000252605 ], [ -82.034629991399328, 35.611512000039674 ], [ -82.008376991545049, 35.635344000582087 ], [ -82.002871991232709, 35.633847000436056 ], [ -81.996455991520108, 35.635055000508601 ], [ -81.993395990750983, 35.63691500024315 ], [ -81.983596991467508, 35.64577099990953 ], [ -81.959156991513211, 35.643140000007278 ], [ -81.955259990749013, 35.644269000418547 ], [ -81.953781991119527, 35.643898000205589 ], [ -81.954094991447704, 35.641352000007977 ], [ -81.960611991146521, 35.632765999978162 ], [ -81.959433991347154, 35.632244000545043 ], [ -81.959877991153419, 35.630678999844726 ], [ -81.957176990767493, 35.627864000491677 ], [ -81.957068990750656, 35.626144000336097 ], [ -81.95388499081254, 35.626122000182676 ], [ -81.952715991574024, 35.624350999926094 ], [ -81.930901991174466, 35.617423000347024 ], [ -81.91216999115359, 35.579375000494366 ], [ -81.904602990985396, 35.561196000394609 ], [ -81.894782991761588, 35.541975000314757 ] ] ] } },
{ "type": "Feature", "properties": { "county": "MCDOWELL", "precinct": "HIGGIN", "enr_desc": "Higgins", "winner": "Nathan Mace", "winner_votes": 36, "winner_share": 36.363636363636367, "runner_up": "J. S. Calvert", "runner_up_votes": 34, "runner_up_share": 34.343434343434339, "contest_votes": 99, "margin_of_victory": 2.0202020202020279, "is_tie": false, "results": [ { "candidate": "Nathan Mace", "votes": 36, "share": 36.36363636363637 }, { "candidate": "J. S. Calvert", "votes": 34, "share": 34.34343434343434 }, { "candidate": "Bryon Crisp", "votes": 22, "share": 22.22222222222222 }, { "candidate": "Brent Allen Rumfelt", "votes": 7, "share": 7.07070707070707 } ], "participated": true, "map_key": "MCDOWELL_HIGGIN" }, "geometry": { "type": "Polygon", "coordinates": [ [ [ -81.930901991174466, 35.617423000347024 ], [ -81.952715991574024, 35.624350999926094 ], [ -81.95388499081254, 35.626122000182676 ], [ -81.957068990750656, 35.626144000336097 ], [ -81.957176990767493, 35.627864000491677 ], [ -81.959877991153419, 35.630678999844726 ], [ -81.959433991347154, 35.632244000545043 ], [ -81.960611991146521, 35.632765999978162 ], [ -81.954094991447704, 35.641352000007977 ], [ -81.953781991119527, 35.643898000205589 ], [ -81.955259990749013, 35.644269000418547 ], [ -81.959156991513211, 35.643140000007278 ], [ -81.983596991467508, 35.64577099990953 ], [ -81.983101991367135, 35.646215999838461 ], [ -81.979272991533406, 35.648830000290566 ], [ -81.965388990779729, 35.655358999774379 ], [ -81.962363991033726, 35.65823299987742 ], [ -81.965771991167912, 35.660366000590152 ], [ -81.961186991473639, 35.66294900019755 ], [ -81.961726991145738, 35.664956000224294 ], [ -81.963888991720708, 35.666439999867443 ], [ -81.964326991277645, 35.667621000215533 ], [ -81.959911991619776, 35.674756000524098 ], [ -81.959622990848558, 35.676359000316793 ], [ -81.958072991454799, 35.677234000521921 ], [ -81.953738991581375, 35.685648000022525 ], [ -81.946059990858288, 35.682583999834875 ], [ -81.938827990881478, 35.682359999901387 ], [ -81.937227991224773, 35.681665000186136 ], [ -81.92684999101516, 35.683738000514161 ], [ -81.906979990973298, 35.685512000103934 ], [ -81.899416991696754, 35.688229999926484 ], [ -81.898146991325021, 35.685949000110234 ], [ -81.895560990958828, 35.6840619998421 ], [ -81.900110990927573, 35.682320000108518 ], [ -81.90078599165642, 35.679908000622966 ], [ -81.902961991573477, 35.679844000049663 ], [ -81.903457990734594, 35.676217999944804 ], [ -81.906598991594208, 35.676051999835501 ], [ -81.90626299114048, 35.675141000074618 ], [ -81.903765990967855, 35.67396800037109 ], [ -81.901538990863799, 35.670691000322364 ], [ -81.903007990779059, 35.669340999802941 ], [ -81.903792991256125, 35.666916999913447 ], [ -81.908999991366159, 35.664295000425291 ], [ -81.909456991335773, 35.6618050003853 ], [ -81.907341990943834, 35.659789999840548 ], [ -81.906915991038943, 35.654683000308474 ], [ -81.900846991035024, 35.651223000629528 ], [ -81.894987990677123, 35.644526999781299 ], [ -81.898131990949253, 35.641210000148057 ], [ -81.9011939908345, 35.640088000420569 ], [ -81.9084129907734, 35.639617000391411 ], [ -81.916965991603476, 35.634565999920106 ], [ -81.921337990820732, 35.633887000070565 ], [ -81.922090990795056, 35.622878000425466 ], [ -81.930901991174466, 35.617423000347024 ] ] ] } },
{ "type": "Feature", "properties": { "county": "MCDOWELL", "precinct": "M.COVE", "enr_desc": "Montford Cove", "winner": "Nathan Mace", "winner_votes": 89, "winner_share": 41.784037558685441, "runner_up": "Bryon Crisp", "runner_up_votes": 59, "runner_up_share": 27.699530516431924, "contest_votes": 213, "margin_of_victory": 14.084507042253517, "is_tie": false, "results": [ { "candidate": "Nathan Mace", "votes": 89, "share": 41.78403755868544 }, { "candidate": "Bryon Crisp", "votes": 59, "share": 27.699530516431924 }, { "candidate": "J. S. Calvert", "votes": 55, "share": 25.821596244131456 }, { "candidate": "Brent Allen Rumfelt", "votes": 10, "share": 4.694835680751173 } ], "participated": true, "map_key": "MCDOWELL_M.COVE" }, "geometry": { "type": "Polygon", "coordinates": [ [ [ -82.155031990908213, 35.520397000379923 ], [ -82.153871991385856, 35.523178999988062 ], [ -82.154410991023539, 35.526095000175808 ], [ -82.153705990870804, 35.527582000211957 ], [ -82.144224991347272, 35.537542999790048 ], [ -82.147189991351169, 35.541919000258368 ], [ -82.148027990777663, 35.545344999798459 ], [ -82.142066990976062, 35.552015000117606 ], [ -82.138425991325491, 35.554514000138909 ], [ -82.134234990776605, 35.559492999871253 ], [ -82.128448991273231, 35.56176700063569 ], [ -82.123867991292514, 35.564713000369949 ], [ -82.121179991093342, 35.572138999944876 ], [ -82.116212991251444, 35.573582999793949 ], [ -82.102468991142558, 35.580155999819709 ], [ -82.098115991318295, 35.579534000142871 ], [ -82.096910991480541, 35.580296999929722 ], [ -82.100348991593165, 35.582156999879331 ], [ -82.100540991603864, 35.583557999901593 ], [ -82.098580991280144, 35.587302000096081 ], [ -82.099819991507943, 35.591084000595174 ], [ -82.102059991666636, 35.593570000628837 ], [ -82.10582699140754, 35.595260000666507 ], [ -82.108719991039635, 35.59886300026831 ], [ -82.108346991052258, 35.600658999889752 ], [ -82.106178990867349, 35.602809999983286 ], [ -82.106131991564069, 35.60432300033743 ], [ -82.102823991333665, 35.606954000632058 ], [ -82.111218991541094, 35.618944000131982 ], [ -82.110087990714035, 35.619175999942399 ], [ -82.109011991459653, 35.620968000412951 ], [ -82.105942991671469, 35.621942000107765 ], [ -82.110145991366892, 35.624969000143281 ], [ -82.110885991284917, 35.629513999967202 ], [ -82.109276991354648, 35.62938800034425 ], [ -82.109092990834881, 35.627613000350046 ], [ -82.107505991052676, 35.627856000475958 ], [ -82.107944990713165, 35.631362000503962 ], [ -82.105367990936813, 35.631604999811188 ], [ -82.103865991303053, 35.630407000228629 ], [ -82.10296399088314, 35.631529000437226 ], [ -82.106829990952519, 35.633638000356086 ], [ -82.109077990729688, 35.633515999794604 ], [ -82.111651991464896, 35.636317999788744 ], [ -82.110763990785301, 35.638026999882285 ], [ -82.113996991276252, 35.640587999884538 ], [ -82.107737991613078, 35.637188999946652 ], [ -82.104155990927566, 35.636113000381989 ], [ -82.090525991395367, 35.6355920001402 ], [ -82.083850991520691, 35.633741999984537 ], [ -82.073933990742461, 35.634365000501802 ], [ -82.069379991165562, 35.630369000430825 ], [ -82.064591990777629, 35.623730999844028 ], [ -82.060042990762952, 35.62180600060757 ], [ -82.059001991529001, 35.621956000094286 ], [ -82.06122699134626, 35.62544100012601 ], [ -82.0609339915612, 35.626540000098409 ], [ -82.058225991358327, 35.629267000024115 ], [ -82.05384299090322, 35.629028000316232 ], [ -82.053704991441919, 35.625252000208903 ], [ -82.051657991634301, 35.622411999770762 ], [ -82.043894991242624, 35.616817000522609 ], [ -82.034629991399328, 35.611512000039674 ], [ -82.029546991549822, 35.611877000252605 ], [ -82.026696991350633, 35.610724000500305 ], [ -82.012132990717134, 35.59778800049147 ], [ -82.008417991263585, 35.592259999811802 ], [ -82.00347299121816, 35.58234400037113 ], [ -82.007445991490059, 35.581337000655601 ], [ -82.009615991298844, 35.579002999867669 ], [ -82.010130990755215, 35.577302999907552 ], [ -82.009021991227868, 35.573575000088304 ], [ -82.010745991406935, 35.570671999817783 ], [ -82.013033991312369, 35.569135999882533 ], [ -82.014112990793862, 35.565849000593147 ], [ -82.012614991406664, 35.564125000128207 ], [ -82.008426991737409, 35.56372800041278 ], [ -81.997943991511363, 35.558124000300865 ], [ -82.002732991314588, 35.551811000612922 ], [ -82.005642991528461, 35.549775000536812 ], [ -82.01299499085296, 35.547706000391777 ], [ -82.016252991223126, 35.542909000380803 ], [ -82.019675991069008, 35.54153699979409 ], [ -82.022131990930347, 35.537320999857521 ], [ -82.024499990734284, 35.537361000562981 ], [ -82.039842990864372, 35.532704000346769 ], [ -82.082620990765221, 35.533400999983492 ], [ -82.095765991478729, 35.53166600029418 ], [ -82.150537991266916, 35.518002000419415 ], [ -82.155031990908213, 35.520397000379923 ] ] ] } },
{ "type": "Feature", "properties": { "county": "MCDOWELL", "precinct": "MAR 1", "enr_desc": "Marion 1", "winner": "Nathan Mace", "winner_votes": 97, "winner_share": 42.358078602620083, "runner_up": "Bryon Crisp", "runner_up_votes": 64, "runner_up_share": 27.947598253275107, "contest_votes": 229, "margin_of_victory": 14.410480349344976, "is_tie": false, "results": [ { "candidate": "Nathan Mace", "votes": 97, "share": 42.35807860262008 }, { "candidate": "Bryon Crisp", "votes": 64, "share": 27.947598253275107 }, { "candidate": "J. S. Calvert", "votes": 55, "share": 24.017467248908297 }, { "candidate": "Brent Allen Rumfelt", "votes": 13, "share": 5.676855895196507 } ], "participated": true, "map_key": "MCDOWELL_MAR 1" }, "geometry": { "type": "Polygon", "coordinates": [ [ [ -82.008170991122739, 35.682490000095576 ], [ -82.01058399160452, 35.686950000144314 ], [ -82.017116991320734, 35.689543000034789 ], [ -82.022592991538687, 35.692958000093661 ], [ -82.026531990684603, 35.700095000568311 ], [ -82.030620990920227, 35.703619000311669 ], [ -82.032074991302693, 35.706102000207125 ], [ -82.036086990629684, 35.704294999862114 ], [ -82.037412990931784, 35.712819000666755 ], [ -82.04113199167098, 35.718594000501518 ], [ -82.04247999169985, 35.724113999974357 ], [ -82.046120991371453, 35.729018999879493 ], [ -82.048446991549113, 35.735169000224921 ], [ -82.049253991406729, 35.741119999880397 ], [ -82.0472589911233, 35.749930000195882 ], [ -82.042373991014571, 35.754871000006858 ], [ -82.041006990745387, 35.762366999974041 ], [ -82.040976991356132, 35.76588100028934 ], [ -82.039353990722859, 35.765426000086805 ], [ -82.037786991489426, 35.766414000423616 ], [ -82.03704399142579, 35.764785000382602 ], [ -82.035602991158314, 35.767789000384354 ], [ -82.032812990708521, 35.762059000358825 ], [ -82.032933991057448, 35.760945000628944 ], [ -82.031966991403763, 35.760339000045377 ], [ -82.02711999155369, 35.761536000391672 ], [ -82.023970991399025, 35.760875999768579 ], [ -82.022955991368846, 35.76190000050569 ], [ -82.021970990986503, 35.759747000204925 ], [ -82.018878991546231, 35.759181000400716 ], [ -82.018245991432522, 35.757637000262982 ], [ -82.015879991583702, 35.758059000108837 ], [ -82.013627991062179, 35.756727000404076 ], [ -82.012956990692302, 35.756736000192923 ], [ -82.013142990755583, 35.761144000220924 ], [ -82.010467991078272, 35.76003400064473 ], [ -82.005104991361065, 35.760664000069738 ], [ -82.005661991000878, 35.763048999880823 ], [ -82.010284990734007, 35.767546000078433 ], [ -82.009668991278005, 35.774421000636238 ], [ -82.011626991439186, 35.780442999805857 ], [ -82.007128991176089, 35.78183000019672 ], [ -82.004699991184765, 35.783906000657218 ], [ -81.996847990800148, 35.786905000282118 ], [ -81.98841699147485, 35.786641999771142 ], [ -81.986377991087792, 35.794277000538855 ], [ -81.984061991622355, 35.798264000624727 ], [ -81.984426991285403, 35.801984000635869 ], [ -81.986938991595508, 35.806923000275795 ], [ -81.933885990809387, 35.768642000519904 ], [ -81.932203990916094, 35.765481000418525 ], [ -81.931534991309917, 35.759081999891336 ], [ -81.927569990838123, 35.753701999999379 ], [ -81.932042990727112, 35.747637000266806 ], [ -81.932907991550834, 35.744940000216147 ], [ -81.934292990742875, 35.74384199982925 ], [ -81.940565990899202, 35.743984999802883 ], [ -81.949334990633488, 35.749118000095493 ], [ -81.951450990820106, 35.749518000671891 ], [ -81.961723991497621, 35.74478499982898 ], [ -81.962922991138655, 35.741268000636069 ], [ -81.967861991246892, 35.739819000642235 ], [ -81.969394990682105, 35.736670000008566 ], [ -81.969335990976646, 35.732709000577913 ], [ -81.965555990815318, 35.729250000575846 ], [ -81.966329991285335, 35.727937000246712 ], [ -81.970153991637886, 35.726185000366918 ], [ -81.969951991376178, 35.724690000058239 ], [ -81.967153991420005, 35.722332999971314 ], [ -81.96753799136502, 35.720754000092569 ], [ -81.977723990985567, 35.718751000220976 ], [ -81.985984991098363, 35.726193000657091 ], [ -81.989593991300637, 35.725405000516922 ], [ -81.988971990747018, 35.720911999986932 ], [ -81.990044990773001, 35.719023999898013 ], [ -81.984359990792228, 35.71495300005428 ], [ -81.989465991041911, 35.710767000118253 ], [ -81.996774991665916, 35.707613999887457 ], [ -81.998503991125503, 35.704855000350356 ], [ -82.004941991163065, 35.701695000004925 ], [ -82.004731991124828, 35.698973000641864 ], [ -82.001731991403076, 35.695786999864836 ], [ -81.995790991468056, 35.69099499976641 ], [ -81.994023991383642, 35.691880000108107 ], [ -81.993790991306142, 35.690776000205638 ], [ -82.008170991122739, 35.682490000095576 ] ] ] } },
{ "type": "Feature", "properties": { "county": "MCDOWELL", "precinct": "MAR 2", "enr_desc": "Marion 2", "winner": "Nathan Mace", "winner_votes": 29, "winner_share": 43.939393939393938, "runner_up": "Bryon Crisp", "runner_up_votes": 26, "runner_up_share": 39.393939393939391, "contest_votes": 66, "margin_of_victory": 4.5454545454545467, "is_tie": false, "results": [ { "candidate": "Nathan Mace", "votes": 29, "share": 43.93939393939394 }, { "candidate": "Bryon Crisp", "votes": 26, "share": 39.39393939393939 }, { "candidate": "J. S. Calvert", "votes": 9, "share": 13.636363636363635 }, { "candidate": "Brent Allen Rumfelt", "votes": 2, "share": 3.0303030303030303 } ], "participated": true, "map_key": "MCDOWELL_MAR 2" }, "geometry": { "type": "Polygon", "coordinates": [ [ [ -82.029216991367662, 35.667668000429522 ], [ -82.025593990994395, 35.668555000018657 ], [ -82.023628991633416, 35.671310000311948 ], [ -82.01942099148458, 35.674849999827721 ], [ -82.008170991122739, 35.682490000095576 ], [ -81.993790991306142, 35.690776000205638 ], [ -81.991908990951359, 35.684525999801025 ], [ -81.992214991106763, 35.678526000406542 ], [ -81.993359990641508, 35.677245000075011 ], [ -81.993748990738482, 35.67503899979237 ], [ -81.987096991629144, 35.667179999985649 ], [ -81.993277991230272, 35.669542000431569 ], [ -81.996193990850131, 35.6688440005302 ], [ -82.000287991248072, 35.666108000426803 ], [ -82.002924991735256, 35.665608000584903 ], [ -82.007048991671383, 35.665840000279815 ], [ -82.010071990993509, 35.666952000268708 ], [ -82.016029991226873, 35.666930000362278 ], [ -82.01864599087537, 35.66815300003541 ], [ -82.021486990776339, 35.665212000673726 ], [ -82.022987991084094, 35.665078000234807 ], [ -82.025483990967075, 35.666936000500137 ], [ -82.027967990661026, 35.666305000043018 ], [ -82.029216991367662, 35.667668000429522 ] ] ] } },
{ "type": "Feature", "properties": { "county": "MCDOWELL", "precinct": "MAR 3", "enr_desc": "Marion 3", "winner": "Nathan Mace", "winner_votes": 36, "winner_share": 46.153846153846153, "runner_up": "Bryon Crisp", "runner_up_votes": 28, "runner_up_share": 35.897435897435898, "contest_votes": 78, "margin_of_victory": 10.256410256410255, "is_tie": false, "results": [ { "candidate": "Nathan Mace", "votes": 36, "share": 46.15384615384615 }, { "candidate": "Bryon Crisp", "votes": 28, "share": 35.8974358974359 }, { "candidate": "J. S. Calvert", "votes": 9, "share": 11.538461538461538 }, { "candidate": "Brent Allen Rumfelt", "votes": 5, "share": 6.41025641025641 } ], "participated": true, "map_key": "MCDOWELL_MAR 3" }, "geometry": { "type": "Polygon", "coordinates": [ [ [ -81.994023991383642, 35.691880000108107 ], [ -81.995790991468056, 35.69099499976641 ], [ -82.001731991403076, 35.695786999864836 ], [ -82.004731991124828, 35.698973000641864 ], [ -82.004941991163065, 35.701695000004925 ], [ -81.998503991125503, 35.704855000350356 ], [ -81.996774991665916, 35.707613999887457 ], [ -81.989465991041911, 35.710767000118253 ], [ -81.984359990792228, 35.71495300005428 ], [ -81.990044990773001, 35.719023999898013 ], [ -81.988971990747018, 35.720911999986932 ], [ -81.989593991300637, 35.725405000516922 ], [ -81.985984991098363, 35.726193000657091 ], [ -81.977723990985567, 35.718751000220976 ], [ -81.96753799136502, 35.720754000092569 ], [ -81.967299990655832, 35.719605000658127 ], [ -81.964485991013476, 35.717031000515377 ], [ -81.96144799126742, 35.716438000029555 ], [ -81.957260991226065, 35.712373000225242 ], [ -81.952728990815856, 35.707180000159205 ], [ -81.951648990879661, 35.704065000049432 ], [ -81.968165991699394, 35.701806000329533 ], [ -81.97382899130325, 35.702826999837193 ], [ -81.980023991423636, 35.698541999936928 ], [ -81.985832991499308, 35.696864000586096 ], [ -81.994023991383642, 35.691880000108107 ] ] ] } },
{ "type": "Feature", "properties": { "county": "MCDOWELL", "precinct": "MAR 4", "enr_desc": "Marion 4", "winner": "Bryon Crisp", "winner_votes": 20, "winner_share": 41.666666666666671, "runner_up": "Nathan Mace", "runner_up_votes": 16, "runner_up_share": 33.333333333333329, "contest_votes": 48, "margin_of_victory": 8.3333333333333428, "is_tie": false, "results": [ { "candidate": "Bryon Crisp", "votes": 20, "share": 41.66666666666667 }, { "candidate": "Nathan Mace", "votes": 16, "share": 33.33333333333333 }, { "candidate": "J. S. Calvert", "votes": 7, "share": 14.583333333333334 }, { "candidate": "Brent Allen Rumfelt", "votes": 5, "share": 10.416666666666668 } ], "participated": true, "map_key": "MCDOWELL_MAR 4" }, "geometry": { "type": "Polygon", "coordinates": [ [ [ -81.987096991629144, 35.667179999985649 ], [ -81.993748990738482, 35.67503899979237 ], [ -81.993359990641508, 35.677245000075011 ], [ -81.992214991106763, 35.678526000406542 ], [ -81.991908990951359, 35.684525999801025 ], [ -81.993790991306142, 35.690776000205638 ], [ -81.994023991383642, 35.691880000108107 ], [ -81.985832991499308, 35.696864000586096 ], [ -81.980023991423636, 35.698541999936928 ], [ -81.97382899130325, 35.702826999837193 ], [ -81.968165991699394, 35.701806000329533 ], [ -81.951648990879661, 35.704065000049432 ], [ -81.950861991080771, 35.694875000380669 ], [ -81.953738991581375, 35.685648000022525 ], [ -81.958072991454799, 35.677234000521921 ], [ -81.959622990848558, 35.676359000316793 ], [ -81.959911991619776, 35.674756000524098 ], [ -81.964326991277645, 35.667621000215533 ], [ -81.963888991720708, 35.666439999867443 ], [ -81.961726991145738, 35.664956000224294 ], [ -81.961186991473639, 35.66294900019755 ], [ -81.965771991167912, 35.660366000590152 ], [ -81.962363991033726, 35.65823299987742 ], [ -81.965388990779729, 35.655358999774379 ], [ -81.979272991533406, 35.648830000290566 ], [ -81.983101991367135, 35.646215999838461 ], [ -81.981539991620494, 35.660627000017513 ], [ -81.987096991629144, 35.667179999985649 ] ] ] } },
{ "type": "Feature", "properties": { "county": "MCDOWELL", "precinct": "MAR 5", "enr_desc": "Marion 5", "winner": "Nathan Mace", "winner_votes": 46, "winner_share": 55.421686746987952, "runner_up": "Bryon Crisp", "runner_up_votes": 20, "runner_up_share": 24.096385542168676, "contest_votes": 83, "margin_of_victory": 31.325301204819276, "is_tie": false, "results": [ { "candidate": "Nathan Mace", "votes": 46, "share": 55.42168674698795 }, { "candidate": "Bryon Crisp", "votes": 20, "share": 24.096385542168676 }, { "candidate": "J. S. Calvert", "votes": 13, "share": 15.66265060240964 }, { "candidate": "Brent Allen Rumfelt", "votes": 4, "share": 4.819277108433735 } ], "participated": true, "map_key": "MCDOWELL_MAR 5" }, "geometry": { "type": "Polygon", "coordinates": [ [ [ -82.008170991122739, 35.682490000095576 ], [ -82.01942099148458, 35.674849999827721 ], [ -82.023628991633416, 35.671310000311948 ], [ -82.025593990994395, 35.668555000018657 ], [ -82.029216991367662, 35.667668000429522 ], [ -82.031745991290194, 35.668674999827239 ], [ -82.035480991361553, 35.673722000604329 ], [ -82.041592990817165, 35.677534000179541 ], [ -82.043026990752438, 35.680422000282398 ], [ -82.040493990690706, 35.680724000541773 ], [ -82.040277991706063, 35.682824000354366 ], [ -82.043975991147818, 35.683874000168707 ], [ -82.046420990915848, 35.686353000376677 ], [ -82.044735991250647, 35.688506999938021 ], [ -82.045213991002186, 35.689843000400749 ], [ -82.04739699076228, 35.690634000129293 ], [ -82.04542299123564, 35.695857000400181 ], [ -82.047090991492951, 35.698299000112023 ], [ -82.036086990629684, 35.704294999862114 ], [ -82.032074991302693, 35.706102000207125 ], [ -82.030620990920227, 35.703619000311669 ], [ -82.026531990684603, 35.700095000568311 ], [ -82.022592991538687, 35.692958000093661 ], [ -82.017116991320734, 35.689543000034789 ], [ -82.01058399160452, 35.686950000144314 ], [ -82.008170991122739, 35.682490000095576 ] ] ] } },
{ "type": "Feature", "properties": { "county": "MCDOWELL", "precinct": "N.COVE", "enr_desc": "North Cove", "winner": "Nathan Mace", "winner_votes": 73, "winner_share": 62.931034482758619, "runner_up": "Bryon Crisp", "runner_up_votes": 24, "runner_up_share": 20.689655172413794, "contest_votes": 116, "margin_of_victory": 42.241379310344826, "is_tie": false, "results": [ { "candidate": "Nathan Mace", "votes": 73, "share": 62.93103448275862 }, { "candidate": "Bryon Crisp", "votes": 24, "share": 20.689655172413794 }, { "candidate": "J. S. Calvert", "votes": 12, "share": 10.344827586206897 }, { "candidate": "Brent Allen Rumfelt", "votes": 7, "share": 6.0344827586206895 } ], "participated": true, "map_key": "MCDOWELL_N.COVE" }, "geometry": { "type": "Polygon", "coordinates": [ [ [ -81.986938991595508, 35.806923000275795 ], [ -81.98730699157079, 35.803215999759928 ], [ -81.993187991449034, 35.800372000096175 ], [ -81.993834990963222, 35.79900300066511 ], [ -81.995743991333327, 35.798513000156284 ], [ -82.009041991218325, 35.797467000263929 ], [ -82.012076990925451, 35.798463000420377 ], [ -82.013357991037481, 35.800304000400665 ], [ -82.017983991024309, 35.802845000606823 ], [ -82.019985991520514, 35.807840999905096 ], [ -82.017642991103614, 35.811970000063546 ], [ -82.017117990704392, 35.815707999872629 ], [ -82.018225991118015, 35.81743700038902 ], [ -82.020891990778111, 35.818068999947947 ], [ -82.022333990674014, 35.820587000262151 ], [ -82.024992990680246, 35.822450999837194 ], [ -82.030774991310494, 35.823330999787139 ], [ -82.030996990875622, 35.825536000004277 ], [ -82.034153990884363, 35.831057000300895 ], [ -82.031705990717413, 35.832583000201367 ], [ -82.03151199104127, 35.83509800035538 ], [ -82.03652499165932, 35.839469999983969 ], [ -82.043839991257002, 35.850934999777763 ], [ -82.046684991572889, 35.852836000012914 ], [ -82.046863990903773, 35.854177000138115 ], [ -82.03974899076762, 35.858382999787885 ], [ -82.037257991468195, 35.858784000479162 ], [ -82.033961990982149, 35.86218999982443 ], [ -82.033218991582785, 35.864955000353518 ], [ -82.029564990948614, 35.867878000601586 ], [ -82.029819990682029, 35.870362000197403 ], [ -82.028603991448762, 35.873269999789024 ], [ -82.028886991133831, 35.874649000556808 ], [ -82.027302991528487, 35.877689999899594 ], [ -82.02852899112527, 35.879323000527634 ], [ -82.026005991186523, 35.880421999879523 ], [ -82.025228991579866, 35.882416999885315 ], [ -82.0224419906761, 35.884983000478869 ], [ -82.013606991219604, 35.88521800023738 ], [ -82.007538991322704, 35.882700000491504 ], [ -82.00315999173651, 35.878280000537416 ], [ -82.003384991178621, 35.875769000028598 ], [ -81.999408991502918, 35.874007000002457 ], [ -81.996822991239881, 35.874084000409887 ], [ -81.991489990750665, 35.876158000359062 ], [ -81.989666990685208, 35.880227000039689 ], [ -81.987661991512638, 35.881063999784885 ], [ -81.986391991696607, 35.880762000503836 ], [ -81.98496899140244, 35.882647999820044 ], [ -81.980336990974592, 35.884716000368918 ], [ -81.980974991568374, 35.889861000093397 ], [ -81.980245991616144, 35.890613999827089 ], [ -81.979613991197951, 35.895901999969617 ], [ -81.980229990949567, 35.898512000417334 ], [ -81.979035991215412, 35.901446999882928 ], [ -81.981694991257001, 35.907634999834571 ], [ -81.982162990650608, 35.911218000362432 ], [ -81.979407991083519, 35.912472999804329 ], [ -81.978171991476714, 35.914445999813857 ], [ -81.976658991392242, 35.915094999814933 ], [ -81.972057991140105, 35.914937000639497 ], [ -81.968045991394348, 35.918643000322767 ], [ -81.965640991464397, 35.919369000461991 ], [ -81.964844990635171, 35.92078200059332 ], [ -81.960296991459018, 35.921278000050926 ], [ -81.95680499091597, 35.925351000172633 ], [ -81.954426991112598, 35.926759000525692 ], [ -81.954697991616655, 35.932326000369763 ], [ -81.962606990895111, 35.938101000086228 ], [ -81.963350990638702, 35.939578999795003 ], [ -81.962986991243937, 35.941782999871556 ], [ -81.94318799112807, 35.960050000143475 ], [ -81.942111990821957, 35.957525000455959 ], [ -81.939967990836948, 35.956828999915679 ], [ -81.939548991111252, 35.955703000059543 ], [ -81.937256991210973, 35.955170000541102 ], [ -81.936817990975513, 35.95238800060423 ], [ -81.934201991404024, 35.950283000153959 ], [ -81.934133990833161, 35.948469999821469 ], [ -81.931281991555764, 35.946618000486176 ], [ -81.930984991047438, 35.945501999821495 ], [ -81.932680990775935, 35.942963000290945 ], [ -81.932328990794034, 35.941380000027308 ], [ -81.925659991555065, 35.937418000528723 ], [ -81.928470990828728, 35.93153100033058 ], [ -81.924808990813318, 35.927227000308861 ], [ -81.921332990881226, 35.920931000170768 ], [ -81.920473991680367, 35.920618000305836 ], [ -81.920615991640204, 35.919085999933266 ], [ -81.914890991396689, 35.916438000127336 ], [ -81.913344991630154, 35.910925000070399 ], [ -81.910303990944115, 35.90555400062582 ], [ -81.911487991336386, 35.903581000132988 ], [ -81.914306991711186, 35.901395000264053 ], [ -81.911071991150735, 35.898415000140034 ], [ -81.909297991681854, 35.897766000607078 ], [ -81.909762991389883, 35.894568000256541 ], [ -81.907568990703709, 35.89078600016957 ], [ -81.908048991043856, 35.886675000255238 ], [ -81.906651991255259, 35.883376000135819 ], [ -81.9097049909834, 35.878786999927812 ], [ -81.909787991024331, 35.877186000401046 ], [ -81.912186990876762, 35.874696000124537 ], [ -81.911878990806059, 35.873375000174484 ], [ -81.914238990999152, 35.866362999776292 ], [ -81.918088991576894, 35.860207000230226 ], [ -81.916554991018998, 35.85891200046273 ], [ -81.918034990933606, 35.856642000183463 ], [ -81.917579991543306, 35.851673999841083 ], [ -81.920508991244986, 35.847078999890698 ], [ -81.924984991239157, 35.843070000435794 ], [ -81.930668991068401, 35.840505000393541 ], [ -81.931904991469537, 35.838993000418363 ], [ -81.935224991154968, 35.837433000609998 ], [ -81.939706991691395, 35.837712000232116 ], [ -81.941643991062762, 35.836080000487833 ], [ -81.942911991486952, 35.832826000477525 ], [ -81.947797990871152, 35.827779999851451 ], [ -81.94749399115058, 35.8259620001784 ], [ -81.949119990867302, 35.825642000095712 ], [ -81.950477990785657, 35.823748999856655 ], [ -81.954031990873943, 35.822294000098204 ], [ -81.956858991213423, 35.819682999934486 ], [ -81.968437991072491, 35.819603999835799 ], [ -81.973546991066044, 35.82117999992996 ], [ -81.974645991605939, 35.81946400043185 ], [ -81.97679899106403, 35.818980000112838 ], [ -81.978814991421871, 35.817073000586525 ], [ -81.980472990820928, 35.813328999925545 ], [ -81.986938991595508, 35.806923000275795 ] ] ] } },
{ "type": "Feature", "properties": { "county": "MCDOWELL", "precinct": "NEBO", "enr_desc": "Nebo", "winner": "Nathan Mace", "winner_votes": 115, "winner_share": 44.921875, "runner_up": "Bryon Crisp", "runner_up_votes": 83, "runner_up_share": 32.421875, "contest_votes": 256, "margin_of_victory": 12.5, "is_tie": false, "results": [ { "candidate": "Nathan Mace", "votes": 115, "share": 44.921875 }, { "candidate": "Bryon Crisp", "votes": 83, "share": 32.421875 }, { "candidate": "J. S. Calvert", "votes": 52, "share": 20.3125 }, { "candidate": "Brent Allen Rumfelt", "votes": 6, "share": 2.34375 } ], "participated": true, "map_key": "MCDOWELL_NEBO" }, "geometry": { "type": "Polygon", "coordinates": [ [ [ -81.899416991696754, 35.688229999926484 ], [ -81.906979990973298, 35.685512000103934 ], [ -81.92684999101516, 35.683738000514161 ], [ -81.937227991224773, 35.681665000186136 ], [ -81.938827990881478, 35.682359999901387 ], [ -81.946059990858288, 35.682583999834875 ], [ -81.953738991581375, 35.685648000022525 ], [ -81.950861991080771, 35.694875000380669 ], [ -81.951648990879661, 35.704065000049432 ], [ -81.952728990815856, 35.707180000159205 ], [ -81.957260991226065, 35.712373000225242 ], [ -81.96144799126742, 35.716438000029555 ], [ -81.964485991013476, 35.717031000515377 ], [ -81.967299990655832, 35.719605000658127 ], [ -81.96753799136502, 35.720754000092569 ], [ -81.967153991420005, 35.722332999971314 ], [ -81.969951991376178, 35.724690000058239 ], [ -81.970153991637886, 35.726185000366918 ], [ -81.966329991285335, 35.727937000246712 ], [ -81.965555990815318, 35.729250000575846 ], [ -81.969335990976646, 35.732709000577913 ], [ -81.969394990682105, 35.736670000008566 ], [ -81.967861991246892, 35.739819000642235 ], [ -81.962922991138655, 35.741268000636069 ], [ -81.961723991497621, 35.74478499982898 ], [ -81.951450990820106, 35.749518000671891 ], [ -81.949334990633488, 35.749118000095493 ], [ -81.940565990899202, 35.743984999802883 ], [ -81.934292990742875, 35.74384199982925 ], [ -81.932907991550834, 35.744940000216147 ], [ -81.932042990727112, 35.747637000266806 ], [ -81.927569990838123, 35.753701999999379 ], [ -81.931534991309917, 35.759081999891336 ], [ -81.932203990916094, 35.765481000418525 ], [ -81.933885990809387, 35.768642000519904 ], [ -81.869387990842938, 35.71962399980616 ], [ -81.861443991267393, 35.694035000409826 ], [ -81.864740990696092, 35.695799000610037 ], [ -81.86796799074294, 35.69597500056431 ], [ -81.8723019906773, 35.694883000224429 ], [ -81.884292991147689, 35.689789999942178 ], [ -81.894202991312227, 35.689971000638252 ], [ -81.899416991696754, 35.688229999926484 ] ] ] } },
{ "type": "Feature", "properties": { "county": "MCDOWELL", "precinct": "PLEASA", "enr_desc": "Pleasant Gardens", "winner": "Nathan Mace", "winner_votes": 128, "winner_share": 59.259259259259252, "runner_up": "Bryon Crisp", "runner_up_votes": 51, "runner_up_share": 23.611111111111111, "contest_votes": 216, "margin_of_victory": 35.648148148148138, "is_tie": false, "results": [ { "candidate": "Nathan Mace", "votes": 128, "share": 59.25925925925925 }, { "candidate": "Bryon Crisp", "votes": 51, "share": 23.61111111111111 }, { "candidate": "J. S. Calvert", "votes": 31, "share": 14.351851851851851 }, { "candidate": "Brent Allen Rumfelt", "votes": 6, "share": 2.7777777777777777 } ], "participated": true, "map_key": "MCDOWELL_PLEASA" }, "geometry": { "type": "Polygon", "coordinates": [ [ [ -82.104416990823452, 35.661520000234248 ], [ -82.108180991684719, 35.664431000504784 ], [ -82.105552991233125, 35.665950000615055 ], [ -82.105069991695032, 35.667459000169494 ], [ -82.10901899070123, 35.669360000490606 ], [ -82.11526299073509, 35.670248000283166 ], [ -82.117066991633976, 35.669038000212765 ], [ -82.123727991182534, 35.668246000175508 ], [ -82.127402991523738, 35.668410000286762 ], [ -82.129860991256933, 35.669664000316033 ], [ -82.129670991495004, 35.671621000609051 ], [ -82.132738991724722, 35.676233000001439 ], [ -82.132366990761895, 35.678717000124436 ], [ -82.134484991721777, 35.682328000114616 ], [ -82.131734990647658, 35.684678000345805 ], [ -82.131301991309584, 35.687094000578334 ], [ -82.128045990919915, 35.690011999860104 ], [ -82.129416990696683, 35.691437000656059 ], [ -82.135425990763366, 35.694331999863827 ], [ -82.135268991313652, 35.695710000088177 ], [ -82.132026990699487, 35.696308999975507 ], [ -82.130744991628973, 35.6982910002626 ], [ -82.142639991330725, 35.705348000398388 ], [ -82.185171991357464, 35.726813000165265 ], [ -82.197019991079358, 35.732525000341781 ], [ -82.200911991374568, 35.733565000269031 ], [ -82.197330991480356, 35.736418000176975 ], [ -82.194608991711462, 35.73517700045101 ], [ -82.193102991411862, 35.735622000540801 ], [ -82.190665991243733, 35.740028999946901 ], [ -82.190483991445049, 35.741980000253164 ], [ -82.184879991634332, 35.750125000332183 ], [ -82.185418991388502, 35.75089399983063 ], [ -82.184386990916579, 35.753461000486816 ], [ -82.182236991453152, 35.753521000421621 ], [ -82.176930990651655, 35.756033000193085 ], [ -82.176214991012188, 35.758219999949297 ], [ -82.172830991023091, 35.758989000536367 ], [ -82.169802991288805, 35.760918000276973 ], [ -82.170475990867914, 35.763023000080956 ], [ -82.166375991140953, 35.767578000556519 ], [ -82.164175990939825, 35.771271000547465 ], [ -82.164074991351868, 35.772760000673713 ], [ -82.162371991152938, 35.773453000669925 ], [ -82.159023991612685, 35.773392000432224 ], [ -82.155226991370938, 35.770963999871512 ], [ -82.14814799066707, 35.770211999906813 ], [ -82.140336991744192, 35.765913000555649 ], [ -82.137306990878855, 35.765246000432619 ], [ -82.134400991413415, 35.766791000575765 ], [ -82.131914990790364, 35.770226000435947 ], [ -82.127964991673508, 35.770357000168573 ], [ -82.121048990792133, 35.772438999906605 ], [ -82.117282991016538, 35.772495000019404 ], [ -82.116766990822697, 35.774003999877721 ], [ -82.114472991486267, 35.774680000051269 ], [ -82.110113991428477, 35.774549000502162 ], [ -82.105600990881854, 35.778315000446682 ], [ -82.102821991611378, 35.779371000381872 ], [ -82.100460991409321, 35.777659000354667 ], [ -82.091228991041419, 35.777225000297747 ], [ -82.085121991252038, 35.773258000356542 ], [ -82.082314990695764, 35.76941700025624 ], [ -82.074815991400982, 35.766396000292659 ], [ -82.072515991526288, 35.766248000401347 ], [ -82.071410991709328, 35.767176999896797 ], [ -82.066318991497255, 35.767952000450613 ], [ -82.060951991336708, 35.771965000065407 ], [ -82.055798991585533, 35.772146000172505 ], [ -82.054193991436151, 35.771404000498819 ], [ -82.052508990685595, 35.768815000667438 ], [ -82.053520991296438, 35.764505999912622 ], [ -82.056541991541891, 35.76036800029113 ], [ -82.057573991212109, 35.75708300003415 ], [ -82.051664991434862, 35.758199999803352 ], [ -82.041006990745387, 35.762366999974041 ], [ -82.042373991014571, 35.754871000006858 ], [ -82.0472589911233, 35.749930000195882 ], [ -82.049253991406729, 35.741119999880397 ], [ -82.048446991549113, 35.735169000224921 ], [ -82.046120991371453, 35.729018999879493 ], [ -82.04247999169985, 35.724113999974357 ], [ -82.04113199167098, 35.718594000501518 ], [ -82.037412990931784, 35.712819000666755 ], [ -82.036086990629684, 35.704294999862114 ], [ -82.047090991492951, 35.698299000112023 ], [ -82.04542299123564, 35.695857000400181 ], [ -82.04739699076228, 35.690634000129293 ], [ -82.045213991002186, 35.689843000400749 ], [ -82.044735991250647, 35.688506999938021 ], [ -82.046420990915848, 35.686353000376677 ], [ -82.043975991147818, 35.683874000168707 ], [ -82.040277991706063, 35.682824000354366 ], [ -82.040493990690706, 35.680724000541773 ], [ -82.043026990752438, 35.680422000282398 ], [ -82.041592990817165, 35.677534000179541 ], [ -82.053010991553805, 35.679341000604289 ], [ -82.061405991121092, 35.677500999977077 ], [ -82.069145991550343, 35.677487000226947 ], [ -82.07330599109612, 35.674928000097161 ], [ -82.085024991252936, 35.671817000092965 ], [ -82.104416990823452, 35.661520000234248 ] ] ] } },
{ "type": "Feature", "properties": { "county": "MCDOWELL", "precinct": "T.COVE", "enr_desc": "Turkey Cove 17", "winner": "Nathan Mace", "winner_votes": 64, "winner_share": 59.813084112149525, "runner_up": "J. S. Calvert", "runner_up_votes": 24, "runner_up_share": 22.429906542056074, "contest_votes": 107, "margin_of_victory": 37.383177570093451, "is_tie": false, "results": [ { "candidate": "Nathan Mace", "votes": 64, "share": 59.813084112149525 }, { "candidate": "J. S. Calvert", "votes": 24, "share": 22.429906542056074 }, { "candidate": "Bryon Crisp", "votes": 15, "share": 14.018691588785046 }, { "candidate": "Brent Allen Rumfelt", "votes": 4, "share": 3.7383177570093453 } ], "participated": true, "map_key": "MCDOWELL_T.COVE" }, "geometry": { "type": "Polygon", "coordinates": [ [ [ -82.162371991152938, 35.773453000669925 ], [ -82.160473991468223, 35.774257999812171 ], [ -82.158306991330377, 35.779738000653246 ], [ -82.160059991271339, 35.781458999825809 ], [ -82.166782991179176, 35.784901000305965 ], [ -82.167894991559379, 35.78913799984899 ], [ -82.165079991593544, 35.792150000312233 ], [ -82.16359099144951, 35.79258899986732 ], [ -82.164059991121817, 35.793165999844135 ], [ -82.161600991698535, 35.795346999900829 ], [ -82.161888991531498, 35.797836000263445 ], [ -82.158690991437282, 35.801090000505937 ], [ -82.155843990800733, 35.801369000532141 ], [ -82.15271299066913, 35.803913000028196 ], [ -82.147530991426592, 35.804291000315963 ], [ -82.147363991439164, 35.807705999813862 ], [ -82.148197991590351, 35.807561000246992 ], [ -82.15001299061629, 35.809413999791943 ], [ -82.14643799101637, 35.811604000576629 ], [ -82.141185990835098, 35.812776999815192 ], [ -82.140974991708561, 35.81427399990784 ], [ -82.133832991195476, 35.821052999981092 ], [ -82.133304990659852, 35.82439500011553 ], [ -82.130111991440714, 35.825251000653154 ], [ -82.124445991260544, 35.823938000508051 ], [ -82.121193990756481, 35.824617000117648 ], [ -82.117245991165447, 35.832592999957278 ], [ -82.113731991098632, 35.834623999950921 ], [ -82.109827991602657, 35.835023000495518 ], [ -82.106133990707932, 35.838550000333179 ], [ -82.10229599101902, 35.840338999820538 ], [ -82.10082499153522, 35.842722999819053 ], [ -82.099404990669626, 35.851671000054743 ], [ -82.096069991557172, 35.852134000492448 ], [ -82.092173991350066, 35.849184000191272 ], [ -82.089588991069263, 35.850986999940304 ], [ -82.084640991032586, 35.849345999861505 ], [ -82.074193991591017, 35.848280999933493 ], [ -82.071315991075735, 35.850451999799567 ], [ -82.067271990851751, 35.850288000096945 ], [ -82.063356991584385, 35.851937000470969 ], [ -82.059295991213119, 35.851115000100769 ], [ -82.05592099136642, 35.852379000402301 ], [ -82.053116991300342, 35.85185500059778 ], [ -82.046863990903773, 35.854177000138115 ], [ -82.046684991572889, 35.852836000012914 ], [ -82.043839991257002, 35.850934999777763 ], [ -82.03652499165932, 35.839469999983969 ], [ -82.03151199104127, 35.83509800035538 ], [ -82.031705990717413, 35.832583000201367 ], [ -82.034153990884363, 35.831057000300895 ], [ -82.030996990875622, 35.825536000004277 ], [ -82.030774991310494, 35.823330999787139 ], [ -82.024992990680246, 35.822450999837194 ], [ -82.022333990674014, 35.820587000262151 ], [ -82.020891990778111, 35.818068999947947 ], [ -82.018225991118015, 35.81743700038902 ], [ -82.017117990704392, 35.815707999872629 ], [ -82.017642991103614, 35.811970000063546 ], [ -82.019985991520514, 35.807840999905096 ], [ -82.017983991024309, 35.802845000606823 ], [ -82.013357991037481, 35.800304000400665 ], [ -82.012076990925451, 35.798463000420377 ], [ -82.009041991218325, 35.797467000263929 ], [ -81.995743991333327, 35.798513000156284 ], [ -81.993834990963222, 35.79900300066511 ], [ -81.993187991449034, 35.800372000096175 ], [ -81.98730699157079, 35.803215999759928 ], [ -81.986938991595508, 35.806923000275795 ], [ -81.984426991285403, 35.801984000635869 ], [ -81.984061991622355, 35.798264000624727 ], [ -81.986377991087792, 35.794277000538855 ], [ -81.98841699147485, 35.786641999771142 ], [ -81.996847990800148, 35.786905000282118 ], [ -82.004699991184765, 35.783906000657218 ], [ -82.007128991176089, 35.78183000019672 ], [ -82.011626991439186, 35.780442999805857 ], [ -82.009668991278005, 35.774421000636238 ], [ -82.010284990734007, 35.767546000078433 ], [ -82.005661991000878, 35.763048999880823 ], [ -82.005104991361065, 35.760664000069738 ], [ -82.010467991078272, 35.76003400064473 ], [ -82.013142990755583, 35.761144000220924 ], [ -82.012956990692302, 35.756736000192923 ], [ -82.013627991062179, 35.756727000404076 ], [ -82.015879991583702, 35.758059000108837 ], [ -82.018245991432522, 35.757637000262982 ], [ -82.018878991546231, 35.759181000400716 ], [ -82.021970990986503, 35.759747000204925 ], [ -82.022955991368846, 35.76190000050569 ], [ -82.023970991399025, 35.760875999768579 ], [ -82.02711999155369, 35.761536000391672 ], [ -82.031966991403763, 35.760339000045377 ], [ -82.032933991057448, 35.760945000628944 ], [ -82.032812990708521, 35.762059000358825 ], [ -82.035602991158314, 35.767789000384354 ], [ -82.03704399142579, 35.764785000382602 ], [ -82.037786991489426, 35.766414000423616 ], [ -82.039353990722859, 35.765426000086805 ], [ -82.040976991356132, 35.76588100028934 ], [ -82.041006990745387, 35.762366999974041 ], [ -82.051664991434862, 35.758199999803352 ], [ -82.057573991212109, 35.75708300003415 ], [ -82.056541991541891, 35.76036800029113 ], [ -82.053520991296438, 35.764505999912622 ], [ -82.052508990685595, 35.768815000667438 ], [ -82.054193991436151, 35.771404000498819 ], [ -82.055798991585533, 35.772146000172505 ], [ -82.060951991336708, 35.771965000065407 ], [ -82.066318991497255, 35.767952000450613 ], [ -82.071410991709328, 35.767176999896797 ], [ -82.072515991526288, 35.766248000401347 ], [ -82.074815991400982, 35.766396000292659 ], [ -82.082314990695764, 35.76941700025624 ], [ -82.085121991252038, 35.773258000356542 ], [ -82.091228991041419, 35.777225000297747 ], [ -82.100460991409321, 35.777659000354667 ], [ -82.102821991611378, 35.779371000381872 ], [ -82.105600990881854, 35.778315000446682 ], [ -82.110113991428477, 35.774549000502162 ], [ -82.114472991486267, 35.774680000051269 ], [ -82.116766990822697, 35.774003999877721 ], [ -82.117282991016538, 35.772495000019404 ], [ -82.121048990792133, 35.772438999906605 ], [ -82.127964991673508, 35.770357000168573 ], [ -82.131914990790364, 35.770226000435947 ], [ -82.134400991413415, 35.766791000575765 ], [ -82.137306990878855, 35.765246000432619 ], [ -82.140336991744192, 35.765913000555649 ], [ -82.14814799066707, 35.770211999906813 ], [ -82.155226991370938, 35.770963999871512 ], [ -82.159023991612685, 35.773392000432224 ], [ -82.162371991152938, 35.773453000669925 ] ] ] } },
{ "type": "Feature", "properties": { "county": "MCDOWELL", "precinct": "WEST M", "enr_desc": "West Marion 7", "winner": "Nathan Mace", "winner_votes": 107, "winner_share": 41.96078431372549, "runner_up": "Bryon Crisp", "runner_up_votes": 84, "runner_up_share": 32.941176470588232, "contest_votes": 255, "margin_of_victory": 9.0196078431372584, "is_tie": false, "results": [ { "candidate": "Nathan Mace", "votes": 107, "share": 41.96078431372549 }, { "candidate": "Bryon Crisp", "votes": 84, "share": 32.94117647058823 }, { "candidate": "J. S. Calvert", "votes": 62, "share": 24.313725490196077 }, { "candidate": "Brent Allen Rumfelt", "votes": 2, "share": 0.7843137254901961 } ], "participated": true, "map_key": "MCDOWELL_WEST M" }, "geometry": { "type": "Polygon", "coordinates": [ [ [ -82.113996991276252, 35.640587999884538 ], [ -82.115115991612342, 35.642494000100662 ], [ -82.113346990824979, 35.644616000233633 ], [ -82.110548991450756, 35.645250000024113 ], [ -82.10817199159375, 35.644336999788209 ], [ -82.106163991042919, 35.64619500021152 ], [ -82.101761990862897, 35.6466140004447 ], [ -82.102697991413663, 35.653045000346857 ], [ -82.09878899090495, 35.653233000538982 ], [ -82.096570990822784, 35.654271000517646 ], [ -82.096724990907958, 35.656131000560713 ], [ -82.099623990652518, 35.657268000287736 ], [ -82.104416990823452, 35.661520000234248 ], [ -82.085024991252936, 35.671817000092965 ], [ -82.07330599109612, 35.674928000097161 ], [ -82.069145991550343, 35.677487000226947 ], [ -82.061405991121092, 35.677500999977077 ], [ -82.053010991553805, 35.679341000604289 ], [ -82.041592990817165, 35.677534000179541 ], [ -82.035480991361553, 35.673722000604329 ], [ -82.031745991290194, 35.668674999827239 ], [ -82.029216991367662, 35.667668000429522 ], [ -82.027967990661026, 35.666305000043018 ], [ -82.025483990967075, 35.666936000500137 ], [ -82.022987991084094, 35.665078000234807 ], [ -82.021486990776339, 35.665212000673726 ], [ -82.01864599087537, 35.66815300003541 ], [ -82.016029991226873, 35.666930000362278 ], [ -82.010071990993509, 35.666952000268708 ], [ -82.007048991671383, 35.665840000279815 ], [ -82.002924991735256, 35.665608000584903 ], [ -82.000287991248072, 35.666108000426803 ], [ -81.996193990850131, 35.6688440005302 ], [ -81.993277991230272, 35.669542000431569 ], [ -81.987096991629144, 35.667179999985649 ], [ -81.981539991620494, 35.660627000017513 ], [ -81.983101991367135, 35.646215999838461 ], [ -81.983596991467508, 35.64577099990953 ], [ -81.993395990750983, 35.63691500024315 ], [ -81.996455991520108, 35.635055000508601 ], [ -82.002871991232709, 35.633847000436056 ], [ -82.008376991545049, 35.635344000582087 ], [ -82.034629991399328, 35.611512000039674 ], [ -82.043894991242624, 35.616817000522609 ], [ -82.051657991634301, 35.622411999770762 ], [ -82.053704991441919, 35.625252000208903 ], [ -82.05384299090322, 35.629028000316232 ], [ -82.058225991358327, 35.629267000024115 ], [ -82.0609339915612, 35.626540000098409 ], [ -82.06122699134626, 35.62544100012601 ], [ -82.059001991529001, 35.621956000094286 ], [ -82.060042990762952, 35.62180600060757 ], [ -82.064591990777629, 35.623730999844028 ], [ -82.069379991165562, 35.630369000430825 ], [ -82.073933990742461, 35.634365000501802 ], [ -82.083850991520691, 35.633741999984537 ], [ -82.090525991395367, 35.6355920001402 ], [ -82.104155990927566, 35.636113000381989 ], [ -82.107737991613078, 35.637188999946652 ], [ -82.113996991276252, 35.640587999884538 ] ] ] } }
]
}
