{
"type": "FeatureCollection",
"name": "mitchell_county_clerk_of_superior_court_rep",
"crs": { "type": "name", "properties": { "name": "urn:ogc:def:crs:OGC:1.3:CRS84" } },
"features": [
{ "type": "Feature", "properties": { "county": "MITCHELL", "precinct": "01-A", "enr_desc": "Bakersville", "winner": "Shana W. Buchanan", "winner_votes": 585, "winner_share": 86.029411764705884, "runner_up": "David Wheeler", "runner_up_votes": 95, "runner_up_share": 13.970588235294118, "contest_votes": 680, "margin_of_victory": 72.058823529411768, "is_tie": false, "results": [ { "candidate": "Shana W. Buchanan", "votes": 585, "share": 86.02941176470588 }, { "candidate": "David Wheeler", "votes": 95, "share": 13.970588235294118 } ], "participated": true, "map_key": "MITCHELL_01-A" }, "geometry": { "type": "Polygon", "coordinates": [ [ [ -82.19135299136822, 35.981879999936389 ], [ -82.192722991656723, 35.984019999780507 ], [ -82.191338990999157, 35.985987000391461 ], [ -82.191704990769054, 35.990636000068022 ], [ -82.197403991409416, 35.992217000652495 ], [ -82.197944990864173, 35.995476000005226 ], [ -82.201206991287336, 35.998728000055664 ], [ -82.204196991348724, 36.003923000020286 ], [ -82.203833991472919, 36.005939000389517 ], [ -82.200409991103569, 36.006107000607784 ], [ -82.196396991698776, 36.000513000471948 ], [ -82.193562990740531, 36.0010689999866 ], [ -82.193153991220797, 36.005148000172476 ], [ -82.194389990979417, 36.01054900061429 ], [ -82.198602990750658, 36.015800000019695 ], [ -82.205295991304212, 36.014076000445421 ], [ -82.209709991581448, 36.01666199986024 ], [ -82.214191990832916, 36.017059999922132 ], [ -82.219944990695367, 36.015043000523768 ], [ -82.223177991183235, 36.014951999934006 ], [ -82.227779991328646, 36.012889000635276 ], [ -82.233474991392711, 36.013487000042353 ], [ -82.237586991637727, 36.009386999776893 ], [ -82.236307991213437, 36.005915000219353 ], [ -82.237176991212124, 36.004739000373156 ], [ -82.24949999096286, 36.008875000661554 ], [ -82.252114990650938, 36.008683000531605 ], [ -82.25402199138189, 36.005702000503852 ], [ -82.252335990919647, 36.002364000405308 ], [ -82.252646990998315, 35.998898000618986 ], [ -82.249229990956081, 35.991632000229089 ], [ -82.249426990844668, 35.989569999863768 ], [ -82.251125991088301, 35.988871000418051 ], [ -82.25779299163375, 35.992668000519231 ], [ -82.260045990739968, 35.996848000316405 ], [ -82.262662991341486, 35.999752000369632 ], [ -82.272132991409464, 36.002194000572779 ], [ -82.273863991151089, 36.003589000377183 ], [ -82.274107991293988, 36.005952000182944 ], [ -82.27289699162688, 36.01076900063039 ], [ -82.267966990672946, 36.014361999964663 ], [ -82.266275991622066, 36.014632000528309 ], [ -82.262902990985694, 36.017064000170386 ], [ -82.259855990768813, 36.017139999899925 ], [ -82.259044990856154, 36.019313000194117 ], [ -82.255829991008397, 36.020016000476538 ], [ -82.258251991232314, 36.021440000611605 ], [ -82.258042991283602, 36.023121000372775 ], [ -82.258868991101664, 36.024216000404188 ], [ -82.256632990935572, 36.02668600025779 ], [ -82.256061991294814, 36.029559000378583 ], [ -82.257967991206442, 36.034884000008873 ], [ -82.257398990685743, 36.038721999932335 ], [ -82.258573991588904, 36.040400000662267 ], [ -82.257864990888251, 36.041795000463694 ], [ -82.26023799081122, 36.045518000691402 ], [ -82.261920991380094, 36.052440999779712 ], [ -82.260314991526954, 36.055531000376298 ], [ -82.25823599094727, 36.056384999946033 ], [ -82.257161991694772, 36.059106000478579 ], [ -82.253165991065416, 36.062314000152853 ], [ -82.248207990628714, 36.058772000345812 ], [ -82.244678990876693, 36.057755000107626 ], [ -82.243181991573081, 36.055058999809368 ], [ -82.23647399068247, 36.051415000259453 ], [ -82.235862991611768, 36.04661599989992 ], [ -82.231202991382716, 36.043353000593832 ], [ -82.223044990659091, 36.040707000342678 ], [ -82.214819991197771, 36.042676000187861 ], [ -82.209565990956307, 36.037996000631793 ], [ -82.20889499166671, 36.036495999861963 ], [ -82.202412990795452, 36.033484000561401 ], [ -82.200058991648802, 36.035415000467118 ], [ -82.1993249907663, 36.0370810001073 ], [ -82.195236991171555, 36.037492999944256 ], [ -82.19154999149022, 36.04107300057602 ], [ -82.187660991465293, 36.04136599993479 ], [ -82.181022990949728, 36.039351000420531 ], [ -82.177597991017052, 36.040817000310135 ], [ -82.176320991486079, 36.041999000455135 ], [ -82.173223990877247, 36.04291500051837 ], [ -82.172690990957918, 36.045201000404745 ], [ -82.167914991421483, 36.048389000006161 ], [ -82.161413991127247, 36.048539000001639 ], [ -82.152860991318249, 36.047105999781891 ], [ -82.148889991610318, 36.047608999837962 ], [ -82.146091990674478, 36.048906000184878 ], [ -82.141755990670873, 36.047654999847232 ], [ -82.136575991451068, 36.04420900047851 ], [ -82.135531991104145, 36.040464000035719 ], [ -82.13672099118817, 36.037505000666521 ], [ -82.136719990977923, 36.034514999976373 ], [ -82.134668991417783, 36.03061100047362 ], [ -82.132650990957416, 36.029012000263265 ], [ -82.133477990972381, 36.027573000294943 ], [ -82.133799991349079, 36.022930000463951 ], [ -82.131727991379819, 36.019566000196932 ], [ -82.131894991337717, 36.017941999819278 ], [ -82.133809991644895, 36.015915000099142 ], [ -82.133206991100096, 36.011176000186815 ], [ -82.129232991182889, 36.011840999833097 ], [ -82.128408991028081, 36.00949500060976 ], [ -82.126520991383231, 36.007813000516762 ], [ -82.120717990990457, 36.006230999922195 ], [ -82.117953990879798, 36.003035000243656 ], [ -82.118014990743404, 36.000213000467859 ], [ -82.115632990977161, 35.998512000411914 ], [ -82.115471991699579, 35.997007000098115 ], [ -82.113779990778355, 35.995527999837094 ], [ -82.103659991510369, 35.99318699984277 ], [ -82.106279991020386, 35.992607000298442 ], [ -82.107719991383959, 35.99050700048835 ], [ -82.109350991139422, 35.989654000624853 ], [ -82.116144991446987, 35.991196000286138 ], [ -82.121789990877232, 35.990466000506295 ], [ -82.126514990645504, 35.985803000349421 ], [ -82.134450990651686, 35.983791000159705 ], [ -82.135487990745276, 35.98286500068248 ], [ -82.144006990631411, 35.984473000246467 ], [ -82.143572991701916, 35.980230000068744 ], [ -82.149085990859689, 35.976215000638824 ], [ -82.161023991167681, 35.978605999866929 ], [ -82.165789991706461, 35.980760000385786 ], [ -82.165962991374656, 35.982193000494398 ], [ -82.167373991490535, 35.981509000137258 ], [ -82.173556991155465, 35.984508000444471 ], [ -82.176869991500098, 35.981768000002688 ], [ -82.180876991540131, 35.982832000215204 ], [ -82.184844990627937, 35.98216400035254 ], [ -82.187130990821615, 35.98282300026672 ], [ -82.19135299136822, 35.981879999936389 ] ] ] } },
{ "type": "Feature", "properties": { "county": "MITCHELL", "precinct": "7", "enr_desc": "Poplar", "winner": "Shana W. Buchanan", "winner_votes": 44, "winner_share": 86.274509803921575, "runner_up": "David Wheeler", "runner_up_votes": 7, "runner_up_share": 13.725490196078432, "contest_votes": 51, "margin_of_victory": 72.54901960784315, "is_tie": false, "results": [ { "candidate": "Shana W. Buchanan", "votes": 44, "share": 86.27450980392157 }, { "candidate": "David Wheeler", "votes": 7, "share": 13.725490196078432 } ], "participated": true, "map_key": "MITCHELL_7" }, "geometry": { "type": "Polygon", "coordinates": [ [ [ -82.32819199112285, 36.029200000595118 ], [ -82.335877990676011, 36.029148000567574 ], [ -82.33848599066512, 36.030502999947203 ], [ -82.339946990698905, 36.035406000406489 ], [ -82.337598991400583, 36.039067000342563 ], [ -82.336154990660859, 36.044763000122252 ], [ -82.336984990990842, 36.055055999879173 ], [ -82.339314991225308, 36.059498000164574 ], [ -82.340731991282922, 36.065557999986325 ], [ -82.344152991265176, 36.069861000462154 ], [ -82.345289991623346, 36.076458999888636 ], [ -82.348477990823767, 36.078456000374437 ], [ -82.351957991493379, 36.084519000670284 ], [ -82.35387999117475, 36.084412000588834 ], [ -82.356496991219018, 36.082902999833316 ], [ -82.359323991635364, 36.078467000537472 ], [ -82.368432990770415, 36.077266999905113 ], [ -82.371277990708947, 36.076160000361845 ], [ -82.373844991319729, 36.072387000140395 ], [ -82.376573990737782, 36.070855000240002 ], [ -82.380080991628489, 36.070740000679208 ], [ -82.385694991252649, 36.076362999968694 ], [ -82.392936991276201, 36.080367000277398 ], [ -82.398659991064676, 36.081910999949379 ], [ -82.401464991433684, 36.081087999882833 ], [ -82.402663991014023, 36.078753999861334 ], [ -82.402569991622414, 36.076973000513632 ], [ -82.399071991497905, 36.073087000439898 ], [ -82.400081990779753, 36.07123600013567 ], [ -82.404337990879853, 36.072269999995136 ], [ -82.414335991159078, 36.071832000376403 ], [ -82.416737991599689, 36.072827000365578 ], [ -82.409797991641383, 36.083018999846736 ], [ -82.407115991649647, 36.084501999947626 ], [ -82.402524990692569, 36.089145000689307 ], [ -82.397954991381482, 36.090406999979962 ], [ -82.397073991464026, 36.091967999994552 ], [ -82.389217991454586, 36.097097000454731 ], [ -82.383108991123294, 36.099369999914117 ], [ -82.380474990651749, 36.099346999997955 ], [ -82.378725991247606, 36.103253000433071 ], [ -82.374857991696302, 36.106054000120587 ], [ -82.364659990872312, 36.107460000341341 ], [ -82.363562990806955, 36.109395000338445 ], [ -82.361642991606331, 36.109888999808888 ], [ -82.355483991566786, 36.115313999978603 ], [ -82.352645991313963, 36.116486000417851 ], [ -82.35020299098808, 36.117036000662502 ], [ -82.347444991366828, 36.115138000086482 ], [ -82.343558990654728, 36.115532000554992 ], [ -82.336397991189074, 36.114624000599612 ], [ -82.332031991486545, 36.117370000145094 ], [ -82.328519991709328, 36.117535000669562 ], [ -82.32339199117915, 36.120181000615517 ], [ -82.320530991150747, 36.119729999970481 ], [ -82.31553099160179, 36.122367000645944 ], [ -82.314317990765616, 36.124021000239331 ], [ -82.308888991506024, 36.12645300039523 ], [ -82.307080991337131, 36.128586000396886 ], [ -82.303327990636163, 36.130986999886815 ], [ -82.297269991507363, 36.133447999999667 ], [ -82.291655991207648, 36.128101999922237 ], [ -82.290315990915374, 36.123761000543048 ], [ -82.290083991120852, 36.120457999886185 ], [ -82.292824991567528, 36.112555000478785 ], [ -82.29339499117971, 36.107937000541575 ], [ -82.293343990840228, 36.10126000009727 ], [ -82.292139990911593, 36.094020000268223 ], [ -82.300278990900097, 36.091707999807632 ], [ -82.303374991350751, 36.088508000355432 ], [ -82.312873991264908, 36.088058000412872 ], [ -82.317655990877427, 36.082546000055721 ], [ -82.319972991362945, 36.08142400039366 ], [ -82.320107991651724, 36.076152000188159 ], [ -82.318851991553913, 36.069011000132981 ], [ -82.317332990818102, 36.067799000521248 ], [ -82.313344991441255, 36.056937000233468 ], [ -82.314931990604123, 36.053284999866435 ], [ -82.316635991230072, 36.052450999827094 ], [ -82.317701991217135, 36.049894999804032 ], [ -82.319580991686252, 36.049385000629563 ], [ -82.321087991212778, 36.047736000156206 ], [ -82.323306990688067, 36.042754000195295 ], [ -82.323408991648435, 36.039338000484399 ], [ -82.326354990749806, 36.037289000303794 ], [ -82.326103991657178, 36.035129999875188 ], [ -82.32819199112285, 36.029200000595118 ] ] ] } },
{ "type": "Feature", "properties": { "county": "MITCHELL", "precinct": "2", "enr_desc": "Bradshaw", "winner": "Shana W. Buchanan", "winner_votes": 89, "winner_share": 93.684210526315795, "runner_up": "David Wheeler", "runner_up_votes": 6, "runner_up_share": 6.3157894736842106, "contest_votes": 95, "margin_of_victory": 87.368421052631589, "is_tie": false, "results": [ { "candidate": "Shana W. Buchanan", "votes": 89, "share": 93.6842105263158 }, { "candidate": "David Wheeler", "votes": 6, "share": 6.315789473684211 } ], "participated": true, "map_key": "MITCHELL_2" }, "geometry": { "type": "Polygon", "coordinates": [ [ [ -82.267966990672946, 36.014361999964663 ], [ -82.267842991514343, 36.016106000337793 ], [ -82.268733991563238, 36.017463000487396 ], [ -82.272842990882879, 36.019531000142315 ], [ -82.2797899908212, 36.025281999898517 ], [ -82.290858990644551, 36.029383000441328 ], [ -82.291962990952882, 36.03180800042319 ], [ -82.295416991627263, 36.034849999930003 ], [ -82.298736991568404, 36.039397000442214 ], [ -82.299279991462541, 36.041397000067448 ], [ -82.29876499095586, 36.044344000367339 ], [ -82.300037991308145, 36.04579900004137 ], [ -82.30186699155324, 36.045245000638587 ], [ -82.303269991271691, 36.042417000442462 ], [ -82.30492099133788, 36.041047000472098 ], [ -82.309929991202551, 36.040145000686344 ], [ -82.31226199150538, 36.037619999792184 ], [ -82.313311990771894, 36.034673000123981 ], [ -82.31142999140728, 36.027748000497397 ], [ -82.312434990995158, 36.026104000349527 ], [ -82.320210991262499, 36.025515000567147 ], [ -82.323372991358369, 36.029097000089195 ], [ -82.32819199112285, 36.029200000595118 ], [ -82.326103991657178, 36.035129999875188 ], [ -82.326354990749806, 36.037289000303794 ], [ -82.323408991648435, 36.039338000484399 ], [ -82.323306990688067, 36.042754000195295 ], [ -82.321087991212778, 36.047736000156206 ], [ -82.319580991686252, 36.049385000629563 ], [ -82.317701991217135, 36.049894999804032 ], [ -82.316635991230072, 36.052450999827094 ], [ -82.314931990604123, 36.053284999866435 ], [ -82.313344991441255, 36.056937000233468 ], [ -82.317332990818102, 36.067799000521248 ], [ -82.318851991553913, 36.069011000132981 ], [ -82.320107991651724, 36.076152000188159 ], [ -82.319972991362945, 36.08142400039366 ], [ -82.317655990877427, 36.082546000055721 ], [ -82.312873991264908, 36.088058000412872 ], [ -82.303374991350751, 36.088508000355432 ], [ -82.300278990900097, 36.091707999807632 ], [ -82.292139990911593, 36.094020000268223 ], [ -82.293343990840228, 36.10126000009727 ], [ -82.29339499117971, 36.107937000541575 ], [ -82.292824991567528, 36.112555000478785 ], [ -82.290083991120852, 36.120457999886185 ], [ -82.290315990915374, 36.123761000543048 ], [ -82.291655991207648, 36.128101999922237 ], [ -82.297269991507363, 36.133447999999667 ], [ -82.288571991039973, 36.135727000121456 ], [ -82.280011991629237, 36.129094000083462 ], [ -82.273447990990903, 36.129316999907807 ], [ -82.270115990676288, 36.127469999852032 ], [ -82.266412991174548, 36.126966999986806 ], [ -82.263924990841545, 36.127296999990847 ], [ -82.263204990966798, 36.129999999870613 ], [ -82.260303991271741, 36.133533000213731 ], [ -82.254327990790472, 36.136057999892984 ], [ -82.251184990683896, 36.132110000674963 ], [ -82.248972990693986, 36.132394000382391 ], [ -82.245214990798758, 36.131220999896115 ], [ -82.244715990820282, 36.129497999816806 ], [ -82.248205990624072, 36.123771000301417 ], [ -82.249819991449783, 36.114103000593779 ], [ -82.252348991318613, 36.11245000037826 ], [ -82.255047991505435, 36.109212000181827 ], [ -82.254173990792765, 36.107465000267609 ], [ -82.247712991689568, 36.102611000136413 ], [ -82.247549990708592, 36.100730000047157 ], [ -82.250424990891489, 36.094863000221665 ], [ -82.249848991518178, 36.09164899985425 ], [ -82.251856990581189, 36.086191999839052 ], [ -82.251376990578592, 36.082783999806196 ], [ -82.253618991019934, 36.08006100020971 ], [ -82.25589299113517, 36.074835000653955 ], [ -82.254770991640655, 36.074161000564665 ], [ -82.253537991573666, 36.070809000655437 ], [ -82.254007990966684, 36.068745000661124 ], [ -82.252998990717217, 36.065872000114211 ], [ -82.253165991065416, 36.062314000152853 ], [ -82.257161991694772, 36.059106000478579 ], [ -82.25823599094727, 36.056384999946033 ], [ -82.260314991526954, 36.055531000376298 ], [ -82.261920991380094, 36.052440999779712 ], [ -82.26023799081122, 36.045518000691402 ], [ -82.257864990888251, 36.041795000463694 ], [ -82.258573991588904, 36.040400000662267 ], [ -82.257398990685743, 36.038721999932335 ], [ -82.257967991206442, 36.034884000008873 ], [ -82.256061991294814, 36.029559000378583 ], [ -82.256632990935572, 36.02668600025779 ], [ -82.258868991101664, 36.024216000404188 ], [ -82.258042991283602, 36.023121000372775 ], [ -82.258251991232314, 36.021440000611605 ], [ -82.255829991008397, 36.020016000476538 ], [ -82.259044990856154, 36.019313000194117 ], [ -82.259855990768813, 36.017139999899925 ], [ -82.262902990985694, 36.017064000170386 ], [ -82.266275991622066, 36.014632000528309 ], [ -82.267966990672946, 36.014361999964663 ] ] ] } },
{ "type": "Feature", "properties": { "county": "MITCHELL", "precinct": "3", "enr_desc": "Cane Creek", "winner": "Shana W. Buchanan", "winner_votes": 196, "winner_share": 85.217391304347828, "runner_up": "David Wheeler", "runner_up_votes": 34, "runner_up_share": 14.782608695652174, "contest_votes": 230, "margin_of_victory": 70.434782608695656, "is_tie": false, "results": [ { "candidate": "Shana W. Buchanan", "votes": 196, "share": 85.21739130434783 }, { "candidate": "David Wheeler", "votes": 34, "share": 14.782608695652174 } ], "participated": true, "map_key": "MITCHELL_3" }, "geometry": { "type": "Polygon", "coordinates": [ [ [ -82.059133991591395, 35.988346000249031 ], [ -82.064353991412872, 35.985938000133721 ], [ -82.068482990786393, 35.986631000536022 ], [ -82.073002990813734, 35.983703999915022 ], [ -82.077388990987345, 35.986419000189805 ], [ -82.078265991608788, 35.989309999836649 ], [ -82.083147991263971, 35.997238999810499 ], [ -82.084408991411223, 35.996611000396427 ], [ -82.087219991043185, 35.998062000212293 ], [ -82.091506990910418, 35.997638999973006 ], [ -82.095713991146084, 35.994555000438289 ], [ -82.100161990733255, 35.995000000069723 ], [ -82.102070990982284, 35.993409000353068 ], [ -82.103659991510369, 35.99318699984277 ], [ -82.113779990778355, 35.995527999837094 ], [ -82.115471991699579, 35.997007000098115 ], [ -82.115632990977161, 35.998512000411914 ], [ -82.118014990743404, 36.000213000467859 ], [ -82.117953990879798, 36.003035000243656 ], [ -82.120717990990457, 36.006230999922195 ], [ -82.126520991383231, 36.007813000516762 ], [ -82.128408991028081, 36.00949500060976 ], [ -82.129232991182889, 36.011840999833097 ], [ -82.133206991100096, 36.011176000186815 ], [ -82.133809991644895, 36.015915000099142 ], [ -82.131894991337717, 36.017941999819278 ], [ -82.131727991379819, 36.019566000196932 ], [ -82.133799991349079, 36.022930000463951 ], [ -82.133477990972381, 36.027573000294943 ], [ -82.132650990957416, 36.029012000263265 ], [ -82.134668991417783, 36.03061100047362 ], [ -82.136719990977923, 36.034514999976373 ], [ -82.13672099118817, 36.037505000666521 ], [ -82.135531991104145, 36.040464000035719 ], [ -82.136575991451068, 36.04420900047851 ], [ -82.130635991425578, 36.045355999792733 ], [ -82.128066991078768, 36.04463400067209 ], [ -82.125733991244743, 36.046438000536376 ], [ -82.125334991606536, 36.049297000642476 ], [ -82.121007991384943, 36.050116000062602 ], [ -82.119178990910285, 36.051215999847976 ], [ -82.115658991508184, 36.051461000014314 ], [ -82.112173991104896, 36.051515000632286 ], [ -82.108085991373244, 36.047509999936921 ], [ -82.102891991551274, 36.046778000245403 ], [ -82.100707991200338, 36.048060000316255 ], [ -82.094595991423603, 36.046143000345367 ], [ -82.089270990822243, 36.049765000298564 ], [ -82.086443991609258, 36.050337000413229 ], [ -82.082340990997679, 36.052582000500685 ], [ -82.078835991221098, 36.052653000062094 ], [ -82.072553990818989, 36.059113000544428 ], [ -82.072868991509011, 36.06122900003885 ], [ -82.069851991358362, 36.061857000458332 ], [ -82.068020990932737, 36.063979000455539 ], [ -82.039174990778903, 36.007774000015765 ], [ -82.043023991103269, 36.006042000212723 ], [ -82.049134990999647, 36.008163000046629 ], [ -82.049716990757176, 36.004941000570248 ], [ -82.048852991646768, 36.001674000013786 ], [ -82.055112991155951, 35.999475999856386 ], [ -82.058072991261255, 35.995244000030098 ], [ -82.059133991591395, 35.988346000249031 ] ] ] } },
{ "type": "Feature", "properties": { "county": "MITCHELL", "precinct": "4", "enr_desc": "Grassy Creek", "winner": "Shana W. Buchanan", "winner_votes": 1748, "winner_share": 82.258823529411757, "runner_up": "David Wheeler", "runner_up_votes": 377, "runner_up_share": 17.741176470588236, "contest_votes": 2125, "margin_of_victory": 64.517647058823513, "is_tie": false, "results": [ { "candidate": "Shana W. Buchanan", "votes": 1748, "share": 82.25882352941176 }, { "candidate": "David Wheeler", "votes": 377, "share": 17.741176470588236 } ], "participated": true, "map_key": "MITCHELL_4" }, "geometry": { "type": "Polygon", "coordinates": [ [ [ -82.148327991238446, 35.932861000096445 ], [ -82.146038991433784, 35.933620000612258 ], [ -82.147431990900131, 35.938585999989378 ], [ -82.146581991502401, 35.940255000050932 ], [ -82.142885991417771, 35.937980000605094 ], [ -82.138723991560724, 35.93774499996718 ], [ -82.136343991409277, 35.93667200017471 ], [ -82.132761990942356, 35.936973000663464 ], [ -82.129026991465963, 35.93613799989366 ], [ -82.12708799073026, 35.936849000584601 ], [ -82.120456991055008, 35.928739000537249 ], [ -82.117697991053902, 35.929967000462049 ], [ -82.114678991570642, 35.929179000561462 ], [ -82.109807991616094, 35.930340000045113 ], [ -82.106089991702945, 35.932358000378542 ], [ -82.104955991419033, 35.933849000590349 ], [ -82.103071991206093, 35.93351900033683 ], [ -82.102639990867999, 35.932674000492078 ], [ -82.099436990840218, 35.933229000506607 ], [ -82.097245991000278, 35.935185000104006 ], [ -82.097908991312508, 35.936803000450098 ], [ -82.094622991317735, 35.942397999945939 ], [ -82.092164991243607, 35.945295000224995 ], [ -82.087853991591516, 35.948389999819746 ], [ -82.087171991097378, 35.950248000438883 ], [ -82.084468990754374, 35.951771000500685 ], [ -82.083266991707475, 35.953381000428607 ], [ -82.078051991126358, 35.954289000065614 ], [ -82.080468991663338, 35.957305000451832 ], [ -82.080355991297552, 35.959825000391703 ], [ -82.076439990736631, 35.965093000126274 ], [ -82.075865991504841, 35.969809999828655 ], [ -82.076265991618499, 35.978487000241529 ], [ -82.073453991514299, 35.981667999934629 ], [ -82.073002990813734, 35.983703999915022 ], [ -82.068482990786393, 35.986631000536022 ], [ -82.064353991412872, 35.985938000133721 ], [ -82.059133991591395, 35.988346000249031 ], [ -82.048324991080165, 35.963843000002221 ], [ -82.03410399165881, 35.942056999950879 ], [ -81.981953991368258, 35.911361000511867 ], [ -81.981694991257001, 35.907634999834571 ], [ -81.979035991215412, 35.901446999882928 ], [ -81.980229990949567, 35.898512000417334 ], [ -81.979613991197951, 35.895901999969617 ], [ -81.980245991616144, 35.890613999827089 ], [ -81.980994991361811, 35.889580000026058 ], [ -81.980214990943708, 35.884849000507323 ], [ -81.98496899140244, 35.882647999820044 ], [ -81.986391991696607, 35.880762000503836 ], [ -81.987661991512638, 35.881063999784885 ], [ -81.989666990685208, 35.880227000039689 ], [ -81.991489990750665, 35.876158000359062 ], [ -81.996822991239881, 35.874084000409887 ], [ -81.999716991264833, 35.87407600043224 ], [ -82.003384991178621, 35.875769000028598 ], [ -82.00315999173651, 35.878280000537416 ], [ -82.007538991322704, 35.882700000491504 ], [ -82.013606991219604, 35.88521800023738 ], [ -82.022158990939928, 35.885103999893282 ], [ -82.025228991579866, 35.882416999885315 ], [ -82.026005991186523, 35.880421999879523 ], [ -82.02852899112527, 35.879323000527634 ], [ -82.027302991528487, 35.877689999899594 ], [ -82.028886991133831, 35.874649000556808 ], [ -82.028603991448762, 35.873269999789024 ], [ -82.029819990682029, 35.870362000197403 ], [ -82.029564990948614, 35.867878000601586 ], [ -82.033218991582785, 35.864955000353518 ], [ -82.033961990982149, 35.86218999982443 ], [ -82.037257991468195, 35.858784000479162 ], [ -82.03974899076762, 35.858382999787885 ], [ -82.048038990734653, 35.853228999890781 ], [ -82.053116991300342, 35.85185500059778 ], [ -82.05592099136642, 35.852379000402301 ], [ -82.059295991213119, 35.851115000100769 ], [ -82.063356991584385, 35.851937000470969 ], [ -82.067271990851751, 35.850288000096945 ], [ -82.071571991048515, 35.850370000278225 ], [ -82.073712991266447, 35.848305000058723 ], [ -82.074676991696634, 35.848258999853833 ], [ -82.084640991032586, 35.849345999861505 ], [ -82.089588991069263, 35.850986999940304 ], [ -82.092173991350066, 35.849184000191272 ], [ -82.095651991248076, 35.851942000239546 ], [ -82.098250991228454, 35.852133000082866 ], [ -82.099870990662225, 35.851001000650356 ], [ -82.099546990650126, 35.848948000159709 ], [ -82.101807990862653, 35.840826000622393 ], [ -82.106133990707932, 35.838550000333179 ], [ -82.109827991602657, 35.835023000495518 ], [ -82.113731991098632, 35.834623999950921 ], [ -82.117245991165447, 35.832592999957278 ], [ -82.121193990756481, 35.824617000117648 ], [ -82.124445991260544, 35.823938000508051 ], [ -82.130111991440714, 35.825251000653154 ], [ -82.133304990659852, 35.82439500011553 ], [ -82.133483991661805, 35.82330900031284 ], [ -82.148316990643139, 35.822727999892635 ], [ -82.147331991550885, 35.824513999966612 ], [ -82.144971991641953, 35.823815999896517 ], [ -82.143517991659991, 35.825424000507581 ], [ -82.143606990669156, 35.826883000274726 ], [ -82.143895991571071, 35.829482000289069 ], [ -82.145083991404164, 35.830422000279327 ], [ -82.145405991616414, 35.832901000277211 ], [ -82.147030990789816, 35.835917999973795 ], [ -82.146739991161454, 35.837275999932274 ], [ -82.149358991430958, 35.839480000151219 ], [ -82.150079991236368, 35.841656000366307 ], [ -82.146461991369137, 35.841638999899679 ], [ -82.145731991106516, 35.843342000144901 ], [ -82.143774990693345, 35.843859000306594 ], [ -82.142768991605351, 35.84179200021061 ], [ -82.141378991298652, 35.841913000400467 ], [ -82.140197991305158, 35.842824000355449 ], [ -82.140377991002737, 35.844466999931271 ], [ -82.138596991062016, 35.845908000436744 ], [ -82.141457991215333, 35.846760000049088 ], [ -82.142731991635486, 35.848826000542488 ], [ -82.141832991120111, 35.851832000292717 ], [ -82.142823990831033, 35.855184000470366 ], [ -82.141222991416868, 35.856706000526778 ], [ -82.141168991638125, 35.857861000037062 ], [ -82.14253199154868, 35.858427000067778 ], [ -82.144750991093346, 35.862610000350337 ], [ -82.146269991108042, 35.863599000423491 ], [ -82.145619991415614, 35.866109000344785 ], [ -82.146267991386281, 35.867309000225006 ], [ -82.145165991129446, 35.86979800029733 ], [ -82.145730991689504, 35.873369999775583 ], [ -82.144396991551119, 35.874888000016995 ], [ -82.145375990938277, 35.877045000662598 ], [ -82.144776991479972, 35.880320000304742 ], [ -82.146943991454151, 35.88271099995498 ], [ -82.146460991121444, 35.883635000642343 ], [ -82.147328990754687, 35.885541000413504 ], [ -82.14612399083012, 35.887214999936347 ], [ -82.146839991265978, 35.888051999847121 ], [ -82.146492990810827, 35.889083000530952 ], [ -82.14993899146512, 35.891190999887222 ], [ -82.149830991433973, 35.892486999947209 ], [ -82.145513991036367, 35.894839999888219 ], [ -82.144699990647695, 35.896522000476132 ], [ -82.146491991013363, 35.897129000379216 ], [ -82.145982990790102, 35.900626000000535 ], [ -82.14739299150736, 35.902802000229926 ], [ -82.146670991508074, 35.906465000503317 ], [ -82.14512099160882, 35.903991000088652 ], [ -82.142878991541082, 35.905394000600324 ], [ -82.142971991133322, 35.909984000602506 ], [ -82.144812991347763, 35.913692000122985 ], [ -82.146231990748902, 35.911407000098279 ], [ -82.149726990650507, 35.913520999959211 ], [ -82.15010199110931, 35.916546000676419 ], [ -82.151797990628268, 35.914665000408668 ], [ -82.154947990803748, 35.915002999849314 ], [ -82.153404990791316, 35.918122000564942 ], [ -82.155026991195697, 35.921063000072081 ], [ -82.153274990625832, 35.921513000515603 ], [ -82.15218499088887, 35.923656999960869 ], [ -82.150244991572663, 35.924383000047662 ], [ -82.152697991305203, 35.92845700026924 ], [ -82.145198990762978, 35.930899000659458 ], [ -82.14552899086766, 35.931940999997579 ], [ -82.148327991238446, 35.932861000096445 ] ] ] } },
{ "type": "Feature", "properties": { "county": "MITCHELL", "precinct": "5", "enr_desc": "Harrell", "winner": "Shana W. Buchanan", "winner_votes": 316, "winner_share": 88.268156424581008, "runner_up": "David Wheeler", "runner_up_votes": 42, "runner_up_share": 11.731843575418994, "contest_votes": 358, "margin_of_victory": 76.536312849162016, "is_tie": false, "results": [ { "candidate": "Shana W. Buchanan", "votes": 316, "share": 88.26815642458101 }, { "candidate": "David Wheeler", "votes": 42, "share": 11.731843575418994 } ], "participated": true, "map_key": "MITCHELL_5" }, "geometry": { "type": "Polygon", "coordinates": [ [ [ -82.214819991197771, 36.042676000187861 ], [ -82.223044990659091, 36.040707000342678 ], [ -82.231202991382716, 36.043353000593832 ], [ -82.235862991611768, 36.04661599989992 ], [ -82.23647399068247, 36.051415000259453 ], [ -82.243181991573081, 36.055058999809368 ], [ -82.244678990876693, 36.057755000107626 ], [ -82.248207990628714, 36.058772000345812 ], [ -82.253165991065416, 36.062314000152853 ], [ -82.252998990717217, 36.065872000114211 ], [ -82.254007990966684, 36.068745000661124 ], [ -82.253537991573666, 36.070809000655437 ], [ -82.254770991640655, 36.074161000564665 ], [ -82.25589299113517, 36.074835000653955 ], [ -82.253618991019934, 36.08006100020971 ], [ -82.251376990578592, 36.082783999806196 ], [ -82.251856990581189, 36.086191999839052 ], [ -82.249848991518178, 36.09164899985425 ], [ -82.250424990891489, 36.094863000221665 ], [ -82.247549990708592, 36.100730000047157 ], [ -82.247712991689568, 36.102611000136413 ], [ -82.254173990792765, 36.107465000267609 ], [ -82.255047991505435, 36.109212000181827 ], [ -82.252348991318613, 36.11245000037826 ], [ -82.249819991449783, 36.114103000593779 ], [ -82.248205990624072, 36.123771000301417 ], [ -82.244715990820282, 36.129497999816806 ], [ -82.245214990798758, 36.131220999896115 ], [ -82.243471991151139, 36.133008000341768 ], [ -82.241882990752202, 36.137125000472963 ], [ -82.236999990838115, 36.139660000363875 ], [ -82.235327991595199, 36.141750000003768 ], [ -82.233541990857844, 36.142207999901586 ], [ -82.231710991402963, 36.144147000402143 ], [ -82.229536991142339, 36.144588000352876 ], [ -82.228101991154944, 36.147259000520243 ], [ -82.224274991351095, 36.150837999874049 ], [ -82.22202799130315, 36.155554000103862 ], [ -82.222144990721347, 36.156922000553749 ], [ -82.218592991678491, 36.156994999783507 ], [ -82.214378991558789, 36.158979999838891 ], [ -82.211694991007278, 36.158964000038921 ], [ -82.20813699160469, 36.157261000623265 ], [ -82.204580990696044, 36.157355000593824 ], [ -82.201732990639385, 36.15638400039731 ], [ -82.199556991158403, 36.152828999838114 ], [ -82.19274599085216, 36.149038000162527 ], [ -82.187582991257386, 36.150994999862419 ], [ -82.186810991080051, 36.148384999916665 ], [ -82.18362599075725, 36.143911000682671 ], [ -82.180339990782798, 36.143647999929719 ], [ -82.177216991156698, 36.142372999977987 ], [ -82.172933990872579, 36.146499999920707 ], [ -82.16850899137232, 36.146714000311668 ], [ -82.165649990891893, 36.144972000025895 ], [ -82.164125991646458, 36.146290000344621 ], [ -82.161563991460426, 36.146840000415722 ], [ -82.159328990943081, 36.145871999894638 ], [ -82.156021991372455, 36.148191000191019 ], [ -82.153120990913038, 36.148190000228254 ], [ -82.148688990771774, 36.149903000450983 ], [ -82.148032990883166, 36.147733000077473 ], [ -82.144367990662673, 36.144138000511461 ], [ -82.144451991641731, 36.140406000564958 ], [ -82.141044991646837, 36.138779000146833 ], [ -82.140794991041446, 36.136103000557526 ], [ -82.136986990620571, 36.129038999973929 ], [ -82.136786991393635, 36.12346100060379 ], [ -82.13785599129713, 36.119510000494557 ], [ -82.132601991215054, 36.111150000603168 ], [ -82.130625991295616, 36.105024000403901 ], [ -82.134961990823044, 36.102975000206968 ], [ -82.138680991331611, 36.097119000503149 ], [ -82.141397990990768, 36.094616000476265 ], [ -82.149744991387124, 36.091346999979024 ], [ -82.15683399123219, 36.087495000214524 ], [ -82.16069199060118, 36.086941999979963 ], [ -82.161416990955217, 36.084441999792631 ], [ -82.164937991433504, 36.080533000211247 ], [ -82.168834990635006, 36.079502000023425 ], [ -82.169126991316134, 36.077204000642858 ], [ -82.171449991152727, 36.074257000600788 ], [ -82.174432991151377, 36.073870000296175 ], [ -82.178380990770023, 36.071166000446134 ], [ -82.184086991511464, 36.07128000004996 ], [ -82.185711991175225, 36.067779000574639 ], [ -82.189279990819159, 36.064967000621586 ], [ -82.193060990725044, 36.063388000570704 ], [ -82.194554990672728, 36.061798000431942 ], [ -82.198553991450055, 36.060380999929244 ], [ -82.199353991192453, 36.054634000308127 ], [ -82.202063991063596, 36.051695000209698 ], [ -82.206595991351477, 36.05058100031151 ], [ -82.207238991417753, 36.04949200044225 ], [ -82.209964991204927, 36.049968000524245 ], [ -82.213901990638874, 36.048996000152151 ], [ -82.216204991314243, 36.049751000054314 ], [ -82.219709991177666, 36.047401000636938 ], [ -82.214819991197771, 36.042676000187861 ] ] ] } },
{ "type": "Feature", "properties": { "county": "MITCHELL", "precinct": "6", "enr_desc": "Little Rock Creek", "winner": "Shana W. Buchanan", "winner_votes": 206, "winner_share": 85.477178423236509, "runner_up": "David Wheeler", "runner_up_votes": 35, "runner_up_share": 14.522821576763487, "contest_votes": 241, "margin_of_victory": 70.954356846473019, "is_tie": false, "results": [ { "candidate": "Shana W. Buchanan", "votes": 206, "share": 85.47717842323651 }, { "candidate": "David Wheeler", "votes": 35, "share": 14.522821576763487 } ], "participated": true, "map_key": "MITCHELL_6" }, "geometry": { "type": "Polygon", "coordinates": [ [ [ -82.214819991197771, 36.042676000187861 ], [ -82.219709991177666, 36.047401000636938 ], [ -82.216204991314243, 36.049751000054314 ], [ -82.213901990638874, 36.048996000152151 ], [ -82.209964991204927, 36.049968000524245 ], [ -82.207238991417753, 36.04949200044225 ], [ -82.206595991351477, 36.05058100031151 ], [ -82.202063991063596, 36.051695000209698 ], [ -82.199353991192453, 36.054634000308127 ], [ -82.198553991450055, 36.060380999929244 ], [ -82.194554990672728, 36.061798000431942 ], [ -82.193060990725044, 36.063388000570704 ], [ -82.189279990819159, 36.064967000621586 ], [ -82.185711991175225, 36.067779000574639 ], [ -82.184086991511464, 36.07128000004996 ], [ -82.178380990770023, 36.071166000446134 ], [ -82.174432991151377, 36.073870000296175 ], [ -82.171449991152727, 36.074257000600788 ], [ -82.169126991316134, 36.077204000642858 ], [ -82.168834990635006, 36.079502000023425 ], [ -82.164937991433504, 36.080533000211247 ], [ -82.161416990955217, 36.084441999792631 ], [ -82.16069199060118, 36.086941999979963 ], [ -82.15683399123219, 36.087495000214524 ], [ -82.149744991387124, 36.091346999979024 ], [ -82.141397990990768, 36.094616000476265 ], [ -82.138680991331611, 36.097119000503149 ], [ -82.134961990823044, 36.102975000206968 ], [ -82.130625991295616, 36.105024000403901 ], [ -82.128762990708168, 36.104012000243323 ], [ -82.116351991564841, 36.104300999776001 ], [ -82.109009991291074, 36.107376999906755 ], [ -82.105417991229075, 36.107836999998199 ], [ -82.100309990743767, 36.105671000008073 ], [ -82.086531991074565, 36.1060020000956 ], [ -82.081078990702906, 36.103170000148417 ], [ -82.080702991550936, 36.099986000559014 ], [ -82.075850990806984, 36.095825000049842 ], [ -82.077023990691302, 36.092670000430509 ], [ -82.076897990904214, 36.085239000415086 ], [ -82.071729991224387, 36.080398999907786 ], [ -82.069780991337183, 36.076897000255805 ], [ -82.069467990958202, 36.074650000228004 ], [ -82.071925991551723, 36.069672999762275 ], [ -82.068020990932737, 36.063979000455539 ], [ -82.069851991358362, 36.061857000458332 ], [ -82.072868991509011, 36.06122900003885 ], [ -82.072553990818989, 36.059113000544428 ], [ -82.078835991221098, 36.052653000062094 ], [ -82.082340990997679, 36.052582000500685 ], [ -82.086443991609258, 36.050337000413229 ], [ -82.089270990822243, 36.049765000298564 ], [ -82.094595991423603, 36.046143000345367 ], [ -82.100707991200338, 36.048060000316255 ], [ -82.102891991551274, 36.046778000245403 ], [ -82.108085991373244, 36.047509999936921 ], [ -82.112173991104896, 36.051515000632286 ], [ -82.115658991508184, 36.051461000014314 ], [ -82.119178990910285, 36.051215999847976 ], [ -82.121007991384943, 36.050116000062602 ], [ -82.125334991606536, 36.049297000642476 ], [ -82.125733991244743, 36.046438000536376 ], [ -82.128066991078768, 36.04463400067209 ], [ -82.130635991425578, 36.045355999792733 ], [ -82.136575991451068, 36.04420900047851 ], [ -82.141755990670873, 36.047654999847232 ], [ -82.146091990674478, 36.048906000184878 ], [ -82.148889991610318, 36.047608999837962 ], [ -82.152860991318249, 36.047105999781891 ], [ -82.161413991127247, 36.048539000001639 ], [ -82.167914991421483, 36.048389000006161 ], [ -82.172690990957918, 36.045201000404745 ], [ -82.173223990877247, 36.04291500051837 ], [ -82.176320991486079, 36.041999000455135 ], [ -82.177597991017052, 36.040817000310135 ], [ -82.181022990949728, 36.039351000420531 ], [ -82.187660991465293, 36.04136599993479 ], [ -82.19154999149022, 36.04107300057602 ], [ -82.195236991171555, 36.037492999944256 ], [ -82.1993249907663, 36.0370810001073 ], [ -82.200058991648802, 36.035415000467118 ], [ -82.202412990795452, 36.033484000561401 ], [ -82.20889499166671, 36.036495999861963 ], [ -82.209565990956307, 36.037996000631793 ], [ -82.214819991197771, 36.042676000187861 ] ] ] } },
{ "type": "Feature", "properties": { "county": "MITCHELL", "precinct": "9", "enr_desc": "Snow Creek", "winner": "Shana W. Buchanan", "winner_votes": 434, "winner_share": 90.416666666666671, "runner_up": "David Wheeler", "runner_up_votes": 46, "runner_up_share": 9.5833333333333339, "contest_votes": 480, "margin_of_victory": 80.833333333333343, "is_tie": false, "results": [ { "candidate": "Shana W. Buchanan", "votes": 434, "share": 90.41666666666667 }, { "candidate": "David Wheeler", "votes": 46, "share": 9.583333333333334 } ], "participated": true, "map_key": "MITCHELL_9" }, "geometry": { "type": "Polygon", "coordinates": [ [ [ -82.148327991238446, 35.932861000096445 ], [ -82.154767991123066, 35.933642000658494 ], [ -82.158651991149938, 35.930779000420713 ], [ -82.160377990675983, 35.930421000305898 ], [ -82.1653549914775, 35.934332000265961 ], [ -82.166594991284569, 35.934529999832314 ], [ -82.168425991234926, 35.932676000133242 ], [ -82.167709990978821, 35.929281999911282 ], [ -82.169723990993404, 35.928617000598805 ], [ -82.175609990917579, 35.933016999966654 ], [ -82.177212990886318, 35.935638999835632 ], [ -82.183240990684325, 35.937318000150313 ], [ -82.184180991647139, 35.938601999797953 ], [ -82.184212991002113, 35.942397000259128 ], [ -82.191563990778434, 35.947064000159834 ], [ -82.192221991188887, 35.949664000614185 ], [ -82.193722991008016, 35.95089500032509 ], [ -82.19755499127659, 35.952057000061593 ], [ -82.196175991669946, 35.954389000263916 ], [ -82.194108991507619, 35.95562599998258 ], [ -82.192750990901132, 35.959483000609104 ], [ -82.187488991061855, 35.958083000537961 ], [ -82.186011991423712, 35.959445999946823 ], [ -82.186311991655018, 35.960958000580341 ], [ -82.189811991088348, 35.963032000479465 ], [ -82.190881990694393, 35.965373000224908 ], [ -82.19404299078117, 35.96726700060087 ], [ -82.191310990862192, 35.970306000060887 ], [ -82.19135299136822, 35.981879999936389 ], [ -82.187130990821615, 35.98282300026672 ], [ -82.184844990627937, 35.98216400035254 ], [ -82.180876991540131, 35.982832000215204 ], [ -82.176869991500098, 35.981768000002688 ], [ -82.173556991155465, 35.984508000444471 ], [ -82.167373991490535, 35.981509000137258 ], [ -82.165962991374656, 35.982193000494398 ], [ -82.165789991706461, 35.980760000385786 ], [ -82.161023991167681, 35.978605999866929 ], [ -82.149085990859689, 35.976215000638824 ], [ -82.143572991701916, 35.980230000068744 ], [ -82.144006990631411, 35.984473000246467 ], [ -82.135487990745276, 35.98286500068248 ], [ -82.134450990651686, 35.983791000159705 ], [ -82.126514990645504, 35.985803000349421 ], [ -82.121789990877232, 35.990466000506295 ], [ -82.116144991446987, 35.991196000286138 ], [ -82.109350991139422, 35.989654000624853 ], [ -82.107719991383959, 35.99050700048835 ], [ -82.106279991020386, 35.992607000298442 ], [ -82.103659991510369, 35.99318699984277 ], [ -82.102070990982284, 35.993409000353068 ], [ -82.100161990733255, 35.995000000069723 ], [ -82.095713991146084, 35.994555000438289 ], [ -82.091506990910418, 35.997638999973006 ], [ -82.087219991043185, 35.998062000212293 ], [ -82.084408991411223, 35.996611000396427 ], [ -82.083147991263971, 35.997238999810499 ], [ -82.078265991608788, 35.989309999836649 ], [ -82.077388990987345, 35.986419000189805 ], [ -82.073002990813734, 35.983703999915022 ], [ -82.073453991514299, 35.981667999934629 ], [ -82.076265991618499, 35.978487000241529 ], [ -82.075865991504841, 35.969809999828655 ], [ -82.076439990736631, 35.965093000126274 ], [ -82.080355991297552, 35.959825000391703 ], [ -82.080468991663338, 35.957305000451832 ], [ -82.078051991126358, 35.954289000065614 ], [ -82.083266991707475, 35.953381000428607 ], [ -82.084468990754374, 35.951771000500685 ], [ -82.087171991097378, 35.950248000438883 ], [ -82.087853991591516, 35.948389999819746 ], [ -82.092164991243607, 35.945295000224995 ], [ -82.094622991317735, 35.942397999945939 ], [ -82.097908991312508, 35.936803000450098 ], [ -82.097245991000278, 35.935185000104006 ], [ -82.099436990840218, 35.933229000506607 ], [ -82.102639990867999, 35.932674000492078 ], [ -82.103071991206093, 35.93351900033683 ], [ -82.104955991419033, 35.933849000590349 ], [ -82.106089991702945, 35.932358000378542 ], [ -82.109807991616094, 35.930340000045113 ], [ -82.114678991570642, 35.929179000561462 ], [ -82.117697991053902, 35.929967000462049 ], [ -82.120456991055008, 35.928739000537249 ], [ -82.12708799073026, 35.936849000584601 ], [ -82.129026991465963, 35.93613799989366 ], [ -82.132761990942356, 35.936973000663464 ], [ -82.136343991409277, 35.93667200017471 ], [ -82.138723991560724, 35.93774499996718 ], [ -82.142885991417771, 35.937980000605094 ], [ -82.146581991502401, 35.940255000050932 ], [ -82.147431990900131, 35.938585999989378 ], [ -82.146038991433784, 35.933620000612258 ], [ -82.148327991238446, 35.932861000096445 ] ] ] } }
]
}
