{
"type": "FeatureCollection",
"name": "nash_county_board_of_commissioners_district_05_rep",
"crs": { "type": "name", "properties": { "name": "urn:ogc:def:crs:OGC:1.3:CRS84" } },
"features": [
{ "type": "Feature", "properties": { "county": null, "precinct": null, "enr_desc": "Spring Hope", "winner": null, "winner_votes": null, "winner_share": null, "runner_up": null, "runner_up_votes": null, "runner_up_share": null, "contest_votes": null, "margin_of_victory": null, "is_tie": false, "results": null, "participated": false, "map_key": null }, "geometry": { "type": "Polygon", "coordinates": [ [ [ -78.0575189912404, 35.875559000058608 ], [ -78.061800990977247, 35.880033999628694 ], [ -78.065773990996391, 35.886058999996365 ], [ -78.074158991676455, 35.888872000175567 ], [ -78.078765991646705, 35.888004999527382 ], [ -78.084093991053365, 35.882050999505786 ], [ -78.098813991521723, 35.883106999514773 ], [ -78.101211991016086, 35.886595000027221 ], [ -78.102760991594977, 35.891608999533034 ], [ -78.103332991385301, 35.896619999635334 ], [ -78.102772991656281, 35.900667999547863 ], [ -78.103438991286779, 35.903108000309118 ], [ -78.104117991554915, 35.904192000071426 ], [ -78.106490991322914, 35.904976000365828 ], [ -78.120555990863707, 35.905438999965554 ], [ -78.123451991062979, 35.903972000293187 ], [ -78.127341991281128, 35.898603999553849 ], [ -78.133555990678502, 35.898197000064407 ], [ -78.138109990861892, 35.904831999585149 ], [ -78.138601990989486, 35.913150000067517 ], [ -78.141591991484546, 35.915942999553081 ], [ -78.141991991087551, 35.922683000054718 ], [ -78.148139991468213, 35.928089999816443 ], [ -78.147332990917079, 35.934678999675199 ], [ -78.149047991126309, 35.936612999746934 ], [ -78.151324991630077, 35.936088000286645 ], [ -78.152706991129691, 35.931140000364579 ], [ -78.155776991292811, 35.929134000387059 ], [ -78.164137990810403, 35.929642000261573 ], [ -78.171471990645614, 35.927754000077478 ], [ -78.177101991607671, 35.929729999905497 ], [ -78.184196990915979, 35.935488999791865 ], [ -78.122004990954295, 36.030477999752868 ], [ -78.118135991146644, 36.029533000128104 ], [ -78.114480990706767, 36.027145000041486 ], [ -78.10606299061628, 36.030464999876465 ], [ -78.100462991509872, 36.028978999983629 ], [ -78.095724991595205, 36.029072999882139 ], [ -78.090918991549685, 36.030904000091851 ], [ -78.087348991546506, 36.030425999880016 ], [ -78.081621990706296, 36.032321999662862 ], [ -78.078113991500203, 36.031777999993139 ], [ -78.075963990838844, 36.032349999529025 ], [ -78.074975991021688, 36.03038400025968 ], [ -78.068789991689229, 36.027892000306387 ], [ -78.068073991381212, 36.026040000048305 ], [ -78.064307991593708, 36.023766999562646 ], [ -78.06434199078285, 36.022575999746394 ], [ -78.065801990900894, 36.021004999565413 ], [ -78.064273990736538, 36.018864000084641 ], [ -78.063639990954826, 36.015348999693401 ], [ -78.058291991153425, 36.011346000063938 ], [ -78.056596991188542, 36.011043000071446 ], [ -78.055967991657099, 36.009999999691608 ], [ -78.059623991206493, 36.007836000064842 ], [ -78.059698991699136, 36.006666999985832 ], [ -78.062245991202502, 36.003597000258772 ], [ -78.065259991208933, 36.003658000306281 ], [ -78.067618990762782, 36.002329000236003 ], [ -78.067928990801306, 36.000384000215874 ], [ -78.069219990629037, 35.999285000362711 ], [ -78.070753991356383, 35.998707999593066 ], [ -78.071869991664059, 35.999389000018276 ], [ -78.076822990785075, 35.995423999578655 ], [ -78.080443991072499, 35.994052000375092 ], [ -78.078618991699571, 35.984316000175099 ], [ -78.081859991059588, 35.983259000243557 ], [ -78.102303991374171, 35.981280000100085 ], [ -78.09780199154018, 35.97980600020518 ], [ -78.092553991488572, 35.974298999624764 ], [ -78.089549991175929, 35.972453000180728 ], [ -78.090756991440472, 35.970101000147054 ], [ -78.091505991160346, 35.965377999843554 ], [ -78.091496991671818, 35.956575999871063 ], [ -78.090408991312955, 35.954769000124109 ], [ -78.090318990634785, 35.949095999777207 ], [ -78.08788699160867, 35.945795999691363 ], [ -78.08626699080223, 35.945313000056451 ], [ -78.085995990874551, 35.944335999847787 ], [ -78.084665991538159, 35.943824999886878 ], [ -78.084875990656613, 35.943154999755357 ], [ -78.082537991619134, 35.941551999530745 ], [ -78.080401990887239, 35.937279999686012 ], [ -78.080726991448927, 35.93488000037172 ], [ -78.077228990633927, 35.933253999920758 ], [ -78.072548990713756, 35.933249000353676 ], [ -78.06882299122158, 35.931251000175173 ], [ -78.057248990966713, 35.928791000271382 ], [ -78.05383999086726, 35.926923000177389 ], [ -78.053164991262847, 35.925731999900883 ], [ -78.047860991401905, 35.924842999662282 ], [ -78.043415991222616, 35.922901999492112 ], [ -78.04215399147246, 35.921721000106544 ], [ -78.04276299170705, 35.920975000178849 ], [ -78.041823991300546, 35.91983199984373 ], [ -78.035755990986047, 35.919060999597505 ], [ -78.026655991369509, 35.915703999543346 ], [ -78.02462599142747, 35.912941999690389 ], [ -78.025254991319201, 35.910117999859914 ], [ -78.033030990951104, 35.909478999790736 ], [ -78.035138990681858, 35.908413999731415 ], [ -78.039467991664679, 35.900572999945126 ], [ -78.04170699112403, 35.89955799964185 ], [ -78.043705991251315, 35.896674999864871 ], [ -78.047695991488965, 35.895577999676007 ], [ -78.047598990790249, 35.887501999754818 ], [ -78.056608990719255, 35.877735000085778 ], [ -78.0575189912404, 35.875559000058608 ] ] ] } },
{ "type": "Feature", "properties": { "county": null, "precinct": null, "enr_desc": "Momeyer", "winner": null, "winner_votes": null, "winner_share": null, "runner_up": null, "runner_up_votes": null, "runner_up_share": null, "contest_votes": null, "margin_of_victory": null, "is_tie": false, "results": null, "participated": false, "map_key": null }, "geometry": { "type": "Polygon", "coordinates": [ [ [ -78.047860991401905, 35.924842999662282 ], [ -78.053164991262847, 35.925731999900883 ], [ -78.05383999086726, 35.926923000177389 ], [ -78.057248990966713, 35.928791000271382 ], [ -78.06882299122158, 35.931251000175173 ], [ -78.072548990713756, 35.933249000353676 ], [ -78.077228990633927, 35.933253999920758 ], [ -78.080726991448927, 35.93488000037172 ], [ -78.080401990887239, 35.937279999686012 ], [ -78.082537991619134, 35.941551999530745 ], [ -78.084875990656613, 35.943154999755357 ], [ -78.084665991538159, 35.943824999886878 ], [ -78.085995990874551, 35.944335999847787 ], [ -78.08626699080223, 35.945313000056451 ], [ -78.08788699160867, 35.945795999691363 ], [ -78.090318990634785, 35.949095999777207 ], [ -78.090408991312955, 35.954769000124109 ], [ -78.091496991671818, 35.956575999871063 ], [ -78.091505991160346, 35.965377999843554 ], [ -78.090756991440472, 35.970101000147054 ], [ -78.089549991175929, 35.972453000180728 ], [ -78.092553991488572, 35.974298999624764 ], [ -78.09780199154018, 35.97980600020518 ], [ -78.102303991374171, 35.981280000100085 ], [ -78.081859991059588, 35.983259000243557 ], [ -78.078618991699571, 35.984316000175099 ], [ -78.080443991072499, 35.994052000375092 ], [ -78.076822990785075, 35.995423999578655 ], [ -78.071869991664059, 35.999389000018276 ], [ -78.070753991356383, 35.998707999593066 ], [ -78.069219990629037, 35.999285000362711 ], [ -78.067928990801306, 36.000384000215874 ], [ -78.067618990762782, 36.002329000236003 ], [ -78.065259991208933, 36.003658000306281 ], [ -78.062245991202502, 36.003597000258772 ], [ -78.059698991699136, 36.006666999985832 ], [ -78.059623991206493, 36.007836000064842 ], [ -78.055967991657099, 36.009999999691608 ], [ -78.056596991188542, 36.011043000071446 ], [ -78.053236991549312, 36.010469999912125 ], [ -78.050561991568543, 36.011039999737349 ], [ -78.05016599104907, 36.006662000233064 ], [ -78.048718990807998, 36.00365900001858 ], [ -78.038418990656211, 36.004013999886546 ], [ -78.040706991042271, 35.99169400013659 ], [ -78.039472991351275, 35.979852000154075 ], [ -78.0362589915093, 35.976452000043004 ], [ -78.032090991422535, 35.974606000320165 ], [ -78.029350991283721, 35.970920999680992 ], [ -78.024866991438316, 35.968787999582908 ], [ -78.02473199131262, 35.966751000220285 ], [ -78.021834990960258, 35.964048000322627 ], [ -78.021532991459765, 35.961962000021472 ], [ -78.019163991622676, 35.958325999707235 ], [ -78.012527990634766, 35.954671000021136 ], [ -78.010112991652917, 35.950528999527933 ], [ -78.006096990661248, 35.948401999858262 ], [ -78.000387991694083, 35.941518000170149 ], [ -78.000248991525609, 35.940118999924273 ], [ -78.007726990804613, 35.934859999624216 ], [ -78.013350991522287, 35.931978000335285 ], [ -78.017084990815391, 35.931510999766047 ], [ -78.024044990840679, 35.933015000207469 ], [ -78.047860991401905, 35.924842999662282 ] ] ] } },
{ "type": "Feature", "properties": { "county": null, "precinct": null, "enr_desc": "Nashville", "winner": null, "winner_votes": null, "winner_share": null, "runner_up": null, "runner_up_votes": null, "runner_up_share": null, "contest_votes": null, "margin_of_victory": null, "is_tie": false, "results": null, "participated": false, "map_key": null }, "geometry": { "type": "Polygon", "coordinates": [ [ [ -78.056596991188542, 36.011043000071446 ], [ -78.058291991153425, 36.011346000063938 ], [ -78.063639990954826, 36.015348999693401 ], [ -78.064273990736538, 36.018864000084641 ], [ -78.065801990900894, 36.021004999565413 ], [ -78.06434199078285, 36.022575999746394 ], [ -77.997898991570892, 36.028726999991441 ], [ -77.981882990736651, 36.030485000326991 ], [ -77.972947990932127, 36.030377000032153 ], [ -77.973350991065004, 36.028994999793682 ], [ -77.962841991231187, 36.029514999636937 ], [ -77.961098990715101, 36.03170100032257 ], [ -77.955775991097198, 36.043425000021159 ], [ -77.952787990716061, 36.027999999580011 ], [ -77.94692499119644, 36.021932999915542 ], [ -77.944368990951801, 36.021510000202333 ], [ -77.939670991096037, 36.018116999481975 ], [ -77.936893991411822, 36.017930000021209 ], [ -77.936027990911768, 36.015464000349105 ], [ -77.93660999101354, 36.014354999739581 ], [ -77.936109991377336, 36.011356999784191 ], [ -77.933323990753422, 36.006705999646307 ], [ -77.930397991423476, 36.005370999674859 ], [ -77.928363991594949, 36.006525000228244 ], [ -77.923923991497347, 36.00333899967319 ], [ -77.92202499136954, 36.002915999731833 ], [ -77.92200499083232, 36.002168999616025 ], [ -77.918706990897562, 36.00164099963272 ], [ -77.917286991537566, 36.002190000311394 ], [ -77.914421991240928, 36.000844000059594 ], [ -77.914170990607275, 36.000028000263647 ], [ -77.911900991451446, 35.999724999487157 ], [ -77.907498991267047, 35.994489000102512 ], [ -77.908305991630272, 35.992091999935674 ], [ -77.90704899167028, 35.991754000179682 ], [ -77.906599990880778, 35.990088000026233 ], [ -77.905307990719749, 35.990160999494229 ], [ -77.904197991669534, 35.988891999479229 ], [ -77.908012990767901, 35.98439899960136 ], [ -77.912672991404378, 35.984743999504218 ], [ -77.918842990890226, 35.980085999798632 ], [ -77.918800991056742, 35.963387999932571 ], [ -77.924469990808944, 35.960773000345831 ], [ -77.92729999089795, 35.957911999493582 ], [ -77.930747990859814, 35.956101000097256 ], [ -77.941089990804016, 35.951669999501753 ], [ -77.94679799085182, 35.95014400016057 ], [ -77.944012990731181, 35.940863000236355 ], [ -77.94384599076831, 35.937244000231772 ], [ -77.946158991362097, 35.938294999637122 ], [ -77.947255990793735, 35.93991999981742 ], [ -77.953425990698591, 35.936771999574688 ], [ -77.954984991406761, 35.934395999582087 ], [ -77.955122990815553, 35.932492999805646 ], [ -77.957420991080639, 35.931990999771173 ], [ -77.959399991705112, 35.928993000177002 ], [ -77.961559991250653, 35.927303000291744 ], [ -77.958042991252583, 35.927900000223417 ], [ -77.958254991134652, 35.926438000366076 ], [ -77.962793991432193, 35.921248999493166 ], [ -77.96289299159028, 35.920079000061158 ], [ -77.965133991452831, 35.918780000148253 ], [ -77.966508990927252, 35.91667799978805 ], [ -77.970352991156616, 35.913799999706804 ], [ -77.970572990688282, 35.912656999593146 ], [ -77.972179991083337, 35.911907000368117 ], [ -77.972453991552825, 35.909807000113304 ], [ -77.974052990876146, 35.909837999722455 ], [ -77.976057991020824, 35.90841299956098 ], [ -77.977943990926263, 35.905278999775071 ], [ -77.981449990621442, 35.901840000287457 ], [ -77.984497990652301, 35.902899000082499 ], [ -77.987051991121049, 35.90269600027591 ], [ -77.990391990789618, 35.904631999977518 ], [ -77.993534991237951, 35.905198000074982 ], [ -77.998141990835251, 35.905466999779513 ], [ -78.001073991711152, 35.904171999796191 ], [ -78.007626991299034, 35.905690999596303 ], [ -78.009496991669678, 35.905306999485568 ], [ -78.01237899108429, 35.906324999711771 ], [ -78.015684991600594, 35.908824999489319 ], [ -78.021623991385169, 35.908536000037948 ], [ -78.025254991319201, 35.910117999859914 ], [ -78.02462599142747, 35.912941999690389 ], [ -78.026655991369509, 35.915703999543346 ], [ -78.035755990986047, 35.919060999597505 ], [ -78.041823991300546, 35.91983199984373 ], [ -78.04276299170705, 35.920975000178849 ], [ -78.04215399147246, 35.921721000106544 ], [ -78.043415991222616, 35.922901999492112 ], [ -78.047860991401905, 35.924842999662282 ], [ -78.024044990840679, 35.933015000207469 ], [ -78.017084990815391, 35.931510999766047 ], [ -78.013350991522287, 35.931978000335285 ], [ -78.007726990804613, 35.934859999624216 ], [ -78.000248991525609, 35.940118999924273 ], [ -78.000387991694083, 35.941518000170149 ], [ -78.006096990661248, 35.948401999858262 ], [ -78.010112991652917, 35.950528999527933 ], [ -78.012527990634766, 35.954671000021136 ], [ -78.019163991622676, 35.958325999707235 ], [ -78.021532991459765, 35.961962000021472 ], [ -78.021834990960258, 35.964048000322627 ], [ -78.02473199131262, 35.966751000220285 ], [ -78.024866991438316, 35.968787999582908 ], [ -78.029350991283721, 35.970920999680992 ], [ -78.032090991422535, 35.974606000320165 ], [ -78.0362589915093, 35.976452000043004 ], [ -78.039472991351275, 35.979852000154075 ], [ -78.040706991042271, 35.99169400013659 ], [ -78.038418990656211, 36.004013999886546 ], [ -78.048718990807998, 36.00365900001858 ], [ -78.05016599104907, 36.006662000233064 ], [ -78.050561991568543, 36.011039999737349 ], [ -78.053236991549312, 36.010469999912125 ], [ -78.056596991188542, 36.011043000071446 ] ] ] } },
{ "type": "Feature", "properties": { "county": null, "precinct": null, "enr_desc": "Castalia", "winner": null, "winner_votes": null, "winner_share": null, "runner_up": null, "runner_up_votes": null, "runner_up_share": null, "contest_votes": null, "margin_of_victory": null, "is_tie": false, "results": null, "participated": false, "map_key": null }, "geometry": { "type": "Polygon", "coordinates": [ [ [ -78.122004990954295, 36.030477999752868 ], [ -78.052352991665714, 36.134326999778253 ], [ -78.04789799097091, 36.131732000091858 ], [ -78.046027991478979, 36.131742999521521 ], [ -78.045743991383574, 36.130858999822479 ], [ -78.042675990789832, 36.13172299993844 ], [ -78.044467990587833, 36.13521999977997 ], [ -78.042427990971305, 36.138583999851797 ], [ -78.041649991329734, 36.138667999956738 ], [ -78.041231990775287, 36.136365999586296 ], [ -78.038528991641527, 36.13472300003648 ], [ -78.037933991402312, 36.133455999937276 ], [ -78.030983990920802, 36.129300000136041 ], [ -78.030718991019938, 36.128261999798987 ], [ -78.032898990655255, 36.127108000321336 ], [ -78.03412699107902, 36.124640999625633 ], [ -78.032710990707812, 36.122287000285702 ], [ -78.030879990850465, 36.122137000037242 ], [ -78.030411991497004, 36.124070999722939 ], [ -78.027630990660157, 36.124409000115762 ], [ -78.024950991450595, 36.12754000016497 ], [ -78.024126991290885, 36.126813000093321 ], [ -78.023503991579233, 36.122960999860055 ], [ -78.020117991627473, 36.121701000327825 ], [ -78.018091990591344, 36.117792999866019 ], [ -78.011649991381518, 36.11684899963393 ], [ -78.010146991611208, 36.115090999763183 ], [ -78.00965899149621, 36.111858000131456 ], [ -78.008860991500313, 36.111198000279266 ], [ -78.00603799079947, 36.111245999734201 ], [ -78.001021991661901, 36.113916999990771 ], [ -77.998306990925897, 36.113999999879226 ], [ -77.999421990935133, 36.10914200018825 ], [ -78.00014099138869, 36.108761000272914 ], [ -78.000856990883378, 36.109672000028617 ], [ -78.000882990761468, 36.111061000190531 ], [ -78.005277990653468, 36.107703999525718 ], [ -78.005989991672251, 36.105583999690282 ], [ -78.009333990775659, 36.104025999751734 ], [ -78.00962899134143, 36.097294000365991 ], [ -78.008025991308557, 36.097084999872877 ], [ -78.007093991339602, 36.094459000248357 ], [ -78.009162991439325, 36.086058000138756 ], [ -78.009651990852291, 36.085163999721615 ], [ -78.012355991409009, 36.084068999480074 ], [ -78.012572990867213, 36.076352000136666 ], [ -78.016275990970769, 36.072537000050275 ], [ -78.015695990940543, 36.071026999899061 ], [ -78.013084991373091, 36.069740999995346 ], [ -78.013388991502737, 36.068917000140367 ], [ -78.011991990871124, 36.067379000093077 ], [ -78.009469991267721, 36.066531999512755 ], [ -78.00765999155341, 36.062731000131436 ], [ -78.00288499167597, 36.060412000003396 ], [ -78.00070599116782, 36.055769999528813 ], [ -77.997492991703254, 36.052470999606776 ], [ -77.999612990980353, 36.049949999881548 ], [ -77.999624990981786, 36.048603999703239 ], [ -77.998718991016091, 36.048467000057471 ], [ -77.999637991418567, 36.046983000347169 ], [ -77.998775991377897, 36.044051999956132 ], [ -78.000335991692907, 36.04414499955444 ], [ -77.999144991365085, 36.041546999947897 ], [ -77.999811991468107, 36.041020999536947 ], [ -77.999625991168315, 36.03674799960018 ], [ -78.000559990926092, 36.036035000260433 ], [ -77.997898991570892, 36.028726999991441 ], [ -78.06434199078285, 36.022575999746394 ], [ -78.064307991593708, 36.023766999562646 ], [ -78.068073991381212, 36.026040000048305 ], [ -78.068789991689229, 36.027892000306387 ], [ -78.074975991021688, 36.03038400025968 ], [ -78.075963990838844, 36.032349999529025 ], [ -78.078113991500203, 36.031777999993139 ], [ -78.081621990706296, 36.032321999662862 ], [ -78.087348991546506, 36.030425999880016 ], [ -78.090918991549685, 36.030904000091851 ], [ -78.095724991595205, 36.029072999882139 ], [ -78.100462991509872, 36.028978999983629 ], [ -78.10606299061628, 36.030464999876465 ], [ -78.114480990706767, 36.027145000041486 ], [ -78.118135991146644, 36.029533000128104 ], [ -78.122004990954295, 36.030477999752868 ] ] ] } },
{ "type": "Feature", "properties": { "county": null, "precinct": null, "enr_desc": "Bailey", "winner": null, "winner_votes": null, "winner_share": null, "runner_up": null, "runner_up_votes": null, "runner_up_share": null, "contest_votes": null, "margin_of_victory": null, "is_tie": false, "results": null, "participated": false, "map_key": null }, "geometry": { "type": "Polygon", "coordinates": [ [ [ -78.163915991276454, 35.742065000209053 ], [ -78.162285991144373, 35.746297000137503 ], [ -78.166552991206245, 35.745382999716078 ], [ -78.166861991592569, 35.746184000256605 ], [ -78.162565991249693, 35.74814999967947 ], [ -78.160606991369036, 35.751157999572541 ], [ -78.155466991287412, 35.755778999669708 ], [ -78.155465991402863, 35.757334999642893 ], [ -78.157121990887092, 35.758662999634502 ], [ -78.157514991007162, 35.760653999702569 ], [ -78.159451991647444, 35.762073000054734 ], [ -78.159423990774727, 35.763126000073349 ], [ -78.157905991109004, 35.764498000306268 ], [ -78.158437991330402, 35.76561900037165 ], [ -78.159672991234189, 35.766166999555018 ], [ -78.160065990907512, 35.76483799979686 ], [ -78.162280991206174, 35.766942000216211 ], [ -78.161435991697587, 35.769181000032361 ], [ -78.162329991281126, 35.773867999712856 ], [ -78.158966991689724, 35.780150999752713 ], [ -78.161858990882394, 35.7825770000928 ], [ -78.164440990858793, 35.787131999905604 ], [ -78.165786990892116, 35.792576999511382 ], [ -78.169382990710773, 35.7944309999666 ], [ -78.168779991506682, 35.795944999529205 ], [ -78.173104991200205, 35.796426000339814 ], [ -78.17563199165923, 35.798146999943683 ], [ -78.176458991181676, 35.802213000361434 ], [ -78.175277990773978, 35.807017999555207 ], [ -78.176316990812012, 35.809786999665953 ], [ -78.174237991018003, 35.810427999558172 ], [ -78.17628799104034, 35.814249999531867 ], [ -78.176090990837579, 35.815211000291214 ], [ -78.17847899070054, 35.816332000176885 ], [ -78.177888991664162, 35.818093999697908 ], [ -78.176173991103227, 35.819695999622795 ], [ -78.176509991361073, 35.821823999697656 ], [ -78.175807991660022, 35.82331100036744 ], [ -78.171254991683753, 35.827177999505622 ], [ -78.172096991398789, 35.829398000183794 ], [ -78.170354991342336, 35.830289999585048 ], [ -78.166701990944475, 35.829900000079718 ], [ -78.167375991482373, 35.832600000211926 ], [ -78.166373990677457, 35.833533000337951 ], [ -78.163428991024077, 35.833222000304758 ], [ -78.160049991460042, 35.835167000159927 ], [ -78.124122991345388, 35.834091999980785 ], [ -78.11910199140263, 35.830676000279595 ], [ -78.111502990985997, 35.828593999635714 ], [ -78.106665991466414, 35.828260999746654 ], [ -78.09932499139002, 35.82905900018789 ], [ -78.092830991484178, 35.826283999514906 ], [ -78.07176099154961, 35.825820000215138 ], [ -78.062279991499707, 35.82183899980808 ], [ -78.061791990733425, 35.81839299968307 ], [ -78.053048990857917, 35.814427000004656 ], [ -78.042048990986189, 35.80459399949445 ], [ -78.038011991256042, 35.803881999540643 ], [ -78.040972991293884, 35.797543000337299 ], [ -78.036664990673657, 35.795764999866783 ], [ -78.036972991349828, 35.787919999545366 ], [ -78.147101991223309, 35.745803000300846 ], [ -78.163915991276454, 35.742065000209053 ] ] ] } },
{ "type": "Feature", "properties": { "county": null, "precinct": null, "enr_desc": "Middlesex", "winner": null, "winner_votes": null, "winner_share": null, "runner_up": null, "runner_up_votes": null, "runner_up_share": null, "contest_votes": null, "margin_of_victory": null, "is_tie": false, "results": null, "participated": false, "map_key": null }, "geometry": { "type": "Polygon", "coordinates": [ [ [ -78.232392991674331, 35.857457999556736 ], [ -78.232018991664646, 35.854586999880439 ], [ -78.22901099101415, 35.853741999968072 ], [ -78.226704991393319, 35.851294000253226 ], [ -78.223247991546671, 35.850721999984309 ], [ -78.217108991148535, 35.852294000020528 ], [ -78.216290990990686, 35.85040499977282 ], [ -78.216675991108971, 35.843650000032987 ], [ -78.208714990734862, 35.846055999841617 ], [ -78.204899991114445, 35.849238000311857 ], [ -78.202340991322771, 35.845860000203579 ], [ -78.194130991112857, 35.842557999645408 ], [ -78.192034991376829, 35.840109000254706 ], [ -78.18439599145232, 35.836603000194216 ], [ -78.183558991150164, 35.835435999945403 ], [ -78.183634991623777, 35.832509999867376 ], [ -78.176356991564376, 35.834493000054692 ], [ -78.169964990953304, 35.83445199981508 ], [ -78.166373990677457, 35.833533000337951 ], [ -78.167375991482373, 35.832600000211926 ], [ -78.166701990944475, 35.829900000079718 ], [ -78.170354991342336, 35.830289999585048 ], [ -78.172096991398789, 35.829398000183794 ], [ -78.171254991683753, 35.827177999505622 ], [ -78.175807991660022, 35.82331100036744 ], [ -78.176509991361073, 35.821823999697656 ], [ -78.176173991103227, 35.819695999622795 ], [ -78.177888991664162, 35.818093999697908 ], [ -78.17847899070054, 35.816332000176885 ], [ -78.176090990837579, 35.815211000291214 ], [ -78.17628799104034, 35.814249999531867 ], [ -78.174237991018003, 35.810427999558172 ], [ -78.176316990812012, 35.809786999665953 ], [ -78.175277990773978, 35.807017999555207 ], [ -78.176458991181676, 35.802213000361434 ], [ -78.17563199165923, 35.798146999943683 ], [ -78.173104991200205, 35.796426000339814 ], [ -78.168779991506682, 35.795944999529205 ], [ -78.169382990710773, 35.7944309999666 ], [ -78.165786990892116, 35.792576999511382 ], [ -78.164440990858793, 35.787131999905604 ], [ -78.161858990882394, 35.7825770000928 ], [ -78.158966991689724, 35.780150999752713 ], [ -78.162329991281126, 35.773867999712856 ], [ -78.161435991697587, 35.769181000032361 ], [ -78.162280991206174, 35.766942000216211 ], [ -78.160065990907512, 35.76483799979686 ], [ -78.159672991234189, 35.766166999555018 ], [ -78.158437991330402, 35.76561900037165 ], [ -78.157905991109004, 35.764498000306268 ], [ -78.159423990774727, 35.763126000073349 ], [ -78.159451991647444, 35.762073000054734 ], [ -78.157514991007162, 35.760653999702569 ], [ -78.157121990887092, 35.758662999634502 ], [ -78.155465991402863, 35.757334999642893 ], [ -78.155466991287412, 35.755778999669708 ], [ -78.160606991369036, 35.751157999572541 ], [ -78.162565991249693, 35.74814999967947 ], [ -78.166861991592569, 35.746184000256605 ], [ -78.166552991206245, 35.745382999716078 ], [ -78.162285991144373, 35.746297000137503 ], [ -78.163915991276454, 35.742065000209053 ], [ -78.181971990670462, 35.737955999941711 ], [ -78.186507991462989, 35.734708999639956 ], [ -78.188966991558488, 35.73423999998915 ], [ -78.194455990695303, 35.728095000298865 ], [ -78.203997991488635, 35.727902000272337 ], [ -78.206919991054647, 35.731476999942949 ], [ -78.209171991046446, 35.730507999665768 ], [ -78.213119990743976, 35.735101999704149 ], [ -78.215600990902871, 35.735990999927395 ], [ -78.215442991000188, 35.73730499955564 ], [ -78.214713991461366, 35.73742200027052 ], [ -78.215732991304264, 35.739313000025774 ], [ -78.214440991461828, 35.740807000376471 ], [ -78.213032991285203, 35.744822000188648 ], [ -78.215015991696177, 35.744896999819595 ], [ -78.215806990663879, 35.745831999691347 ], [ -78.215512990639724, 35.748668999586769 ], [ -78.217252990880311, 35.750084000154011 ], [ -78.216619990860224, 35.752208999972822 ], [ -78.218102990684841, 35.753177000000292 ], [ -78.218916990798419, 35.754988000235471 ], [ -78.219696991647382, 35.755292000359169 ], [ -78.222461991176758, 35.752841000039716 ], [ -78.224702990916029, 35.752734000028966 ], [ -78.225036991494378, 35.751575999723798 ], [ -78.226256991442582, 35.752087000042827 ], [ -78.227038991554537, 35.751244999716413 ], [ -78.226659991436833, 35.750532999742234 ], [ -78.232738990805089, 35.75132599975926 ], [ -78.235138991229235, 35.755164999917632 ], [ -78.234772990757378, 35.756993000377875 ], [ -78.235836991447712, 35.758099999960869 ], [ -78.234852991172204, 35.759757000127891 ], [ -78.238221991704293, 35.763128000030541 ], [ -78.238318991322345, 35.767287999546497 ], [ -78.244398991098592, 35.769460000025546 ], [ -78.246221991627962, 35.772647999895383 ], [ -78.249102991004492, 35.772391999558174 ], [ -78.250813990871805, 35.773484000215554 ], [ -78.25034999149679, 35.774460000176113 ], [ -78.248457990965207, 35.7747900002378 ], [ -78.248309991221092, 35.779611999656083 ], [ -78.246134991500142, 35.784807000299708 ], [ -78.24724499101913, 35.785931000146128 ], [ -78.24647699147296, 35.785956999942137 ], [ -78.245217991251025, 35.788039999576988 ], [ -78.245701990946102, 35.78981300037001 ], [ -78.243864991227468, 35.792098999970499 ], [ -78.246708991098131, 35.794271999610778 ], [ -78.249030991230583, 35.794989000263101 ], [ -78.250405991214507, 35.796926999911925 ], [ -78.250904991446205, 35.798263999849254 ], [ -78.249085991120609, 35.801180000197938 ], [ -78.251639991105989, 35.804190999608629 ], [ -78.250821990969797, 35.805583000213289 ], [ -78.252273991498527, 35.808395999939954 ], [ -78.25141499112803, 35.811214000136808 ], [ -78.254463990814301, 35.813041999767798 ], [ -78.255791991279366, 35.812233000137169 ], [ -78.257132991343681, 35.813597999777194 ], [ -78.255608991540456, 35.81577299970953 ], [ -78.255972991154451, 35.818119999910898 ], [ -78.232392991674331, 35.857457999556736 ] ] ] } },
{ "type": "Feature", "properties": { "county": null, "precinct": null, "enr_desc": "Samaria", "winner": null, "winner_votes": null, "winner_share": null, "runner_up": null, "runner_up_votes": null, "runner_up_share": null, "contest_votes": null, "margin_of_victory": null, "is_tie": false, "results": null, "participated": false, "map_key": null }, "geometry": { "type": "Polygon", "coordinates": [ [ [ -78.184196990915979, 35.935488999791865 ], [ -78.177101991607671, 35.929729999905497 ], [ -78.171471990645614, 35.927754000077478 ], [ -78.164137990810403, 35.929642000261573 ], [ -78.155776991292811, 35.929134000387059 ], [ -78.152706991129691, 35.931140000364579 ], [ -78.151324991630077, 35.936088000286645 ], [ -78.149047991126309, 35.936612999746934 ], [ -78.147332990917079, 35.934678999675199 ], [ -78.148139991468213, 35.928089999816443 ], [ -78.141991991087551, 35.922683000054718 ], [ -78.141591991484546, 35.915942999553081 ], [ -78.138601990989486, 35.913150000067517 ], [ -78.138109990861892, 35.904831999585149 ], [ -78.133555990678502, 35.898197000064407 ], [ -78.127341991281128, 35.898603999553849 ], [ -78.123451991062979, 35.903972000293187 ], [ -78.120555990863707, 35.905438999965554 ], [ -78.106490991322914, 35.904976000365828 ], [ -78.104117991554915, 35.904192000071426 ], [ -78.103438991286779, 35.903108000309118 ], [ -78.117562990912063, 35.888872999791523 ], [ -78.119565991448894, 35.889313000214997 ], [ -78.119697991026456, 35.884761000321234 ], [ -78.131628991242295, 35.86845600017444 ], [ -78.127773991398911, 35.861933000091518 ], [ -78.12674999153117, 35.852264999709007 ], [ -78.128469990876312, 35.847862999737856 ], [ -78.128789991532514, 35.844212000253421 ], [ -78.127705990885573, 35.837068999871221 ], [ -78.124122991345388, 35.834091999980785 ], [ -78.160049991460042, 35.835167000159927 ], [ -78.163428991024077, 35.833222000304758 ], [ -78.166373990677457, 35.833533000337951 ], [ -78.169964990953304, 35.83445199981508 ], [ -78.176356991564376, 35.834493000054692 ], [ -78.183634991623777, 35.832509999867376 ], [ -78.183558991150164, 35.835435999945403 ], [ -78.18439599145232, 35.836603000194216 ], [ -78.192034991376829, 35.840109000254706 ], [ -78.194130991112857, 35.842557999645408 ], [ -78.202340991322771, 35.845860000203579 ], [ -78.204899991114445, 35.849238000311857 ], [ -78.208714990734862, 35.846055999841617 ], [ -78.216675991108971, 35.843650000032987 ], [ -78.216290990990686, 35.85040499977282 ], [ -78.217108991148535, 35.852294000020528 ], [ -78.223247991546671, 35.850721999984309 ], [ -78.226704991393319, 35.851294000253226 ], [ -78.22901099101415, 35.853741999968072 ], [ -78.232018991664646, 35.854586999880439 ], [ -78.232392991674331, 35.857457999556736 ], [ -78.184196990915979, 35.935488999791865 ] ] ] } },
{ "type": "Feature", "properties": { "county": "NASH", "precinct": "P04A", "enr_desc": "Stanhope", "winner": "Kent Smith", "winner_votes": 14.0, "winner_share": 87.5, "runner_up": "DeLeon Parker", "runner_up_votes": 2.0, "runner_up_share": 12.5, "contest_votes": 16.0, "margin_of_victory": 75.0, "is_tie": false, "results": [ { "candidate": "Kent Smith", "votes": 14, "share": 87.5 }, { "candidate": "DeLeon Parker", "votes": 2, "share": 12.5 } ], "participated": true, "map_key": "NASH_P04A" }, "geometry": { "type": "Polygon", "coordinates": [ [ [ -78.036972991349828, 35.787919999545366 ], [ -78.036664990673657, 35.795764999866783 ], [ -78.040972991293884, 35.797543000337299 ], [ -78.038011991256042, 35.803881999540643 ], [ -78.042048990986189, 35.80459399949445 ], [ -78.053048990857917, 35.814427000004656 ], [ -78.061791990733425, 35.81839299968307 ], [ -78.062279991499707, 35.82183899980808 ], [ -78.07176099154961, 35.825820000215138 ], [ -78.092830991484178, 35.826283999514906 ], [ -78.09932499139002, 35.82905900018789 ], [ -78.106665991466414, 35.828260999746654 ], [ -78.111502990985997, 35.828593999635714 ], [ -78.11910199140263, 35.830676000279595 ], [ -78.124122991345388, 35.834091999980785 ], [ -78.127705990885573, 35.837068999871221 ], [ -78.128789991532514, 35.844212000253421 ], [ -78.128469990876312, 35.847862999737856 ], [ -78.12674999153117, 35.852264999709007 ], [ -78.127773991398911, 35.861933000091518 ], [ -78.131628991242295, 35.86845600017444 ], [ -78.119697991026456, 35.884761000321234 ], [ -78.119565991448894, 35.889313000214997 ], [ -78.117562990912063, 35.888872999791523 ], [ -78.103438991286779, 35.903108000309118 ], [ -78.102772991656281, 35.900667999547863 ], [ -78.103332991385301, 35.896619999635334 ], [ -78.102760991594977, 35.891608999533034 ], [ -78.101211991016086, 35.886595000027221 ], [ -78.098813991521723, 35.883106999514773 ], [ -78.084093991053365, 35.882050999505786 ], [ -78.078765991646705, 35.888004999527382 ], [ -78.074158991676455, 35.888872000175567 ], [ -78.065773990996391, 35.886058999996365 ], [ -78.061800990977247, 35.880033999628694 ], [ -78.0575189912404, 35.875559000058608 ], [ -78.051218990998095, 35.873996999674851 ], [ -78.050510990999896, 35.869986999695342 ], [ -78.04789799169474, 35.868985000047857 ], [ -78.043768990731067, 35.871161000343086 ], [ -78.036833991174944, 35.876978000352302 ], [ -78.031742990614106, 35.879077000190392 ], [ -78.027741990808551, 35.880127999548613 ], [ -78.020562991072268, 35.878493000357935 ], [ -78.019581990672037, 35.877133000179406 ], [ -78.01883399146746, 35.870367000193525 ], [ -78.016651991691916, 35.867689999758838 ], [ -78.014728991284386, 35.866502999901286 ], [ -78.009918991201602, 35.865968000139837 ], [ -78.009553991242697, 35.862324999974575 ], [ -78.008135991543853, 35.861315999961107 ], [ -78.001712991423886, 35.862223000200352 ], [ -77.997819990651593, 35.863674000305792 ], [ -77.9936179909853, 35.863234000074698 ], [ -77.992146991342167, 35.861372999487266 ], [ -77.993795991460175, 35.852556999843003 ], [ -77.993266991208145, 35.8514680002068 ], [ -77.9882169913664, 35.848045999899526 ], [ -77.9835209913863, 35.847240999943466 ], [ -77.98064899165351, 35.845659999721384 ], [ -77.972098990648405, 35.848767999554134 ], [ -77.964042991266496, 35.846716000065676 ], [ -77.948524991682888, 35.852351999915726 ], [ -77.945315991513027, 35.852233999804071 ], [ -77.940910990946534, 35.850528999595745 ], [ -77.93206799099913, 35.850178999597006 ], [ -77.932225991683211, 35.848018000183011 ], [ -77.93039199157802, 35.841643999992847 ], [ -77.931360991483956, 35.83007799971292 ], [ -78.036972991349828, 35.787919999545366 ] ] ] } },
{ "type": "Feature", "properties": { "county": "NASH", "precinct": "P05A", "enr_desc": "Coopers", "winner": "DeLeon Parker", "winner_votes": 198.0, "winner_share": 58.064516129032263, "runner_up": "Kent Smith", "runner_up_votes": 143.0, "runner_up_share": 41.935483870967744, "contest_votes": 341.0, "margin_of_victory": 16.12903225806452, "is_tie": false, "results": [ { "candidate": "DeLeon Parker", "votes": 198, "share": 58.06451612903226 }, { "candidate": "Kent Smith", "votes": 143, "share": 41.935483870967744 } ], "participated": true, "map_key": "NASH_P05A" }, "geometry": { "type": "Polygon", "coordinates": [ [ [ -77.897115991027874, 35.886190000090046 ], [ -77.894520991308653, 35.883251999824459 ], [ -77.88950399086886, 35.881238000296747 ], [ -77.887666990844366, 35.879290999870179 ], [ -77.887778991540912, 35.874076999482291 ], [ -77.889144990809214, 35.871252999671306 ], [ -77.896165990630408, 35.86884900026223 ], [ -77.898765991549141, 35.86410299962288 ], [ -77.904304990737927, 35.860139999648766 ], [ -77.907459991187736, 35.855010999481664 ], [ -77.914660991473369, 35.848753999880159 ], [ -77.920430991569887, 35.848891999558674 ], [ -77.92495999150826, 35.846874000214761 ], [ -77.93206799099913, 35.850178999597006 ], [ -77.940910990946534, 35.850528999595745 ], [ -77.945315991513027, 35.852233999804071 ], [ -77.948524991682888, 35.852351999915726 ], [ -77.964042991266496, 35.846716000065676 ], [ -77.972098990648405, 35.848767999554134 ], [ -77.98064899165351, 35.845659999721384 ], [ -77.9835209913863, 35.847240999943466 ], [ -77.9882169913664, 35.848045999899526 ], [ -77.993266991208145, 35.8514680002068 ], [ -77.993795991460175, 35.852556999843003 ], [ -77.992146991342167, 35.861372999487266 ], [ -77.9936179909853, 35.863234000074698 ], [ -77.997819990651593, 35.863674000305792 ], [ -78.001712991423886, 35.862223000200352 ], [ -78.008135991543853, 35.861315999961107 ], [ -78.009553991242697, 35.862324999974575 ], [ -78.009918991201602, 35.865968000139837 ], [ -78.014728991284386, 35.866502999901286 ], [ -78.016651991691916, 35.867689999758838 ], [ -78.01883399146746, 35.870367000193525 ], [ -78.019581990672037, 35.877133000179406 ], [ -78.020562991072268, 35.878493000357935 ], [ -78.027741990808551, 35.880127999548613 ], [ -78.031742990614106, 35.879077000190392 ], [ -78.036833991174944, 35.876978000352302 ], [ -78.043768990731067, 35.871161000343086 ], [ -78.04789799169474, 35.868985000047857 ], [ -78.050510990999896, 35.869986999695342 ], [ -78.051218990998095, 35.873996999674851 ], [ -78.0575189912404, 35.875559000058608 ], [ -78.056608990719255, 35.877735000085778 ], [ -78.047598990790249, 35.887501999754818 ], [ -78.047695991488965, 35.895577999676007 ], [ -78.043705991251315, 35.896674999864871 ], [ -78.04170699112403, 35.89955799964185 ], [ -78.039467991664679, 35.900572999945126 ], [ -78.035138990681858, 35.908413999731415 ], [ -78.033030990951104, 35.909478999790736 ], [ -78.025254991319201, 35.910117999859914 ], [ -78.021623991385169, 35.908536000037948 ], [ -78.015684991600594, 35.908824999489319 ], [ -78.01237899108429, 35.906324999711771 ], [ -78.009496991669678, 35.905306999485568 ], [ -78.007626991299034, 35.905690999596303 ], [ -78.001073991711152, 35.904171999796191 ], [ -77.998141990835251, 35.905466999779513 ], [ -77.993534991237951, 35.905198000074982 ], [ -77.990391990789618, 35.904631999977518 ], [ -77.987051991121049, 35.90269600027591 ], [ -77.984497990652301, 35.902899000082499 ], [ -77.981449990621442, 35.901840000287457 ], [ -77.977943990926263, 35.905278999775071 ], [ -77.976057991020824, 35.90841299956098 ], [ -77.974052990876146, 35.909837999722455 ], [ -77.972453991552825, 35.909807000113304 ], [ -77.972179991083337, 35.911907000368117 ], [ -77.970572990688282, 35.912656999593146 ], [ -77.970352991156616, 35.913799999706804 ], [ -77.966508990927252, 35.91667799978805 ], [ -77.965133991452831, 35.918780000148253 ], [ -77.96289299159028, 35.920079000061158 ], [ -77.962793991432193, 35.921248999493166 ], [ -77.958254991134652, 35.926438000366076 ], [ -77.958042991252583, 35.927900000223417 ], [ -77.961559991250653, 35.927303000291744 ], [ -77.959399991705112, 35.928993000177002 ], [ -77.957420991080639, 35.931990999771173 ], [ -77.955122990815553, 35.932492999805646 ], [ -77.954984991406761, 35.934395999582087 ], [ -77.953425990698591, 35.936771999574688 ], [ -77.947255990793735, 35.93991999981742 ], [ -77.946158991362097, 35.938294999637122 ], [ -77.94384599076831, 35.937244000231772 ], [ -77.93835399126084, 35.935078000241759 ], [ -77.935281991165027, 35.932804999755348 ], [ -77.932952991491092, 35.929066000103077 ], [ -77.934390990741448, 35.928064000285296 ], [ -77.93413699164887, 35.925784000169735 ], [ -77.93205299145896, 35.924379000254952 ], [ -77.931022991070904, 35.921836000313142 ], [ -77.928289990961474, 35.919896999788882 ], [ -77.929219991641375, 35.918395999723643 ], [ -77.928445990615714, 35.915474999993116 ], [ -77.930673991103632, 35.914027999493065 ], [ -77.930948991046179, 35.912917999491789 ], [ -77.93041399064623, 35.911251999671734 ], [ -77.929351991662784, 35.91073099958097 ], [ -77.929457990639378, 35.909644000252605 ], [ -77.931810990820949, 35.906085000187289 ], [ -77.93298699102121, 35.906397999555146 ], [ -77.933815991553487, 35.905754000299204 ], [ -77.934127991538901, 35.902735999781889 ], [ -77.932553991316055, 35.902181000221766 ], [ -77.920640991302903, 35.905009999725884 ], [ -77.913930991113631, 35.89821799972875 ], [ -77.908543990878357, 35.894003999570948 ], [ -77.911541990797815, 35.885446000353539 ], [ -77.909112990855704, 35.884155999673609 ], [ -77.905018991229525, 35.885694000275912 ], [ -77.902688991354424, 35.88364199993007 ], [ -77.897115991027874, 35.886190000090046 ] ] ] } },
{ "type": "Feature", "properties": { "county": null, "precinct": null, "enr_desc": "Griffins", "winner": null, "winner_votes": null, "winner_share": null, "runner_up": null, "runner_up_votes": null, "runner_up_share": null, "contest_votes": null, "margin_of_victory": null, "is_tie": false, "results": null, "participated": false, "map_key": null }, "geometry": { "type": "Polygon", "coordinates": [ [ [ -77.997898991570892, 36.028726999991441 ], [ -78.000559990926092, 36.036035000260433 ], [ -77.999625991168315, 36.03674799960018 ], [ -77.999811991468107, 36.041020999536947 ], [ -77.999144991365085, 36.041546999947897 ], [ -78.000335991692907, 36.04414499955444 ], [ -77.998775991377897, 36.044051999956132 ], [ -77.999637991418567, 36.046983000347169 ], [ -77.998718991016091, 36.048467000057471 ], [ -77.999624990981786, 36.048603999703239 ], [ -77.999612990980353, 36.049949999881548 ], [ -77.997492991703254, 36.052470999606776 ], [ -78.00070599116782, 36.055769999528813 ], [ -78.00288499167597, 36.060412000003396 ], [ -78.00765999155341, 36.062731000131436 ], [ -78.009469991267721, 36.066531999512755 ], [ -78.011991990871124, 36.067379000093077 ], [ -78.013388991502737, 36.068917000140367 ], [ -78.013084991373091, 36.069740999995346 ], [ -78.015695990940543, 36.071026999899061 ], [ -78.016275990970769, 36.072537000050275 ], [ -78.012572990867213, 36.076352000136666 ], [ -78.012355991409009, 36.084068999480074 ], [ -78.009651990852291, 36.085163999721615 ], [ -78.009162991439325, 36.086058000138756 ], [ -78.007093991339602, 36.094459000248357 ], [ -78.008025991308557, 36.097084999872877 ], [ -78.00962899134143, 36.097294000365991 ], [ -78.009333990775659, 36.104025999751734 ], [ -78.005989991672251, 36.105583999690282 ], [ -78.005277990653468, 36.107703999525718 ], [ -78.000882990761468, 36.111061000190531 ], [ -78.000856990883378, 36.109672000028617 ], [ -78.00014099138869, 36.108761000272914 ], [ -77.999421990935133, 36.10914200018825 ], [ -77.998306990925897, 36.113999999879226 ], [ -78.001021991661901, 36.113916999990771 ], [ -78.00603799079947, 36.111245999734201 ], [ -78.008860991500313, 36.111198000279266 ], [ -78.00965899149621, 36.111858000131456 ], [ -78.010146991611208, 36.115090999763183 ], [ -78.011649991381518, 36.11684899963393 ], [ -78.018091990591344, 36.117792999866019 ], [ -78.020117991627473, 36.121701000327825 ], [ -78.023503991579233, 36.122960999860055 ], [ -78.024126991290885, 36.126813000093321 ], [ -78.024950991450595, 36.12754000016497 ], [ -78.027630990660157, 36.124409000115762 ], [ -78.030411991497004, 36.124070999722939 ], [ -78.030879990850465, 36.122137000037242 ], [ -78.032710990707812, 36.122287000285702 ], [ -78.03412699107902, 36.124640999625633 ], [ -78.032898990655255, 36.127108000321336 ], [ -78.030718991019938, 36.128261999798987 ], [ -78.030983990920802, 36.129300000136041 ], [ -78.037933991402312, 36.133455999937276 ], [ -78.038528991641527, 36.13472300003648 ], [ -78.041231990775287, 36.136365999586296 ], [ -78.041649991329734, 36.138667999956738 ], [ -78.042427990971305, 36.138583999851797 ], [ -78.044467990587833, 36.13521999977997 ], [ -78.042675990789832, 36.13172299993844 ], [ -78.045743991383574, 36.130858999822479 ], [ -78.046027991478979, 36.131742999521521 ], [ -78.04789799097091, 36.131732000091858 ], [ -78.052352991665714, 36.134326999778253 ], [ -78.006550991054425, 36.202632999816117 ], [ -78.00621099137571, 36.201580000266134 ], [ -78.005032991557911, 36.202417999827048 ], [ -78.001713991207126, 36.198950000240259 ], [ -77.996699990583949, 36.198510999606277 ], [ -77.997790990973357, 36.197286999954194 ], [ -77.996790991212009, 36.192696999590453 ], [ -77.993625991577176, 36.190495999547316 ], [ -77.993595991219991, 36.186937999541371 ], [ -77.992524990675378, 36.185527000008911 ], [ -77.990651991584883, 36.18516800022185 ], [ -77.991210991610117, 36.186592999631131 ], [ -77.987541991481649, 36.189555000265976 ], [ -77.983041990624599, 36.186651000251828 ], [ -77.984508991656952, 36.183531000377521 ], [ -77.984365991210538, 36.18145099964223 ], [ -77.983077991674477, 36.179852999555003 ], [ -77.979574991295692, 36.178694999497651 ], [ -77.978184991525453, 36.175279999555336 ], [ -77.976500990945553, 36.176139000095517 ], [ -77.975706990620552, 36.177702999981804 ], [ -77.973538991458028, 36.176776000235144 ], [ -77.971507990899568, 36.177879999622142 ], [ -77.969051990713638, 36.183531000360844 ], [ -77.969585990631813, 36.186346999823179 ], [ -77.973030990844393, 36.189779999588772 ], [ -77.973859991572382, 36.193655999899491 ], [ -77.972938990970022, 36.194331000092959 ], [ -77.967383990876954, 36.19420799950241 ], [ -77.951215990698316, 36.180565000070636 ], [ -77.944367990699789, 36.182114000289218 ], [ -77.943027991119166, 36.186512000191087 ], [ -77.944517991114552, 36.188308000216949 ], [ -77.944003991239185, 36.192592000301133 ], [ -77.940853991383506, 36.192218000309666 ], [ -77.93801499100266, 36.18919799956673 ], [ -77.933942991528198, 36.18661199958769 ], [ -77.93245999085714, 36.183046999548914 ], [ -77.930820991141772, 36.182305999812499 ], [ -77.928395990609772, 36.182158000132326 ], [ -77.926092990816869, 36.18316800034011 ], [ -77.925363990865677, 36.18757600031747 ], [ -77.923917991351189, 36.188906000326284 ], [ -77.917706991072706, 36.180492999890404 ], [ -77.923059990612586, 36.168884000202318 ], [ -77.922659990925737, 36.16631499985413 ], [ -77.915867991214128, 36.163562999827185 ], [ -77.90952899120964, 36.165334999609165 ], [ -77.900860991183933, 36.162773999987614 ], [ -77.901195990795799, 36.156349000052607 ], [ -77.895101990824088, 36.153376000298785 ], [ -77.89173899091935, 36.149847000305648 ], [ -77.895606991143495, 36.148364000049973 ], [ -77.896735991006679, 36.145431000194044 ], [ -77.897060990898197, 36.140296999608161 ], [ -77.893305991250926, 36.137425000348202 ], [ -77.892546991466716, 36.134586999635431 ], [ -77.894928991407653, 36.124883000111048 ], [ -77.900275991623687, 36.119418999904426 ], [ -77.902897990992514, 36.11381799979624 ], [ -77.905270991700291, 36.105759999667093 ], [ -77.908232991161341, 36.10428699951548 ], [ -77.912378991014307, 36.104045999487056 ], [ -77.915318991176051, 36.102566999743495 ], [ -77.91785299110974, 36.099975000206101 ], [ -77.916837990730386, 36.096992000144049 ], [ -77.914412991361274, 36.095663999886327 ], [ -77.915697991221663, 36.09504299980852 ], [ -77.916664991198516, 36.093250000132713 ], [ -77.916521991125293, 36.091580999934131 ], [ -77.914698990686077, 36.088794000331276 ], [ -77.918012990591706, 36.087721000034527 ], [ -77.919981991275236, 36.088840000127718 ], [ -77.923736991533048, 36.089192999830466 ], [ -77.928952990923605, 36.081773999602312 ], [ -77.928656990627488, 36.079318999922201 ], [ -77.933877990644717, 36.078530999561366 ], [ -77.937876991106791, 36.070265999520274 ], [ -77.94062799075941, 36.066530000063985 ], [ -77.942101991364268, 36.065400999903623 ], [ -77.944508991565684, 36.065134999780526 ], [ -77.946707990820556, 36.062501000147563 ], [ -77.948486991284355, 36.058692999497758 ], [ -77.949859990783224, 36.05248300024742 ], [ -77.953726991092566, 36.048608000185645 ], [ -77.955775991097198, 36.043425000021159 ], [ -77.961098990715101, 36.03170100032257 ], [ -77.962841991231187, 36.029514999636937 ], [ -77.973350991065004, 36.028994999793682 ], [ -77.972947990932127, 36.030377000032153 ], [ -77.981882990736651, 36.030485000326991 ], [ -77.997898991570892, 36.028726999991441 ] ] ] } },
{ "type": "Feature", "properties": { "county": null, "precinct": null, "enr_desc": "Red Oak", "winner": null, "winner_votes": null, "winner_share": null, "runner_up": null, "runner_up_votes": null, "runner_up_share": null, "contest_votes": null, "margin_of_victory": null, "is_tie": false, "results": null, "participated": false, "map_key": null }, "geometry": { "type": "Polygon", "coordinates": [ [ [ -77.904197991669534, 35.988891999479229 ], [ -77.905307990719749, 35.990160999494229 ], [ -77.906599990880778, 35.990088000026233 ], [ -77.90704899167028, 35.991754000179682 ], [ -77.908305991630272, 35.992091999935674 ], [ -77.907498991267047, 35.994489000102512 ], [ -77.911900991451446, 35.999724999487157 ], [ -77.914170990607275, 36.000028000263647 ], [ -77.914421991240928, 36.000844000059594 ], [ -77.917286991537566, 36.002190000311394 ], [ -77.918706990897562, 36.00164099963272 ], [ -77.92200499083232, 36.002168999616025 ], [ -77.92202499136954, 36.002915999731833 ], [ -77.923923991497347, 36.00333899967319 ], [ -77.928363991594949, 36.006525000228244 ], [ -77.930397991423476, 36.005370999674859 ], [ -77.933323990753422, 36.006705999646307 ], [ -77.936109991377336, 36.011356999784191 ], [ -77.93660999101354, 36.014354999739581 ], [ -77.936027990911768, 36.015464000349105 ], [ -77.936893991411822, 36.017930000021209 ], [ -77.939670991096037, 36.018116999481975 ], [ -77.944368990951801, 36.021510000202333 ], [ -77.94692499119644, 36.021932999915542 ], [ -77.952787990716061, 36.027999999580011 ], [ -77.955775991097198, 36.043425000021159 ], [ -77.953726991092566, 36.048608000185645 ], [ -77.949859990783224, 36.05248300024742 ], [ -77.948486991284355, 36.058692999497758 ], [ -77.946707990820556, 36.062501000147563 ], [ -77.944508991565684, 36.065134999780526 ], [ -77.942101991364268, 36.065400999903623 ], [ -77.94062799075941, 36.066530000063985 ], [ -77.937876991106791, 36.070265999520274 ], [ -77.933877990644717, 36.078530999561366 ], [ -77.928656990627488, 36.079318999922201 ], [ -77.928952990923605, 36.081773999602312 ], [ -77.923736991533048, 36.089192999830466 ], [ -77.919981991275236, 36.088840000127718 ], [ -77.918012990591706, 36.087721000034527 ], [ -77.914698990686077, 36.088794000331276 ], [ -77.911778991109159, 36.089195000238227 ], [ -77.90949299125613, 36.093996999991653 ], [ -77.907704991447829, 36.094838000233658 ], [ -77.906252991545628, 36.09426000014497 ], [ -77.905796990606561, 36.092206999481917 ], [ -77.903494990602084, 36.08997799997946 ], [ -77.897623991327237, 36.086973000209525 ], [ -77.89743999144028, 36.086227999781485 ], [ -77.898496991215836, 36.086011999711822 ], [ -77.897949991011529, 36.085422000006986 ], [ -77.893635991526239, 36.08421000014053 ], [ -77.891728991268636, 36.085636000196018 ], [ -77.890765991451261, 36.083539999810753 ], [ -77.889244991391791, 36.084052999928851 ], [ -77.889211991360199, 36.087010999703629 ], [ -77.882348990952593, 36.089516000255621 ], [ -77.881156990913851, 36.087341999518799 ], [ -77.8837219912715, 36.082544000311429 ], [ -77.883459990987419, 36.081458999950698 ], [ -77.88186299060861, 36.080452999760247 ], [ -77.878453991037702, 36.080130000351595 ], [ -77.878952991603327, 36.078128999801784 ], [ -77.878082991311615, 36.076859000257855 ], [ -77.874419991629807, 36.076678000085003 ], [ -77.871182991260795, 36.073944000097903 ], [ -77.869403991314641, 36.074196999547361 ], [ -77.865441991201521, 36.071009999573185 ], [ -77.865248991600907, 36.069780000256756 ], [ -77.862896990767993, 36.069195000112842 ], [ -77.862539991653733, 36.067915000311402 ], [ -77.868940991048973, 36.063437999640897 ], [ -77.865981991488553, 36.061408000290065 ], [ -77.866687991611485, 36.057731000197428 ], [ -77.865946990846695, 36.055812999839652 ], [ -77.864080990792587, 36.056120999745055 ], [ -77.861175990768871, 36.055268000101712 ], [ -77.86116199149626, 36.055905000091919 ], [ -77.860013990885648, 36.055995999566754 ], [ -77.862448990777082, 36.053701000332481 ], [ -77.86261999080125, 36.05183199983518 ], [ -77.866089990892576, 36.047235000162331 ], [ -77.866981991669832, 36.044693999815351 ], [ -77.864003991625879, 36.041679999512539 ], [ -77.861446991379793, 36.037504999783209 ], [ -77.853917991607261, 36.039040999833084 ], [ -77.851421990995192, 36.038618000338587 ], [ -77.852997991089964, 36.033406000349792 ], [ -77.865169991169196, 36.032973000154904 ], [ -77.872726991476782, 36.03040199981475 ], [ -77.8772079914485, 36.027774999982505 ], [ -77.883187991129162, 36.021900999872287 ], [ -77.883143991076622, 36.020339999501601 ], [ -77.884673990608491, 36.017272999743618 ], [ -77.887749991166231, 36.017280000016775 ], [ -77.887735990799797, 36.01428699961523 ], [ -77.891857991137414, 36.014250999512846 ], [ -77.892620991023804, 36.011087999698006 ], [ -77.887677991492936, 36.011903000249454 ], [ -77.887119991110154, 36.012631999652989 ], [ -77.887375990889353, 36.004729000073468 ], [ -77.895117990717026, 36.006911999665185 ], [ -77.895127990926923, 36.005874999850036 ], [ -77.893174991513675, 36.005752000107982 ], [ -77.891810990777387, 36.000242000221704 ], [ -77.895165991490074, 35.999852999595923 ], [ -77.894871991005175, 35.99706000010417 ], [ -77.893212991644404, 35.995521999653107 ], [ -77.894954991433593, 35.994037999877904 ], [ -77.893133990700477, 35.990789999962864 ], [ -77.891137991367657, 35.989818999581217 ], [ -77.889951991115154, 35.987273000131772 ], [ -77.893961990888016, 35.98571700026087 ], [ -77.895245991629977, 35.986278999867707 ], [ -77.895279990950826, 35.985670999789555 ], [ -77.898053991351404, 35.986764999948889 ], [ -77.898743990995158, 35.986373999807476 ], [ -77.90020099165055, 35.989875000141851 ], [ -77.901428991431516, 35.98941100006887 ], [ -77.901331991045851, 35.988675999853506 ], [ -77.904197991669534, 35.988891999479229 ] ] ] } },
{ "type": "Feature", "properties": { "county": null, "precinct": null, "enr_desc": "Salem", "winner": null, "winner_votes": null, "winner_share": null, "runner_up": null, "runner_up_votes": null, "runner_up_share": null, "contest_votes": null, "margin_of_victory": null, "is_tie": false, "results": null, "participated": false, "map_key": null }, "geometry": { "type": "Polygon", "coordinates": [ [ [ -77.813419990738197, 36.069286999961278 ], [ -77.817144991007311, 36.068068999597173 ], [ -77.81884099086227, 36.069798999497657 ], [ -77.819855990870607, 36.068727000194201 ], [ -77.8206789907521, 36.069365999793263 ], [ -77.821982991317086, 36.067485999863209 ], [ -77.824205991342254, 36.067326999833988 ], [ -77.830926990819222, 36.070770999541736 ], [ -77.832503991449741, 36.069163999630241 ], [ -77.832593991363268, 36.066866999681025 ], [ -77.833769990655881, 36.06611200030742 ], [ -77.836492991431285, 36.069787000200321 ], [ -77.839181991051859, 36.071841999862627 ], [ -77.840075991578814, 36.071443999825931 ], [ -77.840899991376205, 36.072129000076174 ], [ -77.847895991674974, 36.068093000120193 ], [ -77.851347991509826, 36.067403999620915 ], [ -77.854003991066818, 36.067970000345809 ], [ -77.853867991249956, 36.065850999950946 ], [ -77.855931991201317, 36.065014000283973 ], [ -77.859004991453361, 36.066661000188837 ], [ -77.861846991686335, 36.066782000196099 ], [ -77.862539991653733, 36.067915000311402 ], [ -77.862896990767993, 36.069195000112842 ], [ -77.865248991600907, 36.069780000256756 ], [ -77.865441991201521, 36.071009999573185 ], [ -77.869403991314641, 36.074196999547361 ], [ -77.871182991260795, 36.073944000097903 ], [ -77.874419991629807, 36.076678000085003 ], [ -77.878082991311615, 36.076859000257855 ], [ -77.878952991603327, 36.078128999801784 ], [ -77.878453991037702, 36.080130000351595 ], [ -77.88186299060861, 36.080452999760247 ], [ -77.883459990987419, 36.081458999950698 ], [ -77.8837219912715, 36.082544000311429 ], [ -77.881156990913851, 36.087341999518799 ], [ -77.882348990952593, 36.089516000255621 ], [ -77.889211991360199, 36.087010999703629 ], [ -77.889244991391791, 36.084052999928851 ], [ -77.890765991451261, 36.083539999810753 ], [ -77.891728991268636, 36.085636000196018 ], [ -77.893635991526239, 36.08421000014053 ], [ -77.897949991011529, 36.085422000006986 ], [ -77.898496991215836, 36.086011999711822 ], [ -77.89743999144028, 36.086227999781485 ], [ -77.897623991327237, 36.086973000209525 ], [ -77.903494990602084, 36.08997799997946 ], [ -77.905796990606561, 36.092206999481917 ], [ -77.906252991545628, 36.09426000014497 ], [ -77.907704991447829, 36.094838000233658 ], [ -77.90949299125613, 36.093996999991653 ], [ -77.911778991109159, 36.089195000238227 ], [ -77.914698990686077, 36.088794000331276 ], [ -77.916521991125293, 36.091580999934131 ], [ -77.916664991198516, 36.093250000132713 ], [ -77.915697991221663, 36.09504299980852 ], [ -77.914412991361274, 36.095663999886327 ], [ -77.916837990730386, 36.096992000144049 ], [ -77.91785299110974, 36.099975000206101 ], [ -77.915318991176051, 36.102566999743495 ], [ -77.912378991014307, 36.104045999487056 ], [ -77.908232991161341, 36.10428699951548 ], [ -77.905270991700291, 36.105759999667093 ], [ -77.902897990992514, 36.11381799979624 ], [ -77.900275991623687, 36.119418999904426 ], [ -77.894928991407653, 36.124883000111048 ], [ -77.892546991466716, 36.134586999635431 ], [ -77.893305991250926, 36.137425000348202 ], [ -77.897060990898197, 36.140296999608161 ], [ -77.896735991006679, 36.145431000194044 ], [ -77.895606991143495, 36.148364000049973 ], [ -77.89173899091935, 36.149847000305648 ], [ -77.88809899127979, 36.144137000356082 ], [ -77.887239991228782, 36.143839999499797 ], [ -77.886162990771808, 36.144212999848136 ], [ -77.885450991091162, 36.146381999575603 ], [ -77.884230991372945, 36.14729800017804 ], [ -77.882023991316004, 36.146847000240179 ], [ -77.878959990869333, 36.143145000170492 ], [ -77.878923991333124, 36.144720999857761 ], [ -77.877130991636662, 36.144571999604814 ], [ -77.875200991327077, 36.145482000258383 ], [ -77.871625991030697, 36.145223000267706 ], [ -77.869730991623655, 36.146405000230665 ], [ -77.868023990952338, 36.146455000199872 ], [ -77.865777991237152, 36.148532999689309 ], [ -77.861857991280175, 36.149100000315222 ], [ -77.856079991327974, 36.146037999969813 ], [ -77.852869991078265, 36.146649000360078 ], [ -77.847770991171018, 36.145035000134271 ], [ -77.841259991384561, 36.145583999734626 ], [ -77.83288799136966, 36.144319999615171 ], [ -77.829766990820744, 36.145742999936736 ], [ -77.824403991494549, 36.143996999527396 ], [ -77.821600991657888, 36.14472300003527 ], [ -77.819216990776624, 36.143559000262329 ], [ -77.817845991035412, 36.14121799992445 ], [ -77.815519991231653, 36.139999999794355 ], [ -77.808505990626614, 36.138198999537337 ], [ -77.807008991088381, 36.138792000201839 ], [ -77.805160991514839, 36.141615999653069 ], [ -77.805898991257251, 36.147090999560007 ], [ -77.804282991135963, 36.149735999630629 ], [ -77.802886991319482, 36.143648999679726 ], [ -77.802408991316867, 36.136306999834524 ], [ -77.801235991326251, 36.133515999730101 ], [ -77.801145991645072, 36.129051999807373 ], [ -77.804199991093256, 36.122458999768611 ], [ -77.809435990714974, 36.116570000150858 ], [ -77.812429991390815, 36.107800000176653 ], [ -77.815157991569308, 36.10280799983498 ], [ -77.814297990633762, 36.100115999495507 ], [ -77.810150991343122, 36.09600999953571 ], [ -77.810293991607637, 36.086323000072142 ], [ -77.807718990724482, 36.080484999886366 ], [ -77.813419990738197, 36.069286999961278 ] ] ] } },
{ "type": "Feature", "properties": { "county": null, "precinct": null, "enr_desc": "Whitakers", "winner": null, "winner_votes": null, "winner_share": null, "runner_up": null, "runner_up_votes": null, "runner_up_share": null, "contest_votes": null, "margin_of_victory": null, "is_tie": false, "results": null, "participated": false, "map_key": null }, "geometry": { "type": "Polygon", "coordinates": [ [ [ -77.804282991135963, 36.149735999630629 ], [ -77.802125990605347, 36.148563999854204 ], [ -77.801599991643158, 36.145771999828291 ], [ -77.799262991422381, 36.144476000063442 ], [ -77.796324990668609, 36.145408999737676 ], [ -77.792485991348784, 36.145138999897227 ], [ -77.787663991252813, 36.143760000270326 ], [ -77.783118991272062, 36.141388000168575 ], [ -77.778494990773353, 36.144029999979459 ], [ -77.77413799119013, 36.142528999545057 ], [ -77.7738489915521, 36.145925999966877 ], [ -77.772566990802574, 36.147026999739175 ], [ -77.769314990986246, 36.146176999807508 ], [ -77.764780991406056, 36.14788899990279 ], [ -77.757020991559685, 36.148985000105199 ], [ -77.753201991365017, 36.151982999550427 ], [ -77.753228991396014, 36.156872999780234 ], [ -77.750067990819076, 36.157468000046215 ], [ -77.745936991480022, 36.153077999987829 ], [ -77.741655990724851, 36.155150000193316 ], [ -77.737183991150118, 36.153747999699249 ], [ -77.735542991083776, 36.150050999744586 ], [ -77.732445990657951, 36.147430999722296 ], [ -77.729386991424761, 36.148985000001076 ], [ -77.730825991643698, 36.146874999996896 ], [ -77.730066991160427, 36.143513000352989 ], [ -77.731527990982414, 36.139316999619716 ], [ -77.726255991536661, 36.137999999876193 ], [ -77.722974991457349, 36.134306999662869 ], [ -77.721331990740467, 36.133795000225732 ], [ -77.717640990663512, 36.13513299961442 ], [ -77.716431991109616, 36.136380000252522 ], [ -77.716998990681972, 36.137700999767326 ], [ -77.719724990932093, 36.139105999613605 ], [ -77.719976990924067, 36.140687000244817 ], [ -77.721581991547225, 36.141416999613874 ], [ -77.716762990606441, 36.145785000021149 ], [ -77.714907991112355, 36.146608999890709 ], [ -77.711764990657301, 36.145346999958633 ], [ -77.706459990937816, 36.14678500005283 ], [ -77.707028991508608, 36.148279999558142 ], [ -77.704923990987893, 36.1509130001239 ], [ -77.703721991293648, 36.151341999752525 ], [ -77.702642990635667, 36.150486999681682 ], [ -77.699455991207373, 36.152941999957662 ], [ -77.697955991032089, 36.153150000092268 ], [ -77.701583990598394, 36.149316000315679 ], [ -77.703641991087835, 36.144902999855589 ], [ -77.705531990900312, 36.121001999552192 ], [ -77.707718991496961, 36.113683999699141 ], [ -77.732997991114516, 36.074763000262152 ], [ -77.735181991586288, 36.073658999702303 ], [ -77.734890991349445, 36.072643000324661 ], [ -77.737514991233596, 36.072669999969129 ], [ -77.738049991052307, 36.073168999752234 ], [ -77.736338991536599, 36.074201999859952 ], [ -77.739153990848251, 36.074749999837366 ], [ -77.738294991584127, 36.075333000018183 ], [ -77.738437991581861, 36.076239999679316 ], [ -77.739573991701221, 36.075172999815607 ], [ -77.740378991388596, 36.076517999895266 ], [ -77.740608990856188, 36.075221999878245 ], [ -77.741942990725818, 36.076583000071658 ], [ -77.742759991355456, 36.075522999796448 ], [ -77.743220990968567, 36.076175999787026 ], [ -77.743930991045559, 36.075780999851403 ], [ -77.745541990790343, 36.077064999658155 ], [ -77.74418299096132, 36.078196999921779 ], [ -77.746489991524996, 36.078712000048732 ], [ -77.746353991325094, 36.077569999738579 ], [ -77.750190991234689, 36.078835000154676 ], [ -77.750170991538255, 36.077995999997945 ], [ -77.752226990656354, 36.078077999678321 ], [ -77.751794991624763, 36.077132999519947 ], [ -77.752510990608002, 36.07691399954124 ], [ -77.753321991349353, 36.07856199949817 ], [ -77.754229990762397, 36.077909000074975 ], [ -77.754417991158036, 36.078765999999298 ], [ -77.756387991630092, 36.079008000104942 ], [ -77.756354991292383, 36.077668000253134 ], [ -77.757754991474201, 36.078146999577328 ], [ -77.758167991157876, 36.077098000170722 ], [ -77.76201199153661, 36.075996000250775 ], [ -77.762396991470709, 36.075090000079719 ], [ -77.764026991629109, 36.076055999632551 ], [ -77.763682991675296, 36.075299000090709 ], [ -77.764486991155593, 36.074623000172721 ], [ -77.765360990649583, 36.075056999692549 ], [ -77.765042990980135, 36.075925000272186 ], [ -77.767956991513245, 36.07612899988942 ], [ -77.76965599098331, 36.0746249996185 ], [ -77.768187990723675, 36.073701999836182 ], [ -77.772362991442876, 36.072670999853706 ], [ -77.772302990713911, 36.071840999857237 ], [ -77.771984990853667, 36.072576999673018 ], [ -77.771212991152908, 36.072307999705828 ], [ -77.771133990791711, 36.071012000319456 ], [ -77.769752990959958, 36.070016999723329 ], [ -77.770112990736081, 36.069226999553386 ], [ -77.771769990979308, 36.069914000331167 ], [ -77.772878990715625, 36.069413999671099 ], [ -77.771613991430783, 36.068640000056185 ], [ -77.772317991000634, 36.06794799956743 ], [ -77.773107991063782, 36.067853000097479 ], [ -77.77428599146667, 36.069530000031492 ], [ -77.773880990705251, 36.068530000246888 ], [ -77.77701199112397, 36.069277999532893 ], [ -77.776991990973755, 36.066977000028743 ], [ -77.778243991568218, 36.067559000054736 ], [ -77.779177991119283, 36.066950000189365 ], [ -77.778297990791941, 36.065632000103484 ], [ -77.779657991391659, 36.065528000212126 ], [ -77.780077991109096, 36.06677499973425 ], [ -77.78203899099374, 36.06511100006955 ], [ -77.784581990666297, 36.065533999674237 ], [ -77.784806991614019, 36.063787999943585 ], [ -77.786821990677652, 36.064947000341512 ], [ -77.788261991365403, 36.064573999941608 ], [ -77.787727991107431, 36.0635799998933 ], [ -77.789162990652969, 36.064271999736761 ], [ -77.791286991277985, 36.063563000117348 ], [ -77.790379991096088, 36.064679000195447 ], [ -77.791264990619382, 36.065518999649825 ], [ -77.792536991511113, 36.063498000039161 ], [ -77.79405999084004, 36.064420999721875 ], [ -77.794139990972681, 36.063700999989187 ], [ -77.79652899073379, 36.062723999734189 ], [ -77.795311991519426, 36.061454999513117 ], [ -77.79727899087105, 36.061697000096878 ], [ -77.797265991335806, 36.060802000027302 ], [ -77.798050990891852, 36.061208999512885 ], [ -77.798828990613274, 36.060416999528123 ], [ -77.799498991364786, 36.061279999828685 ], [ -77.800985991177683, 36.061076000115058 ], [ -77.80158799144472, 36.063778999752998 ], [ -77.803556991465612, 36.063872000169653 ], [ -77.804184991373745, 36.06553599978259 ], [ -77.80878399116817, 36.065502999744076 ], [ -77.812057990674077, 36.069099999969367 ], [ -77.813419990738197, 36.069286999961278 ], [ -77.807718990724482, 36.080484999886366 ], [ -77.810293991607637, 36.086323000072142 ], [ -77.810150991343122, 36.09600999953571 ], [ -77.814297990633762, 36.100115999495507 ], [ -77.815157991569308, 36.10280799983498 ], [ -77.812429991390815, 36.107800000176653 ], [ -77.809435990714974, 36.116570000150858 ], [ -77.804199991093256, 36.122458999768611 ], [ -77.801145991645072, 36.129051999807373 ], [ -77.801235991326251, 36.133515999730101 ], [ -77.802408991316867, 36.136306999834524 ], [ -77.802886991319482, 36.143648999679726 ], [ -77.804282991135963, 36.149735999630629 ] ] ] } },
{ "type": "Feature", "properties": { "county": null, "precinct": null, "enr_desc": "Dortches", "winner": null, "winner_votes": null, "winner_share": null, "runner_up": null, "runner_up_votes": null, "runner_up_share": null, "contest_votes": null, "margin_of_victory": null, "is_tie": false, "results": null, "participated": false, "map_key": null }, "geometry": { "type": "Polygon", "coordinates": [ [ [ -77.807359990650156, 36.001503999682377 ], [ -77.809100990617793, 36.001593999668501 ], [ -77.810040991165408, 36.002959000337135 ], [ -77.809127991676604, 36.003539000344006 ], [ -77.809749991498947, 36.004355999659964 ], [ -77.814390991685428, 36.004890999664106 ], [ -77.813030991283412, 36.000990999845435 ], [ -77.817512991362818, 36.002250999529004 ], [ -77.823190990904962, 35.991326000289867 ], [ -77.823981991456236, 35.990564000003602 ], [ -77.831170990596561, 35.989952000286067 ], [ -77.838221991231364, 35.991959000266306 ], [ -77.841345991377253, 35.994018999850944 ], [ -77.848796991338077, 35.990732999831785 ], [ -77.848656991081413, 35.986793999916188 ], [ -77.850086991704771, 35.987053000063355 ], [ -77.851273990770395, 35.985227000231497 ], [ -77.852271991189426, 35.985567000276419 ], [ -77.85184399079138, 35.987526999766892 ], [ -77.861447990817155, 35.988667000266396 ], [ -77.873335991422195, 35.992644000030985 ], [ -77.875453991421139, 35.986226999785742 ], [ -77.876599990599757, 35.986600000234233 ], [ -77.878202991019279, 35.985511000095087 ], [ -77.881990990777481, 35.985174000116984 ], [ -77.883417991610727, 35.986586999581846 ], [ -77.884245990921968, 35.989486000232993 ], [ -77.885639990679408, 35.990017999838813 ], [ -77.887160991141698, 35.989237999594415 ], [ -77.887030990776722, 35.987846000356065 ], [ -77.887566990918344, 35.988304000340719 ], [ -77.887869991488628, 35.987609999677325 ], [ -77.888512991330089, 35.988050999864917 ], [ -77.889113990981471, 35.987137999524677 ], [ -77.889951991115154, 35.987273000131772 ], [ -77.891137991367657, 35.989818999581217 ], [ -77.893133990700477, 35.990789999962864 ], [ -77.894954991433593, 35.994037999877904 ], [ -77.893212991644404, 35.995521999653107 ], [ -77.894871991005175, 35.99706000010417 ], [ -77.895165991490074, 35.999852999595923 ], [ -77.891810990777387, 36.000242000221704 ], [ -77.893174991513675, 36.005752000107982 ], [ -77.895127990926923, 36.005874999850036 ], [ -77.895117990717026, 36.006911999665185 ], [ -77.887375990889353, 36.004729000073468 ], [ -77.887119991110154, 36.012631999652989 ], [ -77.887677991492936, 36.011903000249454 ], [ -77.892620991023804, 36.011087999698006 ], [ -77.891857991137414, 36.014250999512846 ], [ -77.887735990799797, 36.01428699961523 ], [ -77.887749991166231, 36.017280000016775 ], [ -77.884673990608491, 36.017272999743618 ], [ -77.883143991076622, 36.020339999501601 ], [ -77.883187991129162, 36.021900999872287 ], [ -77.8772079914485, 36.027774999982505 ], [ -77.872726991476782, 36.03040199981475 ], [ -77.865169991169196, 36.032973000154904 ], [ -77.852997991089964, 36.033406000349792 ], [ -77.847754991462651, 36.032331000259916 ], [ -77.840149991201798, 36.028740000108023 ], [ -77.838221991440918, 36.029804000365893 ], [ -77.835341991651063, 36.029671999515934 ], [ -77.834207990648991, 36.030722000123475 ], [ -77.831961990790703, 36.029606999963029 ], [ -77.828214991359914, 36.024741999734346 ], [ -77.820717991596226, 36.020832999721158 ], [ -77.817849991269185, 36.016553999826513 ], [ -77.816172991176458, 36.016197999728938 ], [ -77.810737990830759, 36.012425000034291 ], [ -77.805891991561126, 36.010826000351315 ], [ -77.800769991655031, 36.007026000003037 ], [ -77.803983991463809, 36.003141000082096 ], [ -77.807359990650156, 36.001503999682377 ] ] ] } },
{ "type": "Feature", "properties": { "county": "NASH", "precinct": "P15A", "enr_desc": "Oak Level", "winner": "DeLeon Parker", "winner_votes": 293.0, "winner_share": 69.596199524940616, "runner_up": "Kent Smith", "runner_up_votes": 128.0, "runner_up_share": 30.403800475059384, "contest_votes": 421.0, "margin_of_victory": 39.192399049881232, "is_tie": false, "results": [ { "candidate": "DeLeon Parker", "votes": 293, "share": 69.59619952494062 }, { "candidate": "Kent Smith", "votes": 128, "share": 30.403800475059384 } ], "participated": true, "map_key": "NASH_P15A" }, "geometry": { "type": "Polygon", "coordinates": [ [ [ -77.94384599076831, 35.937244000231772 ], [ -77.944012990731181, 35.940863000236355 ], [ -77.94679799085182, 35.95014400016057 ], [ -77.941089990804016, 35.951669999501753 ], [ -77.930747990859814, 35.956101000097256 ], [ -77.92729999089795, 35.957911999493582 ], [ -77.924469990808944, 35.960773000345831 ], [ -77.918800991056742, 35.963387999932571 ], [ -77.918842990890226, 35.980085999798632 ], [ -77.912672991404378, 35.984743999504218 ], [ -77.908012990767901, 35.98439899960136 ], [ -77.904197991669534, 35.988891999479229 ], [ -77.901331991045851, 35.988675999853506 ], [ -77.901428991431516, 35.98941100006887 ], [ -77.90020099165055, 35.989875000141851 ], [ -77.898743990995158, 35.986373999807476 ], [ -77.898053991351404, 35.986764999948889 ], [ -77.895279990950826, 35.985670999789555 ], [ -77.895245991629977, 35.986278999867707 ], [ -77.893961990888016, 35.98571700026087 ], [ -77.889951991115154, 35.987273000131772 ], [ -77.889113990981471, 35.987137999524677 ], [ -77.888512991330089, 35.988050999864917 ], [ -77.887869991488628, 35.987609999677325 ], [ -77.887566990918344, 35.988304000340719 ], [ -77.887030990776722, 35.987846000356065 ], [ -77.887160991141698, 35.989237999594415 ], [ -77.885639990679408, 35.990017999838813 ], [ -77.884245990921968, 35.989486000232993 ], [ -77.883417991610727, 35.986586999581846 ], [ -77.881990990777481, 35.985174000116984 ], [ -77.878202991019279, 35.985511000095087 ], [ -77.876599990599757, 35.986600000234233 ], [ -77.875453991421139, 35.986226999785742 ], [ -77.876948991692998, 35.981992999666808 ], [ -77.885971990624583, 35.960905999529608 ], [ -77.880705991628346, 35.959918999537479 ], [ -77.875900991673163, 35.962425999774446 ], [ -77.8718439908546, 35.962281999705773 ], [ -77.872712991621157, 35.952361000253042 ], [ -77.871238991008099, 35.947745000355454 ], [ -77.871405991098882, 35.943293999663773 ], [ -77.867779991712311, 35.943239999507654 ], [ -77.858262991715932, 35.93818099958964 ], [ -77.858637990890216, 35.935605000042862 ], [ -77.853465991297554, 35.935938 ], [ -77.850326990607996, 35.93273100033624 ], [ -77.847392990728054, 35.932860999501557 ], [ -77.847997991112692, 35.927126000366549 ], [ -77.843995991460247, 35.925792999619091 ], [ -77.840357991052755, 35.926433999820155 ], [ -77.840951990944902, 35.925333999478049 ], [ -77.840235991021231, 35.923882999788141 ], [ -77.839546991393618, 35.924513000355631 ], [ -77.838323991181682, 35.923498000274854 ], [ -77.834069990678714, 35.922988000286495 ], [ -77.833628990878296, 35.92036600018136 ], [ -77.83477899151967, 35.918922999494235 ], [ -77.836121991171851, 35.916605000261093 ], [ -77.84141899104614, 35.914221000285892 ], [ -77.848851990702272, 35.91361600006946 ], [ -77.856815991637177, 35.910350999528951 ], [ -77.858306991514354, 35.907895000163691 ], [ -77.859993991546588, 35.901371999682532 ], [ -77.861223990830169, 35.900527000239514 ], [ -77.866884991160688, 35.899723999708769 ], [ -77.868080990925819, 35.901401999570517 ], [ -77.868130991497324, 35.905682999988855 ], [ -77.870056991455471, 35.906649000063751 ], [ -77.87261399152473, 35.906085999523448 ], [ -77.875702991485824, 35.901491000339277 ], [ -77.881513991521217, 35.900892000343823 ], [ -77.883741991197269, 35.899899000038218 ], [ -77.888415991429952, 35.893336999503177 ], [ -77.895626990777913, 35.888630999488733 ], [ -77.897115991027874, 35.886190000090046 ], [ -77.902688991354424, 35.88364199993007 ], [ -77.905018991229525, 35.885694000275912 ], [ -77.909112990855704, 35.884155999673609 ], [ -77.911541990797815, 35.885446000353539 ], [ -77.908543990878357, 35.894003999570948 ], [ -77.913930991113631, 35.89821799972875 ], [ -77.920640991302903, 35.905009999725884 ], [ -77.932553991316055, 35.902181000221766 ], [ -77.934127991538901, 35.902735999781889 ], [ -77.933815991553487, 35.905754000299204 ], [ -77.93298699102121, 35.906397999555146 ], [ -77.931810990820949, 35.906085000187289 ], [ -77.929457990639378, 35.909644000252605 ], [ -77.929351991662784, 35.91073099958097 ], [ -77.93041399064623, 35.911251999671734 ], [ -77.930948991046179, 35.912917999491789 ], [ -77.930673991103632, 35.914027999493065 ], [ -77.928445990615714, 35.915474999993116 ], [ -77.929219991641375, 35.918395999723643 ], [ -77.928289990961474, 35.919896999788882 ], [ -77.931022991070904, 35.921836000313142 ], [ -77.93205299145896, 35.924379000254952 ], [ -77.93413699164887, 35.925784000169735 ], [ -77.934390990741448, 35.928064000285296 ], [ -77.932952991491092, 35.929066000103077 ], [ -77.935281991165027, 35.932804999755348 ], [ -77.93835399126084, 35.935078000241759 ], [ -77.94384599076831, 35.937244000231772 ] ] ] } },
{ "type": "Feature", "properties": { "county": null, "precinct": null, "enr_desc": "Rocky Mount Battleboro", "winner": null, "winner_votes": null, "winner_share": null, "runner_up": null, "runner_up_votes": null, "runner_up_share": null, "contest_votes": null, "margin_of_victory": null, "is_tie": false, "results": null, "participated": false, "map_key": null }, "geometry": { "type": "Polygon", "coordinates": [ [ [ -77.807359990650156, 36.001503999682377 ], [ -77.803983991463809, 36.003141000082096 ], [ -77.800769991655031, 36.007026000003037 ], [ -77.805891991561126, 36.010826000351315 ], [ -77.810737990830759, 36.012425000034291 ], [ -77.816172991176458, 36.016197999728938 ], [ -77.817849991269185, 36.016553999826513 ], [ -77.820717991596226, 36.020832999721158 ], [ -77.828214991359914, 36.024741999734346 ], [ -77.831961990790703, 36.029606999963029 ], [ -77.834207990648991, 36.030722000123475 ], [ -77.835341991651063, 36.029671999515934 ], [ -77.838221991440918, 36.029804000365893 ], [ -77.840149991201798, 36.028740000108023 ], [ -77.847754991462651, 36.032331000259916 ], [ -77.852997991089964, 36.033406000349792 ], [ -77.851421990995192, 36.038618000338587 ], [ -77.853917991607261, 36.039040999833084 ], [ -77.861446991379793, 36.037504999783209 ], [ -77.864003991625879, 36.041679999512539 ], [ -77.866981991669832, 36.044693999815351 ], [ -77.866089990892576, 36.047235000162331 ], [ -77.86261999080125, 36.05183199983518 ], [ -77.862448990777082, 36.053701000332481 ], [ -77.860013990885648, 36.055995999566754 ], [ -77.86116199149626, 36.055905000091919 ], [ -77.861175990768871, 36.055268000101712 ], [ -77.864080990792587, 36.056120999745055 ], [ -77.865946990846695, 36.055812999839652 ], [ -77.866687991611485, 36.057731000197428 ], [ -77.865981991488553, 36.061408000290065 ], [ -77.868940991048973, 36.063437999640897 ], [ -77.862539991653733, 36.067915000311402 ], [ -77.861846991686335, 36.066782000196099 ], [ -77.859004991453361, 36.066661000188837 ], [ -77.855931991201317, 36.065014000283973 ], [ -77.853867991249956, 36.065850999950946 ], [ -77.854003991066818, 36.067970000345809 ], [ -77.851347991509826, 36.067403999620915 ], [ -77.847895991674974, 36.068093000120193 ], [ -77.840899991376205, 36.072129000076174 ], [ -77.840075991578814, 36.071443999825931 ], [ -77.839181991051859, 36.071841999862627 ], [ -77.836492991431285, 36.069787000200321 ], [ -77.833769990655881, 36.06611200030742 ], [ -77.832593991363268, 36.066866999681025 ], [ -77.832503991449741, 36.069163999630241 ], [ -77.830926990819222, 36.070770999541736 ], [ -77.824205991342254, 36.067326999833988 ], [ -77.821982991317086, 36.067485999863209 ], [ -77.8206789907521, 36.069365999793263 ], [ -77.819855990870607, 36.068727000194201 ], [ -77.81884099086227, 36.069798999497657 ], [ -77.817144991007311, 36.068068999597173 ], [ -77.813419990738197, 36.069286999961278 ], [ -77.812057990674077, 36.069099999969367 ], [ -77.80878399116817, 36.065502999744076 ], [ -77.804184991373745, 36.06553599978259 ], [ -77.803556991465612, 36.063872000169653 ], [ -77.80158799144472, 36.063778999752998 ], [ -77.800985991177683, 36.061076000115058 ], [ -77.799498991364786, 36.061279999828685 ], [ -77.798828990613274, 36.060416999528123 ], [ -77.798050990891852, 36.061208999512885 ], [ -77.797265991335806, 36.060802000027302 ], [ -77.79727899087105, 36.061697000096878 ], [ -77.795311991519426, 36.061454999513117 ], [ -77.79652899073379, 36.062723999734189 ], [ -77.794139990972681, 36.063700999989187 ], [ -77.79405999084004, 36.064420999721875 ], [ -77.792536991511113, 36.063498000039161 ], [ -77.791264990619382, 36.065518999649825 ], [ -77.790379991096088, 36.064679000195447 ], [ -77.791286991277985, 36.063563000117348 ], [ -77.789162990652969, 36.064271999736761 ], [ -77.787727991107431, 36.0635799998933 ], [ -77.788261991365403, 36.064573999941608 ], [ -77.786821990677652, 36.064947000341512 ], [ -77.784806991614019, 36.063787999943585 ], [ -77.784581990666297, 36.065533999674237 ], [ -77.78203899099374, 36.06511100006955 ], [ -77.780077991109096, 36.06677499973425 ], [ -77.779657991391659, 36.065528000212126 ], [ -77.778297990791941, 36.065632000103484 ], [ -77.779177991119283, 36.066950000189365 ], [ -77.778243991568218, 36.067559000054736 ], [ -77.776991990973755, 36.066977000028743 ], [ -77.77701199112397, 36.069277999532893 ], [ -77.773880990705251, 36.068530000246888 ], [ -77.77428599146667, 36.069530000031492 ], [ -77.773107991063782, 36.067853000097479 ], [ -77.772317991000634, 36.06794799956743 ], [ -77.771613991430783, 36.068640000056185 ], [ -77.772878990715625, 36.069413999671099 ], [ -77.771769990979308, 36.069914000331167 ], [ -77.770112990736081, 36.069226999553386 ], [ -77.769752990959958, 36.070016999723329 ], [ -77.771133990791711, 36.071012000319456 ], [ -77.771212991152908, 36.072307999705828 ], [ -77.771984990853667, 36.072576999673018 ], [ -77.772302990713911, 36.071840999857237 ], [ -77.772362991442876, 36.072670999853706 ], [ -77.768187990723675, 36.073701999836182 ], [ -77.76965599098331, 36.0746249996185 ], [ -77.767956991513245, 36.07612899988942 ], [ -77.765042990980135, 36.075925000272186 ], [ -77.765360990649583, 36.075056999692549 ], [ -77.764486991155593, 36.074623000172721 ], [ -77.763682991675296, 36.075299000090709 ], [ -77.764026991629109, 36.076055999632551 ], [ -77.762396991470709, 36.075090000079719 ], [ -77.76201199153661, 36.075996000250775 ], [ -77.758167991157876, 36.077098000170722 ], [ -77.757754991474201, 36.078146999577328 ], [ -77.756354991292383, 36.077668000253134 ], [ -77.756387991630092, 36.079008000104942 ], [ -77.754417991158036, 36.078765999999298 ], [ -77.754229990762397, 36.077909000074975 ], [ -77.753321991349353, 36.07856199949817 ], [ -77.752510990608002, 36.07691399954124 ], [ -77.751794991624763, 36.077132999519947 ], [ -77.752226990656354, 36.078077999678321 ], [ -77.750170991538255, 36.077995999997945 ], [ -77.750190991234689, 36.078835000154676 ], [ -77.746353991325094, 36.077569999738579 ], [ -77.746489991524996, 36.078712000048732 ], [ -77.74418299096132, 36.078196999921779 ], [ -77.745541990790343, 36.077064999658155 ], [ -77.743930991045559, 36.075780999851403 ], [ -77.743220990968567, 36.076175999787026 ], [ -77.742759991355456, 36.075522999796448 ], [ -77.741942990725818, 36.076583000071658 ], [ -77.740608990856188, 36.075221999878245 ], [ -77.740378991388596, 36.076517999895266 ], [ -77.739573991701221, 36.075172999815607 ], [ -77.738437991581861, 36.076239999679316 ], [ -77.738294991584127, 36.075333000018183 ], [ -77.739153990848251, 36.074749999837366 ], [ -77.736338991536599, 36.074201999859952 ], [ -77.738049991052307, 36.073168999752234 ], [ -77.737514991233596, 36.072669999969129 ], [ -77.734890991349445, 36.072643000324661 ], [ -77.735181991586288, 36.073658999702303 ], [ -77.732997991114516, 36.074763000262152 ], [ -77.741923991093117, 36.061119999953064 ], [ -77.770380991250036, 36.0096380000032 ], [ -77.774096990680647, 35.998739999636939 ], [ -77.776451991668736, 35.999136000171802 ], [ -77.785961991222123, 35.982834000002754 ], [ -77.789435990981687, 35.984401999481193 ], [ -77.790603991230256, 35.986018999560841 ], [ -77.791264990921789, 35.993779999513464 ], [ -77.789592991158941, 35.997578999709233 ], [ -77.795231990981378, 36.000112999639924 ], [ -77.802182991032439, 36.001194999761147 ], [ -77.806076991617658, 36.000324999705256 ], [ -77.807359990650156, 36.001503999682377 ] ] ] } },
{ "type": "Feature", "properties": { "county": null, "precinct": null, "enr_desc": "Rocky Mount Benvenue", "winner": null, "winner_votes": null, "winner_share": null, "runner_up": null, "runner_up_votes": null, "runner_up_share": null, "contest_votes": null, "margin_of_victory": null, "is_tie": false, "results": null, "participated": false, "map_key": null }, "geometry": { "type": "Polygon", "coordinates": [ [ [ -77.823190990904962, 35.991326000289867 ], [ -77.817512991362818, 36.002250999529004 ], [ -77.813030991283412, 36.000990999845435 ], [ -77.814390991685428, 36.004890999664106 ], [ -77.809749991498947, 36.004355999659964 ], [ -77.809127991676604, 36.003539000344006 ], [ -77.810040991165408, 36.002959000337135 ], [ -77.809100990617793, 36.001593999668501 ], [ -77.807359990650156, 36.001503999682377 ], [ -77.806076991617658, 36.000324999705256 ], [ -77.802182991032439, 36.001194999761147 ], [ -77.795231990981378, 36.000112999639924 ], [ -77.789592991158941, 35.997578999709233 ], [ -77.791264990921789, 35.993779999513464 ], [ -77.790603991230256, 35.986018999560841 ], [ -77.789435990981687, 35.984401999481193 ], [ -77.785961991222123, 35.982834000002754 ], [ -77.791429991014837, 35.97845599988942 ], [ -77.80235699156853, 35.973689999751038 ], [ -77.810105991194291, 35.981839999708953 ], [ -77.823190990904962, 35.991326000289867 ] ] ] } },
{ "type": "Feature", "properties": { "county": null, "precinct": null, "enr_desc": "Rocky Mount Hunter Hill", "winner": null, "winner_votes": null, "winner_share": null, "runner_up": null, "runner_up_votes": null, "runner_up_share": null, "contest_votes": null, "margin_of_victory": null, "is_tie": false, "results": null, "participated": false, "map_key": null }, "geometry": { "type": "Polygon", "coordinates": [ [ [ -77.847101991153721, 35.975896000293545 ], [ -77.851923991075154, 35.979040000008808 ], [ -77.855550991181829, 35.98029199989351 ], [ -77.876948991692998, 35.981992999666808 ], [ -77.875453991421139, 35.986226999785742 ], [ -77.873335991422195, 35.992644000030985 ], [ -77.861447990817155, 35.988667000266396 ], [ -77.85184399079138, 35.987526999766892 ], [ -77.852271991189426, 35.985567000276419 ], [ -77.851273990770395, 35.985227000231497 ], [ -77.850086991704771, 35.987053000063355 ], [ -77.848656991081413, 35.986793999916188 ], [ -77.848796991338077, 35.990732999831785 ], [ -77.841345991377253, 35.994018999850944 ], [ -77.838221991231364, 35.991959000266306 ], [ -77.831170990596561, 35.989952000286067 ], [ -77.823981991456236, 35.990564000003602 ], [ -77.823190990904962, 35.991326000289867 ], [ -77.810105991194291, 35.981839999708953 ], [ -77.80235699156853, 35.973689999751038 ], [ -77.814865991283895, 35.96814099960789 ], [ -77.820699991301566, 35.96169100007711 ], [ -77.82612499150477, 35.963920000368383 ], [ -77.825519991530427, 35.965064999498509 ], [ -77.826372991181188, 35.966859999529234 ], [ -77.824952991075122, 35.969188000152727 ], [ -77.830092990634, 35.970548999869536 ], [ -77.839390990822935, 35.971167999654085 ], [ -77.847101991153721, 35.975896000293545 ] ] ] } },
{ "type": "Feature", "properties": { "county": "NASH", "precinct": "P19A", "enr_desc": "Rocky Mount Winstead", "winner": "DeLeon Parker", "winner_votes": 138.0, "winner_share": 57.740585774058573, "runner_up": "Kent Smith", "runner_up_votes": 101.0, "runner_up_share": 42.25941422594142, "contest_votes": 239.0, "margin_of_victory": 15.481171548117153, "is_tie": false, "results": [ { "candidate": "DeLeon Parker", "votes": 138, "share": 57.74058577405857 }, { "candidate": "Kent Smith", "votes": 101, "share": 42.25941422594142 } ], "participated": true, "map_key": "NASH_P19A" }, "geometry": { "type": "Polygon", "coordinates": [ [ [ -77.876948991692998, 35.981992999666808 ], [ -77.855550991181829, 35.98029199989351 ], [ -77.851923991075154, 35.979040000008808 ], [ -77.847101991153721, 35.975896000293545 ], [ -77.848587991051431, 35.973162999617834 ], [ -77.844719991633596, 35.969960999744941 ], [ -77.846146991570862, 35.965303999678014 ], [ -77.845784990717178, 35.963492000209158 ], [ -77.838344990874106, 35.962945000281444 ], [ -77.839623991108098, 35.961421999714794 ], [ -77.841536991167217, 35.960690000022566 ], [ -77.843291991633265, 35.949919999754997 ], [ -77.841428991241088, 35.949169999850604 ], [ -77.84348699148174, 35.947073999851675 ], [ -77.84769899156673, 35.94776500006963 ], [ -77.849395990728013, 35.944813999876949 ], [ -77.848697991387709, 35.941404999698136 ], [ -77.854962991460425, 35.940418999837526 ], [ -77.857812990789768, 35.939353000068202 ], [ -77.858262991715932, 35.93818099958964 ], [ -77.867779991712311, 35.943239999507654 ], [ -77.871405991098882, 35.943293999663773 ], [ -77.871238991008099, 35.947745000355454 ], [ -77.872712991621157, 35.952361000253042 ], [ -77.8718439908546, 35.962281999705773 ], [ -77.875900991673163, 35.962425999774446 ], [ -77.880705991628346, 35.959918999537479 ], [ -77.885971990624583, 35.960905999529608 ], [ -77.876948991692998, 35.981992999666808 ] ] ] } },
{ "type": "Feature", "properties": { "county": null, "precinct": null, "enr_desc": "Rocky Mount Sunset", "winner": null, "winner_votes": null, "winner_share": null, "runner_up": null, "runner_up_votes": null, "runner_up_share": null, "contest_votes": null, "margin_of_victory": null, "is_tie": false, "results": null, "participated": false, "map_key": null }, "geometry": { "type": "Polygon", "coordinates": [ [ [ -77.830043991044349, 35.934736999798567 ], [ -77.839664991266346, 35.938509999884715 ], [ -77.847392990728054, 35.932860999501557 ], [ -77.850326990607996, 35.93273100033624 ], [ -77.853465991297554, 35.935938 ], [ -77.858637990890216, 35.935605000042862 ], [ -77.858262991715932, 35.93818099958964 ], [ -77.857812990789768, 35.939353000068202 ], [ -77.854962991460425, 35.940418999837526 ], [ -77.848697991387709, 35.941404999698136 ], [ -77.849395990728013, 35.944813999876949 ], [ -77.84769899156673, 35.94776500006963 ], [ -77.84348699148174, 35.947073999851675 ], [ -77.841428991241088, 35.949169999850604 ], [ -77.843291991633265, 35.949919999754997 ], [ -77.841536991167217, 35.960690000022566 ], [ -77.839623991108098, 35.961421999714794 ], [ -77.838344990874106, 35.962945000281444 ], [ -77.845784990717178, 35.963492000209158 ], [ -77.846146991570862, 35.965303999678014 ], [ -77.844719991633596, 35.969960999744941 ], [ -77.848587991051431, 35.973162999617834 ], [ -77.847101991153721, 35.975896000293545 ], [ -77.839390990822935, 35.971167999654085 ], [ -77.830092990634, 35.970548999869536 ], [ -77.824952991075122, 35.969188000152727 ], [ -77.826372991181188, 35.966859999529234 ], [ -77.825519991530427, 35.965064999498509 ], [ -77.82612499150477, 35.963920000368383 ], [ -77.820699991301566, 35.96169100007711 ], [ -77.818299991584112, 35.962339000181139 ], [ -77.815309990969297, 35.961694999490852 ], [ -77.814721991325683, 35.959077999965238 ], [ -77.811999991469946, 35.957585000164606 ], [ -77.817968991016784, 35.953069999825644 ], [ -77.820697990660747, 35.952149999517985 ], [ -77.825680990780285, 35.952558999721283 ], [ -77.826689990974145, 35.951848000055996 ], [ -77.827106990814798, 35.949876000148173 ], [ -77.828816991701814, 35.950196999961634 ], [ -77.830043991044349, 35.934736999798567 ] ] ] } },
{ "type": "Feature", "properties": { "county": null, "precinct": null, "enr_desc": "Rocky Mount Downtown", "winner": null, "winner_votes": null, "winner_share": null, "runner_up": null, "runner_up_votes": null, "runner_up_share": null, "contest_votes": null, "margin_of_victory": null, "is_tie": false, "results": null, "participated": false, "map_key": null }, "geometry": { "type": "Polygon", "coordinates": [ [ [ -77.830043991044349, 35.934736999798567 ], [ -77.828816991701814, 35.950196999961634 ], [ -77.827106990814798, 35.949876000148173 ], [ -77.826689990974145, 35.951848000055996 ], [ -77.825680990780285, 35.952558999721283 ], [ -77.820697990660747, 35.952149999517985 ], [ -77.817968991016784, 35.953069999825644 ], [ -77.811999991469946, 35.957585000164606 ], [ -77.814721991325683, 35.959077999965238 ], [ -77.815309990969297, 35.961694999490852 ], [ -77.818299991584112, 35.962339000181139 ], [ -77.820699991301566, 35.96169100007711 ], [ -77.814865991283895, 35.96814099960789 ], [ -77.80235699156853, 35.973689999751038 ], [ -77.791429991014837, 35.97845599988942 ], [ -77.785961991222123, 35.982834000002754 ], [ -77.776451991668736, 35.999136000171802 ], [ -77.774096990680647, 35.998739999636939 ], [ -77.777989991380508, 35.983940000051746 ], [ -77.797877991248711, 35.936208000033439 ], [ -77.804365991149339, 35.938319000008669 ], [ -77.808463991093049, 35.940855000039015 ], [ -77.812480990801404, 35.940695999680088 ], [ -77.817293990671956, 35.940015999746187 ], [ -77.821173991643136, 35.937716000052887 ], [ -77.823238990894382, 35.935951999910657 ], [ -77.8245089909813, 35.932845000098162 ], [ -77.830043991044349, 35.934736999798567 ] ] ] } },
{ "type": "Feature", "properties": { "county": null, "precinct": null, "enr_desc": "Rocky Mount Edwards", "winner": null, "winner_votes": null, "winner_share": null, "runner_up": null, "runner_up_votes": null, "runner_up_share": null, "contest_votes": null, "margin_of_victory": null, "is_tie": false, "results": null, "participated": false, "map_key": null }, "geometry": { "type": "Polygon", "coordinates": [ [ [ -77.8245089909813, 35.932845000098162 ], [ -77.823238990894382, 35.935951999910657 ], [ -77.821173991643136, 35.937716000052887 ], [ -77.817293990671956, 35.940015999746187 ], [ -77.812480990801404, 35.940695999680088 ], [ -77.808463991093049, 35.940855000039015 ], [ -77.804365991149339, 35.938319000008669 ], [ -77.797877991248711, 35.936208000033439 ], [ -77.801546991280247, 35.927312000032138 ], [ -77.80210899113986, 35.92660599964524 ], [ -77.811836991182062, 35.926792000267611 ], [ -77.8245089909813, 35.932845000098162 ] ] ] } },
{ "type": "Feature", "properties": { "county": null, "precinct": null, "enr_desc": "Rocky Mount South", "winner": null, "winner_votes": null, "winner_share": null, "runner_up": null, "runner_up_votes": null, "runner_up_share": null, "contest_votes": null, "margin_of_victory": null, "is_tie": false, "results": null, "participated": false, "map_key": null }, "geometry": { "type": "Polygon", "coordinates": [ [ [ -77.8245089909813, 35.932845000098162 ], [ -77.811836991182062, 35.926792000267611 ], [ -77.80210899113986, 35.92660599964524 ], [ -77.801546991280247, 35.927312000032138 ], [ -77.809059991701233, 35.909330000225708 ], [ -77.813442991379091, 35.910625999743594 ], [ -77.813446990757313, 35.911610999999851 ], [ -77.815672990711491, 35.911641999702844 ], [ -77.81572099080644, 35.908809999555295 ], [ -77.823254991600237, 35.910406000058387 ], [ -77.823435990993829, 35.914296000172442 ], [ -77.828568991497647, 35.915173999743558 ], [ -77.830823991276574, 35.912678999924573 ], [ -77.83182399071201, 35.916506999931329 ], [ -77.833914990669683, 35.916510999681478 ], [ -77.833205991337337, 35.918517000354043 ], [ -77.83477899151967, 35.918922999494235 ], [ -77.833628990878296, 35.92036600018136 ], [ -77.834069990678714, 35.922988000286495 ], [ -77.838323991181682, 35.923498000274854 ], [ -77.839546991393618, 35.924513000355631 ], [ -77.840235991021231, 35.923882999788141 ], [ -77.840951990944902, 35.925333999478049 ], [ -77.840357991052755, 35.926433999820155 ], [ -77.843995991460247, 35.925792999619091 ], [ -77.847997991112692, 35.927126000366549 ], [ -77.847392990728054, 35.932860999501557 ], [ -77.839664991266346, 35.938509999884715 ], [ -77.830043991044349, 35.934736999798567 ], [ -77.8245089909813, 35.932845000098162 ] ] ] } },
{ "type": "Feature", "properties": { "county": "NASH", "precinct": "P24A", "enr_desc": "Sharpsburg", "winner": "DeLeon Parker", "winner_votes": 226.0, "winner_share": 58.39793281653747, "runner_up": "Kent Smith", "runner_up_votes": 161.0, "runner_up_share": 41.60206718346253, "contest_votes": 387.0, "margin_of_victory": 16.795865633074939, "is_tie": false, "results": [ { "candidate": "DeLeon Parker", "votes": 226, "share": 58.39793281653747 }, { "candidate": "Kent Smith", "votes": 161, "share": 41.60206718346253 } ], "participated": true, "map_key": "NASH_P24A" }, "geometry": { "type": "Polygon", "coordinates": [ [ [ -77.931360991483956, 35.83007799971292 ], [ -77.93039199157802, 35.841643999992847 ], [ -77.932225991683211, 35.848018000183011 ], [ -77.93206799099913, 35.850178999597006 ], [ -77.92495999150826, 35.846874000214761 ], [ -77.920430991569887, 35.848891999558674 ], [ -77.914660991473369, 35.848753999880159 ], [ -77.907459991187736, 35.855010999481664 ], [ -77.904304990737927, 35.860139999648766 ], [ -77.898765991549141, 35.86410299962288 ], [ -77.896165990630408, 35.86884900026223 ], [ -77.889144990809214, 35.871252999671306 ], [ -77.887778991540912, 35.874076999482291 ], [ -77.887666990844366, 35.879290999870179 ], [ -77.88950399086886, 35.881238000296747 ], [ -77.894520991308653, 35.883251999824459 ], [ -77.897115991027874, 35.886190000090046 ], [ -77.895626990777913, 35.888630999488733 ], [ -77.888415991429952, 35.893336999503177 ], [ -77.883741991197269, 35.899899000038218 ], [ -77.881513991521217, 35.900892000343823 ], [ -77.875702991485824, 35.901491000339277 ], [ -77.87261399152473, 35.906085999523448 ], [ -77.870056991455471, 35.906649000063751 ], [ -77.868130991497324, 35.905682999988855 ], [ -77.868080990925819, 35.901401999570517 ], [ -77.866884991160688, 35.899723999708769 ], [ -77.861223990830169, 35.900527000239514 ], [ -77.859993991546588, 35.901371999682532 ], [ -77.858306991514354, 35.907895000163691 ], [ -77.856815991637177, 35.910350999528951 ], [ -77.848851990702272, 35.91361600006946 ], [ -77.84141899104614, 35.914221000285892 ], [ -77.836121991171851, 35.916605000261093 ], [ -77.83477899151967, 35.918922999494235 ], [ -77.833205991337337, 35.918517000354043 ], [ -77.833914990669683, 35.916510999681478 ], [ -77.83182399071201, 35.916506999931329 ], [ -77.830823991276574, 35.912678999924573 ], [ -77.828568991497647, 35.915173999743558 ], [ -77.823435990993829, 35.914296000172442 ], [ -77.823254991600237, 35.910406000058387 ], [ -77.81572099080644, 35.908809999555295 ], [ -77.815672990711491, 35.911641999702844 ], [ -77.813446990757313, 35.911610999999851 ], [ -77.813442991379091, 35.910625999743594 ], [ -77.809059991701233, 35.909330000225708 ], [ -77.820997991575027, 35.880958000064865 ], [ -77.844736991418955, 35.837617999622083 ], [ -77.853105991259142, 35.843888999710508 ], [ -77.873866990919893, 35.8497310003427 ], [ -77.883087990789633, 35.846216999722984 ], [ -77.897357990896168, 35.843852999782264 ], [ -77.931360991483956, 35.83007799971292 ] ] ] } }
]
}
