{
"type": "FeatureCollection",
"name": "nc_district_court_judge_district_37_seat_04_rep",
"crs": { "type": "name", "properties": { "name": "urn:ogc:def:crs:OGC:1.3:CRS84" } },
"features": [
{ "type": "Feature", "properties": { "county": "RANDOLPH", "precinct": "AE", "enr_desc": "Asheboro East", "winner": "Jodi M. Allred", "winner_votes": 191, "winner_share": 37.087378640776699, "runner_up": "Allison C. Layton", "runner_up_votes": 125, "runner_up_share": 24.271844660194176, "contest_votes": 515, "margin_of_victory": 12.815533980582522, "is_tie": false, "results": [ { "candidate": "Jodi M. Allred", "votes": 191, "share": 37.0873786407767 }, { "candidate": "Allison C. Layton", "votes": 125, "share": 24.271844660194176 }, { "candidate": "Geoffrey C. Crawford", "votes": 102, "share": 19.80582524271845 }, { "candidate": "Chelsie L. Embler", "votes": 97, "share": 18.83495145631068 } ], "participated": true, "map_key": "RANDOLPH_AE" }, "geometry": { "type": "Polygon", "coordinates": [ [ [ -79.816214990718279, 35.688242000480308 ], [ -79.814085991281999, 35.706056999873333 ], [ -79.810839991181666, 35.71693699986762 ], [ -79.803938990978452, 35.717202999992708 ], [ -79.800921990799978, 35.723361999611392 ], [ -79.801726991429334, 35.727187000117716 ], [ -79.800560991449203, 35.72809200044378 ], [ -79.796730991564701, 35.727647000140109 ], [ -79.796735991220331, 35.735122000118267 ], [ -79.800128990998118, 35.73524600001668 ], [ -79.796371991081216, 35.741410999884536 ], [ -79.782691991465398, 35.742912000202473 ], [ -79.78357399103632, 35.747395000129821 ], [ -79.781855991552078, 35.748121000259431 ], [ -79.776599990840552, 35.745326999704609 ], [ -79.770664990959645, 35.745006000502201 ], [ -79.766371990704215, 35.742528999694571 ], [ -79.759670991646558, 35.735888999875414 ], [ -79.757940991043498, 35.729109999987969 ], [ -79.763002991424869, 35.724278000371577 ], [ -79.765595991311969, 35.718677999809479 ], [ -79.766091991152848, 35.716229999722998 ], [ -79.765395991594104, 35.71549699989891 ], [ -79.773265990750929, 35.710895000277368 ], [ -79.790890991469453, 35.696011999884789 ], [ -79.806190991185915, 35.68971299977413 ], [ -79.816214990718279, 35.688242000480308 ] ] ] } },
{ "type": "Feature", "properties": { "county": "RANDOLPH", "precinct": "GR", "enr_desc": "Grant", "winner": "Jodi M. Allred", "winner_votes": 275, "winner_share": 38.732394366197184, "runner_up": "Allison C. Layton", "runner_up_votes": 210, "runner_up_share": 29.577464788732392, "contest_votes": 710, "margin_of_victory": 9.1549295774647916, "is_tie": false, "results": [ { "candidate": "Jodi M. Allred", "votes": 275, "share": 38.732394366197184 }, { "candidate": "Allison C. Layton", "votes": 210, "share": 29.577464788732392 }, { "candidate": "Chelsie L. Embler", "votes": 131, "share": 18.450704225352112 }, { "candidate": "Geoffrey C. Crawford", "votes": 94, "share": 13.239436619718308 } ], "participated": true, "map_key": "RANDOLPH_GR" }, "geometry": { "type": "Polygon", "coordinates": [ [ [ -79.808208991358384, 35.6092320003631 ], [ -79.805895991124771, 35.659228999936197 ], [ -79.801954990746907, 35.661662000145199 ], [ -79.800126990902072, 35.664586000351498 ], [ -79.796541991390143, 35.667574000222217 ], [ -79.792676990856037, 35.662786999776884 ], [ -79.787726991157129, 35.660892000292499 ], [ -79.783463990963057, 35.657566999646143 ], [ -79.777552990720167, 35.656154000103605 ], [ -79.776622990859337, 35.658369999872576 ], [ -79.777509991563178, 35.661806000266139 ], [ -79.77644999066635, 35.667918999871802 ], [ -79.777477990963519, 35.673957999867284 ], [ -79.775901991392999, 35.67472900038284 ], [ -79.771429991036953, 35.674032999939428 ], [ -79.766615991454316, 35.676837999707168 ], [ -79.763374991730629, 35.677109000039678 ], [ -79.762984991108922, 35.677479000017421 ], [ -79.765373991106671, 35.679678999902109 ], [ -79.76744999074603, 35.683911000032253 ], [ -79.75911199169667, 35.68528499966218 ], [ -79.75925999146115, 35.708982999949285 ], [ -79.676899990766813, 35.707682999622122 ], [ -79.681358991176793, 35.608879000416522 ], [ -79.808208991358384, 35.6092320003631 ] ] ] } },
{ "type": "Feature", "properties": { "county": "RANDOLPH", "precinct": "AN", "enr_desc": "Asheboro North", "winner": "Jodi M. Allred", "winner_votes": 157, "winner_share": 41.534391534391531, "runner_up": "Allison C. Layton", "runner_up_votes": 94, "runner_up_share": 24.867724867724867, "contest_votes": 378, "margin_of_victory": 16.666666666666664, "is_tie": false, "results": [ { "candidate": "Jodi M. Allred", "votes": 157, "share": 41.53439153439153 }, { "candidate": "Allison C. Layton", "votes": 94, "share": 24.867724867724867 }, { "candidate": "Chelsie L. Embler", "votes": 87, "share": 23.015873015873016 }, { "candidate": "Geoffrey C. Crawford", "votes": 40, "share": 10.582010582010582 } ], "participated": true, "map_key": "RANDOLPH_AN" }, "geometry": { "type": "Polygon", "coordinates": [ [ [ -79.826424990658708, 35.752910999711915 ], [ -79.829221991625076, 35.779974000333048 ], [ -79.822672990958466, 35.780031000221129 ], [ -79.822673991653389, 35.776888000159936 ], [ -79.820079990802029, 35.776892999611619 ], [ -79.819852990928581, 35.783151999932919 ], [ -79.811986990978568, 35.7827519998242 ], [ -79.811993991609697, 35.783641000490668 ], [ -79.810369991480911, 35.783612999876979 ], [ -79.810626990691929, 35.784988999747611 ], [ -79.811620991573022, 35.785266999945641 ], [ -79.810805990842383, 35.785996999916485 ], [ -79.811965991463282, 35.786220000304866 ], [ -79.80982699069169, 35.787014999939124 ], [ -79.807785990818317, 35.786180000322332 ], [ -79.808070991128119, 35.790354000369234 ], [ -79.807241991507581, 35.79046000037431 ], [ -79.807155991054628, 35.791578000356921 ], [ -79.805636991550543, 35.79152000049752 ], [ -79.806087991344597, 35.785686000261251 ], [ -79.802121991637819, 35.784659999622193 ], [ -79.802358990871568, 35.782052000334545 ], [ -79.800612990847654, 35.779514000073995 ], [ -79.803746991704656, 35.778252000484756 ], [ -79.803365991504279, 35.777154000425732 ], [ -79.805214991215522, 35.776904999718475 ], [ -79.805519991537651, 35.77461899965536 ], [ -79.80466499167737, 35.774921000016519 ], [ -79.804341990734656, 35.774286000167002 ], [ -79.805414990776512, 35.773903999625453 ], [ -79.799540991176372, 35.773915999754053 ], [ -79.79980799075112, 35.768875999945841 ], [ -79.79855699078432, 35.768676000098985 ], [ -79.798325991620843, 35.761249000235708 ], [ -79.794970990826698, 35.761243999652194 ], [ -79.794971990733671, 35.758497000468687 ], [ -79.790083991645901, 35.758489000341434 ], [ -79.790091990699224, 35.752452000070782 ], [ -79.787042991404874, 35.75587600009991 ], [ -79.787679991243721, 35.756921000083885 ], [ -79.784113991246016, 35.757795999993697 ], [ -79.780900990737933, 35.761688999821679 ], [ -79.773272990876151, 35.764130999810263 ], [ -79.772194991496121, 35.762791000095923 ], [ -79.772250991560995, 35.761241000275355 ], [ -79.771256990780543, 35.760594999929211 ], [ -79.771890991676571, 35.759749999995911 ], [ -79.774776990891397, 35.759381999928564 ], [ -79.776645991489559, 35.76022100011339 ], [ -79.777730991449772, 35.759635999840526 ], [ -79.778364990725478, 35.760437999671844 ], [ -79.782210990955065, 35.756198000101072 ], [ -79.781482991212542, 35.756149000324548 ], [ -79.781681990890903, 35.754048000283277 ], [ -79.783416991528696, 35.754051999982416 ], [ -79.784217990942707, 35.748949999929685 ], [ -79.781855991552078, 35.748121000259431 ], [ -79.78357399103632, 35.747395000129821 ], [ -79.782691991465398, 35.742912000202473 ], [ -79.796371991081216, 35.741410999884536 ], [ -79.800128990998118, 35.73524600001668 ], [ -79.80321299127516, 35.734625999637778 ], [ -79.808375991329569, 35.735701000159345 ], [ -79.808364991439504, 35.736853000345882 ], [ -79.812334991565081, 35.73535800017148 ], [ -79.817259991675712, 35.735081000159965 ], [ -79.824192991364072, 35.732249000503181 ], [ -79.826424990658708, 35.752910999711915 ] ] ] } },
{ "type": "Feature", "properties": { "county": "RANDOLPH", "precinct": "AR", "enr_desc": "Archdale", "winner": "Allison C. Layton", "winner_votes": 396, "winner_share": 41.860465116279073, "runner_up": "Jodi M. Allred", "runner_up_votes": 392, "runner_up_share": 41.437632135306551, "contest_votes": 946, "margin_of_victory": 0.42283298097252242, "is_tie": false, "results": [ { "candidate": "Allison C. Layton", "votes": 396, "share": 41.86046511627907 }, { "candidate": "Jodi M. Allred", "votes": 392, "share": 41.43763213530655 }, { "candidate": "Geoffrey C. Crawford", "votes": 109, "share": 11.522198731501057 }, { "candidate": "Chelsie L. Embler", "votes": 49, "share": 5.179704016913319 } ], "participated": true, "map_key": "RANDOLPH_AR" }, "geometry": { "type": "Polygon", "coordinates": [ [ [ -80.008491991217085, 35.919072999944319 ], [ -79.920517991324331, 35.915737999680246 ], [ -79.922127991692349, 35.881884999867069 ], [ -79.924955990656741, 35.88318900021202 ], [ -79.932107991387312, 35.882532999738075 ], [ -79.936947990892762, 35.883488000519755 ], [ -79.940320991677893, 35.883185000497463 ], [ -79.94048099115885, 35.880693999955717 ], [ -79.945558991576959, 35.880949999992708 ], [ -79.945615991072529, 35.881675000418248 ], [ -79.944577991247272, 35.881690000499127 ], [ -79.945240990948619, 35.884065000344911 ], [ -79.950413991155301, 35.884870000273288 ], [ -79.950212991539431, 35.883487000344779 ], [ -79.95875999152868, 35.885960000468792 ], [ -79.958909991461269, 35.881981000305011 ], [ -79.956802990979668, 35.881356999668014 ], [ -79.957195991356102, 35.882229999853436 ], [ -79.956480990913349, 35.882129000032947 ], [ -79.956472990829354, 35.876361000343778 ], [ -79.955774990877842, 35.87639000008344 ], [ -79.958136991246391, 35.873934999733891 ], [ -79.958250990764341, 35.875228000240625 ], [ -79.960779991119992, 35.875248000500548 ], [ -79.960811991159829, 35.873859000414264 ], [ -79.959896990736937, 35.872904999959864 ], [ -79.960620991410579, 35.872454000407544 ], [ -79.962511990944435, 35.873782999874045 ], [ -79.961489991209945, 35.878639999737324 ], [ -79.960879991143443, 35.878632000275786 ], [ -79.960772991652931, 35.881464000365888 ], [ -79.962426991277312, 35.881507999776538 ], [ -79.962326990672651, 35.885122999675204 ], [ -79.96145799165177, 35.884983000063542 ], [ -79.961432991043495, 35.886230000036342 ], [ -79.959584991349914, 35.886073999953432 ], [ -79.967085990772176, 35.888057000182798 ], [ -79.979405990739863, 35.895274999633997 ], [ -79.984307991626011, 35.900510000218482 ], [ -79.986744990852458, 35.900652000143921 ], [ -79.986689990906115, 35.901284999964538 ], [ -79.984836991217634, 35.900962999761099 ], [ -79.989939990636259, 35.906352000366866 ], [ -79.990654991218008, 35.902793999814328 ], [ -79.997091991636154, 35.90319700043208 ], [ -79.997039990929181, 35.903911000137327 ], [ -79.996183990754361, 35.903858000014004 ], [ -79.99576099126817, 35.908615000083003 ], [ -79.998091990840763, 35.90805499988744 ], [ -79.999751991400331, 35.903376000333971 ], [ -80.005965990892221, 35.90353200040591 ], [ -80.005688991233882, 35.906018000123197 ], [ -80.00792099079348, 35.906134999922401 ], [ -80.0076829911998, 35.907314000322927 ], [ -80.005755990728005, 35.907214000134211 ], [ -80.005672990997681, 35.908412000323551 ], [ -80.010266990910708, 35.908586000043329 ], [ -80.010032991686003, 35.909744999868877 ], [ -80.011509990728172, 35.90989699991956 ], [ -80.011217991435529, 35.911449000073652 ], [ -80.012119991521942, 35.911543999783959 ], [ -80.011126991296862, 35.91193299980327 ], [ -80.010861991050533, 35.913342000516344 ], [ -80.0101329915272, 35.913252000476369 ], [ -80.009757991614364, 35.915138000341926 ], [ -80.011027991564944, 35.915437000452435 ], [ -80.010447991471722, 35.916179000370612 ], [ -80.015737991062224, 35.916117999832458 ], [ -80.016032991120397, 35.917387000473937 ], [ -80.015963991227011, 35.918408000211691 ], [ -80.014947991358554, 35.91836200043543 ], [ -80.014647991414776, 35.917362000496276 ], [ -80.010052991542381, 35.917085999938571 ], [ -80.010936991632647, 35.918252000244081 ], [ -80.008596991559358, 35.918120000265532 ], [ -80.008491991217085, 35.919072999944319 ] ] ] } },
{ "type": "Feature", "properties": { "county": "RANDOLPH", "precinct": "AS", "enr_desc": "Asheboro South", "winner": "Jodi M. Allred", "winner_votes": 292, "winner_share": 40.165061898211832, "runner_up": "Allison C. Layton", "runner_up_votes": 148, "runner_up_share": 20.357634112792297, "contest_votes": 727, "margin_of_victory": 19.807427785419534, "is_tie": false, "results": [ { "candidate": "Jodi M. Allred", "votes": 292, "share": 40.16506189821183 }, { "candidate": "Allison C. Layton", "votes": 148, "share": 20.357634112792297 }, { "candidate": "Geoffrey C. Crawford", "votes": 144, "share": 19.80742778541953 }, { "candidate": "Chelsie L. Embler", "votes": 143, "share": 19.669876203576344 } ], "participated": true, "map_key": "RANDOLPH_AS" }, "geometry": { "type": "Polygon", "coordinates": [ [ [ -79.842157990918153, 35.687862999850395 ], [ -79.833346991608479, 35.685261000284534 ], [ -79.823962991299098, 35.687633000228288 ], [ -79.816214990718279, 35.688242000480308 ], [ -79.806190991185915, 35.68971299977413 ], [ -79.790890991469453, 35.696011999884789 ], [ -79.773265990750929, 35.710895000277368 ], [ -79.765395991594104, 35.71549699989891 ], [ -79.759323990836165, 35.719135000347606 ], [ -79.75925999146115, 35.708982999949285 ], [ -79.75911199169667, 35.68528499966218 ], [ -79.76744999074603, 35.683911000032253 ], [ -79.765373991106671, 35.679678999902109 ], [ -79.762984991108922, 35.677479000017421 ], [ -79.763374991730629, 35.677109000039678 ], [ -79.766615991454316, 35.676837999707168 ], [ -79.771429991036953, 35.674032999939428 ], [ -79.775901991392999, 35.67472900038284 ], [ -79.777477990963519, 35.673957999867284 ], [ -79.77644999066635, 35.667918999871802 ], [ -79.777509991563178, 35.661806000266139 ], [ -79.776622990859337, 35.658369999872576 ], [ -79.777552990720167, 35.656154000103605 ], [ -79.783463990963057, 35.657566999646143 ], [ -79.787726991157129, 35.660892000292499 ], [ -79.792676990856037, 35.662786999776884 ], [ -79.796541991390143, 35.667574000222217 ], [ -79.800126990902072, 35.664586000351498 ], [ -79.801954990746907, 35.661662000145199 ], [ -79.805895991124771, 35.659228999936197 ], [ -79.808108991037784, 35.65765800015653 ], [ -79.811761990697676, 35.6530790000091 ], [ -79.822167991742589, 35.654051000093787 ], [ -79.82491899125236, 35.653281999822916 ], [ -79.831714990737055, 35.653378000502684 ], [ -79.833067991482622, 35.650126999796676 ], [ -79.836126991040643, 35.660903000300067 ], [ -79.835496991109068, 35.663977000018846 ], [ -79.832184990865585, 35.670524000081627 ], [ -79.841218991509294, 35.673071000384283 ], [ -79.838259991516054, 35.684080000192203 ], [ -79.838485991561001, 35.684814000087002 ], [ -79.842629991178299, 35.683275000257197 ], [ -79.843335991131767, 35.684514999709307 ], [ -79.842157990918153, 35.687862999850395 ] ] ] } },
{ "type": "Feature", "properties": { "county": "RANDOLPH", "precinct": "AW", "enr_desc": "Asheboro West", "winner": "Jodi M. Allred", "winner_votes": 271, "winner_share": 40.813253012048193, "runner_up": "Allison C. Layton", "runner_up_votes": 136, "runner_up_share": 20.481927710843372, "contest_votes": 664, "margin_of_victory": 20.331325301204821, "is_tie": false, "results": [ { "candidate": "Jodi M. Allred", "votes": 271, "share": 40.81325301204819 }, { "candidate": "Allison C. Layton", "votes": 136, "share": 20.481927710843372 }, { "candidate": "Chelsie L. Embler", "votes": 131, "share": 19.728915662650603 }, { "candidate": "Geoffrey C. Crawford", "votes": 126, "share": 18.97590361445783 } ], "participated": true, "map_key": "RANDOLPH_AW" }, "geometry": { "type": "Polygon", "coordinates": [ [ [ -79.842157990918153, 35.687862999850395 ], [ -79.848934991362867, 35.690739000130144 ], [ -79.850208991020864, 35.696329999667043 ], [ -79.847543990654543, 35.701480000255948 ], [ -79.849790991691549, 35.704017000366811 ], [ -79.849399991108484, 35.705600000271545 ], [ -79.850466991027062, 35.707503000481047 ], [ -79.850412990652174, 35.71229000000946 ], [ -79.852521991129635, 35.716159999852742 ], [ -79.855159991646474, 35.715789000039599 ], [ -79.857042991466102, 35.718033000378831 ], [ -79.85673299138459, 35.719933000344582 ], [ -79.85864399125478, 35.720347999853054 ], [ -79.860636991224595, 35.722431000052573 ], [ -79.858817990948154, 35.727573999805138 ], [ -79.856957991705542, 35.728461999937338 ], [ -79.861636990679415, 35.731397999901347 ], [ -79.86116899105528, 35.734815000366744 ], [ -79.862097991310463, 35.738181000141651 ], [ -79.860878991144276, 35.740633999628436 ], [ -79.861183991082569, 35.741865999785816 ], [ -79.854891991659329, 35.740859000037638 ], [ -79.853599991155534, 35.741758000334741 ], [ -79.85500299139207, 35.742167999712208 ], [ -79.853459991469549, 35.743450999887578 ], [ -79.852703991567381, 35.748854000215566 ], [ -79.855007991587854, 35.749659999784903 ], [ -79.85475999099404, 35.752352999813013 ], [ -79.855574991277336, 35.753885000309339 ], [ -79.854536990850477, 35.75517300047688 ], [ -79.855407991730118, 35.756615000462112 ], [ -79.855322990704138, 35.758399999712751 ], [ -79.853807990985501, 35.760206000154803 ], [ -79.849789990725284, 35.758563000049456 ], [ -79.847067991621259, 35.763549999958151 ], [ -79.8436239915779, 35.764620000194896 ], [ -79.842200990705976, 35.759479000155828 ], [ -79.840328991000845, 35.757112999787225 ], [ -79.8318929912474, 35.752757999635321 ], [ -79.826424990658708, 35.752910999711915 ], [ -79.824192991364072, 35.732249000503181 ], [ -79.817259991675712, 35.735081000159965 ], [ -79.812334991565081, 35.73535800017148 ], [ -79.808364991439504, 35.736853000345882 ], [ -79.808375991329569, 35.735701000159345 ], [ -79.80321299127516, 35.734625999637778 ], [ -79.800128990998118, 35.73524600001668 ], [ -79.796735991220331, 35.735122000118267 ], [ -79.796730991564701, 35.727647000140109 ], [ -79.800560991449203, 35.72809200044378 ], [ -79.801726991429334, 35.727187000117716 ], [ -79.800921990799978, 35.723361999611392 ], [ -79.803938990978452, 35.717202999992708 ], [ -79.810839991181666, 35.71693699986762 ], [ -79.814085991281999, 35.706056999873333 ], [ -79.816214990718279, 35.688242000480308 ], [ -79.823962991299098, 35.687633000228288 ], [ -79.833346991608479, 35.685261000284534 ], [ -79.842157990918153, 35.687862999850395 ] ] ] } },
{ "type": "Feature", "properties": { "county": "RANDOLPH", "precinct": "BC", "enr_desc": "Back Creek", "winner": "Jodi M. Allred", "winner_votes": 215, "winner_share": 41.9921875, "runner_up": "Allison C. Layton", "runner_up_votes": 142, "runner_up_share": 27.734375, "contest_votes": 512, "margin_of_victory": 14.2578125, "is_tie": false, "results": [ { "candidate": "Jodi M. Allred", "votes": 215, "share": 41.9921875 }, { "candidate": "Allison C. Layton", "votes": 142, "share": 27.734375 }, { "candidate": "Chelsie L. Embler", "votes": 79, "share": 15.4296875 }, { "candidate": "Geoffrey C. Crawford", "votes": 76, "share": 14.84375 } ], "participated": true, "map_key": "RANDOLPH_BC" }, "geometry": { "type": "Polygon", "coordinates": [ [ [ -79.826424990658708, 35.752910999711915 ], [ -79.8318929912474, 35.752757999635321 ], [ -79.840328991000845, 35.757112999787225 ], [ -79.842200990705976, 35.759479000155828 ], [ -79.8436239915779, 35.764620000194896 ], [ -79.847067991621259, 35.763549999958151 ], [ -79.849789990725284, 35.758563000049456 ], [ -79.853807990985501, 35.760206000154803 ], [ -79.855322990704138, 35.758399999712751 ], [ -79.855407991730118, 35.756615000462112 ], [ -79.854536990850477, 35.75517300047688 ], [ -79.855574991277336, 35.753885000309339 ], [ -79.85475999099404, 35.752352999813013 ], [ -79.855007991587854, 35.749659999784903 ], [ -79.852703991567381, 35.748854000215566 ], [ -79.853459991469549, 35.743450999887578 ], [ -79.85500299139207, 35.742167999712208 ], [ -79.853599991155534, 35.741758000334741 ], [ -79.854891991659329, 35.740859000037638 ], [ -79.861183991082569, 35.741865999785816 ], [ -79.860878991144276, 35.740633999628436 ], [ -79.862097991310463, 35.738181000141651 ], [ -79.86116899105528, 35.734815000366744 ], [ -79.861636990679415, 35.731397999901347 ], [ -79.856957991705542, 35.728461999937338 ], [ -79.858817990948154, 35.727573999805138 ], [ -79.860636991224595, 35.722431000052573 ], [ -79.85864399125478, 35.720347999853054 ], [ -79.85673299138459, 35.719933000344582 ], [ -79.857042991466102, 35.718033000378831 ], [ -79.855159991646474, 35.715789000039599 ], [ -79.852521991129635, 35.716159999852742 ], [ -79.850412990652174, 35.71229000000946 ], [ -79.850466991027062, 35.707503000481047 ], [ -79.849399991108484, 35.705600000271545 ], [ -79.849790991691549, 35.704017000366811 ], [ -79.847543990654543, 35.701480000255948 ], [ -79.850208991020864, 35.696329999667043 ], [ -79.848934991362867, 35.690739000130144 ], [ -79.929608990848351, 35.724414999644623 ], [ -79.927164990862849, 35.775928999677028 ], [ -79.925378990892966, 35.813555999704313 ], [ -79.836388990729404, 35.811123999784982 ], [ -79.828366991209222, 35.804290000274875 ], [ -79.821888991343414, 35.801927000146243 ], [ -79.823063990852376, 35.797118000383804 ], [ -79.828933991550869, 35.786315999631476 ], [ -79.829221991625076, 35.779974000333048 ], [ -79.826424990658708, 35.752910999711915 ] ] ] } },
{ "type": "Feature", "properties": { "county": "RANDOLPH", "precinct": "DR", "enr_desc": "Deep River", "winner": "Jodi M. Allred", "winner_votes": 328, "winner_share": 43.271767810026383, "runner_up": "Allison C. Layton", "runner_up_votes": 231, "runner_up_share": 30.474934036939317, "contest_votes": 758, "margin_of_victory": 12.796833773087066, "is_tie": false, "results": [ { "candidate": "Jodi M. Allred", "votes": 328, "share": 43.27176781002638 }, { "candidate": "Allison C. Layton", "votes": 231, "share": 30.474934036939317 }, { "candidate": "Geoffrey C. Crawford", "votes": 106, "share": 13.984168865435356 }, { "candidate": "Chelsie L. Embler", "votes": 93, "share": 12.269129287598943 } ], "participated": true, "map_key": "RANDOLPH_DR" }, "geometry": { "type": "Polygon", "coordinates": [ [ [ -79.75925999146115, 35.708982999949285 ], [ -79.759323990836165, 35.719135000347606 ], [ -79.765395991594104, 35.71549699989891 ], [ -79.766091991152848, 35.716229999722998 ], [ -79.765595991311969, 35.718677999809479 ], [ -79.763002991424869, 35.724278000371577 ], [ -79.757940991043498, 35.729109999987969 ], [ -79.759670991646558, 35.735888999875414 ], [ -79.766371990704215, 35.742528999694571 ], [ -79.770664990959645, 35.745006000502201 ], [ -79.776599990840552, 35.745326999704609 ], [ -79.781855991552078, 35.748121000259431 ], [ -79.784217990942707, 35.748949999929685 ], [ -79.783416991528696, 35.754051999982416 ], [ -79.781681990890903, 35.754048000283277 ], [ -79.781482991212542, 35.756149000324548 ], [ -79.782210990955065, 35.756198000101072 ], [ -79.778364990725478, 35.760437999671844 ], [ -79.777730991449772, 35.759635999840526 ], [ -79.776645991489559, 35.76022100011339 ], [ -79.774776990891397, 35.759381999928564 ], [ -79.771890991676571, 35.759749999995911 ], [ -79.771256990780543, 35.760594999929211 ], [ -79.772250991560995, 35.761241000275355 ], [ -79.772194991496121, 35.762791000095923 ], [ -79.773272990876151, 35.764130999810263 ], [ -79.774384990915436, 35.765518000113687 ], [ -79.774748991367744, 35.767991999896566 ], [ -79.773536991651056, 35.771361000136501 ], [ -79.770443990820738, 35.774701000206704 ], [ -79.769853991698341, 35.776533999742071 ], [ -79.771566991288381, 35.78008600014639 ], [ -79.771365990704624, 35.784412000493965 ], [ -79.773077990629474, 35.792471000211762 ], [ -79.7727669911595, 35.795217999718425 ], [ -79.770347990925998, 35.796176000304044 ], [ -79.77223099148928, 35.797737000116477 ], [ -79.774731991406966, 35.797942999725763 ], [ -79.776293991689514, 35.801646000422537 ], [ -79.777680990771799, 35.802957999759634 ], [ -79.775553990922475, 35.809423999851262 ], [ -79.672430991203214, 35.80647299970834 ], [ -79.676899990766813, 35.707682999622122 ], [ -79.75925999146115, 35.708982999949285 ] ] ] } },
{ "type": "Feature", "properties": { "county": "RANDOLPH", "precinct": "LB", "enr_desc": "Liberty", "winner": "Allison C. Layton", "winner_votes": 122, "winner_share": 43.262411347517734, "runner_up": "Jodi M. Allred", "runner_up_votes": 96, "runner_up_share": 34.042553191489361, "contest_votes": 282, "margin_of_victory": 9.2198581560283728, "is_tie": false, "results": [ { "candidate": "Allison C. Layton", "votes": 122, "share": 43.262411347517734 }, { "candidate": "Jodi M. Allred", "votes": 96, "share": 34.04255319148936 }, { "candidate": "Geoffrey C. Crawford", "votes": 51, "share": 18.085106382978726 }, { "candidate": "Chelsie L. Embler", "votes": 13, "share": 4.609929078014184 } ], "participated": true, "map_key": "RANDOLPH_LB" }, "geometry": { "type": "Polygon", "coordinates": [ [ [ -79.543217990843772, 35.817758000216237 ], [ -79.564576990680848, 35.817951000339761 ], [ -79.568492990949622, 35.819676999904722 ], [ -79.599003991664958, 35.841822000291657 ], [ -79.605435991580208, 35.848356000456761 ], [ -79.610694990730664, 35.853934999634916 ], [ -79.626427991334992, 35.865636999779497 ], [ -79.63516999116662, 35.879519999968061 ], [ -79.638559991245515, 35.883027000242258 ], [ -79.635209991434351, 35.88747200019634 ], [ -79.634565991582846, 35.898560000264872 ], [ -79.63310899132523, 35.903276999779436 ], [ -79.629456990705719, 35.903429000401132 ], [ -79.541727990877874, 35.899850999862117 ], [ -79.543217990843772, 35.817758000216237 ] ] ] } },
{ "type": "Feature", "properties": { "county": "RANDOLPH", "precinct": "LC", "enr_desc": "Level Cross", "winner": "Jodi M. Allred", "winner_votes": 130, "winner_share": 42.763157894736842, "runner_up": "Allison C. Layton", "runner_up_votes": 94, "runner_up_share": 30.921052631578949, "contest_votes": 304, "margin_of_victory": 11.842105263157894, "is_tie": false, "results": [ { "candidate": "Jodi M. Allred", "votes": 130, "share": 42.76315789473684 }, { "candidate": "Allison C. Layton", "votes": 94, "share": 30.92105263157895 }, { "candidate": "Geoffrey C. Crawford", "votes": 55, "share": 18.092105263157894 }, { "candidate": "Chelsie L. Embler", "votes": 25, "share": 8.223684210526317 } ], "participated": true, "map_key": "RANDOLPH_LC" }, "geometry": { "type": "Polygon", "coordinates": [ [ [ -79.824253991543358, 35.845502000264609 ], [ -79.8289869912022, 35.845239000112173 ], [ -79.829692991577318, 35.84599400036047 ], [ -79.829580991157073, 35.847247000124831 ], [ -79.827243990639076, 35.849062999893704 ], [ -79.828765990806033, 35.850683000042885 ], [ -79.827893991343231, 35.853225000157295 ], [ -79.828399990926428, 35.857530999711656 ], [ -79.827780990817146, 35.863304000492732 ], [ -79.831803991501843, 35.866255000400841 ], [ -79.832367991279099, 35.868569000135246 ], [ -79.831777990905735, 35.869600000363029 ], [ -79.829020990827715, 35.869050000337836 ], [ -79.827668990911491, 35.873130000510578 ], [ -79.832481991517767, 35.874088000325912 ], [ -79.833976991537952, 35.875617000414572 ], [ -79.834002990691403, 35.876806999965105 ], [ -79.830403991331551, 35.87973800032308 ], [ -79.83026499079304, 35.881964000365855 ], [ -79.831921991155724, 35.883286999816029 ], [ -79.83648299073954, 35.884594000086729 ], [ -79.842533991215049, 35.884985999612113 ], [ -79.841266991199461, 35.887543000138216 ], [ -79.838480991700294, 35.890365000403293 ], [ -79.838706990756535, 35.891646999974625 ], [ -79.845744991290132, 35.892102999758642 ], [ -79.848277991640003, 35.896409999735369 ], [ -79.8533739911624, 35.901561999814589 ], [ -79.8529799916694, 35.903640000317139 ], [ -79.856642990849892, 35.906705000172515 ], [ -79.856361991584933, 35.908559000483343 ], [ -79.85487099148304, 35.910006000127147 ], [ -79.854632990621667, 35.912946000046261 ], [ -79.763308991092131, 35.908841999870837 ], [ -79.770576991454263, 35.884500999916995 ], [ -79.769767991615879, 35.882639999864189 ], [ -79.770136990883387, 35.879578000330191 ], [ -79.769433990720003, 35.877993000361108 ], [ -79.768111991484787, 35.877510999928397 ], [ -79.770529991543015, 35.876850000408353 ], [ -79.771039991001444, 35.875449000395641 ], [ -79.769967991222174, 35.874193999961243 ], [ -79.769855990718284, 35.872389999727424 ], [ -79.767775991079006, 35.870556000368417 ], [ -79.770786990869539, 35.869136000334429 ], [ -79.768776991010981, 35.860387999671744 ], [ -79.773822991533763, 35.859335000041078 ], [ -79.777540990695442, 35.856995000293516 ], [ -79.78143799066919, 35.850766000444203 ], [ -79.786064991663807, 35.850319999977451 ], [ -79.797349991204186, 35.845956999717757 ], [ -79.802326991020166, 35.845202999623474 ], [ -79.824253991543358, 35.845502000264609 ] ] ] } },
{ "type": "Feature", "properties": { "county": "RANDOLPH", "precinct": "NM", "enr_desc": "New Market", "winner": "Allison C. Layton", "winner_votes": 281, "winner_share": 39.577464788732392, "runner_up": "Jodi M. Allred", "runner_up_votes": 278, "runner_up_share": 39.154929577464785, "contest_votes": 710, "margin_of_victory": 0.42253521126760774, "is_tie": false, "results": [ { "candidate": "Allison C. Layton", "votes": 281, "share": 39.57746478873239 }, { "candidate": "Jodi M. Allred", "votes": 278, "share": 39.154929577464785 }, { "candidate": "Geoffrey C. Crawford", "votes": 100, "share": 14.084507042253522 }, { "candidate": "Chelsie L. Embler", "votes": 51, "share": 7.183098591549296 } ], "participated": true, "map_key": "RANDOLPH_NM" }, "geometry": { "type": "Polygon", "coordinates": [ [ [ -79.923799991085161, 35.846743999629709 ], [ -79.922127991692349, 35.881884999867069 ], [ -79.920517991324331, 35.915737999680246 ], [ -79.854632990621667, 35.912946000046261 ], [ -79.85487099148304, 35.910006000127147 ], [ -79.856361991584933, 35.908559000483343 ], [ -79.856642990849892, 35.906705000172515 ], [ -79.8529799916694, 35.903640000317139 ], [ -79.8533739911624, 35.901561999814589 ], [ -79.848277991640003, 35.896409999735369 ], [ -79.845744991290132, 35.892102999758642 ], [ -79.838706990756535, 35.891646999974625 ], [ -79.838480991700294, 35.890365000403293 ], [ -79.841266991199461, 35.887543000138216 ], [ -79.842533991215049, 35.884985999612113 ], [ -79.83648299073954, 35.884594000086729 ], [ -79.831921991155724, 35.883286999816029 ], [ -79.83026499079304, 35.881964000365855 ], [ -79.830403991331551, 35.87973800032308 ], [ -79.834002990691403, 35.876806999965105 ], [ -79.833976991537952, 35.875617000414572 ], [ -79.832481991517767, 35.874088000325912 ], [ -79.827668990911491, 35.873130000510578 ], [ -79.829020990827715, 35.869050000337836 ], [ -79.831777990905735, 35.869600000363029 ], [ -79.832367991279099, 35.868569000135246 ], [ -79.831803991501843, 35.866255000400841 ], [ -79.827780990817146, 35.863304000492732 ], [ -79.828399990926428, 35.857530999711656 ], [ -79.827893991343231, 35.853225000157295 ], [ -79.828765990806033, 35.850683000042885 ], [ -79.827243990639076, 35.849062999893704 ], [ -79.829580991157073, 35.847247000124831 ], [ -79.829692991577318, 35.84599400036047 ], [ -79.8289869912022, 35.845239000112173 ], [ -79.824253991543358, 35.845502000264609 ], [ -79.827546991423702, 35.83469999979615 ], [ -79.844074990993619, 35.816463999735539 ], [ -79.836388990729404, 35.811123999784982 ], [ -79.925378990892966, 35.813555999704313 ], [ -79.923799991085161, 35.846743999629709 ] ] ] } },
{ "type": "Feature", "properties": { "county": "RANDOLPH", "precinct": "PR", "enr_desc": "Providence", "winner": "Allison C. Layton", "winner_votes": 371, "winner_share": 39.176346356916582, "runner_up": "Jodi M. Allred", "runner_up_votes": 351, "runner_up_share": 37.064413938753958, "contest_votes": 947, "margin_of_victory": 2.111932418162624, "is_tie": false, "results": [ { "candidate": "Allison C. Layton", "votes": 371, "share": 39.17634635691658 }, { "candidate": "Jodi M. Allred", "votes": 351, "share": 37.06441393875396 }, { "candidate": "Geoffrey C. Crawford", "votes": 116, "share": 12.249208025343188 }, { "candidate": "Chelsie L. Embler", "votes": 109, "share": 11.510031678986273 } ], "participated": true, "map_key": "RANDOLPH_PR" }, "geometry": { "type": "Polygon", "coordinates": [ [ [ -79.672430991203214, 35.80647299970834 ], [ -79.775553990922475, 35.809423999851262 ], [ -79.775034990962567, 35.811911000409879 ], [ -79.776863991286078, 35.81715899968129 ], [ -79.77953599088373, 35.821002999895747 ], [ -79.77884799070732, 35.821318999739411 ], [ -79.774559991186223, 35.819388000107928 ], [ -79.77297699093495, 35.820726000009657 ], [ -79.774636991145826, 35.821121000443583 ], [ -79.77626599118507, 35.822787999617987 ], [ -79.776629991214321, 35.825198999736465 ], [ -79.775336990902176, 35.825879999773008 ], [ -79.775954991651233, 35.827986999930289 ], [ -79.773114991227388, 35.828832000192087 ], [ -79.774602991161089, 35.830533000028666 ], [ -79.774069990893594, 35.832701000423583 ], [ -79.77567099105346, 35.834240999916517 ], [ -79.773905991134669, 35.838268000484085 ], [ -79.771900990898246, 35.839413000441624 ], [ -79.772710990935963, 35.84143299995737 ], [ -79.771674991335075, 35.841583999817509 ], [ -79.770800991334809, 35.842936000383226 ], [ -79.772094991600397, 35.843833000170015 ], [ -79.770293991160528, 35.844697999644225 ], [ -79.767789990935043, 35.844636000286229 ], [ -79.768746991278519, 35.846972000281596 ], [ -79.767447991274295, 35.853423000353217 ], [ -79.768776991010981, 35.860387999671744 ], [ -79.770786990869539, 35.869136000334429 ], [ -79.767775991079006, 35.870556000368417 ], [ -79.769855990718284, 35.872389999727424 ], [ -79.769967991222174, 35.874193999961243 ], [ -79.771039991001444, 35.875449000395641 ], [ -79.770529991543015, 35.876850000408353 ], [ -79.768111991484787, 35.877510999928397 ], [ -79.769433990720003, 35.877993000361108 ], [ -79.770136990883387, 35.879578000330191 ], [ -79.769767991615879, 35.882639999864189 ], [ -79.770576991454263, 35.884500999916995 ], [ -79.763308991092131, 35.908841999870837 ], [ -79.629456990705719, 35.903429000401132 ], [ -79.63310899132523, 35.903276999779436 ], [ -79.634565991582846, 35.898560000264872 ], [ -79.635209991434351, 35.88747200019634 ], [ -79.638559991245515, 35.883027000242258 ], [ -79.63516999116662, 35.879519999968061 ], [ -79.626427991334992, 35.865636999779497 ], [ -79.610694990730664, 35.853934999634916 ], [ -79.605435991580208, 35.848356000456761 ], [ -79.614757991699861, 35.846239999924805 ], [ -79.617597990775423, 35.84448799962054 ], [ -79.621065991257922, 35.843606999631476 ], [ -79.624154990987861, 35.845958999920981 ], [ -79.63072499084852, 35.845464000252896 ], [ -79.63392199075254, 35.846306000243523 ], [ -79.637470990881809, 35.848568999988878 ], [ -79.639648990733633, 35.847458000066169 ], [ -79.642262991715072, 35.847561999899824 ], [ -79.644184990950365, 35.846742000081662 ], [ -79.64540999136419, 35.840618000053375 ], [ -79.645821991025869, 35.830388999687656 ], [ -79.643173991037258, 35.825869000151165 ], [ -79.643647991087576, 35.822899999737871 ], [ -79.642885991218165, 35.818641000134207 ], [ -79.671868990838533, 35.818895999720468 ], [ -79.672430991203214, 35.80647299970834 ] ] ] } },
{ "type": "Feature", "properties": { "county": "RANDOLPH", "precinct": "RM", "enr_desc": "Ramseur", "winner": "Allison C. Layton", "winner_votes": 193, "winner_share": 45.952380952380949, "runner_up": "Jodi M. Allred", "runner_up_votes": 134, "runner_up_share": 31.904761904761902, "contest_votes": 420, "margin_of_victory": 14.047619047619047, "is_tie": false, "results": [ { "candidate": "Allison C. Layton", "votes": 193, "share": 45.95238095238095 }, { "candidate": "Jodi M. Allred", "votes": 134, "share": 31.9047619047619 }, { "candidate": "Geoffrey C. Crawford", "votes": 60, "share": 14.285714285714285 }, { "candidate": "Chelsie L. Embler", "votes": 33, "share": 7.857142857142857 } ], "participated": true, "map_key": "RANDOLPH_RM" }, "geometry": { "type": "Polygon", "coordinates": [ [ [ -79.676899990766813, 35.707682999622122 ], [ -79.672430991203214, 35.80647299970834 ], [ -79.671868990838533, 35.818895999720468 ], [ -79.642885991218165, 35.818641000134207 ], [ -79.642006991003441, 35.80807100019598 ], [ -79.643285991153192, 35.795800000083915 ], [ -79.644734990743885, 35.790901000436918 ], [ -79.643438991635293, 35.786117000222688 ], [ -79.631689991697641, 35.777109000323684 ], [ -79.622322990722708, 35.765894000459788 ], [ -79.620595991039053, 35.762855999601591 ], [ -79.619010990737507, 35.757417999951258 ], [ -79.61955099166704, 35.748241999669375 ], [ -79.60695599064627, 35.751345999739101 ], [ -79.603289991381573, 35.751571000157867 ], [ -79.600048991514853, 35.750796999637565 ], [ -79.591765991235533, 35.746622999998785 ], [ -79.572695991308677, 35.742623000359764 ], [ -79.557081990742077, 35.742672000030943 ], [ -79.550679991307817, 35.743514000219164 ], [ -79.545540991631995, 35.742600999905633 ], [ -79.54689499160952, 35.705513999944394 ], [ -79.676899990766813, 35.707682999622122 ] ] ] } },
{ "type": "Feature", "properties": { "county": "RANDOLPH", "precinct": "RN", "enr_desc": "Randleman", "winner": "Jodi M. Allred", "winner_votes": 303, "winner_share": 40.185676392572944, "runner_up": "Allison C. Layton", "runner_up_votes": 248, "runner_up_share": 32.891246684350136, "contest_votes": 754, "margin_of_victory": 7.2944297082228076, "is_tie": false, "results": [ { "candidate": "Jodi M. Allred", "votes": 303, "share": 40.185676392572944 }, { "candidate": "Allison C. Layton", "votes": 248, "share": 32.891246684350136 }, { "candidate": "Geoffrey C. Crawford", "votes": 111, "share": 14.721485411140584 }, { "candidate": "Chelsie L. Embler", "votes": 92, "share": 12.20159151193634 } ], "participated": true, "map_key": "RANDOLPH_RN" }, "geometry": { "type": "Polygon", "coordinates": [ [ [ -79.829221991625076, 35.779974000333048 ], [ -79.828933991550869, 35.786315999631476 ], [ -79.823063990852376, 35.797118000383804 ], [ -79.821888991343414, 35.801927000146243 ], [ -79.828366991209222, 35.804290000274875 ], [ -79.836388990729404, 35.811123999784982 ], [ -79.844074990993619, 35.816463999735539 ], [ -79.827546991423702, 35.83469999979615 ], [ -79.824253991543358, 35.845502000264609 ], [ -79.802326991020166, 35.845202999623474 ], [ -79.797349991204186, 35.845956999717757 ], [ -79.786064991663807, 35.850319999977451 ], [ -79.78143799066919, 35.850766000444203 ], [ -79.777540990695442, 35.856995000293516 ], [ -79.773822991533763, 35.859335000041078 ], [ -79.768776991010981, 35.860387999671744 ], [ -79.767447991274295, 35.853423000353217 ], [ -79.768746991278519, 35.846972000281596 ], [ -79.767789990935043, 35.844636000286229 ], [ -79.770293991160528, 35.844697999644225 ], [ -79.772094991600397, 35.843833000170015 ], [ -79.770800991334809, 35.842936000383226 ], [ -79.771674991335075, 35.841583999817509 ], [ -79.772710990935963, 35.84143299995737 ], [ -79.771900990898246, 35.839413000441624 ], [ -79.773905991134669, 35.838268000484085 ], [ -79.77567099105346, 35.834240999916517 ], [ -79.774069990893594, 35.832701000423583 ], [ -79.774602991161089, 35.830533000028666 ], [ -79.773114991227388, 35.828832000192087 ], [ -79.775954991651233, 35.827986999930289 ], [ -79.775336990902176, 35.825879999773008 ], [ -79.776629991214321, 35.825198999736465 ], [ -79.77626599118507, 35.822787999617987 ], [ -79.774636991145826, 35.821121000443583 ], [ -79.77297699093495, 35.820726000009657 ], [ -79.774559991186223, 35.819388000107928 ], [ -79.77884799070732, 35.821318999739411 ], [ -79.77953599088373, 35.821002999895747 ], [ -79.776863991286078, 35.81715899968129 ], [ -79.775034990962567, 35.811911000409879 ], [ -79.775553990922475, 35.809423999851262 ], [ -79.777680990771799, 35.802957999759634 ], [ -79.776293991689514, 35.801646000422537 ], [ -79.774731991406966, 35.797942999725763 ], [ -79.77223099148928, 35.797737000116477 ], [ -79.770347990925998, 35.796176000304044 ], [ -79.7727669911595, 35.795217999718425 ], [ -79.773077990629474, 35.792471000211762 ], [ -79.771365990704624, 35.784412000493965 ], [ -79.771566991288381, 35.78008600014639 ], [ -79.769853991698341, 35.776533999742071 ], [ -79.770443990820738, 35.774701000206704 ], [ -79.773536991651056, 35.771361000136501 ], [ -79.774748991367744, 35.767991999896566 ], [ -79.774384990915436, 35.765518000113687 ], [ -79.773272990876151, 35.764130999810263 ], [ -79.780900990737933, 35.761688999821679 ], [ -79.784113991246016, 35.757795999993697 ], [ -79.787679991243721, 35.756921000083885 ], [ -79.787042991404874, 35.75587600009991 ], [ -79.790091990699224, 35.752452000070782 ], [ -79.790083991645901, 35.758489000341434 ], [ -79.794971990733671, 35.758497000468687 ], [ -79.794970990826698, 35.761243999652194 ], [ -79.798325991620843, 35.761249000235708 ], [ -79.79855699078432, 35.768676000098985 ], [ -79.79980799075112, 35.768875999945841 ], [ -79.799540991176372, 35.773915999754053 ], [ -79.805414990776512, 35.773903999625453 ], [ -79.804341990734656, 35.774286000167002 ], [ -79.80466499167737, 35.774921000016519 ], [ -79.805519991537651, 35.77461899965536 ], [ -79.805214991215522, 35.776904999718475 ], [ -79.803365991504279, 35.777154000425732 ], [ -79.803746991704656, 35.778252000484756 ], [ -79.800612990847654, 35.779514000073995 ], [ -79.802358990871568, 35.782052000334545 ], [ -79.802121991637819, 35.784659999622193 ], [ -79.806087991344597, 35.785686000261251 ], [ -79.805636991550543, 35.79152000049752 ], [ -79.807155991054628, 35.791578000356921 ], [ -79.807241991507581, 35.79046000037431 ], [ -79.808070991128119, 35.790354000369234 ], [ -79.807785990818317, 35.786180000322332 ], [ -79.80982699069169, 35.787014999939124 ], [ -79.811965991463282, 35.786220000304866 ], [ -79.810805990842383, 35.785996999916485 ], [ -79.811620991573022, 35.785266999945641 ], [ -79.810626990691929, 35.784988999747611 ], [ -79.810369991480911, 35.783612999876979 ], [ -79.811993991609697, 35.783641000490668 ], [ -79.811986990978568, 35.7827519998242 ], [ -79.819852990928581, 35.783151999932919 ], [ -79.820079990802029, 35.776892999611619 ], [ -79.822673991653389, 35.776888000159936 ], [ -79.822672990958466, 35.780031000221129 ], [ -79.829221991625076, 35.779974000333048 ] ] ] } },
{ "type": "Feature", "properties": { "county": "RANDOLPH", "precinct": "SE", "enr_desc": "Southeast", "winner": "Allison C. Layton", "winner_votes": 236, "winner_share": 49.789029535864984, "runner_up": "Jodi M. Allred", "runner_up_votes": 162, "runner_up_share": 34.177215189873415, "contest_votes": 474, "margin_of_victory": 15.611814345991569, "is_tie": false, "results": [ { "candidate": "Allison C. Layton", "votes": 236, "share": 49.789029535864984 }, { "candidate": "Jodi M. Allred", "votes": 162, "share": 34.177215189873415 }, { "candidate": "Geoffrey C. Crawford", "votes": 44, "share": 9.282700421940929 }, { "candidate": "Chelsie L. Embler", "votes": 32, "share": 6.751054852320674 } ], "participated": true, "map_key": "RANDOLPH_SE" }, "geometry": { "type": "Polygon", "coordinates": [ [ [ -79.590296991635299, 35.514491999696659 ], [ -79.5940109908735, 35.516399999750625 ], [ -79.597622990889576, 35.51635099998753 ], [ -79.598939990727885, 35.517610999629191 ], [ -79.596897991013265, 35.525142000185802 ], [ -79.595106991196459, 35.52567099995477 ], [ -79.587625991366977, 35.522032000023451 ], [ -79.584431991225784, 35.521923000138685 ], [ -79.581689991252972, 35.523820000282306 ], [ -79.58216499169859, 35.528243000476635 ], [ -79.581550991481848, 35.530715000123585 ], [ -79.582921990674649, 35.532526000158519 ], [ -79.586649991662185, 35.534171000207344 ], [ -79.588470991334347, 35.536098000161878 ], [ -79.589089991607608, 35.54090100029083 ], [ -79.586119990703779, 35.546646000337688 ], [ -79.588165991092666, 35.550636999635863 ], [ -79.593605991241589, 35.5599320001077 ], [ -79.598931990852279, 35.567162000415678 ], [ -79.604541991494301, 35.571851999642519 ], [ -79.604991991375286, 35.574876999918821 ], [ -79.604400991342658, 35.576871999918005 ], [ -79.600534991394852, 35.581659000072733 ], [ -79.600479990980602, 35.582777000466024 ], [ -79.605978991048303, 35.588619000125625 ], [ -79.606541990981825, 35.591917000216675 ], [ -79.60841999157681, 35.594381999910986 ], [ -79.608195991222331, 35.596381000248435 ], [ -79.606064991011579, 35.599825999708401 ], [ -79.610871990882899, 35.606779999861224 ], [ -79.610566991172945, 35.608623000028693 ], [ -79.681358991176793, 35.608879000416522 ], [ -79.676899990766813, 35.707682999622122 ], [ -79.54689499160952, 35.705513999944394 ], [ -79.553232991062671, 35.599281000337115 ], [ -79.555803990869578, 35.515039000182583 ], [ -79.590296991635299, 35.514491999696659 ] ] ] } },
{ "type": "Feature", "properties": { "county": "RANDOLPH", "precinct": "SO", "enr_desc": "Southern", "winner": "Jodi M. Allred", "winner_votes": 249, "winner_share": 36.888888888888886, "runner_up": "Allison C. Layton", "runner_up_votes": 196, "runner_up_share": 29.037037037037038, "contest_votes": 675, "margin_of_victory": 7.8518518518518476, "is_tie": false, "results": [ { "candidate": "Jodi M. Allred", "votes": 249, "share": 36.888888888888886 }, { "candidate": "Allison C. Layton", "votes": 196, "share": 29.037037037037038 }, { "candidate": "Chelsie L. Embler", "votes": 130, "share": 19.25925925925926 }, { "candidate": "Geoffrey C. Crawford", "votes": 100, "share": 14.814814814814813 } ], "participated": true, "map_key": "RANDOLPH_SO" }, "geometry": { "type": "Polygon", "coordinates": [ [ [ -79.808208991358384, 35.6092320003631 ], [ -79.681358991176793, 35.608879000416522 ], [ -79.610566991172945, 35.608623000028693 ], [ -79.610871990882899, 35.606779999861224 ], [ -79.606064991011579, 35.599825999708401 ], [ -79.608195991222331, 35.596381000248435 ], [ -79.60841999157681, 35.594381999910986 ], [ -79.606541990981825, 35.591917000216675 ], [ -79.605978991048303, 35.588619000125625 ], [ -79.600479990980602, 35.582777000466024 ], [ -79.600534991394852, 35.581659000072733 ], [ -79.604400991342658, 35.576871999918005 ], [ -79.604991991375286, 35.574876999918821 ], [ -79.604541991494301, 35.571851999642519 ], [ -79.598931990852279, 35.567162000415678 ], [ -79.593605991241589, 35.5599320001077 ], [ -79.588165991092666, 35.550636999635863 ], [ -79.586119990703779, 35.546646000337688 ], [ -79.589089991607608, 35.54090100029083 ], [ -79.588470991334347, 35.536098000161878 ], [ -79.586649991662185, 35.534171000207344 ], [ -79.582921990674649, 35.532526000158519 ], [ -79.581550991481848, 35.530715000123585 ], [ -79.58216499169859, 35.528243000476635 ], [ -79.581689991252972, 35.523820000282306 ], [ -79.584431991225784, 35.521923000138685 ], [ -79.587625991366977, 35.522032000023451 ], [ -79.595106991196459, 35.52567099995477 ], [ -79.596897991013265, 35.525142000185802 ], [ -79.598939990727885, 35.517610999629191 ], [ -79.597622990889576, 35.51635099998753 ], [ -79.5940109908735, 35.516399999750625 ], [ -79.590296991635299, 35.514491999696659 ], [ -79.812785991672769, 35.510994000373493 ], [ -79.808208991358384, 35.6092320003631 ] ] ] } },
{ "type": "Feature", "properties": { "county": "RANDOLPH", "precinct": "ST", "enr_desc": "Staley", "winner": "Jodi M. Allred", "winner_votes": 132, "winner_share": 41.379310344827587, "runner_up": "Allison C. Layton", "runner_up_votes": 118, "runner_up_share": 36.990595611285265, "contest_votes": 319, "margin_of_victory": 4.3887147335423222, "is_tie": false, "results": [ { "candidate": "Jodi M. Allred", "votes": 132, "share": 41.37931034482759 }, { "candidate": "Allison C. Layton", "votes": 118, "share": 36.990595611285265 }, { "candidate": "Geoffrey C. Crawford", "votes": 44, "share": 13.793103448275861 }, { "candidate": "Chelsie L. Embler", "votes": 25, "share": 7.836990595611286 } ], "participated": true, "map_key": "RANDOLPH_ST" }, "geometry": { "type": "Polygon", "coordinates": [ [ [ -79.545540991631995, 35.742600999905633 ], [ -79.550679991307817, 35.743514000219164 ], [ -79.557081990742077, 35.742672000030943 ], [ -79.572695991308677, 35.742623000359764 ], [ -79.591765991235533, 35.746622999998785 ], [ -79.600048991514853, 35.750796999637565 ], [ -79.603289991381573, 35.751571000157867 ], [ -79.60695599064627, 35.751345999739101 ], [ -79.61955099166704, 35.748241999669375 ], [ -79.619010990737507, 35.757417999951258 ], [ -79.620595991039053, 35.762855999601591 ], [ -79.622322990722708, 35.765894000459788 ], [ -79.631689991697641, 35.777109000323684 ], [ -79.643438991635293, 35.786117000222688 ], [ -79.644734990743885, 35.790901000436918 ], [ -79.643285991153192, 35.795800000083915 ], [ -79.642006991003441, 35.80807100019598 ], [ -79.642885991218165, 35.818641000134207 ], [ -79.643647991087576, 35.822899999737871 ], [ -79.643173991037258, 35.825869000151165 ], [ -79.645821991025869, 35.830388999687656 ], [ -79.64540999136419, 35.840618000053375 ], [ -79.644184990950365, 35.846742000081662 ], [ -79.642262991715072, 35.847561999899824 ], [ -79.639648990733633, 35.847458000066169 ], [ -79.637470990881809, 35.848568999988878 ], [ -79.63392199075254, 35.846306000243523 ], [ -79.63072499084852, 35.845464000252896 ], [ -79.624154990987861, 35.845958999920981 ], [ -79.621065991257922, 35.843606999631476 ], [ -79.617597990775423, 35.84448799962054 ], [ -79.614757991699861, 35.846239999924805 ], [ -79.605435991580208, 35.848356000456761 ], [ -79.599003991664958, 35.841822000291657 ], [ -79.568492990949622, 35.819676999904722 ], [ -79.564576990680848, 35.817951000339761 ], [ -79.543217990843772, 35.817758000216237 ], [ -79.545540991631995, 35.742600999905633 ] ] ] } },
{ "type": "Feature", "properties": { "county": "RANDOLPH", "precinct": "SW", "enr_desc": "Southwest", "winner": "Jodi M. Allred", "winner_votes": 216, "winner_share": 39.130434782608695, "runner_up": "Geoffrey C. Crawford", "runner_up_votes": 121, "runner_up_share": 21.920289855072465, "contest_votes": 552, "margin_of_victory": 17.210144927536231, "is_tie": false, "results": [ { "candidate": "Jodi M. Allred", "votes": 216, "share": 39.130434782608695 }, { "candidate": "Geoffrey C. Crawford", "votes": 121, "share": 21.920289855072465 }, { "candidate": "Allison C. Layton", "votes": 120, "share": 21.73913043478261 }, { "candidate": "Chelsie L. Embler", "votes": 95, "share": 17.21014492753623 } ], "participated": true, "map_key": "RANDOLPH_SW" }, "geometry": { "type": "Polygon", "coordinates": [ [ [ -79.939810991167732, 35.508704999623596 ], [ -80.066841990676053, 35.505661000403769 ], [ -80.062862991390844, 35.614436000383996 ], [ -80.058235991398774, 35.713232999819233 ], [ -79.930221991010441, 35.71150799986998 ], [ -79.939810991167732, 35.508704999623596 ] ] ] } },
{ "type": "Feature", "properties": { "county": "RANDOLPH", "precinct": "TB", "enr_desc": "Tabernacle", "winner": "Jodi M. Allred", "winner_votes": 158, "winner_share": 42.473118279569896, "runner_up": "Allison C. Layton", "runner_up_votes": 141, "runner_up_share": 37.903225806451616, "contest_votes": 372, "margin_of_victory": 4.56989247311828, "is_tie": false, "results": [ { "candidate": "Jodi M. Allred", "votes": 158, "share": 42.473118279569896 }, { "candidate": "Allison C. Layton", "votes": 141, "share": 37.903225806451616 }, { "candidate": "Geoffrey C. Crawford", "votes": 37, "share": 9.946236559139784 }, { "candidate": "Chelsie L. Embler", "votes": 36, "share": 9.67741935483871 } ], "participated": true, "map_key": "RANDOLPH_TB" }, "geometry": { "type": "Polygon", "coordinates": [ [ [ -79.930221991010441, 35.71150799986998 ], [ -80.058235991398774, 35.713232999819233 ], [ -80.053436990847459, 35.801643000106765 ], [ -80.052369990734078, 35.802574000363499 ], [ -80.045258991072416, 35.799841999797692 ], [ -80.042933990955362, 35.801833000351486 ], [ -80.032631991448682, 35.80140099996612 ], [ -80.029275991506282, 35.80248000010333 ], [ -80.027315991290521, 35.799336999890983 ], [ -80.026865991449114, 35.796213000161259 ], [ -80.022418991119039, 35.793022999819883 ], [ -80.020105991416784, 35.792839000212226 ], [ -80.015054990945657, 35.795088000115676 ], [ -80.015670990630895, 35.790955999790292 ], [ -80.011897990782373, 35.787368000479262 ], [ -80.007827990821653, 35.788450000184682 ], [ -80.003302991087182, 35.786794999693889 ], [ -79.99646899160021, 35.791059000301381 ], [ -79.994670991513914, 35.791070000290624 ], [ -79.99305499136598, 35.792288999658098 ], [ -79.992718991682892, 35.795895999812792 ], [ -79.991867991424641, 35.796558000065282 ], [ -79.98409799098323, 35.795637999840004 ], [ -79.982221991236102, 35.798715999865209 ], [ -79.97608499105155, 35.801546000435863 ], [ -79.971772990780579, 35.802900000346085 ], [ -79.963700991281115, 35.802944000326399 ], [ -79.961578990785355, 35.799137000185198 ], [ -79.962751991521174, 35.792559000031062 ], [ -79.961973991381086, 35.788365000099546 ], [ -79.959405991454474, 35.787475999950928 ], [ -79.956477990691695, 35.783406000236837 ], [ -79.95422999156969, 35.782234999708059 ], [ -79.952737990682039, 35.775467999904087 ], [ -79.947576990688503, 35.775151000140248 ], [ -79.939655990944473, 35.772925999689754 ], [ -79.934068991620308, 35.775825000026074 ], [ -79.927164990862849, 35.775928999677028 ], [ -79.929608990848351, 35.724414999644623 ], [ -79.930221991010441, 35.71150799986998 ] ] ] } },
{ "type": "Feature", "properties": { "county": "RANDOLPH", "precinct": "TR", "enr_desc": "Trinity", "winner": "Jodi M. Allred", "winner_votes": 433, "winner_share": 44.228804902962203, "runner_up": "Allison C. Layton", "runner_up_votes": 313, "runner_up_share": 31.971399387129722, "contest_votes": 979, "margin_of_victory": 12.257405515832481, "is_tie": false, "results": [ { "candidate": "Jodi M. Allred", "votes": 433, "share": 44.2288049029622 }, { "candidate": "Allison C. Layton", "votes": 313, "share": 31.971399387129722 }, { "candidate": "Geoffrey C. Crawford", "votes": 154, "share": 15.730337078651685 }, { "candidate": "Chelsie L. Embler", "votes": 79, "share": 8.069458631256383 } ], "participated": true, "map_key": "RANDOLPH_TR" }, "geometry": { "type": "Polygon", "coordinates": [ [ [ -79.923799991085161, 35.846743999629709 ], [ -79.936507990887932, 35.847099000210264 ], [ -79.93934299064189, 35.842258000042946 ], [ -79.947181991152917, 35.843375999844135 ], [ -79.954601990975519, 35.83911800049669 ], [ -79.958574991155004, 35.835093000495469 ], [ -79.96199699162176, 35.829192000476233 ], [ -79.964880991542202, 35.827700000285802 ], [ -79.966136990733091, 35.828903999983744 ], [ -79.964941991016332, 35.830204000091072 ], [ -79.96518599098097, 35.831430999915192 ], [ -79.966880990704908, 35.832200999881984 ], [ -79.970407991478808, 35.836286000509475 ], [ -79.972438990955681, 35.835512000520104 ], [ -79.974821991192769, 35.835792000346927 ], [ -79.977043991423912, 35.834154000209736 ], [ -79.98066599164008, 35.836816999723503 ], [ -79.985017991675036, 35.838146000296682 ], [ -79.985572990796271, 35.838268000386194 ], [ -79.985752991257911, 35.837119000426043 ], [ -79.987505990722724, 35.836660000029312 ], [ -79.987370991180526, 35.838664000274953 ], [ -79.991616991687366, 35.841510000262268 ], [ -79.997916990621249, 35.841760999652841 ], [ -80.001088991163655, 35.844184999830468 ], [ -80.003099990815642, 35.844722999816305 ], [ -80.007571991366405, 35.845014999986333 ], [ -80.010943990725806, 35.844341999943225 ], [ -80.015317990665736, 35.84178800040457 ], [ -80.017959990783041, 35.841445000308802 ], [ -80.02204999166986, 35.842849999707276 ], [ -80.023098991369082, 35.844051999939808 ], [ -80.028260991452001, 35.845512000400284 ], [ -80.029408991353662, 35.845064000037226 ], [ -80.0294909914128, 35.841268000102211 ], [ -80.026857991112252, 35.838565000200994 ], [ -80.026943991023742, 35.834697999951359 ], [ -80.028604991452795, 35.833440000482632 ], [ -80.030096991376524, 35.833506999721308 ], [ -80.030911991379625, 35.832044000043702 ], [ -80.032963991198827, 35.831085999988666 ], [ -80.0360879916133, 35.827875000268151 ], [ -80.035832990837591, 35.826961999954705 ], [ -80.037240990779608, 35.824169000396374 ], [ -80.036988991612731, 35.820822000059302 ], [ -80.041458991442738, 35.820073999809885 ], [ -80.041981991391353, 35.816627000072955 ], [ -80.052546991668464, 35.816905999761154 ], [ -80.046868991165539, 35.920692999726334 ], [ -80.008491991217085, 35.919072999944319 ], [ -80.008596991559358, 35.918120000265532 ], [ -80.010936991632647, 35.918252000244081 ], [ -80.010052991542381, 35.917085999938571 ], [ -80.014647991414776, 35.917362000496276 ], [ -80.014947991358554, 35.91836200043543 ], [ -80.015963991227011, 35.918408000211691 ], [ -80.016032991120397, 35.917387000473937 ], [ -80.015737991062224, 35.916117999832458 ], [ -80.010447991471722, 35.916179000370612 ], [ -80.011027991564944, 35.915437000452435 ], [ -80.009757991614364, 35.915138000341926 ], [ -80.0101329915272, 35.913252000476369 ], [ -80.010861991050533, 35.913342000516344 ], [ -80.011126991296862, 35.91193299980327 ], [ -80.012119991521942, 35.911543999783959 ], [ -80.011217991435529, 35.911449000073652 ], [ -80.011509990728172, 35.90989699991956 ], [ -80.010032991686003, 35.909744999868877 ], [ -80.010266990910708, 35.908586000043329 ], [ -80.005672990997681, 35.908412000323551 ], [ -80.005755990728005, 35.907214000134211 ], [ -80.0076829911998, 35.907314000322927 ], [ -80.00792099079348, 35.906134999922401 ], [ -80.005688991233882, 35.906018000123197 ], [ -80.005965990892221, 35.90353200040591 ], [ -79.999751991400331, 35.903376000333971 ], [ -79.998091990840763, 35.90805499988744 ], [ -79.99576099126817, 35.908615000083003 ], [ -79.996183990754361, 35.903858000014004 ], [ -79.997039990929181, 35.903911000137327 ], [ -79.997091991636154, 35.90319700043208 ], [ -79.990654991218008, 35.902793999814328 ], [ -79.989939990636259, 35.906352000366866 ], [ -79.984836991217634, 35.900962999761099 ], [ -79.986689990906115, 35.901284999964538 ], [ -79.986744990852458, 35.900652000143921 ], [ -79.984307991626011, 35.900510000218482 ], [ -79.979405990739863, 35.895274999633997 ], [ -79.967085990772176, 35.888057000182798 ], [ -79.959584991349914, 35.886073999953432 ], [ -79.961432991043495, 35.886230000036342 ], [ -79.96145799165177, 35.884983000063542 ], [ -79.962326990672651, 35.885122999675204 ], [ -79.962426991277312, 35.881507999776538 ], [ -79.960772991652931, 35.881464000365888 ], [ -79.960879991143443, 35.878632000275786 ], [ -79.961489991209945, 35.878639999737324 ], [ -79.962511990944435, 35.873782999874045 ], [ -79.960620991410579, 35.872454000407544 ], [ -79.959896990736937, 35.872904999959864 ], [ -79.960811991159829, 35.873859000414264 ], [ -79.960779991119992, 35.875248000500548 ], [ -79.958250990764341, 35.875228000240625 ], [ -79.958136991246391, 35.873934999733891 ], [ -79.955774990877842, 35.87639000008344 ], [ -79.956472990829354, 35.876361000343778 ], [ -79.956480990913349, 35.882129000032947 ], [ -79.957195991356102, 35.882229999853436 ], [ -79.956802990979668, 35.881356999668014 ], [ -79.958909991461269, 35.881981000305011 ], [ -79.95875999152868, 35.885960000468792 ], [ -79.950212991539431, 35.883487000344779 ], [ -79.950413991155301, 35.884870000273288 ], [ -79.945240990948619, 35.884065000344911 ], [ -79.944577991247272, 35.881690000499127 ], [ -79.945615991072529, 35.881675000418248 ], [ -79.945558991576959, 35.880949999992708 ], [ -79.94048099115885, 35.880693999955717 ], [ -79.940320991677893, 35.883185000497463 ], [ -79.936947990892762, 35.883488000519755 ], [ -79.932107991387312, 35.882532999738075 ], [ -79.924955990656741, 35.88318900021202 ], [ -79.922127991692349, 35.881884999867069 ], [ -79.923799991085161, 35.846743999629709 ] ] ] } },
{ "type": "Feature", "properties": { "county": "RANDOLPH", "precinct": "TT", "enr_desc": "Trinity Tabernacle", "winner": "Jodi M. Allred", "winner_votes": 227, "winner_share": 45.129224652087473, "runner_up": "Allison C. Layton", "runner_up_votes": 124, "runner_up_share": 24.652087475149106, "contest_votes": 503, "margin_of_victory": 20.477137176938367, "is_tie": false, "results": [ { "candidate": "Jodi M. Allred", "votes": 227, "share": 45.12922465208747 }, { "candidate": "Allison C. Layton", "votes": 124, "share": 24.652087475149106 }, { "candidate": "Geoffrey C. Crawford", "votes": 80, "share": 15.904572564612327 }, { "candidate": "Chelsie L. Embler", "votes": 72, "share": 14.314115308151093 } ], "participated": true, "map_key": "RANDOLPH_TT" }, "geometry": { "type": "Polygon", "coordinates": [ [ [ -80.052546991668464, 35.816905999761154 ], [ -80.041981991391353, 35.816627000072955 ], [ -80.041458991442738, 35.820073999809885 ], [ -80.036988991612731, 35.820822000059302 ], [ -80.037240990779608, 35.824169000396374 ], [ -80.035832990837591, 35.826961999954705 ], [ -80.0360879916133, 35.827875000268151 ], [ -80.032963991198827, 35.831085999988666 ], [ -80.030911991379625, 35.832044000043702 ], [ -80.030096991376524, 35.833506999721308 ], [ -80.028604991452795, 35.833440000482632 ], [ -80.026943991023742, 35.834697999951359 ], [ -80.026857991112252, 35.838565000200994 ], [ -80.0294909914128, 35.841268000102211 ], [ -80.029408991353662, 35.845064000037226 ], [ -80.028260991452001, 35.845512000400284 ], [ -80.023098991369082, 35.844051999939808 ], [ -80.02204999166986, 35.842849999707276 ], [ -80.017959990783041, 35.841445000308802 ], [ -80.015317990665736, 35.84178800040457 ], [ -80.010943990725806, 35.844341999943225 ], [ -80.007571991366405, 35.845014999986333 ], [ -80.003099990815642, 35.844722999816305 ], [ -80.001088991163655, 35.844184999830468 ], [ -79.997916990621249, 35.841760999652841 ], [ -79.991616991687366, 35.841510000262268 ], [ -79.987370991180526, 35.838664000274953 ], [ -79.987505990722724, 35.836660000029312 ], [ -79.985752991257911, 35.837119000426043 ], [ -79.985572990796271, 35.838268000386194 ], [ -79.985017991675036, 35.838146000296682 ], [ -79.98066599164008, 35.836816999723503 ], [ -79.977043991423912, 35.834154000209736 ], [ -79.974821991192769, 35.835792000346927 ], [ -79.972438990955681, 35.835512000520104 ], [ -79.970407991478808, 35.836286000509475 ], [ -79.966880990704908, 35.832200999881984 ], [ -79.96518599098097, 35.831430999915192 ], [ -79.964941991016332, 35.830204000091072 ], [ -79.966136990733091, 35.828903999983744 ], [ -79.964880991542202, 35.827700000285802 ], [ -79.96199699162176, 35.829192000476233 ], [ -79.958574991155004, 35.835093000495469 ], [ -79.954601990975519, 35.83911800049669 ], [ -79.947181991152917, 35.843375999844135 ], [ -79.93934299064189, 35.842258000042946 ], [ -79.936507990887932, 35.847099000210264 ], [ -79.923799991085161, 35.846743999629709 ], [ -79.925378990892966, 35.813555999704313 ], [ -79.927164990862849, 35.775928999677028 ], [ -79.934068991620308, 35.775825000026074 ], [ -79.939655990944473, 35.772925999689754 ], [ -79.947576990688503, 35.775151000140248 ], [ -79.952737990682039, 35.775467999904087 ], [ -79.95422999156969, 35.782234999708059 ], [ -79.956477990691695, 35.783406000236837 ], [ -79.959405991454474, 35.787475999950928 ], [ -79.961973991381086, 35.788365000099546 ], [ -79.962751991521174, 35.792559000031062 ], [ -79.961578990785355, 35.799137000185198 ], [ -79.963700991281115, 35.802944000326399 ], [ -79.971772990780579, 35.802900000346085 ], [ -79.97608499105155, 35.801546000435863 ], [ -79.982221991236102, 35.798715999865209 ], [ -79.98409799098323, 35.795637999840004 ], [ -79.991867991424641, 35.796558000065282 ], [ -79.992718991682892, 35.795895999812792 ], [ -79.99305499136598, 35.792288999658098 ], [ -79.994670991513914, 35.791070000290624 ], [ -79.99646899160021, 35.791059000301381 ], [ -80.003302991087182, 35.786794999693889 ], [ -80.007827990821653, 35.788450000184682 ], [ -80.011897990782373, 35.787368000479262 ], [ -80.015670990630895, 35.790955999790292 ], [ -80.015054990945657, 35.795088000115676 ], [ -80.020105991416784, 35.792839000212226 ], [ -80.022418991119039, 35.793022999819883 ], [ -80.026865991449114, 35.796213000161259 ], [ -80.027315991290521, 35.799336999890983 ], [ -80.029275991506282, 35.80248000010333 ], [ -80.032631991448682, 35.80140099996612 ], [ -80.042933990955362, 35.801833000351486 ], [ -80.045258991072416, 35.799841999797692 ], [ -80.052369990734078, 35.802574000363499 ], [ -80.053436990847459, 35.801643000106765 ], [ -80.052546991668464, 35.816905999761154 ] ] ] } },
{ "type": "Feature", "properties": { "county": "RANDOLPH", "precinct": "UG", "enr_desc": "Union Grove", "winner": "Jodi M. Allred", "winner_votes": 546, "winner_share": 38.944365192582026, "runner_up": "Chelsie L. Embler", "runner_up_votes": 383, "runner_up_share": 27.318116975748929, "contest_votes": 1402, "margin_of_victory": 11.626248216833098, "is_tie": false, "results": [ { "candidate": "Jodi M. Allred", "votes": 546, "share": 38.944365192582026 }, { "candidate": "Chelsie L. Embler", "votes": 383, "share": 27.31811697574893 }, { "candidate": "Allison C. Layton", "votes": 333, "share": 23.75178316690442 }, { "candidate": "Geoffrey C. Crawford", "votes": 140, "share": 9.985734664764621 } ], "participated": true, "map_key": "RANDOLPH_UG" }, "geometry": { "type": "Polygon", "coordinates": [ [ [ -79.930221991010441, 35.71150799986998 ], [ -79.929608990848351, 35.724414999644623 ], [ -79.848934991362867, 35.690739000130144 ], [ -79.842157990918153, 35.687862999850395 ], [ -79.843335991131767, 35.684514999709307 ], [ -79.842629991178299, 35.683275000257197 ], [ -79.838485991561001, 35.684814000087002 ], [ -79.838259991516054, 35.684080000192203 ], [ -79.841218991509294, 35.673071000384283 ], [ -79.832184990865585, 35.670524000081627 ], [ -79.835496991109068, 35.663977000018846 ], [ -79.836126991040643, 35.660903000300067 ], [ -79.833067991482622, 35.650126999796676 ], [ -79.831714990737055, 35.653378000502684 ], [ -79.82491899125236, 35.653281999822916 ], [ -79.822167991742589, 35.654051000093787 ], [ -79.811761990697676, 35.6530790000091 ], [ -79.808108991037784, 35.65765800015653 ], [ -79.805895991124771, 35.659228999936197 ], [ -79.808208991358384, 35.6092320003631 ], [ -79.812785991672769, 35.510994000373493 ], [ -79.906761990967738, 35.509801000226432 ], [ -79.939810991167732, 35.508704999623596 ], [ -79.930221991010441, 35.71150799986998 ] ] ] } }
]
}
