{
"type": "FeatureCollection",
"name": "nc_house_of_representatives_district_006_rep",
"crs": { "type": "name", "properties": { "name": "urn:ogc:def:crs:OGC:1.3:CRS84" } },
"features": [
{ "type": "Feature", "properties": { "county": "HARNETT", "precinct": "PR23", "enr_desc": "Boone Trail", "winner": "Joe Pike", "winner_votes": 243.0, "winner_share": 57.582938388625593, "runner_up": "W. H. (Bill) Morris", "runner_up_votes": 179.0, "runner_up_share": 42.417061611374407, "contest_votes": 422.0, "margin_of_victory": 15.165876777251185, "is_tie": false, "results": [ { "candidate": "Joe Pike", "votes": 243, "share": 57.58293838862559 }, { "candidate": "W. H. (Bill) Morris", "votes": 179, "share": 42.41706161137441 } ], "participated": true, "map_key": "HARNETT_PR23" }, "geometry": { "type": "Polygon", "coordinates": [ [ [ -78.969815991394057, 35.521498000267115 ], [ -78.961357991495731, 35.510290999965299 ], [ -78.953445990852387, 35.49453899956309 ], [ -78.952295991495049, 35.48975999964469 ], [ -78.952630991521843, 35.487975000037281 ], [ -78.950390991151238, 35.484740000109028 ], [ -78.940847991421847, 35.479263000435196 ], [ -78.931576991324818, 35.479922999608057 ], [ -78.916058990680526, 35.474596999845893 ], [ -78.906729991290646, 35.4704630001551 ], [ -78.896614991660897, 35.469423000217738 ], [ -78.88617699106932, 35.465417000236286 ], [ -78.882073990723327, 35.462733000246651 ], [ -78.874060991335512, 35.454328000297586 ], [ -78.861883990902058, 35.445765000126698 ], [ -78.8549399908635, 35.441216999815886 ], [ -78.84995699165006, 35.439711999598771 ], [ -78.84326099092695, 35.436050999895329 ], [ -78.832606991474591, 35.42723500003698 ], [ -78.824937990894355, 35.419155999836995 ], [ -78.861881991686715, 35.375159000168345 ], [ -78.874743991215297, 35.355710999984247 ], [ -78.874743991183138, 35.354179999897845 ], [ -78.878314991554362, 35.348855000287152 ], [ -78.873681991436996, 35.346201000105978 ], [ -78.874310991553997, 35.344003000340486 ], [ -78.875664990942809, 35.343359000396234 ], [ -78.874435991725292, 35.341874000108632 ], [ -78.877819990822857, 35.33855199963687 ], [ -78.879607991180421, 35.338164000153128 ], [ -78.881534990842212, 35.338944000399842 ], [ -78.883100991099624, 35.336768999880597 ], [ -78.883018991432593, 35.335739000344866 ], [ -78.885758991596703, 35.3332449996512 ], [ -78.884725991209834, 35.332122999638962 ], [ -78.884975991003813, 35.329858000302217 ], [ -78.891726991495958, 35.327882999903544 ], [ -78.890616991493829, 35.325488999756764 ], [ -78.891064990954519, 35.324368000067011 ], [ -78.893578991689296, 35.325328999681489 ], [ -78.897350991592319, 35.325102000383175 ], [ -78.897518991610454, 35.325971999963755 ], [ -78.896373990874707, 35.327115999942606 ], [ -78.898440990875557, 35.327504999654465 ], [ -78.898579990796861, 35.329359000122061 ], [ -78.900534991215764, 35.329864000097544 ], [ -78.904420990878137, 35.327230999771977 ], [ -78.906711990885384, 35.327483999864626 ], [ -78.909003991643175, 35.326202000337055 ], [ -78.915120990975765, 35.326226999583078 ], [ -78.914589991706322, 35.327028000245932 ], [ -78.916517990801282, 35.327302999943896 ], [ -78.918725991537627, 35.325631999584346 ], [ -78.922580990861462, 35.326708000299057 ], [ -78.92411699145228, 35.32778399980905 ], [ -78.923054991412101, 35.328883000098799 ], [ -78.924423991085476, 35.329455000016885 ], [ -78.923835991682878, 35.330417000195197 ], [ -78.924756990693766, 35.332202999639982 ], [ -78.928249991285213, 35.331860000351071 ], [ -78.934339990848187, 35.334446999657423 ], [ -78.938306991316352, 35.337308999903854 ], [ -78.938780991428473, 35.339621000294969 ], [ -78.946743991666224, 35.336897000029353 ], [ -78.948112991409104, 35.335111000220707 ], [ -78.951352991397172, 35.335110999658617 ], [ -78.951967990756245, 35.336186999963118 ], [ -78.949677990787592, 35.338682999584087 ], [ -78.949844990959278, 35.339553000187237 ], [ -78.959148990726177, 35.341932000062023 ], [ -78.959177990903669, 35.34383300019099 ], [ -78.96308999103708, 35.345732000447384 ], [ -78.967309991204345, 35.349966000057684 ], [ -78.970161990936916, 35.354956000053768 ], [ -78.970077991570932, 35.356811000170687 ], [ -78.974242991333824, 35.358641000289083 ], [ -78.982263991243883, 35.359646000213779 ], [ -78.985898991635793, 35.362528999891545 ], [ -78.988694991566021, 35.366236999802069 ], [ -78.990651991713207, 35.366877999773287 ], [ -78.987801991135427, 35.370221000063758 ], [ -78.98774299158913, 35.372157000071077 ], [ -78.98819299114875, 35.373895999555856 ], [ -78.992339991033035, 35.378526999750903 ], [ -78.997928990897464, 35.376417999940308 ], [ -78.999244991592136, 35.380102999910029 ], [ -79.001336991362805, 35.37907000023246 ], [ -79.003767991161482, 35.380261999968006 ], [ -79.003764991223719, 35.384313999827825 ], [ -79.005720990742631, 35.38582599978082 ], [ -79.005691990702474, 35.387108000419268 ], [ -79.00809599105358, 35.386811999994322 ], [ -79.014552990758915, 35.388898000288677 ], [ -79.015755991645648, 35.38738800000764 ], [ -79.016817991184595, 35.387502000109897 ], [ -79.017542991284557, 35.390087999761512 ], [ -79.015612990800975, 35.39102499963041 ], [ -79.015919991050168, 35.392191000340432 ], [ -79.01776399125167, 35.393380999818753 ], [ -79.024865990850927, 35.393686999604405 ], [ -79.030401991121266, 35.393001999585081 ], [ -79.030038991429265, 35.393757000250062 ], [ -79.030876990715385, 35.394535999803608 ], [ -79.030177990979382, 35.395015999748068 ], [ -79.030204991365522, 35.396458999962 ], [ -79.032971990937043, 35.400625000076488 ], [ -79.033950991555415, 35.399595999759022 ], [ -79.033196991546689, 35.397192000288712 ], [ -79.03481799124512, 35.396733999971381 ], [ -79.035180990729742, 35.398130999594137 ], [ -79.036551990757644, 35.39744500044312 ], [ -79.037053991522257, 35.399275000274841 ], [ -79.037920991501878, 35.39952699991963 ], [ -79.037640991113236, 35.400214000141148 ], [ -79.039401991365423, 35.400695000169328 ], [ -79.037610990781943, 35.405388000431195 ], [ -79.040015991121592, 35.40623599976734 ], [ -79.040377991719367, 35.408892000048084 ], [ -79.044627991732156, 35.40797699967095 ], [ -79.045664991363424, 35.405619000094084 ], [ -79.046250990742976, 35.406741000023139 ], [ -79.047845991060086, 35.405367000435334 ], [ -79.050725991549854, 35.405940000397415 ], [ -79.052630990919312, 35.405411999705528 ], [ -79.05395799114136, 35.407490999814918 ], [ -79.05737399140807, 35.408641000318816 ], [ -79.060224991459222, 35.407993000094741 ], [ -79.061162991646242, 35.408745999783257 ], [ -79.062120990859441, 35.407415000267669 ], [ -79.064509990681927, 35.406660999992049 ], [ -79.06783099118195, 35.406779999697278 ], [ -79.068090991613275, 35.407651000259321 ], [ -79.06887999101383, 35.407356000102268 ], [ -79.06989899095295, 35.408434000310038 ], [ -79.071026991614431, 35.407909000296058 ], [ -79.072060991568691, 35.411503999631584 ], [ -79.076635991696619, 35.414567999943543 ], [ -78.969815991394057, 35.521498000267115 ] ] ] } },
{ "type": "Feature", "properties": { "county": null, "precinct": null, "enr_desc": "Coats/Grove", "winner": null, "winner_votes": null, "winner_share": null, "runner_up": null, "runner_up_votes": null, "runner_up_share": null, "contest_votes": null, "margin_of_victory": null, "is_tie": false, "results": null, "participated": false, "map_key": null }, "geometry": { "type": "Polygon", "coordinates": [ [ [ -78.728091991500804, 35.354126999963711 ], [ -78.730603991330099, 35.356562999871976 ], [ -78.731805991087427, 35.360948999612702 ], [ -78.731471991767151, 35.363123999878127 ], [ -78.732338991298818, 35.364337000218178 ], [ -78.730123991366753, 35.36638100020572 ], [ -78.729573991656125, 35.369970000291488 ], [ -78.727561990832342, 35.37045099962819 ], [ -78.726610990975558, 35.371939999587049 ], [ -78.722362991084353, 35.37283499998658 ], [ -78.72281999109957, 35.375706000197049 ], [ -78.722092991120306, 35.378338999652954 ], [ -78.715974991523737, 35.386192000198214 ], [ -78.715221991315104, 35.390588000001436 ], [ -78.715809991598761, 35.393631999610889 ], [ -78.714943991340306, 35.396996999970739 ], [ -78.713601990933157, 35.399354999973994 ], [ -78.710051990811849, 35.40253799983072 ], [ -78.710388990869006, 35.406726999921084 ], [ -78.707984991152017, 35.409383000285949 ], [ -78.709187990707122, 35.411236999767979 ], [ -78.709048991753136, 35.412403999639096 ], [ -78.707370991541737, 35.413343000274828 ], [ -78.706038990756468, 35.416360999746317 ], [ -78.707100991199169, 35.422799999610817 ], [ -78.709974990981891, 35.431015000406639 ], [ -78.706926991543639, 35.433830999720868 ], [ -78.706144991312584, 35.43818000005966 ], [ -78.704634991490664, 35.439782999972259 ], [ -78.704159991614461, 35.442163000253444 ], [ -78.702620990870471, 35.44335299996893 ], [ -78.702230991501096, 35.451959999892878 ], [ -78.703489991116683, 35.455256000310229 ], [ -78.702688991060114, 35.463616000001721 ], [ -78.700288991074331, 35.471417999648288 ], [ -78.695601991758963, 35.473255999529563 ], [ -78.692529991603607, 35.472109000108361 ], [ -78.690267991574714, 35.473382999704093 ], [ -78.688663991219244, 35.476706999720996 ], [ -78.68692499143674, 35.475950000302461 ], [ -78.683762990867294, 35.476864999737451 ], [ -78.68267799074728, 35.480025999913721 ], [ -78.680068991052082, 35.481763000161273 ], [ -78.679462991676004, 35.483039999563637 ], [ -78.662144991472459, 35.49629199986618 ], [ -78.660554991249015, 35.496244999839448 ], [ -78.659480991581674, 35.494134999890861 ], [ -78.655994991273658, 35.490736000243828 ], [ -78.653432991225415, 35.483953000210619 ], [ -78.650306991741218, 35.482622000095994 ], [ -78.649864991072704, 35.47980600032075 ], [ -78.650498991484838, 35.473741999918659 ], [ -78.649819991033922, 35.471658000067052 ], [ -78.638947991755231, 35.461812999949167 ], [ -78.627239991395697, 35.458269999936235 ], [ -78.625970991045662, 35.455733999869267 ], [ -78.621352991312591, 35.450503999541823 ], [ -78.619453991112408, 35.445059999766116 ], [ -78.614635991325557, 35.4420199997857 ], [ -78.614763991753563, 35.439900999702765 ], [ -78.607097991479549, 35.432440999590497 ], [ -78.610027991618168, 35.427340000204055 ], [ -78.605128991651895, 35.422979000117515 ], [ -78.600999990771641, 35.420865000339518 ], [ -78.598772990860255, 35.418259999694058 ], [ -78.596621991007254, 35.40927800011805 ], [ -78.597079991523259, 35.406248000025734 ], [ -78.595259991113167, 35.402151000159733 ], [ -78.592717991162829, 35.400088999644424 ], [ -78.59265499076416, 35.39860000018102 ], [ -78.591066990788079, 35.397179999802013 ], [ -78.588094990885992, 35.396155000234657 ], [ -78.584481991667957, 35.39591799952256 ], [ -78.584070991767035, 35.394109999816727 ], [ -78.579578990937463, 35.392253999670984 ], [ -78.574451990902162, 35.38850499989335 ], [ -78.593221991623608, 35.37483299966032 ], [ -78.645839991031465, 35.338920000047565 ], [ -78.64718599135999, 35.337993999787592 ], [ -78.649451991441225, 35.340289999898729 ], [ -78.695778991587261, 35.347930999719026 ], [ -78.728091991500804, 35.354126999963711 ] ] ] } },
{ "type": "Feature", "properties": { "county": null, "precinct": null, "enr_desc": "East Averasboro", "winner": null, "winner_votes": null, "winner_share": null, "runner_up": null, "runner_up_votes": null, "runner_up_share": null, "contest_votes": null, "margin_of_victory": null, "is_tie": false, "results": null, "participated": false, "map_key": null }, "geometry": { "type": "Polygon", "coordinates": [ [ [ -78.643525991349506, 35.249121000118301 ], [ -78.64373799159506, 35.250545999827743 ], [ -78.642675991453757, 35.251437000232173 ], [ -78.642282990878954, 35.255511000104704 ], [ -78.640605990695775, 35.260249000184132 ], [ -78.641972991567471, 35.262057999713292 ], [ -78.644120990974031, 35.262860000100879 ], [ -78.645301991773323, 35.264870999982023 ], [ -78.627736991733016, 35.288189000021333 ], [ -78.562831990736939, 35.363959999811712 ], [ -78.562579991524473, 35.362375999712476 ], [ -78.559169991407401, 35.361044999731135 ], [ -78.557315991466965, 35.358755000209442 ], [ -78.552795991282366, 35.357308000390333 ], [ -78.549261991168493, 35.353454000345913 ], [ -78.545560991609534, 35.351958999688257 ], [ -78.542393991745499, 35.349060000036047 ], [ -78.540368991462046, 35.34853599996584 ], [ -78.539923990859421, 35.347294000195056 ], [ -78.535195990790541, 35.345031999664201 ], [ -78.532856990814452, 35.342635000347322 ], [ -78.533581991322393, 35.340642999888232 ], [ -78.530575990992332, 35.337637999776064 ], [ -78.529850991604931, 35.334935000053754 ], [ -78.532418991112038, 35.331345000076048 ], [ -78.536081991769663, 35.329406999638273 ], [ -78.536665991651901, 35.327523999617689 ], [ -78.537607991314744, 35.327194999728952 ], [ -78.53770199177626, 35.325354999941034 ], [ -78.536343990732817, 35.32358699986554 ], [ -78.535597990745188, 35.320246000375263 ], [ -78.536060991645328, 35.318653000194395 ], [ -78.538615991474032, 35.315869999526861 ], [ -78.541923990743598, 35.31488800025442 ], [ -78.545142991647694, 35.312172999895054 ], [ -78.548939990827407, 35.310632000184917 ], [ -78.555499991549397, 35.309552999981676 ], [ -78.557315991555882, 35.307324999721864 ], [ -78.559886991462534, 35.306332999865575 ], [ -78.557712990763108, 35.30471299964897 ], [ -78.564287991671819, 35.304448999632022 ], [ -78.570276991765724, 35.302119000065574 ], [ -78.572766991423848, 35.297517000188677 ], [ -78.576413990709483, 35.295953999821293 ], [ -78.580801991374429, 35.298194000107785 ], [ -78.583529991028271, 35.296813999802175 ], [ -78.582967991264766, 35.295417999796726 ], [ -78.585318990870263, 35.293540999926236 ], [ -78.583284990988417, 35.290965000070109 ], [ -78.584072991626797, 35.289009000395282 ], [ -78.583700991246246, 35.287781999820801 ], [ -78.585603991007119, 35.284649000020721 ], [ -78.5831139917386, 35.279142999538301 ], [ -78.584217991216391, 35.277610000131268 ], [ -78.583494990843135, 35.275688000193341 ], [ -78.584638990906839, 35.273311999606108 ], [ -78.589583990865421, 35.270546000332892 ], [ -78.593492990686272, 35.26718399953387 ], [ -78.598521991662352, 35.264975000176236 ], [ -78.599700991777823, 35.263672999697064 ], [ -78.598668990972101, 35.261229000266781 ], [ -78.599981991454754, 35.258402999562982 ], [ -78.60148499130112, 35.25758799965466 ], [ -78.602916991683514, 35.257964000056361 ], [ -78.608666990855326, 35.25437600037769 ], [ -78.613503991765114, 35.2483520004008 ], [ -78.617113991009674, 35.245717999832586 ], [ -78.643525991349506, 35.249121000118301 ] ] ] } },
{ "type": "Feature", "properties": { "county": null, "precinct": null, "enr_desc": "Black River", "winner": null, "winner_votes": null, "winner_share": null, "runner_up": null, "runner_up_votes": null, "runner_up_share": null, "contest_votes": null, "margin_of_victory": null, "is_tie": false, "results": null, "participated": false, "map_key": null }, "geometry": { "type": "Polygon", "coordinates": [ [ [ -78.702688991060114, 35.463616000001721 ], [ -78.741520991221151, 35.468287999814549 ], [ -78.760666991696596, 35.465664999582508 ], [ -78.810118991459987, 35.454528999743559 ], [ -78.815763990962083, 35.490808000318701 ], [ -78.810627991589485, 35.493664999882107 ], [ -78.80717999073326, 35.49762599978623 ], [ -78.800859991023273, 35.498956000410814 ], [ -78.799399991318012, 35.501159999680738 ], [ -78.7991399909221, 35.505075999712673 ], [ -78.797502991647093, 35.509937000090723 ], [ -78.793465991197593, 35.514206999886142 ], [ -78.783622991491953, 35.514695999738265 ], [ -78.781020991358048, 35.532527000114989 ], [ -78.778866991022866, 35.541237999569688 ], [ -78.706279990927584, 35.518630000298806 ], [ -78.68951699133865, 35.515933999579914 ], [ -78.688170990685464, 35.513843000422398 ], [ -78.687916991620654, 35.504513999578599 ], [ -78.686884990800905, 35.501851000397053 ], [ -78.683501991020648, 35.501021000108864 ], [ -78.675947991242055, 35.496592000095397 ], [ -78.672882990747539, 35.495738999927056 ], [ -78.662144991472459, 35.49629199986618 ], [ -78.679462991676004, 35.483039999563637 ], [ -78.680068991052082, 35.481763000161273 ], [ -78.68267799074728, 35.480025999913721 ], [ -78.683762990867294, 35.476864999737451 ], [ -78.68692499143674, 35.475950000302461 ], [ -78.688663991219244, 35.476706999720996 ], [ -78.690267991574714, 35.473382999704093 ], [ -78.692529991603607, 35.472109000108361 ], [ -78.695601991758963, 35.473255999529563 ], [ -78.700288991074331, 35.471417999648288 ], [ -78.702688991060114, 35.463616000001721 ] ] ] } },
{ "type": "Feature", "properties": { "county": "HARNETT", "precinct": "PR26", "enr_desc": "Erwin/Duke", "winner": "W. H. (Bill) Morris", "winner_votes": 300.0, "winner_share": 66.371681415929203, "runner_up": "Joe Pike", "runner_up_votes": 152.0, "runner_up_share": 33.628318584070797, "contest_votes": 452.0, "margin_of_victory": 32.743362831858406, "is_tie": false, "results": [ { "candidate": "W. H. (Bill) Morris", "votes": 300, "share": 66.3716814159292 }, { "candidate": "Joe Pike", "votes": 152, "share": 33.6283185840708 } ], "participated": true, "map_key": "HARNETT_PR26" }, "geometry": { "type": "Polygon", "coordinates": [ [ [ -78.728091991500804, 35.354126999963711 ], [ -78.695778991587261, 35.347930999719026 ], [ -78.649451991441225, 35.340289999898729 ], [ -78.64718599135999, 35.337993999787592 ], [ -78.645839991031465, 35.338920000047565 ], [ -78.636251991191358, 35.330912999750822 ], [ -78.638164990933774, 35.32717799955914 ], [ -78.641831991391754, 35.323286999649731 ], [ -78.643277990697484, 35.32003999984002 ], [ -78.642969990820262, 35.315851999760625 ], [ -78.645770991535315, 35.31259499954249 ], [ -78.645799991166584, 35.311632000113811 ], [ -78.64099799152612, 35.304725000245078 ], [ -78.639969990954143, 35.296279000133268 ], [ -78.635840991147489, 35.291654000027776 ], [ -78.635368990828255, 35.289503999751602 ], [ -78.638865991759346, 35.281861999980137 ], [ -78.645926991110315, 35.281105999868316 ], [ -78.646874990713528, 35.279959999589856 ], [ -78.648721991482859, 35.271148000279489 ], [ -78.644591991513124, 35.26929200035211 ], [ -78.645301991773323, 35.264870999982023 ], [ -78.644120990974031, 35.262860000100879 ], [ -78.641972991567471, 35.262057999713292 ], [ -78.640605990695775, 35.260249000184132 ], [ -78.642282990878954, 35.255511000104704 ], [ -78.642675991453757, 35.251437000232173 ], [ -78.64373799159506, 35.250545999827743 ], [ -78.643525991349506, 35.249121000118301 ], [ -78.702739991513312, 35.256815000323932 ], [ -78.700589991745105, 35.259277000087387 ], [ -78.692436990956239, 35.261367000022283 ], [ -78.689555991363932, 35.26282700027943 ], [ -78.683742991721502, 35.270560000146467 ], [ -78.683060991555465, 35.273354999637199 ], [ -78.684774991589208, 35.291299000223077 ], [ -78.686646991240195, 35.296639999536161 ], [ -78.691794990777055, 35.305359999831566 ], [ -78.693161990793598, 35.310478999550668 ], [ -78.692817991397007, 35.313200999554894 ], [ -78.695568990843682, 35.322759000282538 ], [ -78.701117991550291, 35.329517000152038 ], [ -78.70640099157427, 35.333264000042256 ], [ -78.71130099171117, 35.339748999744998 ], [ -78.717247990911616, 35.342799999612019 ], [ -78.726337991092933, 35.351017999994461 ], [ -78.728091991500804, 35.354126999963711 ] ] ] } },
{ "type": "Feature", "properties": { "county": "HARNETT", "precinct": "PR28", "enr_desc": "Northwest Harnett", "winner": "W. H. (Bill) Morris", "winner_votes": 418.0, "winner_share": 56.03217158176944, "runner_up": "Joe Pike", "runner_up_votes": 328.0, "runner_up_share": 43.967828418230567, "contest_votes": 746.0, "margin_of_victory": 12.064343163538872, "is_tie": false, "results": [ { "candidate": "W. H. (Bill) Morris", "votes": 418, "share": 56.03217158176944 }, { "candidate": "Joe Pike", "votes": 328, "share": 43.96782841823057 } ], "participated": true, "map_key": "HARNETT_PR28" }, "geometry": { "type": "Polygon", "coordinates": [ [ [ -78.810118991459987, 35.454528999743559 ], [ -78.815830991131477, 35.453530000161379 ], [ -78.819320991231564, 35.446511999690628 ], [ -78.821247990924519, 35.445961999574301 ], [ -78.823540990821414, 35.441314999563609 ], [ -78.823456991764559, 35.438225000343877 ], [ -78.82485499115883, 35.436369999603386 ], [ -78.824518991684741, 35.434402000214881 ], [ -78.825385991679553, 35.432661999568992 ], [ -78.823063990819463, 35.429206000268771 ], [ -78.824937990894355, 35.419155999836995 ], [ -78.832606991474591, 35.42723500003698 ], [ -78.84326099092695, 35.436050999895329 ], [ -78.84995699165006, 35.439711999598771 ], [ -78.8549399908635, 35.441216999815886 ], [ -78.861883990902058, 35.445765000126698 ], [ -78.874060991335512, 35.454328000297586 ], [ -78.882073990723327, 35.462733000246651 ], [ -78.88617699106932, 35.465417000236286 ], [ -78.896614991660897, 35.469423000217738 ], [ -78.906729991290646, 35.4704630001551 ], [ -78.916058990680526, 35.474596999845893 ], [ -78.931576991324818, 35.479922999608057 ], [ -78.940847991421847, 35.479263000435196 ], [ -78.950390991151238, 35.484740000109028 ], [ -78.952630991521843, 35.487975000037281 ], [ -78.952295991495049, 35.48975999964469 ], [ -78.953445990852387, 35.49453899956309 ], [ -78.961357991495731, 35.510290999965299 ], [ -78.969815991394057, 35.521498000267115 ], [ -78.914731991197797, 35.583681999836351 ], [ -78.778866991022866, 35.541237999569688 ], [ -78.781020991358048, 35.532527000114989 ], [ -78.783622991491953, 35.514695999738265 ], [ -78.793465991197593, 35.514206999886142 ], [ -78.797502991647093, 35.509937000090723 ], [ -78.7991399909221, 35.505075999712673 ], [ -78.799399991318012, 35.501159999680738 ], [ -78.800859991023273, 35.498956000410814 ], [ -78.80717999073326, 35.49762599978623 ], [ -78.810627991589485, 35.493664999882107 ], [ -78.815763990962083, 35.490808000318701 ], [ -78.810118991459987, 35.454528999743559 ] ] ] } },
{ "type": "Feature", "properties": { "county": null, "precinct": null, "enr_desc": "West Averasboro", "winner": null, "winner_votes": null, "winner_share": null, "runner_up": null, "runner_up_votes": null, "runner_up_share": null, "contest_votes": null, "margin_of_victory": null, "is_tie": false, "results": null, "participated": false, "map_key": null }, "geometry": { "type": "Polygon", "coordinates": [ [ [ -78.645301991773323, 35.264870999982023 ], [ -78.644591991513124, 35.26929200035211 ], [ -78.648721991482859, 35.271148000279489 ], [ -78.646874990713528, 35.279959999589856 ], [ -78.645926991110315, 35.281105999868316 ], [ -78.638865991759346, 35.281861999980137 ], [ -78.635368990828255, 35.289503999751602 ], [ -78.635840991147489, 35.291654000027776 ], [ -78.639969990954143, 35.296279000133268 ], [ -78.64099799152612, 35.304725000245078 ], [ -78.645799991166584, 35.311632000113811 ], [ -78.645770991535315, 35.31259499954249 ], [ -78.642969990820262, 35.315851999760625 ], [ -78.643277990697484, 35.32003999984002 ], [ -78.641831991391754, 35.323286999649731 ], [ -78.638164990933774, 35.32717799955914 ], [ -78.636251991191358, 35.330912999750822 ], [ -78.645839991031465, 35.338920000047565 ], [ -78.593221991623608, 35.37483299966032 ], [ -78.574451990902162, 35.38850499989335 ], [ -78.573687991092285, 35.386903000162945 ], [ -78.57250099131673, 35.386482000042754 ], [ -78.571740991362304, 35.384429999869333 ], [ -78.571979991561165, 35.380568999528904 ], [ -78.571133990799837, 35.377934000224066 ], [ -78.569362990826122, 35.375965000000384 ], [ -78.5680959915165, 35.375813000332919 ], [ -78.56895099175307, 35.369526999555831 ], [ -78.567694990931471, 35.367688000236207 ], [ -78.562802990877657, 35.365619999998245 ], [ -78.562831990736939, 35.363959999811712 ], [ -78.627736991733016, 35.288189000021333 ], [ -78.645301991773323, 35.264870999982023 ] ] ] } },
{ "type": "Feature", "properties": { "county": null, "precinct": null, "enr_desc": "Central Harnett Neills Creek", "winner": null, "winner_votes": null, "winner_share": null, "runner_up": null, "runner_up_votes": null, "runner_up_share": null, "contest_votes": null, "margin_of_victory": null, "is_tie": false, "results": null, "participated": false, "map_key": null }, "geometry": { "type": "Polygon", "coordinates": [ [ [ -78.730603991330099, 35.356562999871976 ], [ -78.733067991632211, 35.35855300035319 ], [ -78.73911799129452, 35.359432999817749 ], [ -78.742703990686778, 35.361856000240351 ], [ -78.745159991605604, 35.370973999599848 ], [ -78.748010991620674, 35.375917999852376 ], [ -78.751950991458287, 35.380157000153403 ], [ -78.758852990713677, 35.385720999752969 ], [ -78.768486991551356, 35.396221000413291 ], [ -78.773101991508383, 35.397849000254226 ], [ -78.777963990784855, 35.398355000084685 ], [ -78.784873991743908, 35.397489999954871 ], [ -78.789164990998117, 35.397907000064528 ], [ -78.815641991605517, 35.408067000405346 ], [ -78.821975990990779, 35.413204999889707 ], [ -78.824937990894355, 35.419155999836995 ], [ -78.823063990819463, 35.429206000268771 ], [ -78.825385991679553, 35.432661999568992 ], [ -78.824518991684741, 35.434402000214881 ], [ -78.82485499115883, 35.436369999603386 ], [ -78.823456991764559, 35.438225000343877 ], [ -78.823540990821414, 35.441314999563609 ], [ -78.821247990924519, 35.445961999574301 ], [ -78.819320991231564, 35.446511999690628 ], [ -78.815830991131477, 35.453530000161379 ], [ -78.810118991459987, 35.454528999743559 ], [ -78.760666991696596, 35.465664999582508 ], [ -78.741520991221151, 35.468287999814549 ], [ -78.702688991060114, 35.463616000001721 ], [ -78.703489991116683, 35.455256000310229 ], [ -78.702230991501096, 35.451959999892878 ], [ -78.702620990870471, 35.44335299996893 ], [ -78.704159991614461, 35.442163000253444 ], [ -78.704634991490664, 35.439782999972259 ], [ -78.706144991312584, 35.43818000005966 ], [ -78.706926991543639, 35.433830999720868 ], [ -78.709974990981891, 35.431015000406639 ], [ -78.707100991199169, 35.422799999610817 ], [ -78.706038990756468, 35.416360999746317 ], [ -78.707370991541737, 35.413343000274828 ], [ -78.709048991753136, 35.412403999639096 ], [ -78.709187990707122, 35.411236999767979 ], [ -78.707984991152017, 35.409383000285949 ], [ -78.710388990869006, 35.406726999921084 ], [ -78.710051990811849, 35.40253799983072 ], [ -78.713601990933157, 35.399354999973994 ], [ -78.714943991340306, 35.396996999970739 ], [ -78.715809991598761, 35.393631999610889 ], [ -78.715221991315104, 35.390588000001436 ], [ -78.715974991523737, 35.386192000198214 ], [ -78.722092991120306, 35.378338999652954 ], [ -78.72281999109957, 35.375706000197049 ], [ -78.722362991084353, 35.37283499998658 ], [ -78.726610990975558, 35.371939999587049 ], [ -78.727561990832342, 35.37045099962819 ], [ -78.729573991656125, 35.369970000291488 ], [ -78.730123991366753, 35.36638100020572 ], [ -78.732338991298818, 35.364337000218178 ], [ -78.731471991767151, 35.363123999878127 ], [ -78.731805991087427, 35.360948999612702 ], [ -78.730603991330099, 35.356562999871976 ] ] ] } },
{ "type": "Feature", "properties": { "county": "HARNETT", "precinct": "PR33", "enr_desc": "Barbecue/Benhaven", "winner": "Joe Pike", "winner_votes": 250.0, "winner_share": 57.870370370370374, "runner_up": "W. H. (Bill) Morris", "runner_up_votes": 182.0, "runner_up_share": 42.129629629629626, "contest_votes": 432.0, "margin_of_victory": 15.740740740740748, "is_tie": false, "results": [ { "candidate": "Joe Pike", "votes": 250, "share": 57.870370370370374 }, { "candidate": "W. H. (Bill) Morris", "votes": 182, "share": 42.129629629629626 } ], "participated": true, "map_key": "HARNETT_PR33" }, "geometry": { "type": "Polygon", "coordinates": [ [ [ -78.961155803645468, 35.326911831602906 ], [ -78.962254995959427, 35.323586000270673 ], [ -78.966080995664626, 35.317884999868248 ], [ -78.970212995469254, 35.315779999681254 ], [ -78.971960995873133, 35.313681999737177 ], [ -78.972368996276089, 35.312979000387912 ], [ -78.97846799610349, 35.302897999683722 ], [ -78.978931995289727, 35.302482000402193 ], [ -78.981581995564611, 35.300681999949695 ], [ -78.982521995950151, 35.298988999885857 ], [ -78.982685999955606, 35.298385999724481 ], [ -78.98350029161584, 35.299187264890307 ], [ -78.983752999946788, 35.299464000184827 ], [ -78.986375999635413, 35.302257000348945 ], [ -78.988326999314594, 35.304430999745385 ], [ -78.990852999743325, 35.310088000118306 ], [ -78.992818000504784, 35.319084000378027 ], [ -78.999101000257568, 35.318981999953593 ], [ -79.004487000177221, 35.316573999341408 ], [ -79.021097000280577, 35.314613000434598 ], [ -79.030496000581905, 35.31250799960565 ], [ -79.043114000273377, 35.312260000605121 ], [ -79.043062000853325, 35.308124000044067 ], [ -79.069116000402673, 35.275266000056796 ], [ -79.060217000171306, 35.269701000290752 ], [ -79.060948999890201, 35.269461999889884 ], [ -79.061183999279663, 35.269386999896874 ], [ -79.061790396397015, 35.269164107379623 ], [ -79.081474999939118, 35.280354999886057 ], [ -79.082895000169913, 35.281937000016278 ], [ -79.083477000143233, 35.284159000042756 ], [ -79.082992000057217, 35.288531000161164 ], [ -79.089219000079879, 35.301360999850964 ], [ -79.093354999742488, 35.313433000044107 ], [ -79.10058500005465, 35.329378000273721 ], [ -79.10733100035732, 35.33760600009434 ], [ -79.109405999694872, 35.341965999732068 ], [ -79.108905000366221, 35.342866999962283 ], [ -79.110274999778682, 35.344163999665156 ], [ -79.111670000166839, 35.347845000297362 ], [ -79.112530579857463, 35.378552596601175 ], [ -79.076636000505815, 35.414567999937972 ], [ -79.072057294022699, 35.411503973884393 ], [ -79.071023384573522, 35.407909036663447 ], [ -79.069898995357207, 35.40843400030753 ], [ -79.068879995418087, 35.407356000099753 ], [ -79.068115165991443, 35.407657069560926 ], [ -79.067830995586121, 35.406779999694848 ], [ -79.062538995502791, 35.40723000034798 ], [ -79.061162996050513, 35.408745999781068 ], [ -79.060224995863464, 35.40799300009261 ], [ -79.057373995812327, 35.408641000316756 ], [ -79.053957995545616, 35.40749099981295 ], [ -79.052630995323398, 35.40541199970356 ], [ -79.050722322870442, 35.405939941536047 ], [ -79.047843445915987, 35.405367725291747 ], [ -79.046250986299782, 35.406740931515785 ], [ -79.045665156483778, 35.405618939635815 ], [ -79.044628206394933, 35.407976919364302 ], [ -79.040374021239487, 35.408891979735891 ], [ -79.040012355521853, 35.406236050546006 ], [ -79.037607412444018, 35.405387990723938 ], [ -79.039398043349536, 35.400695070862824 ], [ -79.037637316097772, 35.400213944491568 ], [ -79.037917198724458, 35.399526962344055 ], [ -79.03705005673784, 35.39927496812421 ], [ -79.036548398488378, 35.397445059217986 ], [ -79.035177092340192, 35.398130986302299 ], [ -79.035038110173517, 35.396825925428104 ], [ -79.033531922076492, 35.396894009571142 ], [ -79.033167888800094, 35.398038993161784 ], [ -79.033950819794867, 35.399595969158312 ], [ -79.03296799996798, 35.400625037219214 ], [ -79.030201325371337, 35.396459049552902 ], [ -79.03017436468609, 35.395016060145522 ], [ -79.030873385305611, 35.394535915085299 ], [ -79.030035065738645, 35.393757013842787 ], [ -79.030398010428314, 35.393002024020632 ], [ -79.024865995254387, 35.393686999603489 ], [ -79.017763995655102, 35.39338099981812 ], [ -79.015919995453544, 35.392191000339864 ], [ -79.015613728892049, 35.391027781371008 ], [ -79.017539407465421, 35.39009006457205 ], [ -79.016814126321449, 35.387501938446825 ], [ -79.015755979548061, 35.387388056799843 ], [ -79.014549200697971, 35.388898007053662 ], [ -79.008092973855923, 35.386812239978333 ], [ -79.005688275577072, 35.387108006002229 ], [ -79.005717123776321, 35.385826082895562 ], [ -79.003761015348061, 35.384313953977916 ], [ -79.003764182787648, 35.380261944197045 ], [ -79.001336497165511, 35.37907019134304 ], [ -78.999241365941927, 35.3801029827601 ], [ -78.997925085852401, 35.376417928659805 ], [ -78.992336313721992, 35.378526998617019 ], [ -78.988192995551145, 35.373895999556275 ], [ -78.987742995991425, 35.372157000071546 ], [ -78.987798064377159, 35.370220987048278 ], [ -78.990648080529752, 35.366877927356178 ], [ -78.988691330209861, 35.366237055349899 ], [ -78.985895311738787, 35.362529045436858 ], [ -78.982260026482706, 35.359645987914639 ], [ -78.974239145465816, 35.358640985949968 ], [ -78.970074146891932, 35.356810982093947 ], [ -78.970158256363931, 35.354956025275946 ], [ -78.966607284287534, 35.349026961624418 ], [ -78.961493029234006, 35.344611064072573 ], [ -78.959174106087247, 35.343833073702008 ], [ -78.959257112627512, 35.342139026567153 ], [ -78.958559075226134, 35.341566083837655 ], [ -78.951515996506345, 35.340327999706439 ], [ -78.953728984026185, 35.339673227634975 ], [ -78.953723033953167, 35.339608423962929 ], [ -78.953678995716828, 35.339128999710283 ], [ -78.954248999644278, 35.337245999825498 ], [ -78.954969999689496, 35.336309999843017 ], [ -78.957414000548553, 35.333003000131029 ], [ -78.957969996719257, 35.332226000169207 ], [ -78.958398995114024, 35.331684000279253 ], [ -78.959164995715525, 35.330605000293133 ], [ -78.960744995414174, 35.327877000293832 ], [ -78.960819660394947, 35.327722383641465 ], [ -78.961155803645468, 35.326911831602906 ] ] ] } },
{ "type": "Feature", "properties": { "county": "HARNETT", "precinct": "PR37", "enr_desc": "Johnsonville", "winner": "Joe Pike", "winner_votes": 186.0, "winner_share": 60.586319218241044, "runner_up": "W. H. (Bill) Morris", "runner_up_votes": 121.0, "runner_up_share": 39.413680781758956, "contest_votes": 307.0, "margin_of_victory": 21.172638436482089, "is_tie": false, "results": [ { "candidate": "Joe Pike", "votes": 186, "share": 60.586319218241044 }, { "candidate": "W. H. (Bill) Morris", "votes": 121, "share": 39.413680781758956 } ], "participated": true, "map_key": "HARNETT_PR37" }, "geometry": { "type": "Polygon", "coordinates": [ [ [ -79.112530579857463, 35.378552596601175 ], [ -79.111670000166839, 35.347845000297362 ], [ -79.110274999778682, 35.344163999665156 ], [ -79.108905000366221, 35.342866999962283 ], [ -79.109405999694872, 35.341965999732068 ], [ -79.10733100035732, 35.33760600009434 ], [ -79.10058500005465, 35.329378000273721 ], [ -79.093354999742488, 35.313433000044107 ], [ -79.089219000079879, 35.301360999850964 ], [ -79.082992000057217, 35.288531000161164 ], [ -79.083477000143233, 35.284159000042756 ], [ -79.082895000169913, 35.281937000016278 ], [ -79.081474999939118, 35.280354999886057 ], [ -79.061790396397015, 35.269164107379623 ], [ -79.055793356887108, 35.265657978171994 ], [ -79.053407000475744, 35.263034000521749 ], [ -79.046144000915419, 35.259132999803889 ], [ -79.041677000522085, 35.256699999776089 ], [ -79.039811460325168, 35.257735224525874 ], [ -79.039755999659917, 35.257765999669914 ], [ -79.038807999595363, 35.257460999991046 ], [ -79.027965997143212, 35.252243000133838 ], [ -79.025222996387583, 35.2500629995887 ], [ -79.023280999958786, 35.247082000214839 ], [ -79.019770995908388, 35.235410000217065 ], [ -79.016381999669917, 35.231318000080812 ], [ -79.016518997077299, 35.231163999712912 ], [ -79.018888995647956, 35.229374999655064 ], [ -79.019193996094799, 35.228889000283125 ], [ -79.019425995064182, 35.228295999929017 ], [ -79.019632995450394, 35.223166000011318 ], [ -79.022898995223628, 35.217857000162276 ], [ -79.024653830896781, 35.212105825927161 ], [ -79.027038486816252, 35.2078799763486 ], [ -79.096298999877561, 35.192011999664835 ], [ -79.10076109166242, 35.196358572339307 ], [ -79.120511194303987, 35.204871042423527 ], [ -79.125670037128032, 35.206388185211551 ], [ -79.134647312590374, 35.206823462904929 ], [ -79.137947452421201, 35.211418601790484 ], [ -79.151255535169938, 35.21369933665823 ], [ -79.154067063356706, 35.219710116210557 ], [ -79.153881008269821, 35.229225758802464 ], [ -79.159539677930454, 35.233329120214577 ], [ -79.161521996768244, 35.237068000162999 ], [ -79.165107998144961, 35.240924999879518 ], [ -79.171447996772073, 35.243135999904311 ], [ -79.178767127198583, 35.247807092528994 ], [ -79.186801986075963, 35.247332193671475 ], [ -79.193567676093608, 35.25015580514372 ], [ -79.202522997143447, 35.258180999862887 ], [ -79.212396466571505, 35.262330946186559 ], [ -79.223022847553125, 35.268131558082047 ], [ -79.112530579857463, 35.378552596601175 ] ] ] } },
{ "type": "Feature", "properties": { "county": "HARNETT", "precinct": "PR35", "enr_desc": "Anderson Creek/Flatbranch", "winner": "Joe Pike", "winner_votes": 178.0, "winner_share": 52.976190476190474, "runner_up": "W. H. (Bill) Morris", "runner_up_votes": 158.0, "runner_up_share": 47.023809523809526, "contest_votes": 336.0, "margin_of_victory": 5.952380952380949, "is_tie": false, "results": [ { "candidate": "Joe Pike", "votes": 178, "share": 52.976190476190474 }, { "candidate": "W. H. (Bill) Morris", "votes": 158, "share": 47.023809523809526 } ], "participated": true, "map_key": "HARNETT_PR35" }, "geometry": { "type": "Polygon", "coordinates": [ [ [ -78.981195000231338, 35.296622999949058 ], [ -78.982048000229838, 35.296344000537111 ], [ -78.982866000139495, 35.29612799998241 ], [ -78.982881995422758, 35.296352000019667 ], [ -78.982915995193238, 35.297024999607423 ], [ -78.982896995976375, 35.297437999763766 ], [ -78.982521995950151, 35.298988999885857 ], [ -78.981581995564611, 35.300681999949695 ], [ -78.978931995289727, 35.302482000402193 ], [ -78.97846799610349, 35.302897999683722 ], [ -78.972368996276089, 35.312979000387912 ], [ -78.971960995873133, 35.313681999737177 ], [ -78.970212995469254, 35.315779999681254 ], [ -78.966080995664626, 35.317884999868248 ], [ -78.962254995959427, 35.323586000270673 ], [ -78.961155803645468, 35.326911831602906 ], [ -78.960819660394947, 35.327722383641465 ], [ -78.960744995414174, 35.327877000293832 ], [ -78.959164995715525, 35.330605000293133 ], [ -78.958398995114024, 35.331684000279253 ], [ -78.957969996719257, 35.332226000169207 ], [ -78.957414000548553, 35.333003000131029 ], [ -78.954969999689496, 35.336309999843017 ], [ -78.954248999644278, 35.337245999825498 ], [ -78.953678995716828, 35.339128999710283 ], [ -78.953723033953167, 35.339608423962929 ], [ -78.953728984026185, 35.339673227634975 ], [ -78.95118010256013, 35.340259935406515 ], [ -78.949845108623606, 35.339553081366155 ], [ -78.949677986357003, 35.338683048260357 ], [ -78.951382155402271, 35.33742293167245 ], [ -78.951884125782769, 35.33556900557047 ], [ -78.948643804899632, 35.334927996379193 ], [ -78.946743864024697, 35.336897045947019 ], [ -78.938781119059755, 35.339620979626218 ], [ -78.938307133257126, 35.337308963918296 ], [ -78.934340182298087, 35.334446951984468 ], [ -78.928250049543095, 35.331860049965208 ], [ -78.924756848855139, 35.332202928337438 ], [ -78.923836051163661, 35.33041691459502 ], [ -78.924424111050556, 35.329454929778791 ], [ -78.923055032038391, 35.328883077649195 ], [ -78.924005152014686, 35.327509007597207 ], [ -78.919564099014934, 35.325768955522413 ], [ -78.916517898417823, 35.327302986358518 ], [ -78.914589959720274, 35.327028083156698 ], [ -78.91512094036753, 35.326227009463587 ], [ -78.913808985076301, 35.326043022124743 ], [ -78.908389125677431, 35.326294058024828 ], [ -78.906713101805167, 35.327484044891214 ], [ -78.904421813626143, 35.327231023858872 ], [ -78.900537833703595, 35.329863036979837 ], [ -78.898582932441514, 35.329357915437555 ], [ -78.898444848609302, 35.327504013097609 ], [ -78.896377973116671, 35.327113988610172 ], [ -78.897523943831104, 35.325970063332804 ], [ -78.897356151790007, 35.325099954859645 ], [ -78.893584992311403, 35.325326985706255 ], [ -78.891071805772924, 35.324364972817136 ], [ -78.890623985752384, 35.3254859438483 ], [ -78.891712068561134, 35.327890920218216 ], [ -78.884979086742433, 35.329856990914543 ], [ -78.884726089079578, 35.332123023169757 ], [ -78.885758887049022, 35.333245030201837 ], [ -78.883018867164793, 35.335738971378539 ], [ -78.883100795190572, 35.336769063694362 ], [ -78.881535081055091, 35.338943998685131 ], [ -78.879608148483499, 35.338164009323989 ], [ -78.877819911558689, 35.338552036516319 ], [ -78.87443603785286, 35.341874051538902 ], [ -78.875664853371418, 35.343359031805626 ], [ -78.874311190719695, 35.344002980715288 ], [ -78.873681947533058, 35.346200932451751 ], [ -78.878315021172355, 35.34885505981228 ], [ -78.876944906235167, 35.349242978899973 ], [ -78.876384791332853, 35.350936998285931 ], [ -78.874326810812008, 35.350985025054243 ], [ -78.872119055560177, 35.34897197854945 ], [ -78.870581954909156, 35.34943005586728 ], [ -78.867957964892696, 35.352132934968097 ], [ -78.868125977558748, 35.353483052734113 ], [ -78.866506835585312, 35.355841991531761 ], [ -78.865305993092548, 35.356437923771367 ], [ -78.863375937455558, 35.355865977939558 ], [ -78.860748206479556, 35.351678033522688 ], [ -78.858596951913668, 35.354722985671401 ], [ -78.854658173458375, 35.35525101793462 ], [ -78.852310957913176, 35.357288966812234 ], [ -78.851669869592541, 35.360081984953268 ], [ -78.854100971195251, 35.360882944064059 ], [ -78.857704902878666, 35.359232998681904 ], [ -78.858990900574511, 35.359874007964237 ], [ -78.85913094568977, 35.360834974806394 ], [ -78.85692489956071, 35.362439052303237 ], [ -78.852174922453443, 35.36408792453873 ], [ -78.851170081236432, 35.367659953398402 ], [ -78.848515116075717, 35.36809593691833 ], [ -78.846250916051218, 35.365647031198229 ], [ -78.847814916440754, 35.363150917490231 ], [ -78.844181849902967, 35.362305018419725 ], [ -78.844432170905463, 35.36054206438866 ], [ -78.843374000384657, 35.360043999323757 ], [ -78.846319999866139, 35.355799000095281 ], [ -78.847405999281804, 35.352119000238083 ], [ -78.855643999681917, 35.340976999614341 ], [ -78.854520000401195, 35.338941999391608 ], [ -78.854411000367548, 35.336531000057342 ], [ -78.847604999434296, 35.33751999997633 ], [ -78.867509091921903, 35.250160952912751 ], [ -78.86673919622362, 35.249600957787322 ], [ -78.867474980213046, 35.245136986364159 ], [ -78.867485842594547, 35.245078816962362 ], [ -78.870583871337288, 35.244335640781479 ], [ -78.876374363586677, 35.241207475635854 ], [ -78.874031588735917, 35.235976784867901 ], [ -78.875552223666688, 35.233692702795146 ], [ -78.880992206480855, 35.2302080962654 ], [ -78.888593253590088, 35.230790173866239 ], [ -78.893263895117158, 35.228645590533084 ], [ -78.894496210900257, 35.229645790840252 ], [ -78.897046641205677, 35.229771174073996 ], [ -78.898045123333304, 35.231168055338642 ], [ -78.905435219779676, 35.226972271549648 ], [ -78.911170454950948, 35.226292296786902 ], [ -78.913906797820971, 35.22395386627025 ], [ -78.916690743069736, 35.223805257241608 ], [ -78.920211456605216, 35.220276483231572 ], [ -78.921428096174338, 35.220455206354629 ], [ -78.922292311251127, 35.223124654869764 ], [ -78.924739593103197, 35.223889025556524 ], [ -78.925659207970924, 35.223441566887949 ], [ -78.92549393492601, 35.221894875305594 ], [ -78.929244029188297, 35.222389848852323 ], [ -78.929811597878725, 35.221445799860795 ], [ -78.931795297988998, 35.22132376191518 ], [ -78.935642202109321, 35.21875857407376 ], [ -78.941815999342481, 35.219275999934808 ], [ -78.936733000700841, 35.226892999619679 ], [ -78.927206999977628, 35.25259499974554 ], [ -78.923113999382593, 35.260384000600077 ], [ -78.921933999989093, 35.264894999290661 ], [ -78.927911999412899, 35.268251000033551 ], [ -78.936740999158943, 35.278225000302101 ], [ -78.940342999755103, 35.280759000158852 ], [ -78.943218000108303, 35.287168999383795 ], [ -78.955342000004819, 35.294711999651142 ], [ -78.971388000246137, 35.299901999471516 ], [ -78.980683999776915, 35.296814000680342 ], [ -78.981195000231338, 35.296622999949058 ] ] ] } },
{ "type": "Feature", "properties": { "county": "HARNETT", "precinct": "PR38", "enr_desc": "Stewarts Creek", "winner": "W. H. (Bill) Morris", "winner_votes": 129.0, "winner_share": 62.318840579710141, "runner_up": "Joe Pike", "runner_up_votes": 78.0, "runner_up_share": 37.681159420289859, "contest_votes": 207.0, "margin_of_victory": 24.637681159420282, "is_tie": false, "results": [ { "candidate": "W. H. (Bill) Morris", "votes": 129, "share": 62.31884057971014 }, { "candidate": "Joe Pike", "votes": 78, "share": 37.68115942028986 } ], "participated": true, "map_key": "HARNETT_PR38" }, "geometry": { "type": "Polygon", "coordinates": [ [ [ -78.732523999911123, 35.326991000079914 ], [ -78.732506000108742, 35.326813000168286 ], [ -78.730674000534762, 35.324261000007922 ], [ -78.730681999892255, 35.324198999659259 ], [ -78.728113999977424, 35.323441000351075 ], [ -78.727280999613427, 35.324148000372873 ], [ -78.726451000186017, 35.323264000433333 ], [ -78.726419182307154, 35.323315515112697 ], [ -78.724828999610693, 35.324215999852157 ], [ -78.723937999885024, 35.326351000084685 ], [ -78.718885999996132, 35.327066000307056 ], [ -78.717359999922223, 35.326324999794458 ], [ -78.717299999631663, 35.324179999894064 ], [ -78.716585999756575, 35.324141000401603 ], [ -78.715703000152942, 35.325608000000315 ], [ -78.71649900025902, 35.327916000232904 ], [ -78.715773999981707, 35.329216999784933 ], [ -78.718415999578326, 35.329716999914176 ], [ -78.718722999768914, 35.333231999896825 ], [ -78.716402999804359, 35.333211000249584 ], [ -78.715293000500907, 35.330106999752211 ], [ -78.713936000437613, 35.329622999798787 ], [ -78.712708999502098, 35.330176999555675 ], [ -78.712686000253186, 35.330286999679231 ], [ -78.712309999512499, 35.332341999837169 ], [ -78.712019954118645, 35.332613173163551 ], [ -78.710240000269167, 35.332751000159632 ], [ -78.710198999607087, 35.330258999742789 ], [ -78.709193999784134, 35.329390000022663 ], [ -78.707797995768132, 35.330029000155243 ], [ -78.706170530949336, 35.333005230349421 ], [ -78.701118138048187, 35.329516946426374 ], [ -78.695568947731587, 35.322759057867216 ], [ -78.692819059856078, 35.313204927201859 ], [ -78.693164118889712, 35.310483059690995 ], [ -78.691796189222501, 35.305362956955491 ], [ -78.686647851349775, 35.296641932685795 ], [ -78.684775796515837, 35.291300961189648 ], [ -78.683315002296155, 35.271617047561215 ], [ -78.688320853578972, 35.263880941533557 ], [ -78.691018923751187, 35.26201291978407 ], [ -78.700592092716974, 35.2592759190211 ], [ -78.702742028138175, 35.256811952067409 ], [ -78.70498078619454, 35.25685570088411 ], [ -78.707701718011677, 35.259193580302849 ], [ -78.711793783955272, 35.257415020824823 ], [ -78.713642394946604, 35.259691370172632 ], [ -78.718833923495751, 35.259831285721496 ], [ -78.720506305973572, 35.264935679887394 ], [ -78.725947740589802, 35.266905296963444 ], [ -78.730029321014229, 35.26326017182457 ], [ -78.736166223040783, 35.26162637508142 ], [ -78.741095797569614, 35.263818136270125 ], [ -78.745649295197921, 35.263649876547483 ], [ -78.74788129990047, 35.262751239146517 ], [ -78.750030453052872, 35.263476522040122 ], [ -78.750197537622128, 35.261565314037604 ], [ -78.754133858030457, 35.259556899733496 ], [ -78.754494666247581, 35.263412671733214 ], [ -78.757529707856293, 35.263505475364532 ], [ -78.758068228169577, 35.261877860249683 ], [ -78.759208904360165, 35.261519724163165 ], [ -78.760646845628543, 35.262147596878158 ], [ -78.759974472449997, 35.263939199722962 ], [ -78.762995394141242, 35.263160462926258 ], [ -78.761225181516338, 35.262084870631121 ], [ -78.760994668323875, 35.26107161144251 ], [ -78.761887838087276, 35.261698391550887 ], [ -78.763684178658806, 35.261437307028295 ], [ -78.764181424250438, 35.258659911176899 ], [ -78.765883669773473, 35.25822980821571 ], [ -78.76961615701164, 35.259304526507428 ], [ -78.771042488977088, 35.262099282328421 ], [ -78.774638815490505, 35.262242903656912 ], [ -78.778259765232491, 35.263558932712456 ], [ -78.780469843366376, 35.262417861290281 ], [ -78.780618051304714, 35.261054037564513 ], [ -78.782124857840728, 35.260938144206577 ], [ -78.783732701136159, 35.262542355154586 ], [ -78.782384221035571, 35.263730664787602 ], [ -78.786965472461929, 35.263551764467671 ], [ -78.794280464397701, 35.266100991230168 ], [ -78.797669260164611, 35.264833865385214 ], [ -78.79866026009384, 35.262002410201404 ], [ -78.801459722375924, 35.262951401694295 ], [ -78.802579793358163, 35.261844628829571 ], [ -78.803169585187959, 35.259327273575785 ], [ -78.805877697794273, 35.256608034527204 ], [ -78.80892511018439, 35.258446876267065 ], [ -78.810027919460509, 35.257517932629142 ], [ -78.811728711147467, 35.257602711715649 ], [ -78.815341739783292, 35.260126596971837 ], [ -78.819426825287991, 35.260461246811438 ], [ -78.824915278412789, 35.259648122358143 ], [ -78.82641837106695, 35.258623801824442 ], [ -78.82827688372987, 35.255109019247371 ], [ -78.832311479661016, 35.255566333397873 ], [ -78.834667520014506, 35.252353785129699 ], [ -78.838468081380952, 35.253959704687041 ], [ -78.842906708466231, 35.252446347633047 ], [ -78.847157881771523, 35.252985571206771 ], [ -78.848096861499357, 35.250222074414864 ], [ -78.854502996526449, 35.248382000074692 ], [ -78.859930997100363, 35.242496000328281 ], [ -78.867485842594547, 35.245078816962362 ], [ -78.867474980213046, 35.245136986364159 ], [ -78.86673919622362, 35.249600957787322 ], [ -78.867509091921903, 35.250160952912751 ], [ -78.847604999434296, 35.33751999997633 ], [ -78.844351000258897, 35.337225000805979 ], [ -78.837232999872086, 35.348033999618103 ], [ -78.836696000498236, 35.350420999714075 ], [ -78.829785000587023, 35.343482000002872 ], [ -78.826352000344713, 35.335795000064941 ], [ -78.8187599994409, 35.333041999996894 ], [ -78.814682999744036, 35.332670999839337 ], [ -78.815147000951441, 35.33419800029229 ], [ -78.813582000603233, 35.335663000684399 ], [ -78.813471204720258, 35.339072982296983 ], [ -78.81204708702397, 35.339187039259464 ], [ -78.809867822607842, 35.337973998547888 ], [ -78.808693896299332, 35.338111077219821 ], [ -78.807800047830867, 35.339804944393812 ], [ -78.806040086642099, 35.338545961206727 ], [ -78.804614868753944, 35.339117924390777 ], [ -78.802577061108977, 35.336484974919088 ], [ -78.801626903911085, 35.336302080092992 ], [ -78.800593057836934, 35.336919972092645 ], [ -78.801933974323177, 35.337744054266096 ], [ -78.798804909667766, 35.33831606959081 ], [ -78.799306939924961, 35.339209020918723 ], [ -78.7982459990168, 35.339574924448129 ], [ -78.798441115534018, 35.34067395436719 ], [ -78.797323149455821, 35.341543083887345 ], [ -78.796457909681507, 35.339735073154188 ], [ -78.792127868058969, 35.338658038522539 ], [ -78.792379938844647, 35.33744505207838 ], [ -78.789643013641765, 35.335796050399793 ], [ -78.786625995448532, 35.335863999669243 ], [ -78.785983066906269, 35.336778955296907 ], [ -78.785423995333545, 35.335474000043412 ], [ -78.783988999583315, 35.335236000214429 ], [ -78.781289926523129, 35.33480893105223 ], [ -78.781682024429131, 35.333596058880453 ], [ -78.780508941016222, 35.333275044880331 ], [ -78.779372000151895, 35.334270999944479 ], [ -78.774983000389554, 35.333936999720116 ], [ -78.774133000447961, 35.330279000414961 ], [ -78.775571000528956, 35.329500000071349 ], [ -78.773028999738059, 35.329292999870816 ], [ -78.770467999561333, 35.330391999738076 ], [ -78.769614999835071, 35.329341999550991 ], [ -78.770223000486723, 35.327744000222125 ], [ -78.76950100039474, 35.327091000107991 ], [ -78.766465000116227, 35.327708000252208 ], [ -78.765209999933631, 35.326020999613817 ], [ -78.764251999666371, 35.326425000295835 ], [ -78.76425899993491, 35.326479999752863 ], [ -78.764259198473439, 35.326480950269058 ], [ -78.764262682715767, 35.326497802472765 ], [ -78.76408900001141, 35.327469999629194 ], [ -78.759653999851352, 35.325876000141456 ], [ -78.757933999825823, 35.32689799970322 ], [ -78.757923999815219, 35.326955000131598 ], [ -78.757922000311936, 35.327010000000691 ], [ -78.757930000241743, 35.327074000112127 ], [ -78.757941480946798, 35.327122319218262 ], [ -78.757963999713709, 35.327184000057386 ], [ -78.758607999749657, 35.330275999717323 ], [ -78.758477999783253, 35.330496999909933 ], [ -78.757408000167004, 35.330792999563279 ], [ -78.758132999666657, 35.331782000306049 ], [ -78.757083000309279, 35.332224999576752 ], [ -78.752917000201023, 35.330678000218441 ], [ -78.749741996412311, 35.33092800033927 ], [ -78.751369000104859, 35.331856000369704 ], [ -78.749623000044096, 35.333029000239748 ], [ -78.750482000413513, 35.333964999885538 ], [ -78.750523151156955, 35.333968355099913 ], [ -78.75031600011728, 35.336244000088804 ], [ -78.749297999634223, 35.336619000379407 ], [ -78.746855999743673, 35.333986999569206 ], [ -78.741741999826942, 35.333501999700019 ], [ -78.741341999555686, 35.333064000348216 ], [ -78.744168060225391, 35.331324024587254 ], [ -78.741448000330109, 35.329766999752891 ], [ -78.732859999807317, 35.331405999927526 ], [ -78.731764986405281, 35.330160997883496 ], [ -78.732523999911123, 35.326991000079914 ] ] ] } },
{ "type": "Feature", "properties": { "county": "HARNETT", "precinct": "PR39", "enr_desc": "Central Harnett Lillington", "winner": "Joe Pike", "winner_votes": 125.0, "winner_share": 62.189054726368155, "runner_up": "W. H. (Bill) Morris", "runner_up_votes": 76.0, "runner_up_share": 37.810945273631837, "contest_votes": 201.0, "margin_of_victory": 24.378109452736318, "is_tie": false, "results": [ { "candidate": "Joe Pike", "votes": 125, "share": 62.189054726368155 }, { "candidate": "W. H. (Bill) Morris", "votes": 76, "share": 37.81094527363184 } ], "participated": true, "map_key": "HARNETT_PR39" }, "geometry": { "type": "Polygon", "coordinates": [ [ [ -78.750523151156955, 35.333968355099913 ], [ -78.750482000413513, 35.333964999885538 ], [ -78.749623000044096, 35.333029000239748 ], [ -78.751369000104859, 35.331856000369704 ], [ -78.749741996412311, 35.33092800033927 ], [ -78.752917000201023, 35.330678000218441 ], [ -78.757083000309279, 35.332224999576752 ], [ -78.758132999666657, 35.331782000306049 ], [ -78.757408000167004, 35.330792999563279 ], [ -78.758477999783253, 35.330496999909933 ], [ -78.758607999749657, 35.330275999717323 ], [ -78.757963999713709, 35.327184000057386 ], [ -78.757941480946798, 35.327122319218262 ], [ -78.757930000241743, 35.327074000112127 ], [ -78.757922000311936, 35.327010000000691 ], [ -78.757923999815219, 35.326955000131598 ], [ -78.757933999825823, 35.32689799970322 ], [ -78.759653999851352, 35.325876000141456 ], [ -78.76408900001141, 35.327469999629194 ], [ -78.764262682715767, 35.326497802472765 ], [ -78.764259198473439, 35.326480950269058 ], [ -78.76425899993491, 35.326479999752863 ], [ -78.764251999666371, 35.326425000295835 ], [ -78.765209999933631, 35.326020999613817 ], [ -78.766465000116227, 35.327708000252208 ], [ -78.76950100039474, 35.327091000107991 ], [ -78.770223000486723, 35.327744000222125 ], [ -78.769614999835071, 35.329341999550991 ], [ -78.770467999561333, 35.330391999738076 ], [ -78.773028999738059, 35.329292999870816 ], [ -78.775571000528956, 35.329500000071349 ], [ -78.774133000447961, 35.330279000414961 ], [ -78.774983000389554, 35.333936999720116 ], [ -78.779372000151895, 35.334270999944479 ], [ -78.780508941016222, 35.333275044880331 ], [ -78.781682024429131, 35.333596058880453 ], [ -78.781289926523129, 35.33480893105223 ], [ -78.783988999583315, 35.335236000214429 ], [ -78.785423995333545, 35.335474000043412 ], [ -78.785983066906269, 35.336778955296907 ], [ -78.786625995448532, 35.335863999669243 ], [ -78.789643013641765, 35.335796050399793 ], [ -78.792379938844647, 35.33744505207838 ], [ -78.792127868058969, 35.338658038522539 ], [ -78.796457909681507, 35.339735073154188 ], [ -78.797323149455821, 35.341543083887345 ], [ -78.798441115534018, 35.34067395436719 ], [ -78.7982459990168, 35.339574924448129 ], [ -78.799306939924961, 35.339209020918723 ], [ -78.798804909667766, 35.33831606959081 ], [ -78.801933974323177, 35.337744054266096 ], [ -78.800593057836934, 35.336919972092645 ], [ -78.801626903911085, 35.336302080092992 ], [ -78.802577061108977, 35.336484974919088 ], [ -78.804614868753944, 35.339117924390777 ], [ -78.806040086642099, 35.338545961206727 ], [ -78.807800047830867, 35.339804944393812 ], [ -78.808693896299332, 35.338111077219821 ], [ -78.809867822607842, 35.337973998547888 ], [ -78.81204708702397, 35.339187039259464 ], [ -78.813471204720258, 35.339072982296983 ], [ -78.813582000603233, 35.335663000684399 ], [ -78.815147000951441, 35.33419800029229 ], [ -78.814682999744036, 35.332670999839337 ], [ -78.8187599994409, 35.333041999996894 ], [ -78.826352000344713, 35.335795000064941 ], [ -78.829785000587023, 35.343482000002872 ], [ -78.836696000498236, 35.350420999714075 ], [ -78.837232999872086, 35.348033999618103 ], [ -78.844351000258897, 35.337225000805979 ], [ -78.847604999434296, 35.33751999997633 ], [ -78.854411000367548, 35.336531000057342 ], [ -78.854520000401195, 35.338941999391608 ], [ -78.855643999681917, 35.340976999614341 ], [ -78.847405999281804, 35.352119000238083 ], [ -78.846319999866139, 35.355799000095281 ], [ -78.843374000384657, 35.360043999323757 ], [ -78.844432170905463, 35.36054206438866 ], [ -78.844181849902967, 35.362305018419725 ], [ -78.847814916440754, 35.363150917490231 ], [ -78.846250916051218, 35.365647031198229 ], [ -78.848515116075717, 35.36809593691833 ], [ -78.851170081236432, 35.367659953398402 ], [ -78.852174922453443, 35.36408792453873 ], [ -78.85692489956071, 35.362439052303237 ], [ -78.85913094568977, 35.360834974806394 ], [ -78.858990900574511, 35.359874007964237 ], [ -78.857704902878666, 35.359232998681904 ], [ -78.854100971195251, 35.360882944064059 ], [ -78.851669869592541, 35.360081984953268 ], [ -78.852310957913176, 35.357288966812234 ], [ -78.854658173458375, 35.35525101793462 ], [ -78.858596951913668, 35.354722985671401 ], [ -78.860748206479556, 35.351678033522688 ], [ -78.863375937455558, 35.355865977939558 ], [ -78.865305993092548, 35.356437923771367 ], [ -78.866506835585312, 35.355841991531761 ], [ -78.868125977558748, 35.353483052734113 ], [ -78.867957964892696, 35.352132934968097 ], [ -78.870581954909156, 35.34943005586728 ], [ -78.872119055560177, 35.34897197854945 ], [ -78.874326810812008, 35.350985025054243 ], [ -78.876384791332853, 35.350936998285931 ], [ -78.876944906235167, 35.349242978899973 ], [ -78.878315021172355, 35.34885505981228 ], [ -78.874744035089492, 35.35418006935442 ], [ -78.874744193677301, 35.355711001996369 ], [ -78.861882132586928, 35.37515898770878 ], [ -78.824937815932046, 35.4191559391884 ], [ -78.821976149523834, 35.413205013643967 ], [ -78.815646974538282, 35.408073037684723 ], [ -78.789165166259764, 35.397906917437027 ], [ -78.784873996176188, 35.397489989145519 ], [ -78.777964100764336, 35.398355041752275 ], [ -78.773101917550434, 35.397849070428023 ], [ -78.768487108292774, 35.396220984410348 ], [ -78.758852977536733, 35.385720988909512 ], [ -78.751950836012085, 35.380157081866557 ], [ -78.748011060987864, 35.375917990982153 ], [ -78.745159942969266, 35.370974067105927 ], [ -78.742703933732372, 35.361855915383458 ], [ -78.739510766287069, 35.359399661021882 ], [ -78.734695226231935, 35.359274960008463 ], [ -78.728769900624641, 35.355040245858142 ], [ -78.726164728744337, 35.350574277272713 ], [ -78.71642099454354, 35.342184000030528 ], [ -78.711300995011541, 35.339748999752835 ], [ -78.706170530949336, 35.333005230349421 ], [ -78.707797995768132, 35.330029000155243 ], [ -78.709193999784134, 35.329390000022663 ], [ -78.710198999607087, 35.330258999742789 ], [ -78.710240000269167, 35.332751000159632 ], [ -78.712019954118645, 35.332613173163551 ], [ -78.712309999512499, 35.332341999837169 ], [ -78.712686000253186, 35.330286999679231 ], [ -78.712708999502098, 35.330176999555675 ], [ -78.713936000437613, 35.329622999798787 ], [ -78.715293000500907, 35.330106999752211 ], [ -78.716402999804359, 35.333211000249584 ], [ -78.718722999768914, 35.333231999896825 ], [ -78.718415999578326, 35.329716999914176 ], [ -78.715773999981707, 35.329216999784933 ], [ -78.71649900025902, 35.327916000232904 ], [ -78.715703000152942, 35.325608000000315 ], [ -78.716585999756575, 35.324141000401603 ], [ -78.717299999631663, 35.324179999894064 ], [ -78.717359999922223, 35.326324999794458 ], [ -78.718885999996132, 35.327066000307056 ], [ -78.723937999885024, 35.326351000084685 ], [ -78.724828999610693, 35.324215999852157 ], [ -78.726419182307154, 35.323315515112697 ], [ -78.726451000186017, 35.323264000433333 ], [ -78.727280999613427, 35.324148000372873 ], [ -78.728113999977424, 35.323441000351075 ], [ -78.730681999892255, 35.324198999659259 ], [ -78.730674000534762, 35.324261000007922 ], [ -78.732506000108742, 35.326813000168286 ], [ -78.732523999911123, 35.326991000079914 ], [ -78.731764986405281, 35.330160997883496 ], [ -78.732859999807317, 35.331405999927526 ], [ -78.741448000330109, 35.329766999752891 ], [ -78.744168060225391, 35.331324024587254 ], [ -78.741341999555686, 35.333064000348216 ], [ -78.741741999826942, 35.333501999700019 ], [ -78.746855999743673, 35.333986999569206 ], [ -78.749297999634223, 35.336619000379407 ], [ -78.75031600011728, 35.336244000088804 ], [ -78.750523151156955, 35.333968355099913 ] ] ] } },
{ "type": "Feature", "properties": { "county": "HARNETT", "precinct": "PR34", "enr_desc": "Barbecue/Spout Springs", "winner": "Joe Pike", "winner_votes": 342.0, "winner_share": 73.866090712742988, "runner_up": "W. H. (Bill) Morris", "runner_up_votes": 121.0, "runner_up_share": 26.133909287257019, "contest_votes": 463.0, "margin_of_victory": 47.732181425485969, "is_tie": false, "results": [ { "candidate": "Joe Pike", "votes": 342, "share": 73.86609071274299 }, { "candidate": "W. H. (Bill) Morris", "votes": 121, "share": 26.13390928725702 } ], "participated": true, "map_key": "HARNETT_PR34" }, "geometry": { "type": "Polygon", "coordinates": [ [ [ -78.984736220465379, 35.284279210884847 ], [ -78.985407995836425, 35.282560999675262 ], [ -78.986125995895961, 35.280711000215767 ], [ -78.986327995569894, 35.280191000031358 ], [ -78.986538996212857, 35.279624000322784 ], [ -78.99182100003857, 35.27349599976629 ], [ -78.99196799521745, 35.273316000262092 ], [ -78.993194996808441, 35.270977000035245 ], [ -78.992471395899045, 35.260245019064335 ], [ -78.991141390781308, 35.257078085509704 ], [ -78.999659332075865, 35.253917140493236 ], [ -79.002694995387088, 35.252079000301258 ], [ -79.004428995719309, 35.249983000344393 ], [ -79.00458899533335, 35.249682000128558 ], [ -79.008143555074426, 35.241185402727581 ], [ -79.009031995933952, 35.239395999701017 ], [ -79.010472995639418, 35.236691000149229 ], [ -79.012856693192418, 35.23440010727839 ], [ -79.013065995166869, 35.234244000078789 ], [ -79.016118538017736, 35.231612398552905 ], [ -79.016381999669917, 35.231318000080812 ], [ -79.019770995908388, 35.235410000217065 ], [ -79.023280999958786, 35.247082000214839 ], [ -79.025222996387583, 35.2500629995887 ], [ -79.027965997143212, 35.252243000133838 ], [ -79.038807999595363, 35.257460999991046 ], [ -79.039755999659917, 35.257765999669914 ], [ -79.039811460325168, 35.257735224525874 ], [ -79.041677000522554, 35.25670000067759 ], [ -79.046144000915419, 35.259132999803889 ], [ -79.053407000475744, 35.263034000521749 ], [ -79.055793356887108, 35.265657978171994 ], [ -79.061790396397015, 35.269164107379623 ], [ -79.061183999279663, 35.269386999896874 ], [ -79.060948999890201, 35.269461999889884 ], [ -79.060217000171306, 35.269701000290752 ], [ -79.069116000402673, 35.275266000056796 ], [ -79.043062000853325, 35.308124000044067 ], [ -79.043114000273377, 35.312260000605121 ], [ -79.030496000581905, 35.31250799960565 ], [ -79.021097000280577, 35.314613000434598 ], [ -79.004487000177221, 35.316573999341408 ], [ -78.999101000257568, 35.318981999953593 ], [ -78.992818000504784, 35.319084000378027 ], [ -78.990852999743325, 35.310088000118306 ], [ -78.988326999314594, 35.304430999745385 ], [ -78.986375999635413, 35.302257000348945 ], [ -78.983752999946788, 35.299464000184827 ], [ -78.98350029161584, 35.299187264890307 ], [ -78.98268599775642, 35.298385999724204 ], [ -78.982896995976375, 35.297437999763766 ], [ -78.982915995193238, 35.297024999607423 ], [ -78.982881995422758, 35.296352000019667 ], [ -78.982866000139495, 35.29612799998241 ], [ -78.982729996065231, 35.293909999705043 ], [ -78.982632000163761, 35.289840999856942 ], [ -78.982760995484554, 35.289405999560202 ], [ -78.983469996768875, 35.287504999819014 ], [ -78.983858996132355, 35.286558000405336 ], [ -78.984476996433656, 35.284974000196662 ], [ -78.984736220465379, 35.284279210884847 ] ] ] } },
{ "type": "Feature", "properties": { "county": "HARNETT", "precinct": "PR36", "enr_desc": "Anderson Creek/Overhills", "winner": "Joe Pike", "winner_votes": 257.0, "winner_share": 58.409090909090914, "runner_up": "W. H. (Bill) Morris", "runner_up_votes": 183.0, "runner_up_share": 41.590909090909086, "contest_votes": 440.0, "margin_of_victory": 16.818181818181827, "is_tie": false, "results": [ { "candidate": "Joe Pike", "votes": 257, "share": 58.409090909090914 }, { "candidate": "W. H. (Bill) Morris", "votes": 183, "share": 41.590909090909086 } ], "participated": true, "map_key": "HARNETT_PR36" }, "geometry": { "type": "Polygon", "coordinates": [ [ [ -78.993194996808441, 35.270977000035245 ], [ -78.99196799521745, 35.273316000262092 ], [ -78.99182100003857, 35.27349599976629 ], [ -78.986538996212857, 35.279624000322784 ], [ -78.986327995569894, 35.280191000031358 ], [ -78.986125995895961, 35.280711000215767 ], [ -78.985407995836425, 35.282560999675262 ], [ -78.984736220465379, 35.284279210884847 ], [ -78.984476996433656, 35.284974000196662 ], [ -78.983858996132355, 35.286558000405336 ], [ -78.983469996768875, 35.287504999819014 ], [ -78.982760995484554, 35.289405999560202 ], [ -78.982632000163761, 35.289840999856942 ], [ -78.982729996065231, 35.293909999705043 ], [ -78.982866000139495, 35.29612799998241 ], [ -78.982048000229838, 35.296344000537111 ], [ -78.981195000231338, 35.296622999949058 ], [ -78.980683999776915, 35.296814000680342 ], [ -78.971388000246137, 35.299901999471516 ], [ -78.955342000004819, 35.294711999651142 ], [ -78.943218000108303, 35.287168999383795 ], [ -78.940342999755103, 35.280759000158852 ], [ -78.936740999158943, 35.278225000302101 ], [ -78.927911999412899, 35.268251000033551 ], [ -78.921933999989093, 35.264894999290661 ], [ -78.923113999382593, 35.260384000600077 ], [ -78.927206999977628, 35.25259499974554 ], [ -78.936733000700841, 35.226892999619679 ], [ -78.941815999342481, 35.219275999934808 ], [ -78.975497991538234, 35.215443000307502 ], [ -78.998036991606241, 35.214129999648179 ], [ -79.026600016409674, 35.207974519381516 ], [ -79.024653830896781, 35.212105825927161 ], [ -79.022898995223628, 35.217857000162276 ], [ -79.019632995450394, 35.223166000011318 ], [ -79.019425995064182, 35.228295999929017 ], [ -79.019193996094799, 35.228889000283125 ], [ -79.018888995647956, 35.229374999655064 ], [ -79.016518997077299, 35.231163999712912 ], [ -79.016381999669917, 35.231318000080812 ], [ -79.016118538017736, 35.231612398552905 ], [ -79.013065995166869, 35.234244000078789 ], [ -79.012856693192418, 35.23440010727839 ], [ -79.010472995639418, 35.236691000149229 ], [ -79.009031995933952, 35.239395999701017 ], [ -79.008143555074426, 35.241185402727581 ], [ -79.00458899533335, 35.249682000128558 ], [ -79.004428995719309, 35.249983000344393 ], [ -79.002694995387088, 35.252079000301258 ], [ -78.999659332075865, 35.253917140493236 ], [ -78.991193999732857, 35.257048000416582 ], [ -78.992459995423843, 35.260053999977593 ], [ -78.993194996808441, 35.270977000035245 ] ] ] } }
]
}
