{
"type": "FeatureCollection",
"name": "nc_house_of_representatives_district_050_dem",
"crs": { "type": "name", "properties": { "name": "urn:ogc:def:crs:OGC:1.3:CRS84" } },
"features": [
{ "type": "Feature", "properties": { "county": null, "precinct": null, "enr_desc": "Dogwood Acres", "winner": null, "winner_votes": null, "winner_share": null, "runner_up": null, "runner_up_votes": null, "runner_up_share": null, "contest_votes": null, "margin_of_victory": null, "is_tie": false, "results": null, "participated": false, "map_key": null }, "geometry": { "type": "Polygon", "coordinates": [ [ [ -79.075393991619848, 35.893562999953758 ], [ -79.064923991130954, 35.891641000000561 ], [ -79.061322990850286, 35.892461000203795 ], [ -79.059395990712673, 35.891323999741928 ], [ -79.061368991511813, 35.889553000284977 ], [ -79.060840991324397, 35.882897000140893 ], [ -79.064446990849007, 35.878411000163617 ], [ -79.066875991503579, 35.872853999937028 ], [ -79.074236991199584, 35.86727999974692 ], [ -79.077106991552114, 35.863659999652342 ], [ -79.081937991136897, 35.860780000055748 ], [ -79.08215799069724, 35.860785000373063 ], [ -79.080698991237412, 35.864811000297543 ], [ -79.080537991495703, 35.874167000335405 ], [ -79.083020990993958, 35.8811050001352 ], [ -79.082874991182763, 35.886315000166725 ], [ -79.079226990743109, 35.892225999612883 ], [ -79.078257990616336, 35.893042000339591 ], [ -79.078229991599983, 35.889957000228087 ], [ -79.077301990648849, 35.889946999597164 ], [ -79.075393991619848, 35.893562999953758 ] ] ] } },
{ "type": "Feature", "properties": { "county": "CASWELL", "precinct": "ANDE", "enr_desc": "Anderson", "winner": "Renee A. Price", "winner_votes": 35.0, "winner_share": 71.428571428571431, "runner_up": "Mary Lucas", "runner_up_votes": 8.0, "runner_up_share": 16.326530612244898, "contest_votes": 49.0, "margin_of_victory": 55.102040816326536, "is_tie": false, "results": [ { "candidate": "Renee A. Price", "votes": 35, "share": 71.42857142857143 }, { "candidate": "Mary Lucas", "votes": 8, "share": 16.3265306122449 }, { "candidate": "Brandall Redd", "votes": 6, "share": 12.244897959183673 } ], "participated": true, "map_key": "CASWELL_ANDE" }, "geometry": { "type": "Polygon", "coordinates": [ [ [ -79.392376991456885, 36.283212000315245 ], [ -79.391113991266636, 36.281496000241219 ], [ -79.388904990706664, 36.281900999617079 ], [ -79.385959990983437, 36.281073000236617 ], [ -79.37997699114905, 36.276672000008162 ], [ -79.378141991079417, 36.276117000167396 ], [ -79.373315991436215, 36.277268999917865 ], [ -79.36914699138697, 36.280609999921104 ], [ -79.361732991165383, 36.281437999742622 ], [ -79.364423991424971, 36.282862999956151 ], [ -79.368209991073769, 36.290623000131944 ], [ -79.36779199163712, 36.295119999681241 ], [ -79.361745991137525, 36.307717000022237 ], [ -79.352360990946835, 36.315810999794522 ], [ -79.34316299135908, 36.34012300015619 ], [ -79.337716990717141, 36.34409600022736 ], [ -79.336729991054128, 36.345708999824126 ], [ -79.323046990982959, 36.345602000054328 ], [ -79.316386991231539, 36.343455000058498 ], [ -79.299494991274742, 36.343696999903777 ], [ -79.305103990743234, 36.341048000212773 ], [ -79.308842991508911, 36.337551000457438 ], [ -79.313361990896539, 36.335480999782575 ], [ -79.315860990621175, 36.332769999933944 ], [ -79.318393991477691, 36.33247499957568 ], [ -79.320490991239083, 36.330497000144014 ], [ -79.322831991586128, 36.330545999830811 ], [ -79.324253990674279, 36.328728999862022 ], [ -79.327060991189967, 36.328433999811161 ], [ -79.328162990736828, 36.325619000089453 ], [ -79.332094991298277, 36.324832999651875 ], [ -79.333678990642142, 36.322312000062517 ], [ -79.332825991045368, 36.31957100007066 ], [ -79.323918990735834, 36.320399999623149 ], [ -79.316969991434917, 36.313422000130103 ], [ -79.312710990943216, 36.314946000271256 ], [ -79.302906991376432, 36.309525000068838 ], [ -79.302324991469803, 36.305672000264721 ], [ -79.300184990658295, 36.300802999942356 ], [ -79.300337991437473, 36.297352999671048 ], [ -79.297069990817931, 36.291364000322019 ], [ -79.29562699105233, 36.285237000218956 ], [ -79.301699991451954, 36.279169000160167 ], [ -79.305003991115527, 36.272579999584572 ], [ -79.304558990931184, 36.269188000109196 ], [ -79.298116991423058, 36.259523000424359 ], [ -79.29689599139239, 36.254458999996061 ], [ -79.287589991261754, 36.254241999781883 ], [ -79.278952991392572, 36.261736000289623 ], [ -79.273942991062356, 36.262932999702606 ], [ -79.270771991648488, 36.266406999806456 ], [ -79.266974991418692, 36.267782000275886 ], [ -79.264794991326198, 36.243599999714398 ], [ -79.394206991294638, 36.246543999599815 ], [ -79.392376991456885, 36.283212000315245 ] ] ] } },
{ "type": "Feature", "properties": { "county": "ORANGE", "precinct": "CA", "enr_desc": "Carr", "winner": "Renee A. Price", "winner_votes": 94.0, "winner_share": 75.2, "runner_up": "Mary Lucas", "runner_up_votes": 23.0, "runner_up_share": 18.4, "contest_votes": 125.0, "margin_of_victory": 56.8, "is_tie": false, "results": [ { "candidate": "Renee A. Price", "votes": 94, "share": 75.2 }, { "candidate": "Mary Lucas", "votes": 23, "share": 18.4 }, { "candidate": "Brandall Redd", "votes": 8, "share": 6.4 } ], "participated": true, "map_key": "ORANGE_CA" }, "geometry": { "type": "Polygon", "coordinates": [ [ [ -79.259517991046494, 36.137278999824439 ], [ -79.25749599118771, 36.239126999687841 ], [ -79.258008991677713, 36.239127999673656 ], [ -79.257951990971151, 36.243444999723174 ], [ -79.190134990945921, 36.242427999675073 ], [ -79.191625990913749, 36.23690099996999 ], [ -79.195226990916339, 36.232450000179853 ], [ -79.196889990893624, 36.22800900026553 ], [ -79.199263990640191, 36.224682999750001 ], [ -79.198412990717145, 36.222760999854437 ], [ -79.196867990626458, 36.210170999595334 ], [ -79.200078991374824, 36.206502000254787 ], [ -79.203312990816798, 36.198074000362098 ], [ -79.203743991126572, 36.19567100042709 ], [ -79.203023990791621, 36.189656000308013 ], [ -79.205525991392676, 36.183699999920506 ], [ -79.197614990759973, 36.17723200012373 ], [ -79.19102999086715, 36.173709000104822 ], [ -79.19531399107909, 36.168977000317817 ], [ -79.200285991089828, 36.152489000356013 ], [ -79.204332990849537, 36.149962999726185 ], [ -79.210880991402391, 36.147476000158029 ], [ -79.206715991095976, 36.143575999818431 ], [ -79.196145991081323, 36.137035000342841 ], [ -79.259517991046494, 36.137278999824439 ] ] ] } },
{ "type": "Feature", "properties": { "county": null, "precinct": null, "enr_desc": "Carrboro", "winner": null, "winner_votes": null, "winner_share": null, "runner_up": null, "runner_up_votes": null, "runner_up_share": null, "contest_votes": null, "margin_of_victory": null, "is_tie": false, "results": null, "participated": false, "map_key": null }, "geometry": { "type": "Polygon", "coordinates": [ [ [ -79.079579991643641, 35.913585999747397 ], [ -79.084946991711178, 35.915352000083274 ], [ -79.083441990751567, 35.906737999994363 ], [ -79.091150990842024, 35.903753999786282 ], [ -79.094074991118191, 35.9121200002132 ], [ -79.097694990896059, 35.917010999632375 ], [ -79.099626991583492, 35.916205999914489 ], [ -79.100719991240268, 35.917862999785392 ], [ -79.09940999138297, 35.919670000373394 ], [ -79.100248990776706, 35.92670800027603 ], [ -79.10275499149779, 35.927091000124364 ], [ -79.103229990830698, 35.92055299964025 ], [ -79.10714899133626, 35.921611000353622 ], [ -79.107117991414142, 35.922992000031776 ], [ -79.109392991495355, 35.92368000029839 ], [ -79.109832991312146, 35.922359000190177 ], [ -79.115042991069799, 35.923784999902097 ], [ -79.113907991244929, 35.927360000234934 ], [ -79.114890991085261, 35.931200000014968 ], [ -79.114232990849843, 35.93170300011527 ], [ -79.113821990636026, 35.930685999905499 ], [ -79.101028990992702, 35.930895000101529 ], [ -79.102149991652354, 35.934240999910202 ], [ -79.093565990633167, 35.927659999611251 ], [ -79.089683991215779, 35.923367000455336 ], [ -79.08655399120606, 35.92155699956556 ], [ -79.082473990647557, 35.920844999891457 ], [ -79.078700990611338, 35.920662999795056 ], [ -79.076557991035145, 35.918386999831057 ], [ -79.072249991138392, 35.915857000301393 ], [ -79.072226990851604, 35.913837000052823 ], [ -79.07865999161713, 35.914349000182554 ], [ -79.079579991643641, 35.913585999747397 ] ] ] } },
{ "type": "Feature", "properties": { "county": null, "precinct": null, "enr_desc": "Cedar Falls", "winner": null, "winner_votes": null, "winner_share": null, "runner_up": null, "runner_up_votes": null, "runner_up_share": null, "contest_votes": null, "margin_of_victory": null, "is_tie": false, "results": null, "participated": false, "map_key": null }, "geometry": { "type": "Polygon", "coordinates": [ [ [ -79.021903991508978, 35.939522999942859 ], [ -79.02559699063687, 35.937138000058184 ], [ -79.026019990974106, 35.941235999934172 ], [ -79.027343991255421, 35.943247000430915 ], [ -79.026835991698221, 35.944883999811253 ], [ -79.028558991274224, 35.946346000180064 ], [ -79.030976990900967, 35.9462260003911 ], [ -79.0304359911663, 35.947858000201528 ], [ -79.031314990714549, 35.948406999694761 ], [ -79.031576991661751, 35.949962000242429 ], [ -79.034298990982023, 35.951484000167333 ], [ -79.036377990651005, 35.951544999700204 ], [ -79.037990991105275, 35.953499000369085 ], [ -79.037898990721914, 35.957448000361801 ], [ -79.036262991412826, 35.958662000323741 ], [ -79.036307991122399, 35.961979999554856 ], [ -79.033502991153128, 35.961509000153228 ], [ -79.034694991372533, 35.967001000209642 ], [ -79.033726990789603, 35.969489000181738 ], [ -79.024360991470232, 35.96645099957891 ], [ -79.006031991410822, 35.956531000140508 ], [ -79.000736990886693, 35.952697000369589 ], [ -79.001237990969315, 35.949801999606834 ], [ -79.016710991261178, 35.942832999953659 ], [ -79.021903991508978, 35.939522999942859 ] ] ] } },
{ "type": "Feature", "properties": { "county": "ORANGE", "precinct": "CG", "enr_desc": "Cedar Grove", "winner": "Renee A. Price", "winner_votes": 174.0, "winner_share": 78.378378378378372, "runner_up": "Mary Lucas", "runner_up_votes": 37.0, "runner_up_share": 16.666666666666664, "contest_votes": 222.0, "margin_of_victory": 61.711711711711708, "is_tie": false, "results": [ { "candidate": "Renee A. Price", "votes": 174, "share": 78.37837837837837 }, { "candidate": "Mary Lucas", "votes": 37, "share": 16.666666666666664 }, { "candidate": "Brandall Redd", "votes": 11, "share": 4.954954954954955 } ], "participated": true, "map_key": "ORANGE_CG" }, "geometry": { "type": "Polygon", "coordinates": [ [ [ -79.196145991081323, 36.137035000342841 ], [ -79.206715991095976, 36.143575999818431 ], [ -79.210880991402391, 36.147476000158029 ], [ -79.204332990849537, 36.149962999726185 ], [ -79.200285991089828, 36.152489000356013 ], [ -79.19531399107909, 36.168977000317817 ], [ -79.19102999086715, 36.173709000104822 ], [ -79.197614990759973, 36.17723200012373 ], [ -79.205525991392676, 36.183699999920506 ], [ -79.203023990791621, 36.189656000308013 ], [ -79.203743991126572, 36.19567100042709 ], [ -79.203312990816798, 36.198074000362098 ], [ -79.200078991374824, 36.206502000254787 ], [ -79.196867990626458, 36.210170999595334 ], [ -79.198412990717145, 36.222760999854437 ], [ -79.199263990640191, 36.224682999750001 ], [ -79.196889990893624, 36.22800900026553 ], [ -79.195226990916339, 36.232450000179853 ], [ -79.191625990913749, 36.23690099996999 ], [ -79.190134990945921, 36.242427999675073 ], [ -79.15399699161037, 36.241875000371962 ], [ -79.113353990703985, 36.241334999699717 ], [ -79.116427990622469, 36.239949999662493 ], [ -79.120834990880596, 36.240087999765116 ], [ -79.130494990777564, 36.235099000024199 ], [ -79.132273990658291, 36.227406999685002 ], [ -79.134787990586929, 36.224636000252893 ], [ -79.13638499116891, 36.221151999798231 ], [ -79.135885991365868, 36.215808999781061 ], [ -79.137668991061815, 36.209206000054117 ], [ -79.137639991189928, 36.200722999671576 ], [ -79.139332990632553, 36.19911099961061 ], [ -79.142354991319849, 36.198385000047452 ], [ -79.138614991514743, 36.189753000110073 ], [ -79.135502990704737, 36.177074000339381 ], [ -79.131017991261245, 36.168668000024326 ], [ -79.129436990701265, 36.158877999775605 ], [ -79.123220990586617, 36.148801999847898 ], [ -79.120609991664523, 36.136889999980767 ], [ -79.120443990896547, 36.136375999599544 ], [ -79.130108991194206, 36.136703999863165 ], [ -79.196145991081323, 36.137035000342841 ] ] ] } },
{ "type": "Feature", "properties": { "county": null, "precinct": null, "enr_desc": "Coker Hills", "winner": null, "winner_votes": null, "winner_share": null, "runner_up": null, "runner_up_votes": null, "runner_up_share": null, "contest_votes": null, "margin_of_victory": null, "is_tie": false, "results": null, "participated": false, "map_key": null }, "geometry": { "type": "Polygon", "coordinates": [ [ [ -79.030976990900967, 35.9462260003911 ], [ -79.028558991274224, 35.946346000180064 ], [ -79.026835991698221, 35.944883999811253 ], [ -79.027343991255421, 35.943247000430915 ], [ -79.026019990974106, 35.941235999934172 ], [ -79.02559699063687, 35.937138000058184 ], [ -79.029451990723274, 35.935029000312824 ], [ -79.033628990850659, 35.930677000444703 ], [ -79.035068991206742, 35.927740999717855 ], [ -79.038294991255867, 35.926866999566109 ], [ -79.042441991330406, 35.927114999761329 ], [ -79.044893990838304, 35.930233999586569 ], [ -79.039359991338785, 35.9298089998546 ], [ -79.037578991443553, 35.930577000404263 ], [ -79.0432119912128, 35.934592000300377 ], [ -79.041880990967343, 35.935160000396067 ], [ -79.040188991329529, 35.940273999733698 ], [ -79.037417990760929, 35.941629000392567 ], [ -79.035153991627269, 35.944134000065709 ], [ -79.030976990900967, 35.9462260003911 ] ] ] } },
{ "type": "Feature", "properties": { "county": null, "precinct": null, "enr_desc": "Eastside", "winner": null, "winner_votes": null, "winner_share": null, "runner_up": null, "runner_up_votes": null, "runner_up_share": null, "contest_votes": null, "margin_of_victory": null, "is_tie": false, "results": null, "participated": false, "map_key": null }, "geometry": { "type": "Polygon", "coordinates": [ [ [ -79.00438899158263, 35.931500000154386 ], [ -79.007806991691822, 35.932755999937683 ], [ -79.018908990744222, 35.932854000441672 ], [ -79.023385990969444, 35.936216000026207 ], [ -79.021903991508978, 35.939522999942859 ], [ -79.016710991261178, 35.942832999953659 ], [ -79.001237990969315, 35.949801999606834 ], [ -79.00438899158263, 35.931500000154386 ] ] ] } },
{ "type": "Feature", "properties": { "county": null, "precinct": null, "enr_desc": "Colonial Heights", "winner": null, "winner_votes": null, "winner_share": null, "runner_up": null, "runner_up_votes": null, "runner_up_share": null, "contest_votes": null, "margin_of_victory": null, "is_tie": false, "results": null, "participated": false, "map_key": null }, "geometry": { "type": "Polygon", "coordinates": [ [ [ -79.053932991171621, 35.925704999572169 ], [ -79.054094991215166, 35.925084000395366 ], [ -79.055833991036309, 35.925491000433347 ], [ -79.058687991518639, 35.92316099988556 ], [ -79.064300991000934, 35.92050200016412 ], [ -79.068044990922459, 35.916097999896223 ], [ -79.068026991511019, 35.919527999650469 ], [ -79.072960991641025, 35.924361000319401 ], [ -79.073932990608526, 35.925682000404166 ], [ -79.073827991624398, 35.929794999979705 ], [ -79.076216991187749, 35.934702000125945 ], [ -79.076311990713791, 35.940000000447817 ], [ -79.080209991707861, 35.940001000241281 ], [ -79.081707990682503, 35.942719000058524 ], [ -79.08152099092203, 35.94721400020854 ], [ -79.083170990916642, 35.94715799957698 ], [ -79.08189999115767, 35.949628999603171 ], [ -79.077772990630649, 35.951961000423559 ], [ -79.065045990950139, 35.951510000084717 ], [ -79.058362991281214, 35.949431000089589 ], [ -79.056944991342931, 35.939286999658627 ], [ -79.053932991171621, 35.925704999572169 ] ] ] } },
{ "type": "Feature", "properties": { "county": "ORANGE", "precinct": "CS1", "enr_desc": "Coles Store", "winner": "Renee A. Price", "winner_votes": 167.0, "winner_share": 67.068273092369481, "runner_up": "Mary Lucas", "runner_up_votes": 71.0, "runner_up_share": 28.514056224899598, "contest_votes": 249.0, "margin_of_victory": 38.554216867469883, "is_tie": false, "results": [ { "candidate": "Renee A. Price", "votes": 167, "share": 67.06827309236948 }, { "candidate": "Mary Lucas", "votes": 71, "share": 28.514056224899598 }, { "candidate": "Brandall Redd", "votes": 11, "share": 4.417670682730924 } ], "participated": true, "map_key": "ORANGE_CS1" }, "geometry": { "type": "Polygon", "coordinates": [ [ [ -79.141201990934064, 35.976647000258971 ], [ -79.136844991094208, 36.031708000086823 ], [ -79.071250991555189, 36.031024000333325 ], [ -79.033185991662592, 36.030424999721617 ], [ -79.034636990897226, 36.027326999998515 ], [ -79.042467991002582, 36.021829999749976 ], [ -79.044931991169037, 36.018717999777728 ], [ -79.051847991180352, 36.016555000197869 ], [ -79.055774990955939, 36.013864999942029 ], [ -79.057982991321168, 36.009421000068379 ], [ -79.063012990887799, 36.005274999880541 ], [ -79.064436990905975, 36.00048399980863 ], [ -79.067702990773356, 35.998797999988881 ], [ -79.070142991201834, 35.995808999651722 ], [ -79.075160991264084, 35.986619999915249 ], [ -79.076444991691289, 35.977265000074887 ], [ -79.0759989909713, 35.96989899977266 ], [ -79.104995990911291, 35.974413999700637 ], [ -79.112133991475019, 35.975479999662518 ], [ -79.114569991051837, 35.977826999859708 ], [ -79.135806991564451, 35.981992999912229 ], [ -79.137504991182183, 35.978934000110264 ], [ -79.141201990934064, 35.976647000258971 ] ] ] } },
{ "type": "Feature", "properties": { "county": "ORANGE", "precinct": "CW", "enr_desc": "Caldwell", "winner": "Renee A. Price", "winner_votes": 183.0, "winner_share": 62.244897959183675, "runner_up": "Mary Lucas", "runner_up_votes": 89.0, "runner_up_share": 30.272108843537417, "contest_votes": 294.0, "margin_of_victory": 31.972789115646258, "is_tie": false, "results": [ { "candidate": "Renee A. Price", "votes": 183, "share": 62.244897959183675 }, { "candidate": "Mary Lucas", "votes": 89, "share": 30.272108843537417 }, { "candidate": "Brandall Redd", "votes": 22, "share": 7.482993197278912 } ], "participated": true, "map_key": "ORANGE_CW" }, "geometry": { "type": "Polygon", "coordinates": [ [ [ -78.968852991128074, 36.135197000390534 ], [ -79.069064991278623, 36.134608000161528 ], [ -79.068415991268566, 36.158024000302774 ], [ -79.063323991328986, 36.153334999750193 ], [ -79.061542991334747, 36.152580999660863 ], [ -79.058309990951827, 36.159829000188388 ], [ -79.060862991169643, 36.160386999780926 ], [ -79.061905991514948, 36.158958999889158 ], [ -79.066554990809692, 36.161946000343811 ], [ -79.068323990860293, 36.16091000033105 ], [ -79.065923990851658, 36.240908999687946 ], [ -78.950596990704184, 36.239319999857365 ], [ -78.968852991128074, 36.135197000390534 ] ] ] } },
{ "type": "Feature", "properties": { "county": "ORANGE", "precinct": "CX", "enr_desc": "Cheeks", "winner": "Renee A. Price", "winner_votes": 339.0, "winner_share": 70.331950207468878, "runner_up": "Mary Lucas", "runner_up_votes": 119.0, "runner_up_share": 24.688796680497926, "contest_votes": 482.0, "margin_of_victory": 45.643153526970949, "is_tie": false, "results": [ { "candidate": "Renee A. Price", "votes": 339, "share": 70.33195020746888 }, { "candidate": "Mary Lucas", "votes": 119, "share": 24.688796680497926 }, { "candidate": "Brandall Redd", "votes": 24, "share": 4.979253112033195 } ], "participated": true, "map_key": "ORANGE_CX" }, "geometry": { "type": "Polygon", "coordinates": [ [ [ -79.211775991447581, 36.034171000302756 ], [ -79.261975991671974, 36.03505199967784 ], [ -79.2618069916157, 36.039873000300346 ], [ -79.260859990597652, 36.040086000242439 ], [ -79.261744991150636, 36.041467999688273 ], [ -79.261215990669555, 36.061551999716571 ], [ -79.262142991293857, 36.061681000077755 ], [ -79.26145799140582, 36.065670999780956 ], [ -79.260462990625669, 36.066483000055328 ], [ -79.260379990627428, 36.068845000421646 ], [ -79.261197990830169, 36.068844999678618 ], [ -79.261436990748194, 36.070870000151125 ], [ -79.260361991147988, 36.075593999591419 ], [ -79.26035199137803, 36.095198000207304 ], [ -79.259604990615472, 36.095359000140405 ], [ -79.259410991009858, 36.101695000426737 ], [ -79.26010799084797, 36.103219000078624 ], [ -79.258694991463599, 36.103762999733021 ], [ -79.259575991118126, 36.104647999577651 ], [ -79.260102991398895, 36.107767999576375 ], [ -79.260065990882893, 36.109635999631855 ], [ -79.25951999139869, 36.109632999909294 ], [ -79.260049990943557, 36.110460000432226 ], [ -79.259517991046494, 36.137278999824439 ], [ -79.196145991081323, 36.137035000342841 ], [ -79.188864991277072, 36.130839999716201 ], [ -79.188847990681055, 36.123364000319796 ], [ -79.193908991433958, 36.115899000335553 ], [ -79.199607990669804, 36.115686999756534 ], [ -79.201037991395111, 36.112592000364117 ], [ -79.201043990788804, 36.105708000046185 ], [ -79.195674991166825, 36.105541000280532 ], [ -79.19556699096627, 36.099640000172791 ], [ -79.192399990722791, 36.094318999616256 ], [ -79.191763990704189, 36.081703999628964 ], [ -79.182469991138873, 36.08119000034565 ], [ -79.182323990712419, 36.077783999869055 ], [ -79.179889990780211, 36.077916000447352 ], [ -79.179916991537581, 36.073849999636394 ], [ -79.16982199169955, 36.073454000452706 ], [ -79.169293991147669, 36.071499999827346 ], [ -79.171658990703506, 36.072551000091451 ], [ -79.178216990669213, 36.072599000311087 ], [ -79.193080990961477, 36.069706999859022 ], [ -79.197351990667627, 36.062207000234714 ], [ -79.202780990648364, 36.061727000002747 ], [ -79.204450991523956, 36.060658999922701 ], [ -79.205411990918591, 36.058541999963772 ], [ -79.219587991033293, 36.053513999771845 ], [ -79.22164199092893, 36.051035000374448 ], [ -79.220660991031679, 36.048492999763212 ], [ -79.211775991447581, 36.034171000302756 ] ] ] } },
{ "type": "Feature", "properties": { "county": null, "precinct": null, "enr_desc": "Damascus", "winner": null, "winner_votes": null, "winner_share": null, "runner_up": null, "runner_up_votes": null, "runner_up_share": null, "contest_votes": null, "margin_of_victory": null, "is_tie": false, "results": null, "participated": false, "map_key": null }, "geometry": { "type": "Polygon", "coordinates": [ [ [ -79.08519899168023, 35.896965999974981 ], [ -79.081067991024526, 35.898276000422001 ], [ -79.082073990939861, 35.901676999696832 ], [ -79.081331990893545, 35.902540000144093 ], [ -79.078886990622976, 35.90214999986987 ], [ -79.07744799085259, 35.900012999585392 ], [ -79.074265991384493, 35.899706999730704 ], [ -79.072878991648224, 35.897252000325047 ], [ -79.073864990614084, 35.896732999727213 ], [ -79.073958990876761, 35.893710999796582 ], [ -79.075393991619848, 35.893562999953758 ], [ -79.077301990648849, 35.889946999597164 ], [ -79.078229991599983, 35.889957000228087 ], [ -79.078257990616336, 35.893042000339591 ], [ -79.079226990743109, 35.892225999612883 ], [ -79.082874991182763, 35.886315000166725 ], [ -79.083020990993958, 35.8811050001352 ], [ -79.080537991495703, 35.874167000335405 ], [ -79.080698991237412, 35.864811000297543 ], [ -79.08215799069724, 35.860785000373063 ], [ -79.119622990827949, 35.864186000021569 ], [ -79.116810990891949, 35.865759000334279 ], [ -79.116635991444497, 35.867396999669715 ], [ -79.11780499126472, 35.870336000358115 ], [ -79.115901991149002, 35.870412999712016 ], [ -79.113991990746058, 35.871973999931271 ], [ -79.111035991469379, 35.872657000223668 ], [ -79.106444990731504, 35.876692999950151 ], [ -79.105494991665822, 35.878029000251843 ], [ -79.105811991271466, 35.878935000099375 ], [ -79.096361991187507, 35.880675000385864 ], [ -79.096664990756295, 35.879965999710713 ], [ -79.094767991126162, 35.879834999773117 ], [ -79.095147991075834, 35.883976999615498 ], [ -79.096829991249734, 35.886454999684815 ], [ -79.095061991438897, 35.888080999995779 ], [ -79.095602991270255, 35.890157999565275 ], [ -79.093125991023527, 35.893553999745322 ], [ -79.093625990664023, 35.895444000329299 ], [ -79.089265990927501, 35.898846000230996 ], [ -79.088009991520636, 35.898789999686059 ], [ -79.086814991320054, 35.89670599987064 ], [ -79.08519899168023, 35.896965999974981 ] ] ] } },
{ "type": "Feature", "properties": { "county": null, "precinct": null, "enr_desc": "East Franklin", "winner": null, "winner_votes": null, "winner_share": null, "runner_up": null, "runner_up_votes": null, "runner_up_share": null, "contest_votes": null, "margin_of_victory": null, "is_tie": false, "results": null, "participated": false, "map_key": null }, "geometry": { "type": "Polygon", "coordinates": [ [ [ -79.055793991214486, 35.913143000126809 ], [ -79.056964990646989, 35.915189999930291 ], [ -79.055914990963274, 35.920980000289568 ], [ -79.054094991215166, 35.925084000395366 ], [ -79.053932991171621, 35.925704999572169 ], [ -79.049116990792257, 35.92358900039347 ], [ -79.045637991102311, 35.924313000122318 ], [ -79.042441991330406, 35.927114999761329 ], [ -79.038294991255867, 35.926866999566109 ], [ -79.035068991206742, 35.927740999717855 ], [ -79.030357991615517, 35.927351999899493 ], [ -79.030617990645368, 35.924675000281574 ], [ -79.035811991088877, 35.923933000033195 ], [ -79.036721990926821, 35.921724000112661 ], [ -79.040319991235634, 35.918001000111218 ], [ -79.042680991139761, 35.91685700040977 ], [ -79.045871991504697, 35.916941000251889 ], [ -79.045104991674833, 35.914134000183424 ], [ -79.046590991482731, 35.913584000314138 ], [ -79.048045991535162, 35.916109999941817 ], [ -79.055793991214486, 35.913143000126809 ] ] ] } },
{ "type": "Feature", "properties": { "county": "ORANGE", "precinct": "EF", "enr_desc": "Efland", "winner": "Renee A. Price", "winner_votes": 136.0, "winner_share": 60.986547085201792, "runner_up": "Mary Lucas", "runner_up_votes": 66.0, "runner_up_share": 29.596412556053814, "contest_votes": 223.0, "margin_of_victory": 31.390134529147979, "is_tie": false, "results": [ { "candidate": "Renee A. Price", "votes": 136, "share": 60.98654708520179 }, { "candidate": "Mary Lucas", "votes": 66, "share": 29.596412556053814 }, { "candidate": "Brandall Redd", "votes": 21, "share": 9.417040358744394 } ], "participated": true, "map_key": "ORANGE_EF" }, "geometry": { "type": "Polygon", "coordinates": [ [ [ -79.211775991447581, 36.034171000302756 ], [ -79.220660991031679, 36.048492999763212 ], [ -79.22164199092893, 36.051035000374448 ], [ -79.219587991033293, 36.053513999771845 ], [ -79.205411990918591, 36.058541999963772 ], [ -79.204450991523956, 36.060658999922701 ], [ -79.202780990648364, 36.061727000002747 ], [ -79.197351990667627, 36.062207000234714 ], [ -79.193080990961477, 36.069706999859022 ], [ -79.178216990669213, 36.072599000311087 ], [ -79.171658990703506, 36.072551000091451 ], [ -79.169293991147669, 36.071499999827346 ], [ -79.16982199169955, 36.073454000452706 ], [ -79.179916991537581, 36.073849999636394 ], [ -79.179889990780211, 36.077916000447352 ], [ -79.182323990712419, 36.077783999869055 ], [ -79.182469991138873, 36.08119000034565 ], [ -79.191763990704189, 36.081703999628964 ], [ -79.192399990722791, 36.094318999616256 ], [ -79.19556699096627, 36.099640000172791 ], [ -79.195674991166825, 36.105541000280532 ], [ -79.201043990788804, 36.105708000046185 ], [ -79.201037991395111, 36.112592000364117 ], [ -79.199607990669804, 36.115686999756534 ], [ -79.193908991433958, 36.115899000335553 ], [ -79.188847990681055, 36.123364000319796 ], [ -79.188864991277072, 36.130839999716201 ], [ -79.196145991081323, 36.137035000342841 ], [ -79.130108991194206, 36.136703999863165 ], [ -79.131965990714676, 36.117874000002217 ], [ -79.134067990721235, 36.073077999591433 ], [ -79.132616991023625, 36.069867999826556 ], [ -79.130842991675905, 36.071476999859449 ], [ -79.129561991462367, 36.070085000378477 ], [ -79.135926990991663, 36.060402000242185 ], [ -79.136418991320767, 36.053981000416073 ], [ -79.138270990803619, 36.051726999894846 ], [ -79.139178990736809, 36.048641999957034 ], [ -79.138330991248822, 36.044914999984542 ], [ -79.138668991681101, 36.038552000312237 ], [ -79.137358991419305, 36.032458000082826 ], [ -79.211775991447581, 36.034171000302756 ] ] ] } },
{ "type": "Feature", "properties": { "county": null, "precinct": null, "enr_desc": "Estes Hills", "winner": null, "winner_votes": null, "winner_share": null, "runner_up": null, "runner_up_votes": null, "runner_up_share": null, "contest_votes": null, "margin_of_victory": null, "is_tie": false, "results": null, "participated": false, "map_key": null }, "geometry": { "type": "Polygon", "coordinates": [ [ [ -79.030976990900967, 35.9462260003911 ], [ -79.035153991627269, 35.944134000065709 ], [ -79.037417990760929, 35.941629000392567 ], [ -79.040188991329529, 35.940273999733698 ], [ -79.041880990967343, 35.935160000396067 ], [ -79.0432119912128, 35.934592000300377 ], [ -79.037578991443553, 35.930577000404263 ], [ -79.039359991338785, 35.9298089998546 ], [ -79.044893990838304, 35.930233999586569 ], [ -79.042441991330406, 35.927114999761329 ], [ -79.045637991102311, 35.924313000122318 ], [ -79.049116990792257, 35.92358900039347 ], [ -79.053932991171621, 35.925704999572169 ], [ -79.056944991342931, 35.939286999658627 ], [ -79.051523991518167, 35.940160999872134 ], [ -79.048668991399651, 35.942373000334804 ], [ -79.047530991674165, 35.944805000108779 ], [ -79.047198991495733, 35.948483000116212 ], [ -79.045618991210333, 35.950768000199723 ], [ -79.045851991498665, 35.954171000110712 ], [ -79.044775991325636, 35.954175999630692 ], [ -79.044731991659972, 35.956141000378736 ], [ -79.043919990816292, 35.956958000134328 ], [ -79.037898990721914, 35.957448000361801 ], [ -79.037990991105275, 35.953499000369085 ], [ -79.036377990651005, 35.951544999700204 ], [ -79.034298990982023, 35.951484000167333 ], [ -79.031576991661751, 35.949962000242429 ], [ -79.031314990714549, 35.948406999694761 ], [ -79.0304359911663, 35.947858000201528 ], [ -79.030976990900967, 35.9462260003911 ] ] ] } },
{ "type": "Feature", "properties": { "county": "ORANGE", "precinct": "ENO", "enr_desc": "Eno", "winner": "Renee A. Price", "winner_votes": 204.0, "winner_share": 76.691729323308266, "runner_up": "Mary Lucas", "runner_up_votes": 47.0, "runner_up_share": 17.669172932330827, "contest_votes": 266.0, "margin_of_victory": 59.022556390977442, "is_tie": false, "results": [ { "candidate": "Renee A. Price", "votes": 204, "share": 76.69172932330827 }, { "candidate": "Mary Lucas", "votes": 47, "share": 17.669172932330827 }, { "candidate": "Brandall Redd", "votes": 15, "share": 5.639097744360902 } ], "participated": true, "map_key": "ORANGE_ENO" }, "geometry": { "type": "Polygon", "coordinates": [ [ [ -79.070900991501645, 36.049036999974412 ], [ -79.069719991187895, 36.047709000241305 ], [ -79.069255991075451, 36.048812999843413 ], [ -79.070435991299391, 36.049810999990747 ], [ -79.067998990604806, 36.053343000200933 ], [ -79.063173990931531, 36.069437999975648 ], [ -79.058946991470222, 36.079337999953658 ], [ -79.059497991408207, 36.082698999975371 ], [ -79.061520991197156, 36.085187000037401 ], [ -79.053887991206608, 36.086931000236532 ], [ -79.05205499145913, 36.0850850003823 ], [ -79.049389990801828, 36.084680000276471 ], [ -79.047668991071774, 36.08616799955373 ], [ -79.041728991313363, 36.086215000021681 ], [ -79.042340991165801, 36.087972000166424 ], [ -79.041840991462649, 36.08806300006345 ], [ -79.039397991681, 36.087523000074832 ], [ -79.036342991396609, 36.083963999691584 ], [ -79.034177991603556, 36.084055000350077 ], [ -79.033234991222159, 36.085225999969587 ], [ -79.031457991366722, 36.085678000450748 ], [ -79.025683990881319, 36.08252499963821 ], [ -79.022241991665425, 36.082209999780879 ], [ -79.019966990687351, 36.086446000066104 ], [ -79.015080991458433, 36.086672000249692 ], [ -79.00514399139837, 36.082122000020462 ], [ -79.005920990960476, 36.080364000374757 ], [ -79.009250991222544, 36.077840000233394 ], [ -79.007751991114873, 36.074775999588859 ], [ -79.012802991514107, 36.072793000432583 ], [ -79.014134991176547, 36.07108099999077 ], [ -79.014133991124595, 36.068512000096867 ], [ -79.012800990636734, 36.066709999566172 ], [ -79.007792990940644, 36.069175000301136 ], [ -79.004864991663197, 36.071939000425587 ], [ -79.001911991103725, 36.073377000147964 ], [ -78.999228990902594, 36.072361999697513 ], [ -78.998854991530607, 36.070008999855837 ], [ -78.99540799154984, 36.067099999826418 ], [ -78.993037990598538, 36.066617999854536 ], [ -78.986156990593159, 36.067281000199721 ], [ -78.982499990838292, 36.066286000378383 ], [ -78.981154991651053, 36.064905000325624 ], [ -78.987292991026095, 36.029702000308717 ], [ -79.033185991662592, 36.030424999721617 ], [ -79.071250991555189, 36.031024000333325 ], [ -79.070900991501645, 36.049036999974412 ] ] ] } },
{ "type": "Feature", "properties": { "county": "ORANGE", "precinct": "GB", "enr_desc": "Grady Brown", "winner": "Renee A. Price", "winner_votes": 351.0, "winner_share": 71.19675456389453, "runner_up": "Mary Lucas", "runner_up_votes": 117.0, "runner_up_share": 23.732251521298174, "contest_votes": 493.0, "margin_of_victory": 47.464503042596355, "is_tie": false, "results": [ { "candidate": "Renee A. Price", "votes": 351, "share": 71.19675456389453 }, { "candidate": "Mary Lucas", "votes": 117, "share": 23.732251521298174 }, { "candidate": "Brandall Redd", "votes": 25, "share": 5.070993914807302 } ], "participated": true, "map_key": "ORANGE_GB" }, "geometry": { "type": "Polygon", "coordinates": [ [ [ -79.137358991419305, 36.032458000082826 ], [ -79.138668991681101, 36.038552000312237 ], [ -79.138330991248822, 36.044914999984542 ], [ -79.139178990736809, 36.048641999957034 ], [ -79.138270990803619, 36.051726999894846 ], [ -79.136418991320767, 36.053981000416073 ], [ -79.135926990991663, 36.060402000242185 ], [ -79.129561991462367, 36.070085000378477 ], [ -79.127008990838874, 36.066750000331147 ], [ -79.124019991558029, 36.065149999938029 ], [ -79.120204991608048, 36.065119000263813 ], [ -79.118613990885734, 36.066876999794083 ], [ -79.114900990924056, 36.068008000102239 ], [ -79.11465199148769, 36.065979000084027 ], [ -79.109605990937808, 36.063914000084942 ], [ -79.107847991251759, 36.062198000174185 ], [ -79.112077990992034, 36.059204999875888 ], [ -79.098782991372573, 36.055710999862207 ], [ -79.090055991042149, 36.05767400031462 ], [ -79.086410991176407, 36.054848000106297 ], [ -79.074381990970465, 36.051965999793261 ], [ -79.070900991501645, 36.049036999974412 ], [ -79.071250991555189, 36.031024000333325 ], [ -79.136844991094208, 36.031708000086823 ], [ -79.137358991419305, 36.032458000082826 ] ] ] } },
{ "type": "Feature", "properties": { "county": null, "precinct": null, "enr_desc": "Glenwood", "winner": null, "winner_votes": null, "winner_share": null, "runner_up": null, "runner_up_votes": null, "runner_up_share": null, "contest_votes": null, "margin_of_victory": null, "is_tie": false, "results": null, "participated": false, "map_key": null }, "geometry": { "type": "Polygon", "coordinates": [ [ [ -79.032720991052159, 35.901407999682739 ], [ -79.026771991374602, 35.909569000331757 ], [ -79.024881990625147, 35.924575999922986 ], [ -79.020017991026322, 35.922505000013373 ], [ -79.014704990786683, 35.918821999763814 ], [ -79.011685991007099, 35.917722000170023 ], [ -79.009105991457901, 35.918331000417872 ], [ -79.006886991350299, 35.917197000103663 ], [ -79.011575991632853, 35.890450000189496 ], [ -79.016402991099554, 35.892883000317809 ], [ -79.022208990869444, 35.893705999900568 ], [ -79.02371099105568, 35.896049000310519 ], [ -79.023438990685108, 35.899060000200315 ], [ -79.027455991504809, 35.899532000297945 ], [ -79.032720991052159, 35.901407999682739 ] ] ] } },
{ "type": "Feature", "properties": { "county": "ORANGE", "precinct": "H", "enr_desc": "Hillsborough", "winner": "Renee A. Price", "winner_votes": 206.0, "winner_share": 78.625954198473281, "runner_up": "Mary Lucas", "runner_up_votes": 47.0, "runner_up_share": 17.938931297709924, "contest_votes": 262.0, "margin_of_victory": 60.687022900763353, "is_tie": false, "results": [ { "candidate": "Renee A. Price", "votes": 206, "share": 78.62595419847328 }, { "candidate": "Mary Lucas", "votes": 47, "share": 17.938931297709924 }, { "candidate": "Brandall Redd", "votes": 9, "share": 3.435114503816794 } ], "participated": true, "map_key": "ORANGE_H" }, "geometry": { "type": "Polygon", "coordinates": [ [ [ -79.114900990924056, 36.068008000102239 ], [ -79.115116990868046, 36.070439000368921 ], [ -79.111932991235122, 36.070871000343054 ], [ -79.110984991521235, 36.071915000289962 ], [ -79.111581991203892, 36.086082000224593 ], [ -79.113057991044528, 36.087024999717755 ], [ -79.101744991222546, 36.08657499989819 ], [ -79.085843991622596, 36.084144000179414 ], [ -79.079590990918263, 36.081941999881046 ], [ -79.083162991035394, 36.082363000351627 ], [ -79.088152990740667, 36.079758000423105 ], [ -79.08738099110947, 36.07634499979671 ], [ -79.08823999089519, 36.074970000442043 ], [ -79.092144991002669, 36.073622999776923 ], [ -79.087111991350255, 36.071490000320296 ], [ -79.090477990877957, 36.070272000060328 ], [ -79.099930990661164, 36.072557999626405 ], [ -79.100648991174069, 36.071539999591522 ], [ -79.099833990896784, 36.069657000361005 ], [ -79.101304991156439, 36.065569000203119 ], [ -79.107847991251759, 36.062198000174185 ], [ -79.109605990937808, 36.063914000084942 ], [ -79.11465199148769, 36.065979000084027 ], [ -79.114900990924056, 36.068008000102239 ] ] ] } },
{ "type": "Feature", "properties": { "county": "ORANGE", "precinct": "HE", "enr_desc": "Hillsborougheast", "winner": "Renee A. Price", "winner_votes": 199.0, "winner_share": 75.094339622641513, "runner_up": "Mary Lucas", "runner_up_votes": 58.0, "runner_up_share": 21.886792452830189, "contest_votes": 265.0, "margin_of_victory": 53.20754716981132, "is_tie": false, "results": [ { "candidate": "Renee A. Price", "votes": 199, "share": 75.09433962264151 }, { "candidate": "Mary Lucas", "votes": 58, "share": 21.88679245283019 }, { "candidate": "Brandall Redd", "votes": 8, "share": 3.018867924528302 } ], "participated": true, "map_key": "ORANGE_HE" }, "geometry": { "type": "Polygon", "coordinates": [ [ [ -79.070900991501645, 36.049036999974412 ], [ -79.074381990970465, 36.051965999793261 ], [ -79.086410991176407, 36.054848000106297 ], [ -79.090055991042149, 36.05767400031462 ], [ -79.098782991372573, 36.055710999862207 ], [ -79.112077990992034, 36.059204999875888 ], [ -79.107847991251759, 36.062198000174185 ], [ -79.101304991156439, 36.065569000203119 ], [ -79.099833990896784, 36.069657000361005 ], [ -79.100648991174069, 36.071539999591522 ], [ -79.099930990661164, 36.072557999626405 ], [ -79.090477990877957, 36.070272000060328 ], [ -79.087111991350255, 36.071490000320296 ], [ -79.092144991002669, 36.073622999776923 ], [ -79.08823999089519, 36.074970000442043 ], [ -79.08738099110947, 36.07634499979671 ], [ -79.088152990740667, 36.079758000423105 ], [ -79.083162991035394, 36.082363000351627 ], [ -79.079590990918263, 36.081941999881046 ], [ -79.068710990830127, 36.085507999721933 ], [ -79.063994990787791, 36.087955000068995 ], [ -79.062530991052014, 36.088765000114783 ], [ -79.061520991197156, 36.085187000037401 ], [ -79.059497991408207, 36.082698999975371 ], [ -79.058946991470222, 36.079337999953658 ], [ -79.063173990931531, 36.069437999975648 ], [ -79.067998990604806, 36.053343000200933 ], [ -79.070435991299391, 36.049810999990747 ], [ -79.069255991075451, 36.048812999843413 ], [ -79.069719991187895, 36.047709000241305 ], [ -79.070900991501645, 36.049036999974412 ] ] ] } },
{ "type": "Feature", "properties": { "county": null, "precinct": null, "enr_desc": "Hogan Farms", "winner": null, "winner_votes": null, "winner_share": null, "runner_up": null, "runner_up_votes": null, "runner_up_share": null, "contest_votes": null, "margin_of_victory": null, "is_tie": false, "results": null, "participated": false, "map_key": null }, "geometry": { "type": "Polygon", "coordinates": [ [ [ -79.144105991335451, 35.933725999642057 ], [ -79.141201990934064, 35.976647000258971 ], [ -79.137504991182183, 35.978934000110264 ], [ -79.135806991564451, 35.981992999912229 ], [ -79.114569991051837, 35.977826999859708 ], [ -79.112133991475019, 35.975479999662518 ], [ -79.104995990911291, 35.974413999700637 ], [ -79.106542990802765, 35.966787999943847 ], [ -79.108104990978163, 35.963338000129966 ], [ -79.107386991279654, 35.959755000247036 ], [ -79.107844990722256, 35.956382999674119 ], [ -79.107414991350467, 35.958341000023893 ], [ -79.098938990792647, 35.957856999722736 ], [ -79.098985991327382, 35.956697999929631 ], [ -79.095980990869421, 35.956466999920565 ], [ -79.094924991501202, 35.954512999721203 ], [ -79.087047990650802, 35.953814000165096 ], [ -79.089882991381316, 35.951568000144668 ], [ -79.087172991319932, 35.948366000231623 ], [ -79.086712991496441, 35.945855000384498 ], [ -79.084901991271565, 35.945482000426807 ], [ -79.084982990941342, 35.94467400037923 ], [ -79.08738299104381, 35.943840999741724 ], [ -79.085466990671137, 35.943005000115065 ], [ -79.090260991450435, 35.941357999778909 ], [ -79.098463990849453, 35.943590999938863 ], [ -79.106872990736548, 35.942309000430193 ], [ -79.109344991634558, 35.94266300021836 ], [ -79.119317990779379, 35.946872000091446 ], [ -79.130370991609752, 35.947105000127024 ], [ -79.132696991263344, 35.94451299959352 ], [ -79.136340990910213, 35.942165999748774 ], [ -79.139925990898149, 35.93653899979558 ], [ -79.144105991335451, 35.933725999642057 ] ] ] } },
{ "type": "Feature", "properties": { "county": null, "precinct": null, "enr_desc": "Kings Mill", "winner": null, "winner_votes": null, "winner_share": null, "runner_up": null, "runner_up_votes": null, "runner_up_share": null, "contest_votes": null, "margin_of_victory": null, "is_tie": false, "results": null, "participated": false, "map_key": null }, "geometry": { "type": "Polygon", "coordinates": [ [ [ -79.081937991136897, 35.860780000055748 ], [ -79.077106991552114, 35.863659999652342 ], [ -79.074236991199584, 35.86727999974692 ], [ -79.066875991503579, 35.872853999937028 ], [ -79.064446990849007, 35.878411000163617 ], [ -79.060840991324397, 35.882897000140893 ], [ -79.061368991511813, 35.889553000284977 ], [ -79.059395990712673, 35.891323999741928 ], [ -79.057438991331765, 35.893510999847983 ], [ -79.038218991326175, 35.897516000025078 ], [ -79.034846990787841, 35.899205999853137 ], [ -79.032720991052159, 35.901407999682739 ], [ -79.027455991504809, 35.899532000297945 ], [ -79.023438990685108, 35.899060000200315 ], [ -79.02371099105568, 35.896049000310519 ], [ -79.022208990869444, 35.893705999900568 ], [ -79.016402991099554, 35.892883000317809 ], [ -79.011575991632853, 35.890450000189496 ], [ -79.016304990676943, 35.863210000093503 ], [ -79.081937991136897, 35.860780000055748 ] ] ] } },
{ "type": "Feature", "properties": { "county": "CASWELL", "precinct": "LOCU", "enr_desc": "Locust Hill", "winner": "Renee A. Price", "winner_votes": 201.0, "winner_share": 68.13559322033899, "runner_up": "Mary Lucas", "runner_up_votes": 79.0, "runner_up_share": 26.779661016949152, "contest_votes": 295.0, "margin_of_victory": 41.355932203389841, "is_tie": false, "results": [ { "candidate": "Renee A. Price", "votes": 201, "share": 68.13559322033899 }, { "candidate": "Mary Lucas", "votes": 79, "share": 26.779661016949152 }, { "candidate": "Brandall Redd", "votes": 15, "share": 5.084745762711865 } ], "participated": true, "map_key": "CASWELL_LOCU" }, "geometry": { "type": "Polygon", "coordinates": [ [ [ -79.392222991635961, 36.305973999985213 ], [ -79.39365399151562, 36.30754100008506 ], [ -79.394602990614672, 36.310415000056068 ], [ -79.396054990939064, 36.311635000340296 ], [ -79.403618991506647, 36.31263000038296 ], [ -79.410651991290706, 36.315122999875598 ], [ -79.434856991117371, 36.315575000471569 ], [ -79.437968990975136, 36.314192999925915 ], [ -79.442725990612132, 36.306139999636819 ], [ -79.444688991076688, 36.305248000305703 ], [ -79.446840990638592, 36.305426000450474 ], [ -79.453004990924768, 36.309190000117802 ], [ -79.453831990681735, 36.313756000308324 ], [ -79.457128990682918, 36.316502000266141 ], [ -79.458097990755988, 36.319363999802015 ], [ -79.4602149916592, 36.321833000468914 ], [ -79.461026991671787, 36.326397999708263 ], [ -79.464137991477486, 36.328909000210601 ], [ -79.46583399145058, 36.332229000202034 ], [ -79.471038991000768, 36.334924999855694 ], [ -79.472646991067862, 36.339974000462277 ], [ -79.476443990660471, 36.343615000299884 ], [ -79.478006991301527, 36.346270000298524 ], [ -79.478517991167337, 36.349146999716872 ], [ -79.480022990612568, 36.351062999978716 ], [ -79.478964991560758, 36.351963999790698 ], [ -79.525351991652713, 36.353994000279513 ], [ -79.519819991147486, 36.442358999691585 ], [ -79.51682199141915, 36.441909000269973 ], [ -79.512031991550415, 36.435512000307384 ], [ -79.511209991287416, 36.430759000001323 ], [ -79.506119991515845, 36.425495999821869 ], [ -79.506824990737385, 36.421233999959632 ], [ -79.504351990565652, 36.417505000099226 ], [ -79.501906991360229, 36.408127000010118 ], [ -79.500274990701385, 36.406384000444369 ], [ -79.497049991539185, 36.405197999904829 ], [ -79.494145991081595, 36.408220999669993 ], [ -79.488720991245103, 36.411593999839155 ], [ -79.487283991338117, 36.415032999818116 ], [ -79.484156991367911, 36.419240000268275 ], [ -79.483456991411259, 36.424584999960381 ], [ -79.481486991253661, 36.428611999743701 ], [ -79.475747991166898, 36.432930000268492 ], [ -79.469006991197134, 36.423683000077951 ], [ -79.469138991514896, 36.420026999615246 ], [ -79.467009991423311, 36.411909999721786 ], [ -79.464408990675821, 36.40895399966297 ], [ -79.459236991237063, 36.41182700000288 ], [ -79.455436990803321, 36.416931000477959 ], [ -79.449478990587934, 36.420596999918139 ], [ -79.443305990895141, 36.422902999770166 ], [ -79.440834991620051, 36.425478000197451 ], [ -79.436929991122483, 36.426466999691307 ], [ -79.435933990676716, 36.431128000148078 ], [ -79.438118991620343, 36.434344999956863 ], [ -79.44661599093817, 36.436232999758161 ], [ -79.44830899080263, 36.438675999896574 ], [ -79.410596991049289, 36.450869999858909 ], [ -79.393462991002011, 36.450773999772437 ], [ -79.393256990848016, 36.448271000094742 ], [ -79.396377990614255, 36.44097699965215 ], [ -79.396228991553855, 36.438044000156651 ], [ -79.398165991180363, 36.435982999758707 ], [ -79.399900991518336, 36.435432999610505 ], [ -79.387768991650248, 36.424555000286951 ], [ -79.38611099119035, 36.421594999865043 ], [ -79.387467990606325, 36.417217999627781 ], [ -79.391410991390302, 36.416594000474007 ], [ -79.399331990561848, 36.39929200024995 ], [ -79.397526991264513, 36.382343999598191 ], [ -79.396057990697543, 36.379879999844633 ], [ -79.39682899160232, 36.375872000049377 ], [ -79.392654991211884, 36.336452000071567 ], [ -79.392222991635961, 36.305973999985213 ] ] ] } },
{ "type": "Feature", "properties": { "county": "CASWELL", "precinct": "LEAS", "enr_desc": "Leasburg", "winner": "Renee A. Price", "winner_votes": 50.0, "winner_share": 79.365079365079367, "runner_up": "Mary Lucas", "runner_up_votes": 10.0, "runner_up_share": 15.873015873015872, "contest_votes": 63.0, "margin_of_victory": 63.492063492063494, "is_tie": false, "results": [ { "candidate": "Renee A. Price", "votes": 50, "share": 79.36507936507937 }, { "candidate": "Mary Lucas", "votes": 10, "share": 15.873015873015872 }, { "candidate": "Brandall Redd", "votes": 3, "share": 4.761904761904762 } ], "participated": true, "map_key": "CASWELL_LEAS" }, "geometry": { "type": "Polygon", "coordinates": [ [ [ -79.254770991037319, 36.447079999915886 ], [ -79.254660991615367, 36.447585000176687 ], [ -79.195624991523189, 36.446400000395968 ], [ -79.143160990850689, 36.447067000225196 ], [ -79.148238990695802, 36.352370000236228 ], [ -79.227494991247013, 36.35284000023308 ], [ -79.226097991633935, 36.358162999825751 ], [ -79.223057991376365, 36.363707000454461 ], [ -79.221814991126934, 36.380744000113218 ], [ -79.223224991613023, 36.385944999917186 ], [ -79.218211991092161, 36.392586999671273 ], [ -79.218224991655333, 36.397685999747857 ], [ -79.216684991113553, 36.400762999696447 ], [ -79.21422499126038, 36.403231000225816 ], [ -79.220639990568799, 36.402608000349247 ], [ -79.23174599055352, 36.405070000342292 ], [ -79.242657991180181, 36.403310999796687 ], [ -79.255632991240148, 36.39896299961935 ], [ -79.260509991033643, 36.390190999987368 ], [ -79.262975991411636, 36.388833999837772 ], [ -79.267113990848301, 36.414210000054268 ], [ -79.26142399084523, 36.419628999802192 ], [ -79.255076990609183, 36.445849000352162 ], [ -79.253547991256852, 36.446304000444762 ], [ -79.254770991037319, 36.447079999915886 ] ] ] } },
{ "type": "Feature", "properties": { "county": "CASWELL", "precinct": "MILT", "enr_desc": "Milton", "winner": "Renee A. Price", "winner_votes": 185.0, "winner_share": 62.289562289562298, "runner_up": "Mary Lucas", "runner_up_votes": 88.0, "runner_up_share": 29.629629629629626, "contest_votes": 297.0, "margin_of_victory": 32.659932659932672, "is_tie": false, "results": [ { "candidate": "Renee A. Price", "votes": 185, "share": 62.2895622895623 }, { "candidate": "Mary Lucas", "votes": 88, "share": 29.629629629629626 }, { "candidate": "Brandall Redd", "votes": 24, "share": 8.080808080808081 } ], "participated": true, "map_key": "CASWELL_MILT" }, "geometry": { "type": "Polygon", "coordinates": [ [ [ -79.143160990850689, 36.447067000225196 ], [ -79.195624991523189, 36.446400000395968 ], [ -79.254660991615367, 36.447585000176687 ], [ -79.254770991037319, 36.447079999915886 ], [ -79.293814990730525, 36.438778000199811 ], [ -79.306286990589285, 36.442308999768237 ], [ -79.319468990698283, 36.440907999596085 ], [ -79.317324990865998, 36.447354000341882 ], [ -79.312273991072431, 36.455656000017633 ], [ -79.317054991397825, 36.454667999972322 ], [ -79.322689991575473, 36.456259999903473 ], [ -79.328607990565246, 36.45916000025904 ], [ -79.330488990715153, 36.463224999704153 ], [ -79.334261991158328, 36.467290999666048 ], [ -79.335173990747208, 36.472635000362537 ], [ -79.331079990660854, 36.479543000144865 ], [ -79.325532991224804, 36.484772999634743 ], [ -79.31869999074766, 36.488708999882981 ], [ -79.317496991200471, 36.494154999839502 ], [ -79.307041990978405, 36.499792999666035 ], [ -79.295433990808093, 36.507627999867388 ], [ -79.293201991192944, 36.507947999981361 ], [ -79.293577991240838, 36.510503000199179 ], [ -79.296697990654465, 36.510978999923843 ], [ -79.304658990875126, 36.516509000298676 ], [ -79.313182991362723, 36.519199000237535 ], [ -79.320853990702872, 36.524016000382005 ], [ -79.327443990583674, 36.52486000032831 ], [ -79.326470991188643, 36.525635999751977 ], [ -79.32913899082628, 36.531188000006303 ], [ -79.335585991188239, 36.532886999619997 ], [ -79.343429991395197, 36.541591999657577 ], [ -79.250704990546723, 36.541139999775766 ], [ -79.138319991258768, 36.541974999872686 ], [ -79.143160990850689, 36.447067000225196 ] ] ] } },
{ "type": "Feature", "properties": { "county": null, "precinct": null, "enr_desc": "North Carrboro", "winner": null, "winner_votes": null, "winner_share": null, "runner_up": null, "runner_up_votes": null, "runner_up_share": null, "contest_votes": null, "margin_of_victory": null, "is_tie": false, "results": null, "participated": false, "map_key": null }, "geometry": { "type": "Polygon", "coordinates": [ [ [ -79.072960991641025, 35.924361000319401 ], [ -79.074020990693242, 35.924380000429203 ], [ -79.074399990738968, 35.925287000423751 ], [ -79.077728990948842, 35.923599000446451 ], [ -79.081486991629774, 35.923410999754189 ], [ -79.082473990647557, 35.920844999891457 ], [ -79.08655399120606, 35.92155699956556 ], [ -79.089683991215779, 35.923367000455336 ], [ -79.093565990633167, 35.927659999611251 ], [ -79.102149991652354, 35.934240999910202 ], [ -79.103020991287934, 35.936367000074988 ], [ -79.109344991634558, 35.94266300021836 ], [ -79.106872990736548, 35.942309000430193 ], [ -79.098463990849453, 35.943590999938863 ], [ -79.090260991450435, 35.941357999778909 ], [ -79.085466990671137, 35.943005000115065 ], [ -79.083170990916642, 35.94715799957698 ], [ -79.08152099092203, 35.94721400020854 ], [ -79.081707990682503, 35.942719000058524 ], [ -79.080209991707861, 35.940001000241281 ], [ -79.076311990713791, 35.940000000447817 ], [ -79.076216991187749, 35.934702000125945 ], [ -79.073827991624398, 35.929794999979705 ], [ -79.073932990608526, 35.925682000404166 ], [ -79.072960991641025, 35.924361000319401 ] ] ] } },
{ "type": "Feature", "properties": { "county": null, "precinct": null, "enr_desc": "Northside", "winner": null, "winner_votes": null, "winner_share": null, "runner_up": null, "runner_up_votes": null, "runner_up_share": null, "contest_votes": null, "margin_of_victory": null, "is_tie": false, "results": null, "participated": false, "map_key": null }, "geometry": { "type": "Polygon", "coordinates": [ [ [ -79.059506990844824, 35.911731000172239 ], [ -79.065046991343607, 35.909642000355298 ], [ -79.06766799135751, 35.913709000193755 ], [ -79.068044990922459, 35.916097999896223 ], [ -79.064300991000934, 35.92050200016412 ], [ -79.058687991518639, 35.92316099988556 ], [ -79.055833991036309, 35.925491000433347 ], [ -79.054094991215166, 35.925084000395366 ], [ -79.055914990963274, 35.920980000289568 ], [ -79.056964990646989, 35.915189999930291 ], [ -79.055793991214486, 35.913143000126809 ], [ -79.059506990844824, 35.911731000172239 ] ] ] } },
{ "type": "Feature", "properties": { "county": "ORANGE", "precinct": "OG", "enr_desc": "Orange Grove", "winner": "Renee A. Price", "winner_votes": 387.0, "winner_share": 75.5859375, "runner_up": "Mary Lucas", "runner_up_votes": 110.0, "runner_up_share": 21.484375, "contest_votes": 512.0, "margin_of_victory": 54.1015625, "is_tie": false, "results": [ { "candidate": "Renee A. Price", "votes": 387, "share": 75.5859375 }, { "candidate": "Mary Lucas", "votes": 110, "share": 21.484375 }, { "candidate": "Brandall Redd", "votes": 15, "share": 2.9296875 } ], "participated": true, "map_key": "ORANGE_OG" }, "geometry": { "type": "Polygon", "coordinates": [ [ [ -79.263538991533892, 35.959146999977733 ], [ -79.26323299167322, 35.967297999694516 ], [ -79.26398799160448, 35.967791999907327 ], [ -79.262923991625371, 35.968668000460333 ], [ -79.264540991644992, 35.973744999779356 ], [ -79.263377991250096, 35.973714999653907 ], [ -79.261975991671974, 36.03505199967784 ], [ -79.211775991447581, 36.034171000302756 ], [ -79.137358991419305, 36.032458000082826 ], [ -79.136844991094208, 36.031708000086823 ], [ -79.141201990934064, 35.976647000258971 ], [ -79.144105991335451, 35.933725999642057 ], [ -79.144619991104918, 35.926153999591811 ], [ -79.158101990835519, 35.927352000221816 ], [ -79.18363499155025, 35.922341000361385 ], [ -79.190923990711212, 35.922637999575421 ], [ -79.20500999131977, 35.930907999616949 ], [ -79.225759991314831, 35.933741000248304 ], [ -79.232434990971768, 35.936079000304261 ], [ -79.243969991362007, 35.941751000183082 ], [ -79.263538991533892, 35.959146999977733 ] ] ] } },
{ "type": "Feature", "properties": { "county": null, "precinct": null, "enr_desc": "Owasa", "winner": null, "winner_votes": null, "winner_share": null, "runner_up": null, "runner_up_votes": null, "runner_up_share": null, "contest_votes": null, "margin_of_victory": null, "is_tie": false, "results": null, "participated": false, "map_key": null }, "geometry": { "type": "Polygon", "coordinates": [ [ [ -79.091150990842024, 35.903753999786282 ], [ -79.083441990751567, 35.906737999994363 ], [ -79.084946991711178, 35.915352000083274 ], [ -79.079579991643641, 35.913585999747397 ], [ -79.077831991240274, 35.912324000046951 ], [ -79.077834991539234, 35.909141000348662 ], [ -79.072270991644871, 35.910302999970973 ], [ -79.073077991413257, 35.901560999842019 ], [ -79.074265991384493, 35.899706999730704 ], [ -79.07744799085259, 35.900012999585392 ], [ -79.078886990622976, 35.90214999986987 ], [ -79.081331990893545, 35.902540000144093 ], [ -79.082073990939861, 35.901676999696832 ], [ -79.081067991024526, 35.898276000422001 ], [ -79.08519899168023, 35.896965999974981 ], [ -79.086640991663288, 35.901657000342901 ], [ -79.088784991450993, 35.901080000410168 ], [ -79.0906259912189, 35.90192500021012 ], [ -79.091150990842024, 35.903753999786282 ] ] ] } },
{ "type": "Feature", "properties": { "county": "CASWELL", "precinct": "PH", "enr_desc": "Prospect Hill", "winner": "Renee A. Price", "winner_votes": 106.0, "winner_share": 67.515923566878982, "runner_up": "Mary Lucas", "runner_up_votes": 40.0, "runner_up_share": 25.477707006369428, "contest_votes": 157.0, "margin_of_victory": 42.038216560509554, "is_tie": false, "results": [ { "candidate": "Renee A. Price", "votes": 106, "share": 67.51592356687898 }, { "candidate": "Mary Lucas", "votes": 40, "share": 25.477707006369428 }, { "candidate": "Brandall Redd", "votes": 11, "share": 7.006369426751593 } ], "participated": true, "map_key": "CASWELL_PH" }, "geometry": { "type": "Polygon", "coordinates": [ [ [ -79.15399699161037, 36.241875000371962 ], [ -79.190134990945921, 36.242427999675073 ], [ -79.257951990971151, 36.243444999723174 ], [ -79.264794991326198, 36.243599999714398 ], [ -79.266974991418692, 36.267782000275886 ], [ -79.270771991648488, 36.266406999806456 ], [ -79.273942991062356, 36.262932999702606 ], [ -79.278952991392572, 36.261736000289623 ], [ -79.287589991261754, 36.254241999781883 ], [ -79.29689599139239, 36.254458999996061 ], [ -79.298116991423058, 36.259523000424359 ], [ -79.304558990931184, 36.269188000109196 ], [ -79.305003991115527, 36.272579999584572 ], [ -79.301699991451954, 36.279169000160167 ], [ -79.29562699105233, 36.285237000218956 ], [ -79.297069990817931, 36.291364000322019 ], [ -79.300337991437473, 36.297352999671048 ], [ -79.300184990658295, 36.300802999942356 ], [ -79.302324991469803, 36.305672000264721 ], [ -79.302906991376432, 36.309525000068838 ], [ -79.312710990943216, 36.314946000271256 ], [ -79.316969991434917, 36.313422000130103 ], [ -79.323918990735834, 36.320399999623149 ], [ -79.332825991045368, 36.31957100007066 ], [ -79.333678990642142, 36.322312000062517 ], [ -79.332094991298277, 36.324832999651875 ], [ -79.328162990736828, 36.325619000089453 ], [ -79.327060991189967, 36.328433999811161 ], [ -79.324253990674279, 36.328728999862022 ], [ -79.322831991586128, 36.330545999830811 ], [ -79.320490991239083, 36.330497000144014 ], [ -79.318393991477691, 36.33247499957568 ], [ -79.315860990621175, 36.332769999933944 ], [ -79.313361990896539, 36.335480999782575 ], [ -79.308842991508911, 36.337551000457438 ], [ -79.305103990743234, 36.341048000212773 ], [ -79.299494991274742, 36.343696999903777 ], [ -79.260143990978264, 36.343883000043782 ], [ -79.260307991455733, 36.349192000239071 ], [ -79.273357991150121, 36.369231999855366 ], [ -79.26202399103984, 36.377099999826235 ], [ -79.262975991411636, 36.388833999837772 ], [ -79.260509991033643, 36.390190999987368 ], [ -79.255632991240148, 36.39896299961935 ], [ -79.242657991180181, 36.403310999796687 ], [ -79.23174599055352, 36.405070000342292 ], [ -79.220639990568799, 36.402608000349247 ], [ -79.21422499126038, 36.403231000225816 ], [ -79.216684991113553, 36.400762999696447 ], [ -79.218224991655333, 36.397685999747857 ], [ -79.218211991092161, 36.392586999671273 ], [ -79.223224991613023, 36.385944999917186 ], [ -79.221814991126934, 36.380744000113218 ], [ -79.223057991376365, 36.363707000454461 ], [ -79.226097991633935, 36.358162999825751 ], [ -79.227494991247013, 36.35284000023308 ], [ -79.148238990695802, 36.352370000236228 ], [ -79.15399699161037, 36.241875000371962 ] ] ] } },
{ "type": "Feature", "properties": { "county": "ORANGE", "precinct": "PA", "enr_desc": "Patterson", "winner": "Renee A. Price", "winner_votes": 288.0, "winner_share": 72.180451127819538, "runner_up": "Mary Lucas", "runner_up_votes": 99.0, "runner_up_share": 24.81203007518797, "contest_votes": 399.0, "margin_of_victory": 47.368421052631568, "is_tie": false, "results": [ { "candidate": "Renee A. Price", "votes": 288, "share": 72.18045112781954 }, { "candidate": "Mary Lucas", "votes": 99, "share": 24.81203007518797 }, { "candidate": "Brandall Redd", "votes": 12, "share": 3.007518796992481 } ], "participated": true, "map_key": "ORANGE_PA" }, "geometry": { "type": "Polygon", "coordinates": [ [ [ -79.000736990886693, 35.952697000369589 ], [ -79.006031991410822, 35.956531000140508 ], [ -79.024360991470232, 35.96645099957891 ], [ -79.033726990789603, 35.969489000181738 ], [ -79.040201991057103, 35.96965600008695 ], [ -79.047200991051142, 35.967478000081705 ], [ -79.050167991134529, 35.967293999970096 ], [ -79.062605991413605, 35.971098000143982 ], [ -79.066683991573441, 35.973228000364188 ], [ -79.06919699097925, 35.975626000077327 ], [ -79.075160991264084, 35.986619999915249 ], [ -79.070142991201834, 35.995808999651722 ], [ -79.067702990773356, 35.998797999988881 ], [ -79.064436990905975, 36.00048399980863 ], [ -79.063012990887799, 36.005274999880541 ], [ -79.057982991321168, 36.009421000068379 ], [ -79.055774990955939, 36.013864999942029 ], [ -79.051847991180352, 36.016555000197869 ], [ -79.044931991169037, 36.018717999777728 ], [ -79.042467991002582, 36.021829999749976 ], [ -79.034636990897226, 36.027326999998515 ], [ -79.033185991662592, 36.030424999721617 ], [ -78.987292991026095, 36.029702000308717 ], [ -79.000736990886693, 35.952697000369589 ] ] ] } },
{ "type": "Feature", "properties": { "county": "CASWELL", "precinct": "PELH", "enr_desc": "Pelham", "winner": "Renee A. Price", "winner_votes": 117.0, "winner_share": 62.903225806451616, "runner_up": "Mary Lucas", "runner_up_votes": 61.0, "runner_up_share": 32.795698924731184, "contest_votes": 186.0, "margin_of_victory": 30.107526881720432, "is_tie": false, "results": [ { "candidate": "Renee A. Price", "votes": 117, "share": 62.903225806451616 }, { "candidate": "Mary Lucas", "votes": 61, "share": 32.795698924731184 }, { "candidate": "Brandall Redd", "votes": 8, "share": 4.301075268817205 } ], "participated": true, "map_key": "CASWELL_PELH" }, "geometry": { "type": "Polygon", "coordinates": [ [ [ -79.519819991147486, 36.442358999691585 ], [ -79.513637990863785, 36.5409019996602 ], [ -79.343429991395197, 36.541591999657577 ], [ -79.335585991188239, 36.532886999619997 ], [ -79.32913899082628, 36.531188000006303 ], [ -79.326470991188643, 36.525635999751977 ], [ -79.327443990583674, 36.52486000032831 ], [ -79.320853990702872, 36.524016000382005 ], [ -79.313182991362723, 36.519199000237535 ], [ -79.304658990875126, 36.516509000298676 ], [ -79.296697990654465, 36.510978999923843 ], [ -79.293577991240838, 36.510503000199179 ], [ -79.293201991192944, 36.507947999981361 ], [ -79.295433990808093, 36.507627999867388 ], [ -79.307041990978405, 36.499792999666035 ], [ -79.317496991200471, 36.494154999839502 ], [ -79.317882990655036, 36.499799000157012 ], [ -79.321315990782765, 36.505357999790192 ], [ -79.322898991610685, 36.506361000458696 ], [ -79.327476991204918, 36.507508000093225 ], [ -79.333387990659787, 36.506726999738909 ], [ -79.337393991177777, 36.508531999577926 ], [ -79.341206991106887, 36.506891999855313 ], [ -79.344695990950072, 36.506475000317003 ], [ -79.352801990586315, 36.510574000435412 ], [ -79.353677991487345, 36.511905999676792 ], [ -79.353602991309458, 36.513645999721859 ], [ -79.357302990569025, 36.51358399998891 ], [ -79.368426991038731, 36.507132000164503 ], [ -79.370433990804955, 36.504632000040623 ], [ -79.370726991554974, 36.505492999848009 ], [ -79.379514991202257, 36.51065099972206 ], [ -79.381077990957806, 36.51374500038807 ], [ -79.388100991098327, 36.518483000358486 ], [ -79.387913990785634, 36.487390000217964 ], [ -79.389267991082548, 36.486448999642491 ], [ -79.390140990996599, 36.474409000178852 ], [ -79.389462990896433, 36.473864000004298 ], [ -79.389386990993557, 36.465375999913363 ], [ -79.390721990593889, 36.463485000466328 ], [ -79.390441990822509, 36.461230000082821 ], [ -79.392284990731582, 36.459307000208725 ], [ -79.392333991363301, 36.454063999769971 ], [ -79.393462991002011, 36.450773999772437 ], [ -79.410596991049289, 36.450869999858909 ], [ -79.44830899080263, 36.438675999896574 ], [ -79.44661599093817, 36.436232999758161 ], [ -79.438118991620343, 36.434344999956863 ], [ -79.435933990676716, 36.431128000148078 ], [ -79.436929991122483, 36.426466999691307 ], [ -79.440834991620051, 36.425478000197451 ], [ -79.443305990895141, 36.422902999770166 ], [ -79.449478990587934, 36.420596999918139 ], [ -79.455436990803321, 36.416931000477959 ], [ -79.459236991237063, 36.41182700000288 ], [ -79.464408990675821, 36.40895399966297 ], [ -79.467009991423311, 36.411909999721786 ], [ -79.469138991514896, 36.420026999615246 ], [ -79.469006991197134, 36.423683000077951 ], [ -79.475747991166898, 36.432930000268492 ], [ -79.481486991253661, 36.428611999743701 ], [ -79.483456991411259, 36.424584999960381 ], [ -79.484156991367911, 36.419240000268275 ], [ -79.487283991338117, 36.415032999818116 ], [ -79.488720991245103, 36.411593999839155 ], [ -79.494145991081595, 36.408220999669993 ], [ -79.497049991539185, 36.405197999904829 ], [ -79.500274990701385, 36.406384000444369 ], [ -79.501906991360229, 36.408127000010118 ], [ -79.504351990565652, 36.417505000099226 ], [ -79.506824990737385, 36.421233999959632 ], [ -79.506119991515845, 36.425495999821869 ], [ -79.511209991287416, 36.430759000001323 ], [ -79.512031991550415, 36.435512000307384 ], [ -79.51682199141915, 36.441909000269973 ], [ -79.519819991147486, 36.442358999691585 ] ] ] } },
{ "type": "Feature", "properties": { "county": "CASWELL", "precinct": "PROVI", "enr_desc": "Providence", "winner": "Renee A. Price", "winner_votes": 60.0, "winner_share": 66.666666666666657, "runner_up": "Mary Lucas", "runner_up_votes": 25.0, "runner_up_share": 27.777777777777779, "contest_votes": 90.0, "margin_of_victory": 38.888888888888879, "is_tie": false, "results": [ { "candidate": "Renee A. Price", "votes": 60, "share": 66.66666666666666 }, { "candidate": "Mary Lucas", "votes": 25, "share": 27.77777777777778 }, { "candidate": "Brandall Redd", "votes": 5, "share": 5.555555555555555 } ], "participated": true, "map_key": "CASWELL_PROVI" }, "geometry": { "type": "Polygon", "coordinates": [ [ [ -79.393462991002011, 36.450773999772437 ], [ -79.392333991363301, 36.454063999769971 ], [ -79.392284990731582, 36.459307000208725 ], [ -79.390441990822509, 36.461230000082821 ], [ -79.390721990593889, 36.463485000466328 ], [ -79.389386990993557, 36.465375999913363 ], [ -79.389462990896433, 36.473864000004298 ], [ -79.390140990996599, 36.474409000178852 ], [ -79.389267991082548, 36.486448999642491 ], [ -79.387913990785634, 36.487390000217964 ], [ -79.388100991098327, 36.518483000358486 ], [ -79.381077990957806, 36.51374500038807 ], [ -79.379514991202257, 36.51065099972206 ], [ -79.370726991554974, 36.505492999848009 ], [ -79.370433990804955, 36.504632000040623 ], [ -79.368426991038731, 36.507132000164503 ], [ -79.357302990569025, 36.51358399998891 ], [ -79.353602991309458, 36.513645999721859 ], [ -79.353677991487345, 36.511905999676792 ], [ -79.352801990586315, 36.510574000435412 ], [ -79.344695990950072, 36.506475000317003 ], [ -79.341206991106887, 36.506891999855313 ], [ -79.337393991177777, 36.508531999577926 ], [ -79.333387990659787, 36.506726999738909 ], [ -79.327476991204918, 36.507508000093225 ], [ -79.322898991610685, 36.506361000458696 ], [ -79.321315990782765, 36.505357999790192 ], [ -79.317882990655036, 36.499799000157012 ], [ -79.317496991200471, 36.494154999839502 ], [ -79.31869999074766, 36.488708999882981 ], [ -79.325532991224804, 36.484772999634743 ], [ -79.331079990660854, 36.479543000144865 ], [ -79.335173990747208, 36.472635000362537 ], [ -79.334261991158328, 36.467290999666048 ], [ -79.330488990715153, 36.463224999704153 ], [ -79.328607990565246, 36.45916000025904 ], [ -79.322689991575473, 36.456259999903473 ], [ -79.317054991397825, 36.454667999972322 ], [ -79.312273991072431, 36.455656000017633 ], [ -79.317324990865998, 36.447354000341882 ], [ -79.319468990698283, 36.440907999596085 ], [ -79.324612990909444, 36.441806000194092 ], [ -79.337679991551127, 36.446177000414551 ], [ -79.366173991476288, 36.447829000116208 ], [ -79.393462991002011, 36.450773999772437 ] ] ] } },
{ "type": "Feature", "properties": { "county": null, "precinct": null, "enr_desc": "St John", "winner": null, "winner_votes": null, "winner_share": null, "runner_up": null, "runner_up_votes": null, "runner_up_share": null, "contest_votes": null, "margin_of_victory": null, "is_tie": false, "results": null, "participated": false, "map_key": null }, "geometry": { "type": "Polygon", "coordinates": [ [ [ -79.119622990827949, 35.864186000021569 ], [ -79.131789990798708, 35.864759999705257 ], [ -79.131833990906131, 35.86530900003897 ], [ -79.148578991144021, 35.866897999832609 ], [ -79.144619991104918, 35.926153999591811 ], [ -79.144105991335451, 35.933725999642057 ], [ -79.139925990898149, 35.93653899979558 ], [ -79.136340990910213, 35.942165999748774 ], [ -79.132696991263344, 35.94451299959352 ], [ -79.130370991609752, 35.947105000127024 ], [ -79.119317990779379, 35.946872000091446 ], [ -79.109344991634558, 35.94266300021836 ], [ -79.103020991287934, 35.936367000074988 ], [ -79.102149991652354, 35.934240999910202 ], [ -79.101028990992702, 35.930895000101529 ], [ -79.113821990636026, 35.930685999905499 ], [ -79.114232990849843, 35.93170300011527 ], [ -79.114890991085261, 35.931200000014968 ], [ -79.113907991244929, 35.927360000234934 ], [ -79.115042991069799, 35.923784999902097 ], [ -79.109832991312146, 35.922359000190177 ], [ -79.109392991495355, 35.92368000029839 ], [ -79.107117991414142, 35.922992000031776 ], [ -79.10714899133626, 35.921611000353622 ], [ -79.103229990830698, 35.92055299964025 ], [ -79.10275499149779, 35.927091000124364 ], [ -79.100248990776706, 35.92670800027603 ], [ -79.09940999138297, 35.919670000373394 ], [ -79.100719991240268, 35.917862999785392 ], [ -79.099626991583492, 35.916205999914489 ], [ -79.097694990896059, 35.917010999632375 ], [ -79.094074991118191, 35.9121200002132 ], [ -79.091150990842024, 35.903753999786282 ], [ -79.0906259912189, 35.90192500021012 ], [ -79.088784991450993, 35.901080000410168 ], [ -79.086640991663288, 35.901657000342901 ], [ -79.08519899168023, 35.896965999974981 ], [ -79.086814991320054, 35.89670599987064 ], [ -79.088009991520636, 35.898789999686059 ], [ -79.089265990927501, 35.898846000230996 ], [ -79.093625990664023, 35.895444000329299 ], [ -79.093125991023527, 35.893553999745322 ], [ -79.095602991270255, 35.890157999565275 ], [ -79.095061991438897, 35.888080999995779 ], [ -79.096829991249734, 35.886454999684815 ], [ -79.095147991075834, 35.883976999615498 ], [ -79.094767991126162, 35.879834999773117 ], [ -79.096664990756295, 35.879965999710713 ], [ -79.096361991187507, 35.880675000385864 ], [ -79.105811991271466, 35.878935000099375 ], [ -79.105494991665822, 35.878029000251843 ], [ -79.106444990731504, 35.876692999950151 ], [ -79.111035991469379, 35.872657000223668 ], [ -79.113991990746058, 35.871973999931271 ], [ -79.115901991149002, 35.870412999712016 ], [ -79.11780499126472, 35.870336000358115 ], [ -79.116635991444497, 35.867396999669715 ], [ -79.116810990891949, 35.865759000334279 ], [ -79.119622990827949, 35.864186000021569 ] ] ] } },
{ "type": "Feature", "properties": { "county": null, "precinct": null, "enr_desc": "Roger Eubanks", "winner": null, "winner_votes": null, "winner_share": null, "runner_up": null, "runner_up_votes": null, "runner_up_share": null, "contest_votes": null, "margin_of_victory": null, "is_tie": false, "results": null, "participated": false, "map_key": null }, "geometry": { "type": "Polygon", "coordinates": [ [ [ -79.058362991281214, 35.949431000089589 ], [ -79.065045990950139, 35.951510000084717 ], [ -79.077772990630649, 35.951961000423559 ], [ -79.08189999115767, 35.949628999603171 ], [ -79.083170990916642, 35.94715799957698 ], [ -79.085466990671137, 35.943005000115065 ], [ -79.08738299104381, 35.943840999741724 ], [ -79.084982990941342, 35.94467400037923 ], [ -79.084901991271565, 35.945482000426807 ], [ -79.086712991496441, 35.945855000384498 ], [ -79.087172991319932, 35.948366000231623 ], [ -79.089882991381316, 35.951568000144668 ], [ -79.087047990650802, 35.953814000165096 ], [ -79.094924991501202, 35.954512999721203 ], [ -79.095980990869421, 35.956466999920565 ], [ -79.098985991327382, 35.956697999929631 ], [ -79.098938990792647, 35.957856999722736 ], [ -79.107414991350467, 35.958341000023893 ], [ -79.107844990722256, 35.956382999674119 ], [ -79.107386991279654, 35.959755000247036 ], [ -79.108104990978163, 35.963338000129966 ], [ -79.106542990802765, 35.966787999943847 ], [ -79.104995990911291, 35.974413999700637 ], [ -79.0759989909713, 35.96989899977266 ], [ -79.076444991691289, 35.977265000074887 ], [ -79.075160991264084, 35.986619999915249 ], [ -79.06919699097925, 35.975626000077327 ], [ -79.066683991573441, 35.973228000364188 ], [ -79.062605991413605, 35.971098000143982 ], [ -79.059296990653053, 35.966090999949664 ], [ -79.05736899127848, 35.960866000189704 ], [ -79.058362991281214, 35.949431000089589 ] ] ] } },
{ "type": "Feature", "properties": { "county": null, "precinct": null, "enr_desc": "Ridgefield", "winner": null, "winner_votes": null, "winner_share": null, "runner_up": null, "runner_up_votes": null, "runner_up_share": null, "contest_votes": null, "margin_of_victory": null, "is_tie": false, "results": null, "participated": false, "map_key": null }, "geometry": { "type": "Polygon", "coordinates": [ [ [ -79.00438899158263, 35.931500000154386 ], [ -79.006886991350299, 35.917197000103663 ], [ -79.009105991457901, 35.918331000417872 ], [ -79.011685991007099, 35.917722000170023 ], [ -79.014704990786683, 35.918821999763814 ], [ -79.020017991026322, 35.922505000013373 ], [ -79.024881990625147, 35.924575999922986 ], [ -79.030357991615517, 35.927351999899493 ], [ -79.035068991206742, 35.927740999717855 ], [ -79.033628990850659, 35.930677000444703 ], [ -79.029451990723274, 35.935029000312824 ], [ -79.02559699063687, 35.937138000058184 ], [ -79.021903991508978, 35.939522999942859 ], [ -79.023385990969444, 35.936216000026207 ], [ -79.018908990744222, 35.932854000441672 ], [ -79.007806991691822, 35.932755999937683 ], [ -79.00438899158263, 35.931500000154386 ] ] ] } },
{ "type": "Feature", "properties": { "county": null, "precinct": null, "enr_desc": "Westwood", "winner": null, "winner_votes": null, "winner_share": null, "runner_up": null, "runner_up_votes": null, "runner_up_share": null, "contest_votes": null, "margin_of_victory": null, "is_tie": false, "results": null, "participated": false, "map_key": null }, "geometry": { "type": "Polygon", "coordinates": [ [ [ -79.075393991619848, 35.893562999953758 ], [ -79.073958990876761, 35.893710999796582 ], [ -79.073864990614084, 35.896732999727213 ], [ -79.072878991648224, 35.897252000325047 ], [ -79.074265991384493, 35.899706999730704 ], [ -79.073077991413257, 35.901560999842019 ], [ -79.069853991029305, 35.90130199984609 ], [ -79.069709991674486, 35.90393900000052 ], [ -79.070638991024296, 35.903967999672098 ], [ -79.068762991527521, 35.906085000254144 ], [ -79.063885991085868, 35.90682600044066 ], [ -79.065046991343607, 35.909642000355298 ], [ -79.059506990844824, 35.911731000172239 ], [ -79.058077990966979, 35.909268999594602 ], [ -79.054329991421085, 35.910700000376849 ], [ -79.052801991102456, 35.907970000224466 ], [ -79.053310991435524, 35.905622999662633 ], [ -79.057943990763334, 35.900955000154475 ], [ -79.057589991476149, 35.898006000358876 ], [ -79.058555991451897, 35.896167000061219 ], [ -79.057438991331765, 35.893510999847983 ], [ -79.059395990712673, 35.891323999741928 ], [ -79.061322990850286, 35.892461000203795 ], [ -79.064923991130954, 35.891641000000561 ], [ -79.075393991619848, 35.893562999953758 ] ] ] } },
{ "type": "Feature", "properties": { "county": "CASWELL", "precinct": "YANC", "enr_desc": "Yanceyville 2", "winner": "Renee A. Price", "winner_votes": 204.0, "winner_share": 69.387755102040813, "runner_up": "Mary Lucas", "runner_up_votes": 74.0, "runner_up_share": 25.170068027210885, "contest_votes": 294.0, "margin_of_victory": 44.217687074829925, "is_tie": false, "results": [ { "candidate": "Renee A. Price", "votes": 204, "share": 69.38775510204081 }, { "candidate": "Mary Lucas", "votes": 74, "share": 25.170068027210885 }, { "candidate": "Brandall Redd", "votes": 16, "share": 5.442176870748299 } ], "participated": true, "map_key": "CASWELL_YANC" }, "geometry": { "type": "Polygon", "coordinates": [ [ [ -79.299494991274742, 36.343696999903777 ], [ -79.316386991231539, 36.343455000058498 ], [ -79.323046990982959, 36.345602000054328 ], [ -79.336729991054128, 36.345708999824126 ], [ -79.337716990717141, 36.34409600022736 ], [ -79.34316299135908, 36.34012300015619 ], [ -79.352360990946835, 36.315810999794522 ], [ -79.361745991137525, 36.307717000022237 ], [ -79.36779199163712, 36.295119999681241 ], [ -79.368209991073769, 36.290623000131944 ], [ -79.364423991424971, 36.282862999956151 ], [ -79.361732991165383, 36.281437999742622 ], [ -79.36914699138697, 36.280609999921104 ], [ -79.373315991436215, 36.277268999917865 ], [ -79.378141991079417, 36.276117000167396 ], [ -79.37997699114905, 36.276672000008162 ], [ -79.385959990983437, 36.281073000236617 ], [ -79.388904990706664, 36.281900999617079 ], [ -79.391113991266636, 36.281496000241219 ], [ -79.392376991456885, 36.283212000315245 ], [ -79.392222991635961, 36.305973999985213 ], [ -79.392654991211884, 36.336452000071567 ], [ -79.39682899160232, 36.375872000049377 ], [ -79.396057990697543, 36.379879999844633 ], [ -79.397526991264513, 36.382343999598191 ], [ -79.399331990561848, 36.39929200024995 ], [ -79.391410991390302, 36.416594000474007 ], [ -79.387467990606325, 36.417217999627781 ], [ -79.38611099119035, 36.421594999865043 ], [ -79.387768991650248, 36.424555000286951 ], [ -79.399900991518336, 36.435432999610505 ], [ -79.398165991180363, 36.435982999758707 ], [ -79.396228991553855, 36.438044000156651 ], [ -79.396377990614255, 36.44097699965215 ], [ -79.393256990848016, 36.448271000094742 ], [ -79.393462991002011, 36.450773999772437 ], [ -79.366173991476288, 36.447829000116208 ], [ -79.337679991551127, 36.446177000414551 ], [ -79.324612990909444, 36.441806000194092 ], [ -79.319468990698283, 36.440907999596085 ], [ -79.306286990589285, 36.442308999768237 ], [ -79.293814990730525, 36.438778000199811 ], [ -79.254770991037319, 36.447079999915886 ], [ -79.253547991256852, 36.446304000444762 ], [ -79.255076990609183, 36.445849000352162 ], [ -79.26142399084523, 36.419628999802192 ], [ -79.267113990848301, 36.414210000054268 ], [ -79.262975991411636, 36.388833999837772 ], [ -79.26202399103984, 36.377099999826235 ], [ -79.273357991150121, 36.369231999855366 ], [ -79.260307991455733, 36.349192000239071 ], [ -79.260143990978264, 36.343883000043782 ], [ -79.299494991274742, 36.343696999903777 ] ] ] } },
{ "type": "Feature", "properties": { "county": "ORANGE", "precinct": "SM", "enr_desc": "St Marys", "winner": "Renee A. Price", "winner_votes": 198.0, "winner_share": 66.0, "runner_up": "Mary Lucas", "runner_up_votes": 85.0, "runner_up_share": 28.333333333333332, "contest_votes": 300.0, "margin_of_victory": 37.666666666666671, "is_tie": false, "results": [ { "candidate": "Renee A. Price", "votes": 198, "share": 66.0 }, { "candidate": "Mary Lucas", "votes": 85, "share": 28.333333333333332 }, { "candidate": "Brandall Redd", "votes": 17, "share": 5.666666666666666 } ], "participated": true, "map_key": "ORANGE_SM" }, "geometry": { "type": "Polygon", "coordinates": [ [ [ -78.981154991651053, 36.064905000325624 ], [ -78.982499990838292, 36.066286000378383 ], [ -78.986156990593159, 36.067281000199721 ], [ -78.993037990598538, 36.066617999854536 ], [ -78.99540799154984, 36.067099999826418 ], [ -78.998854991530607, 36.070008999855837 ], [ -78.999228990902594, 36.072361999697513 ], [ -79.001911991103725, 36.073377000147964 ], [ -79.004864991663197, 36.071939000425587 ], [ -79.007792990940644, 36.069175000301136 ], [ -79.012800990636734, 36.066709999566172 ], [ -79.014133991124595, 36.068512000096867 ], [ -79.014134991176547, 36.07108099999077 ], [ -79.012802991514107, 36.072793000432583 ], [ -79.007751991114873, 36.074775999588859 ], [ -79.009250991222544, 36.077840000233394 ], [ -79.005920990960476, 36.080364000374757 ], [ -79.00514399139837, 36.082122000020462 ], [ -79.015080991458433, 36.086672000249692 ], [ -79.019966990687351, 36.086446000066104 ], [ -79.022241991665425, 36.082209999780879 ], [ -79.025683990881319, 36.08252499963821 ], [ -79.031457991366722, 36.085678000450748 ], [ -79.033234991222159, 36.085225999969587 ], [ -79.034177991603556, 36.084055000350077 ], [ -79.036342991396609, 36.083963999691584 ], [ -79.039397991681, 36.087523000074832 ], [ -79.041840991462649, 36.08806300006345 ], [ -79.042340991165801, 36.087972000166424 ], [ -79.041728991313363, 36.086215000021681 ], [ -79.047668991071774, 36.08616799955373 ], [ -79.049389990801828, 36.084680000276471 ], [ -79.05205499145913, 36.0850850003823 ], [ -79.053887991206608, 36.086931000236532 ], [ -79.061520991197156, 36.085187000037401 ], [ -79.062530991052014, 36.088765000114783 ], [ -79.063994990787791, 36.087955000068995 ], [ -79.065081991391821, 36.099514000092448 ], [ -79.066706991175806, 36.10532400039461 ], [ -79.066344990613644, 36.112772999802822 ], [ -79.067793991295474, 36.11547500032497 ], [ -79.066552991373896, 36.122483999889624 ], [ -79.066809990644842, 36.12609999989531 ], [ -79.069222991580276, 36.129476000350365 ], [ -79.069064991278623, 36.134608000161528 ], [ -78.968852991128074, 36.135197000390534 ], [ -78.981154991651053, 36.064905000325624 ] ] ] } },
{ "type": "Feature", "properties": { "county": "CASWELL", "precinct": "STON", "enr_desc": "Stoney Creek", "winner": "Renee A. Price", "winner_votes": 125.0, "winner_share": 69.060773480662988, "runner_up": "Mary Lucas", "runner_up_votes": 37.0, "runner_up_share": 20.441988950276244, "contest_votes": 181.0, "margin_of_victory": 48.618784530386748, "is_tie": false, "results": [ { "candidate": "Renee A. Price", "votes": 125, "share": 69.06077348066299 }, { "candidate": "Mary Lucas", "votes": 37, "share": 20.441988950276244 }, { "candidate": "Brandall Redd", "votes": 19, "share": 10.497237569060774 } ], "participated": true, "map_key": "CASWELL_STON" }, "geometry": { "type": "Polygon", "coordinates": [ [ [ -79.525351991652713, 36.353994000279513 ], [ -79.478964991560758, 36.351963999790698 ], [ -79.480022990612568, 36.351062999978716 ], [ -79.478517991167337, 36.349146999716872 ], [ -79.478006991301527, 36.346270000298524 ], [ -79.476443990660471, 36.343615000299884 ], [ -79.472646991067862, 36.339974000462277 ], [ -79.471038991000768, 36.334924999855694 ], [ -79.46583399145058, 36.332229000202034 ], [ -79.464137991477486, 36.328909000210601 ], [ -79.461026991671787, 36.326397999708263 ], [ -79.4602149916592, 36.321833000468914 ], [ -79.458097990755988, 36.319363999802015 ], [ -79.457128990682918, 36.316502000266141 ], [ -79.453831990681735, 36.313756000308324 ], [ -79.453004990924768, 36.309190000117802 ], [ -79.446840990638592, 36.305426000450474 ], [ -79.444688991076688, 36.305248000305703 ], [ -79.442725990612132, 36.306139999636819 ], [ -79.437968990975136, 36.314192999925915 ], [ -79.434856991117371, 36.315575000471569 ], [ -79.410651991290706, 36.315122999875598 ], [ -79.403618991506647, 36.31263000038296 ], [ -79.396054990939064, 36.311635000340296 ], [ -79.394602990614672, 36.310415000056068 ], [ -79.39365399151562, 36.30754100008506 ], [ -79.392222991635961, 36.305973999985213 ], [ -79.392376991456885, 36.283212000315245 ], [ -79.394206991294638, 36.246543999599815 ], [ -79.531864991425365, 36.249672999619932 ], [ -79.525351991652713, 36.353994000279513 ] ] ] } },
{ "type": "Feature", "properties": { "county": null, "precinct": null, "enr_desc": "Town Hall", "winner": null, "winner_votes": null, "winner_share": null, "runner_up": null, "runner_up_votes": null, "runner_up_share": null, "contest_votes": null, "margin_of_victory": null, "is_tie": false, "results": null, "participated": false, "map_key": null }, "geometry": { "type": "Polygon", "coordinates": [ [ [ -79.079579991643641, 35.913585999747397 ], [ -79.07865999161713, 35.914349000182554 ], [ -79.072226990851604, 35.913837000052823 ], [ -79.072249991138392, 35.915857000301393 ], [ -79.076557991035145, 35.918386999831057 ], [ -79.078700990611338, 35.920662999795056 ], [ -79.082473990647557, 35.920844999891457 ], [ -79.081486991629774, 35.923410999754189 ], [ -79.077728990948842, 35.923599000446451 ], [ -79.074399990738968, 35.925287000423751 ], [ -79.074020990693242, 35.924380000429203 ], [ -79.072960991641025, 35.924361000319401 ], [ -79.068026991511019, 35.919527999650469 ], [ -79.068044990922459, 35.916097999896223 ], [ -79.06766799135751, 35.913709000193755 ], [ -79.065046991343607, 35.909642000355298 ], [ -79.063885991085868, 35.90682600044066 ], [ -79.068762991527521, 35.906085000254144 ], [ -79.070638991024296, 35.903967999672098 ], [ -79.069709991674486, 35.90393900000052 ], [ -79.069853991029305, 35.90130199984609 ], [ -79.073077991413257, 35.901560999842019 ], [ -79.072270991644871, 35.910302999970973 ], [ -79.077834991539234, 35.909141000348662 ], [ -79.077831991240274, 35.912324000046951 ], [ -79.079579991643641, 35.913585999747397 ] ] ] } },
{ "type": "Feature", "properties": { "county": "ORANGE", "precinct": "TO", "enr_desc": "Tolars", "winner": "Renee A. Price", "winner_votes": 127.0, "winner_share": 70.555555555555557, "runner_up": "Mary Lucas", "runner_up_votes": 44.0, "runner_up_share": 24.444444444444443, "contest_votes": 180.0, "margin_of_victory": 46.111111111111114, "is_tie": false, "results": [ { "candidate": "Renee A. Price", "votes": 127, "share": 70.55555555555556 }, { "candidate": "Mary Lucas", "votes": 44, "share": 24.444444444444443 }, { "candidate": "Brandall Redd", "votes": 9, "share": 5.0 } ], "participated": true, "map_key": "ORANGE_TO" }, "geometry": { "type": "Polygon", "coordinates": [ [ [ -79.069064991278623, 36.134608000161528 ], [ -79.069222991580276, 36.129476000350365 ], [ -79.075385991639479, 36.132108000409545 ], [ -79.077551991238067, 36.130308000398138 ], [ -79.081668990597066, 36.131834000078207 ], [ -79.097929990708622, 36.133772999788462 ], [ -79.107083990593338, 36.138401000214799 ], [ -79.112888991248354, 36.136710000050392 ], [ -79.120609991664523, 36.136889999980767 ], [ -79.123220990586617, 36.148801999847898 ], [ -79.129436990701265, 36.158877999775605 ], [ -79.131017991261245, 36.168668000024326 ], [ -79.135502990704737, 36.177074000339381 ], [ -79.138614991514743, 36.189753000110073 ], [ -79.142354991319849, 36.198385000047452 ], [ -79.139332990632553, 36.19911099961061 ], [ -79.137639991189928, 36.200722999671576 ], [ -79.137668991061815, 36.209206000054117 ], [ -79.135885991365868, 36.215808999781061 ], [ -79.13638499116891, 36.221151999798231 ], [ -79.134787990586929, 36.224636000252893 ], [ -79.132273990658291, 36.227406999685002 ], [ -79.130494990777564, 36.235099000024199 ], [ -79.120834990880596, 36.240087999765116 ], [ -79.116427990622469, 36.239949999662493 ], [ -79.113353990703985, 36.241334999699717 ], [ -79.065923990851658, 36.240908999687946 ], [ -79.068323990860293, 36.16091000033105 ], [ -79.066554990809692, 36.161946000343811 ], [ -79.061905991514948, 36.158958999889158 ], [ -79.060862991169643, 36.160386999780926 ], [ -79.058309990951827, 36.159829000188388 ], [ -79.061542991334747, 36.152580999660863 ], [ -79.063323991328986, 36.153334999750193 ], [ -79.068415991268566, 36.158024000302774 ], [ -79.069064991278623, 36.134608000161528 ] ] ] } },
{ "type": "Feature", "properties": { "county": null, "precinct": null, "enr_desc": "Unc", "winner": null, "winner_votes": null, "winner_share": null, "runner_up": null, "runner_up_votes": null, "runner_up_share": null, "contest_votes": null, "margin_of_victory": null, "is_tie": false, "results": null, "participated": false, "map_key": null }, "geometry": { "type": "Polygon", "coordinates": [ [ [ -79.057438991331765, 35.893510999847983 ], [ -79.058555991451897, 35.896167000061219 ], [ -79.057589991476149, 35.898006000358876 ], [ -79.057943990763334, 35.900955000154475 ], [ -79.053310991435524, 35.905622999662633 ], [ -79.052801991102456, 35.907970000224466 ], [ -79.054329991421085, 35.910700000376849 ], [ -79.058077990966979, 35.909268999594602 ], [ -79.059506990844824, 35.911731000172239 ], [ -79.055793991214486, 35.913143000126809 ], [ -79.048045991535162, 35.916109999941817 ], [ -79.046590991482731, 35.913584000314138 ], [ -79.045104991674833, 35.914134000183424 ], [ -79.045871991504697, 35.916941000251889 ], [ -79.042680991139761, 35.91685700040977 ], [ -79.040319991235634, 35.918001000111218 ], [ -79.036721990926821, 35.921724000112661 ], [ -79.035811991088877, 35.923933000033195 ], [ -79.030617990645368, 35.924675000281574 ], [ -79.030357991615517, 35.927351999899493 ], [ -79.024881990625147, 35.924575999922986 ], [ -79.026771991374602, 35.909569000331757 ], [ -79.032720991052159, 35.901407999682739 ], [ -79.034846990787841, 35.899205999853137 ], [ -79.038218991326175, 35.897516000025078 ], [ -79.057438991331765, 35.893510999847983 ] ] ] } },
{ "type": "Feature", "properties": { "county": "ORANGE", "precinct": "WC", "enr_desc": "White Cross", "winner": "Renee A. Price", "winner_votes": 201.0, "winner_share": 80.079681274900395, "runner_up": "Mary Lucas", "runner_up_votes": 39.0, "runner_up_share": 15.53784860557769, "contest_votes": 251.0, "margin_of_victory": 64.541832669322702, "is_tie": false, "results": [ { "candidate": "Renee A. Price", "votes": 201, "share": 80.0796812749004 }, { "candidate": "Mary Lucas", "votes": 39, "share": 15.53784860557769 }, { "candidate": "Brandall Redd", "votes": 11, "share": 4.382470119521913 } ], "participated": true, "map_key": "ORANGE_WC" }, "geometry": { "type": "Polygon", "coordinates": [ [ [ -79.263538991533892, 35.959146999977733 ], [ -79.243969991362007, 35.941751000183082 ], [ -79.232434990971768, 35.936079000304261 ], [ -79.225759991314831, 35.933741000248304 ], [ -79.20500999131977, 35.930907999616949 ], [ -79.190923990711212, 35.922637999575421 ], [ -79.18363499155025, 35.922341000361385 ], [ -79.158101990835519, 35.927352000221816 ], [ -79.144619991104918, 35.926153999591811 ], [ -79.148578991144021, 35.866897999832609 ], [ -79.218814990893009, 35.873724999746948 ], [ -79.218815991598518, 35.875256999957955 ], [ -79.221533991615729, 35.875466999852492 ], [ -79.221934991583254, 35.874043999679706 ], [ -79.249537991150177, 35.876809999886078 ], [ -79.250826991355083, 35.879632000266554 ], [ -79.255602991439417, 35.885550999935845 ], [ -79.257945990848683, 35.891492999857107 ], [ -79.258142990968494, 35.895398999639774 ], [ -79.256530990668352, 35.900511000105723 ], [ -79.256915990699099, 35.902054999755542 ], [ -79.260418990968716, 35.905614000179298 ], [ -79.268242991415434, 35.909182000135125 ], [ -79.268433991089339, 35.910930000315112 ], [ -79.267148991431995, 35.913691000132495 ], [ -79.264026991675522, 35.914114000227983 ], [ -79.263863991647099, 35.92973000032292 ], [ -79.264470990883567, 35.931077999945849 ], [ -79.263838990883201, 35.93143500041122 ], [ -79.264378990622248, 35.933514 ], [ -79.263821991121148, 35.933439999942586 ], [ -79.264185991515774, 35.946136000030549 ], [ -79.263538991533892, 35.959146999977733 ] ] ] } },
{ "type": "Feature", "properties": { "county": "ORANGE", "precinct": "WD", "enr_desc": "Weaver Dairy", "winner": "Renee A. Price", "winner_votes": 243.0, "winner_share": 70.845481049562693, "runner_up": "Mary Lucas", "runner_up_votes": 82.0, "runner_up_share": 23.906705539358601, "contest_votes": 343.0, "margin_of_victory": 46.938775510204096, "is_tie": false, "results": [ { "candidate": "Renee A. Price", "votes": 243, "share": 70.8454810495627 }, { "candidate": "Mary Lucas", "votes": 82, "share": 23.9067055393586 }, { "candidate": "Brandall Redd", "votes": 18, "share": 5.247813411078718 } ], "participated": true, "map_key": "ORANGE_WD" }, "geometry": { "type": "Polygon", "coordinates": [ [ [ -79.056944991342931, 35.939286999658627 ], [ -79.058362991281214, 35.949431000089589 ], [ -79.05736899127848, 35.960866000189704 ], [ -79.059296990653053, 35.966090999949664 ], [ -79.062605991413605, 35.971098000143982 ], [ -79.050167991134529, 35.967293999970096 ], [ -79.047200991051142, 35.967478000081705 ], [ -79.040201991057103, 35.96965600008695 ], [ -79.033726990789603, 35.969489000181738 ], [ -79.034694991372533, 35.967001000209642 ], [ -79.035376990948066, 35.966982000156626 ], [ -79.035340991331836, 35.968200999871847 ], [ -79.039838991154511, 35.968292000413285 ], [ -79.043965991437332, 35.966815999990594 ], [ -79.043579991019357, 35.963999999564933 ], [ -79.040255990821322, 35.963724999642302 ], [ -79.036307991122399, 35.961979999554856 ], [ -79.036262991412826, 35.958662000323741 ], [ -79.037898990721914, 35.957448000361801 ], [ -79.043919990816292, 35.956958000134328 ], [ -79.044731991659972, 35.956141000378736 ], [ -79.044775991325636, 35.954175999630692 ], [ -79.045851991498665, 35.954171000110712 ], [ -79.045618991210333, 35.950768000199723 ], [ -79.047198991495733, 35.948483000116212 ], [ -79.047530991674165, 35.944805000108779 ], [ -79.048668991399651, 35.942373000334804 ], [ -79.051523991518167, 35.940160999872134 ], [ -79.056944991342931, 35.939286999658627 ] ] ] } },
{ "type": "Feature", "properties": { "county": "ORANGE", "precinct": "WDS", "enr_desc": "Weaver Dairy Sat", "winner": "Renee A. Price", "winner_votes": 219.0, "winner_share": 89.754098360655746, "runner_up": "Mary Lucas", "runner_up_votes": 20.0, "runner_up_share": 8.1967213114754092, "contest_votes": 244.0, "margin_of_victory": 81.557377049180332, "is_tie": false, "results": [ { "candidate": "Renee A. Price", "votes": 219, "share": 89.75409836065575 }, { "candidate": "Mary Lucas", "votes": 20, "share": 8.19672131147541 }, { "candidate": "Brandall Redd", "votes": 5, "share": 2.0491803278688523 } ], "participated": true, "map_key": "ORANGE_WDS" }, "geometry": { "type": "Polygon", "coordinates": [ [ [ -79.034694991372533, 35.967001000209642 ], [ -79.033502991153128, 35.961509000153228 ], [ -79.036307991122399, 35.961979999554856 ], [ -79.040255990821322, 35.963724999642302 ], [ -79.043579991019357, 35.963999999564933 ], [ -79.043965991437332, 35.966815999990594 ], [ -79.039838991154511, 35.968292000413285 ], [ -79.035340991331836, 35.968200999871847 ], [ -79.035376990948066, 35.966982000156626 ], [ -79.034694991372533, 35.967001000209642 ] ] ] } },
{ "type": "Feature", "properties": { "county": "ORANGE", "precinct": "WH", "enr_desc": "West Hillsborough", "winner": "Renee A. Price", "winner_votes": 221.0, "winner_share": 74.161073825503351, "runner_up": "Mary Lucas", "runner_up_votes": 70.0, "runner_up_share": 23.48993288590604, "contest_votes": 298.0, "margin_of_victory": 50.671140939597308, "is_tie": false, "results": [ { "candidate": "Renee A. Price", "votes": 221, "share": 74.16107382550335 }, { "candidate": "Mary Lucas", "votes": 70, "share": 23.48993288590604 }, { "candidate": "Brandall Redd", "votes": 7, "share": 2.348993288590604 } ], "participated": true, "map_key": "ORANGE_WH" }, "geometry": { "type": "Polygon", "coordinates": [ [ [ -79.114900990924056, 36.068008000102239 ], [ -79.118613990885734, 36.066876999794083 ], [ -79.120204991608048, 36.065119000263813 ], [ -79.124019991558029, 36.065149999938029 ], [ -79.127008990838874, 36.066750000331147 ], [ -79.129561991462367, 36.070085000378477 ], [ -79.130842991675905, 36.071476999859449 ], [ -79.132616991023625, 36.069867999826556 ], [ -79.134067990721235, 36.073077999591433 ], [ -79.131965990714676, 36.117874000002217 ], [ -79.130108991194206, 36.136703999863165 ], [ -79.120443990896547, 36.136375999599544 ], [ -79.103544990773685, 36.089757000126369 ], [ -79.101744991222546, 36.08657499989819 ], [ -79.113057991044528, 36.087024999717755 ], [ -79.111581991203892, 36.086082000224593 ], [ -79.110984991521235, 36.071915000289962 ], [ -79.111932991235122, 36.070871000343054 ], [ -79.115116990868046, 36.070439000368921 ], [ -79.114900990924056, 36.068008000102239 ] ] ] } },
{ "type": "Feature", "properties": { "county": "ORANGE", "precinct": "HN", "enr_desc": "Hillsborough North", "winner": "Renee A. Price", "winner_votes": 255.0, "winner_share": 72.237960339943342, "runner_up": "Mary Lucas", "runner_up_votes": 84.0, "runner_up_share": 23.79603399433428, "contest_votes": 353.0, "margin_of_victory": 48.441926345609062, "is_tie": false, "results": [ { "candidate": "Renee A. Price", "votes": 255, "share": 72.23796033994334 }, { "candidate": "Mary Lucas", "votes": 84, "share": 23.79603399433428 }, { "candidate": "Brandall Redd", "votes": 14, "share": 3.9660056657223794 } ], "participated": true, "map_key": "ORANGE_HN" }, "geometry": { "type": "Polygon", "coordinates": [ [ [ -79.101744991222546, 36.08657499989819 ], [ -79.103544990773685, 36.089757000126369 ], [ -79.120443990896547, 36.136375999599544 ], [ -79.120609991664523, 36.136889999980767 ], [ -79.112888991248354, 36.136710000050392 ], [ -79.107083990593338, 36.138401000214799 ], [ -79.097929990708622, 36.133772999788462 ], [ -79.081668990597066, 36.131834000078207 ], [ -79.077551991238067, 36.130308000398138 ], [ -79.075385991639479, 36.132108000409545 ], [ -79.069222991580276, 36.129476000350365 ], [ -79.066809990644842, 36.12609999989531 ], [ -79.066552991373896, 36.122483999889624 ], [ -79.067793991295474, 36.11547500032497 ], [ -79.066344990613644, 36.112772999802822 ], [ -79.066706991175806, 36.10532400039461 ], [ -79.065081991391821, 36.099514000092448 ], [ -79.063994990787791, 36.087955000068995 ], [ -79.068710990830127, 36.085507999721933 ], [ -79.079590990918263, 36.081941999881046 ], [ -79.085843991622596, 36.084144000179414 ], [ -79.101744991222546, 36.08657499989819 ] ] ] } }
]
}
