{
"type": "FeatureCollection",
"name": "nc_house_of_representatives_district_032_dem",
"crs": { "type": "name", "properties": { "name": "urn:ogc:def:crs:OGC:1.3:CRS84" } },
"features": [
{ "type": "Feature", "properties": { "county": "GRANVILLE", "precinct": "ANTI", "enr_desc": "Voting District 00Anti", "winner": "Curtis McRae", "winner_votes": 187.0, "winner_share": 80.257510729613728, "runner_up": "Melissa Elliott", "runner_up_votes": 46.0, "runner_up_share": 19.742489270386265, "contest_votes": 233.0, "margin_of_victory": 60.515021459227462, "is_tie": false, "results": [ { "candidate": "Curtis McRae", "votes": 187, "share": 80.25751072961373 }, { "candidate": "Melissa Elliott", "votes": 46, "share": 19.742489270386265 } ], "participated": true, "map_key": "GRANVILLE_ANTI" }, "geometry": { "type": "Polygon", "coordinates": [ [ [ -78.572369991638283, 36.290954000050952 ], [ -78.569418990593846, 36.293160000037666 ], [ -78.570038991291753, 36.296788999616695 ], [ -78.573653991130243, 36.300581000009203 ], [ -78.573103991520242, 36.301013000028099 ], [ -78.573593990626264, 36.3032099996718 ], [ -78.572222991154717, 36.303781000341445 ], [ -78.572342991645357, 36.304645999848105 ], [ -78.573696990599544, 36.304444999873283 ], [ -78.573858991498653, 36.309133000347408 ], [ -78.570221991571074, 36.308857000069438 ], [ -78.570297991247202, 36.305347999950293 ], [ -78.566513991661708, 36.30367500020995 ], [ -78.562218991397287, 36.305886999718361 ], [ -78.563624991223591, 36.308930000417483 ], [ -78.561749990962383, 36.308960000338843 ], [ -78.560884990848393, 36.306670000230376 ], [ -78.558971991138165, 36.30765899992673 ], [ -78.559440990970032, 36.309024000168733 ], [ -78.555782991388824, 36.309085000353711 ], [ -78.509677991315542, 36.30972900027637 ], [ -78.509209991514254, 36.265694000268041 ], [ -78.51247699097236, 36.266571000046568 ], [ -78.51818999112875, 36.26397600022473 ], [ -78.524844991536284, 36.266241999713692 ], [ -78.529184991604026, 36.265671999619123 ], [ -78.5312959908415, 36.266682000242568 ], [ -78.533289991133643, 36.268970000108972 ], [ -78.544643990983559, 36.269035000175684 ], [ -78.557431990964901, 36.262202999695113 ], [ -78.566355990775193, 36.26680099993888 ], [ -78.572080991370669, 36.27381400035938 ], [ -78.573844991236655, 36.281053000341288 ], [ -78.573109991044845, 36.286212999898552 ], [ -78.572099991391795, 36.287450000208835 ], [ -78.572369991638283, 36.290954000050952 ] ] ] } },
{ "type": "Feature", "properties": { "county": null, "precinct": null, "enr_desc": "Community College", "winner": null, "winner_votes": null, "winner_share": null, "runner_up": null, "runner_up_votes": null, "runner_up_share": null, "contest_votes": null, "margin_of_victory": null, "is_tie": false, "results": null, "participated": false, "map_key": null }, "geometry": { "type": "Polygon", "coordinates": [ [ [ -78.508941991502198, 36.240591999975834 ], [ -78.509209991514254, 36.265694000268041 ], [ -78.509677991315542, 36.30972900027637 ], [ -78.510452991184934, 36.382352999935335 ], [ -78.44622799075519, 36.384725000136605 ], [ -78.446142990832442, 36.375137999708322 ], [ -78.446390990577214, 36.373479999832483 ], [ -78.448737991176685, 36.370469000125048 ], [ -78.452114991057044, 36.36842300030299 ], [ -78.453848990721511, 36.364450000350615 ], [ -78.454581990679031, 36.355913999917739 ], [ -78.451968991390828, 36.352873000369172 ], [ -78.447000990996671, 36.340391999695335 ], [ -78.445252990650332, 36.338334000405958 ], [ -78.450739991631153, 36.321698000402385 ], [ -78.454921991610718, 36.320569999590425 ], [ -78.456569991438116, 36.318494000338106 ], [ -78.455676990836764, 36.309170000167661 ], [ -78.458129991245173, 36.303703999781249 ], [ -78.455855991042057, 36.303590999619637 ], [ -78.458213991397386, 36.296723000134456 ], [ -78.459861991022962, 36.294332000037429 ], [ -78.463226990746719, 36.292519999664513 ], [ -78.463910991227976, 36.291377000212009 ], [ -78.46441099145234, 36.286339999869014 ], [ -78.46577499121986, 36.284395999744781 ], [ -78.46967399166212, 36.282088000213314 ], [ -78.478962990657152, 36.257451000053273 ], [ -78.483309991054597, 36.25867499986812 ], [ -78.484170991219244, 36.257708000131636 ], [ -78.484020991142231, 36.256296000284756 ], [ -78.486529990760161, 36.255492999568666 ], [ -78.484337991125514, 36.254191999802927 ], [ -78.484396990673829, 36.251094999750826 ], [ -78.479791991386008, 36.248679999667353 ], [ -78.478774991049093, 36.246758000150272 ], [ -78.479120990950776, 36.245774999758069 ], [ -78.481769991355776, 36.246091999720932 ], [ -78.484488990648515, 36.244817000349116 ], [ -78.483321991590927, 36.242004999527488 ], [ -78.483027990808196, 36.237639000120545 ], [ -78.483507991106407, 36.233371000213459 ], [ -78.485165991634744, 36.230491999725302 ], [ -78.487465990661704, 36.230650999930326 ], [ -78.489167991151419, 36.231749000310487 ], [ -78.488618991406753, 36.23413199962517 ], [ -78.490009990775548, 36.235516999966428 ], [ -78.493907991292218, 36.234338999681668 ], [ -78.495216991684373, 36.235298999691999 ], [ -78.495709990802908, 36.233053999852373 ], [ -78.502161991012855, 36.238343000119798 ], [ -78.505971991518877, 36.239044000070571 ], [ -78.506017990916916, 36.241288999886905 ], [ -78.50793599090386, 36.241883999559455 ], [ -78.508941991502198, 36.240591999975834 ] ] ] } },
{ "type": "Feature", "properties": { "county": "GRANVILLE", "precinct": "BERE", "enr_desc": "Voting District 00Bere", "winner": "Curtis McRae", "winner_votes": 102.0, "winner_share": 61.445783132530117, "runner_up": "Melissa Elliott", "runner_up_votes": 64.0, "runner_up_share": 38.554216867469883, "contest_votes": 166.0, "margin_of_victory": 22.891566265060234, "is_tie": false, "results": [ { "candidate": "Curtis McRae", "votes": 102, "share": 61.44578313253012 }, { "candidate": "Melissa Elliott", "votes": 64, "share": 38.55421686746988 } ], "participated": true, "map_key": "GRANVILLE_BERE" }, "geometry": { "type": "Polygon", "coordinates": [ [ [ -78.80049699109307, 36.309888999763054 ], [ -78.797481991606105, 36.43280600020352 ], [ -78.65722599163179, 36.430781999663061 ], [ -78.660780990573514, 36.307997000110895 ], [ -78.80049699109307, 36.309888999763054 ] ] ] } },
{ "type": "Feature", "properties": { "county": "GRANVILLE", "precinct": "BTNR", "enr_desc": "Voting District 00Btnr", "winner": "Curtis McRae", "winner_votes": 209.0, "winner_share": 54.00516795865633, "runner_up": "Melissa Elliott", "runner_up_votes": 178.0, "runner_up_share": 45.99483204134367, "contest_votes": 387.0, "margin_of_victory": 8.0103359173126591, "is_tie": false, "results": [ { "candidate": "Curtis McRae", "votes": 209, "share": 54.00516795865633 }, { "candidate": "Melissa Elliott", "votes": 178, "share": 45.99483204134367 } ], "participated": true, "map_key": "GRANVILLE_BTNR" }, "geometry": { "type": "Polygon", "coordinates": [ [ [ -78.777000991168137, 36.07149099971442 ], [ -78.780881991107222, 36.072277000431249 ], [ -78.783167991082195, 36.069934999863904 ], [ -78.787634990616553, 36.071864000246514 ], [ -78.787946990753753, 36.074007000107976 ], [ -78.784729991558237, 36.076508000370218 ], [ -78.789226991351796, 36.078815999894218 ], [ -78.791503990926984, 36.077515999759598 ], [ -78.792985991425695, 36.077544999744966 ], [ -78.790797991351454, 36.081707999631817 ], [ -78.792855990958827, 36.086134000325821 ], [ -78.794361991117952, 36.086327999872566 ], [ -78.798311990725693, 36.084610000090514 ], [ -78.807611991178874, 36.087572000352331 ], [ -78.807122991535124, 36.088418999776913 ], [ -78.804633991679708, 36.088534000424879 ], [ -78.803054991246384, 36.089560000062363 ], [ -78.804900991289557, 36.091976999801894 ], [ -78.805315990705978, 36.093915999706788 ], [ -78.804689991126551, 36.094550999637519 ], [ -78.80311799143297, 36.177162000038088 ], [ -78.749725991252888, 36.178419999975411 ], [ -78.696427990605201, 36.18080599982693 ], [ -78.705105990936076, 36.172106999544596 ], [ -78.71447299060182, 36.158616999849677 ], [ -78.725513991391125, 36.146704999729103 ], [ -78.74290999107518, 36.125670999837119 ], [ -78.766047991074814, 36.081008999835639 ], [ -78.769113991072317, 36.077599000297603 ], [ -78.777000991168137, 36.07149099971442 ] ] ] } },
{ "type": "Feature", "properties": { "county": "GRANVILLE", "precinct": "CORI", "enr_desc": "Voting District 00Cori", "winner": "Curtis McRae", "winner_votes": 196.0, "winner_share": 67.820069204152247, "runner_up": "Melissa Elliott", "runner_up_votes": 93.0, "runner_up_share": 32.179930795847753, "contest_votes": 289.0, "margin_of_victory": 35.640138408304495, "is_tie": false, "results": [ { "candidate": "Curtis McRae", "votes": 196, "share": 67.82006920415225 }, { "candidate": "Melissa Elliott", "votes": 93, "share": 32.17993079584775 } ], "participated": true, "map_key": "GRANVILLE_CORI" }, "geometry": { "type": "Polygon", "coordinates": [ [ [ -78.508330991027933, 36.18295599986962 ], [ -78.510805990660444, 36.183667000209141 ], [ -78.51731999063837, 36.181889999984158 ], [ -78.518606991386747, 36.180543000278163 ], [ -78.52310499163228, 36.181192000165531 ], [ -78.525627991237343, 36.180380000195534 ], [ -78.527492990996024, 36.181479999612392 ], [ -78.527187990711667, 36.183795999865978 ], [ -78.53008999071379, 36.184102999632223 ], [ -78.532404990608015, 36.186048000159936 ], [ -78.536285990726881, 36.184865000106846 ], [ -78.536856991449824, 36.182908999679206 ], [ -78.539827991156187, 36.182381999639858 ], [ -78.543479991307848, 36.185190000198752 ], [ -78.546144990836652, 36.185741000409266 ], [ -78.549855991431556, 36.188188000337739 ], [ -78.554802990969023, 36.188386000313685 ], [ -78.557559990607004, 36.190834999787405 ], [ -78.558790991022221, 36.190743000009611 ], [ -78.560079990704779, 36.18903599967274 ], [ -78.561523990687064, 36.189176000118643 ], [ -78.564070991555852, 36.191078000039475 ], [ -78.56668099149114, 36.191492999863272 ], [ -78.574970991142905, 36.190199999784568 ], [ -78.576516990642901, 36.191565999846325 ], [ -78.575786991120907, 36.193596999576634 ], [ -78.576614990675665, 36.194635999967495 ], [ -78.581905990807755, 36.19437499963535 ], [ -78.584020991253979, 36.195456999576059 ], [ -78.585451991002913, 36.194981999673175 ], [ -78.586168991011633, 36.196337000316788 ], [ -78.586934991176562, 36.195847999864213 ], [ -78.587195991243121, 36.193582000366185 ], [ -78.590248990949561, 36.191844000327514 ], [ -78.591377990842048, 36.188603000209014 ], [ -78.595154991360971, 36.190312000184292 ], [ -78.600123991577604, 36.190220999576091 ], [ -78.600085991553854, 36.192461999893069 ], [ -78.601939990921167, 36.193337000183334 ], [ -78.604809990654033, 36.192477999972667 ], [ -78.607353991275559, 36.19523500032323 ], [ -78.608078991457816, 36.194967000049054 ], [ -78.607979991074416, 36.194113999671252 ], [ -78.608860990668376, 36.194066999753339 ], [ -78.610960990595089, 36.196732999883743 ], [ -78.613076990780698, 36.195927999945219 ], [ -78.61561899114956, 36.198954999881849 ], [ -78.619570991432823, 36.201340999605634 ], [ -78.619045990851106, 36.203563000403278 ], [ -78.620414990658404, 36.207713000203107 ], [ -78.618382991250627, 36.20690399954087 ], [ -78.618578991303352, 36.207841999968032 ], [ -78.617291991278861, 36.209775000275904 ], [ -78.615792990756844, 36.209365000356847 ], [ -78.612722991006734, 36.211848000158554 ], [ -78.621262990823951, 36.216772000237796 ], [ -78.627692991175053, 36.221909999655956 ], [ -78.637303991341824, 36.223742000417339 ], [ -78.640255991032475, 36.223029000143519 ], [ -78.641972991219291, 36.224566999948628 ], [ -78.643216991291098, 36.228626999862229 ], [ -78.647894990946199, 36.228836000423648 ], [ -78.650338990822291, 36.233300000198824 ], [ -78.659113991169008, 36.234798999683115 ], [ -78.663174990613413, 36.234674999795139 ], [ -78.661645991169181, 36.240888999679512 ], [ -78.662676991017861, 36.242483999696695 ], [ -78.662678991214392, 36.250143999922507 ], [ -78.660780990573514, 36.307997000110895 ], [ -78.611100990745342, 36.308034000215201 ], [ -78.608661991185386, 36.305803000085675 ], [ -78.606569990917492, 36.305819000076028 ], [ -78.608654991043082, 36.303785999965541 ], [ -78.604141990698665, 36.300645999535327 ], [ -78.603612990727939, 36.299911000170184 ], [ -78.604844991106418, 36.298983000050129 ], [ -78.601798990716645, 36.298484000315511 ], [ -78.605296991450629, 36.292587000095615 ], [ -78.603694991555884, 36.292230000191758 ], [ -78.601826990809215, 36.294094999843864 ], [ -78.600125991255752, 36.292577999546502 ], [ -78.596672991065518, 36.292911999530027 ], [ -78.597277991312993, 36.295033999989315 ], [ -78.589343990917129, 36.29658100041371 ], [ -78.589360990969524, 36.298101000351579 ], [ -78.583559991467695, 36.296327999616082 ], [ -78.581279991157587, 36.297526000400282 ], [ -78.57637199132428, 36.290968000182545 ], [ -78.575116991570212, 36.291997000028424 ], [ -78.573322991430373, 36.292005000246313 ], [ -78.573186991568889, 36.290833000312887 ], [ -78.572369991638283, 36.290954000050952 ], [ -78.572099991391795, 36.287450000208835 ], [ -78.573109991044845, 36.286212999898552 ], [ -78.573844991236655, 36.281053000341288 ], [ -78.572080991370669, 36.27381400035938 ], [ -78.566355990775193, 36.26680099993888 ], [ -78.557431990964901, 36.262202999695113 ], [ -78.544643990983559, 36.269035000175684 ], [ -78.533289991133643, 36.268970000108972 ], [ -78.5312959908415, 36.266682000242568 ], [ -78.529184991604026, 36.265671999619123 ], [ -78.524844991536284, 36.266241999713692 ], [ -78.51818999112875, 36.26397600022473 ], [ -78.51247699097236, 36.266571000046568 ], [ -78.509209991514254, 36.265694000268041 ], [ -78.508941991502198, 36.240591999975834 ], [ -78.508330991027933, 36.18295599986962 ] ] ] } },
{ "type": "Feature", "properties": { "county": "GRANVILLE", "precinct": "CRDL", "enr_desc": "Voting District 00Crdl", "winner": "Curtis McRae", "winner_votes": 278.0, "winner_share": 77.871148459383761, "runner_up": "Melissa Elliott", "runner_up_votes": 79.0, "runner_up_share": 22.128851540616246, "contest_votes": 357.0, "margin_of_victory": 55.742296918767515, "is_tie": false, "results": [ { "candidate": "Curtis McRae", "votes": 278, "share": 77.87114845938376 }, { "candidate": "Melissa Elliott", "votes": 79, "share": 22.128851540616246 } ], "participated": true, "map_key": "GRANVILLE_CRDL" }, "geometry": { "type": "Polygon", "coordinates": [ [ [ -78.590001991374479, 36.344578999891027 ], [ -78.593437991565125, 36.336553999811045 ], [ -78.592446990921786, 36.330424000202058 ], [ -78.595046991030799, 36.324400000383463 ], [ -78.594704990723997, 36.319513999919337 ], [ -78.589047990875514, 36.311633999636584 ], [ -78.600669990812065, 36.305948999576351 ], [ -78.606569990917492, 36.305819000076028 ], [ -78.608661991185386, 36.305803000085675 ], [ -78.611100990745342, 36.308034000215201 ], [ -78.611478990784164, 36.308861000177664 ], [ -78.607695991142236, 36.30892399952959 ], [ -78.607676990852895, 36.308098999980572 ], [ -78.606580991232036, 36.30812100012254 ], [ -78.606601990649935, 36.310197000121605 ], [ -78.607794991635771, 36.312100999960926 ], [ -78.61411399146121, 36.31187600001082 ], [ -78.614260991507805, 36.312717000200024 ], [ -78.612595991517509, 36.313209000328918 ], [ -78.61249999081079, 36.316219000192817 ], [ -78.611285991379887, 36.316250999720445 ], [ -78.611289990725581, 36.317627999636663 ], [ -78.606040991479531, 36.318088000189171 ], [ -78.606322991226278, 36.319730000235097 ], [ -78.605516991652379, 36.319585999604328 ], [ -78.605355991478007, 36.321600999586927 ], [ -78.605246991162232, 36.323114999531796 ], [ -78.60964599149564, 36.323108000120101 ], [ -78.609923990996222, 36.324370000068754 ], [ -78.606112990672599, 36.324459000334862 ], [ -78.606325991279391, 36.326001000254294 ], [ -78.60497999096404, 36.327112000014921 ], [ -78.597834990992055, 36.328916999542315 ], [ -78.597997990781124, 36.334824000090954 ], [ -78.594297991421513, 36.337999999851696 ], [ -78.591793991124476, 36.344436999864719 ], [ -78.590001991374479, 36.344578999891027 ] ] ] } },
{ "type": "Feature", "properties": { "county": "GRANVILLE", "precinct": "CRDM", "enr_desc": "Voting District 00Crdm", "winner": "Curtis McRae", "winner_votes": 355.0, "winner_share": 58.580858085808586, "runner_up": "Melissa Elliott", "runner_up_votes": 251.0, "runner_up_share": 41.419141914191421, "contest_votes": 606.0, "margin_of_victory": 17.161716171617165, "is_tie": false, "results": [ { "candidate": "Curtis McRae", "votes": 355, "share": 58.580858085808586 }, { "candidate": "Melissa Elliott", "votes": 251, "share": 41.41914191419142 } ], "participated": true, "map_key": "GRANVILLE_CRDM" }, "geometry": { "type": "Polygon", "coordinates": [ [ [ -78.671228991014047, 36.069593999936224 ], [ -78.683223991214319, 36.074484000078044 ], [ -78.705601991147816, 36.076442999977246 ], [ -78.71942999088445, 36.075857999979583 ], [ -78.751272991241564, 36.070834000334152 ], [ -78.777000991168137, 36.07149099971442 ], [ -78.769113991072317, 36.077599000297603 ], [ -78.766047991074814, 36.081008999835639 ], [ -78.74290999107518, 36.125670999837119 ], [ -78.725513991391125, 36.146704999729103 ], [ -78.71447299060182, 36.158616999849677 ], [ -78.705105990936076, 36.172106999544596 ], [ -78.696427990605201, 36.18080599982693 ], [ -78.669774990726012, 36.182002000217032 ], [ -78.667419991572501, 36.179191999792991 ], [ -78.667567991133723, 36.170368999900504 ], [ -78.671228991014047, 36.069593999936224 ] ] ] } },
{ "type": "Feature", "properties": { "county": "GRANVILLE", "precinct": "EAOX", "enr_desc": "Voting District 00Eaox", "winner": "Curtis McRae", "winner_votes": 315.0, "winner_share": 80.769230769230774, "runner_up": "Melissa Elliott", "runner_up_votes": 75.0, "runner_up_share": 19.230769230769234, "contest_votes": 390.0, "margin_of_victory": 61.53846153846154, "is_tie": false, "results": [ { "candidate": "Curtis McRae", "votes": 315, "share": 80.76923076923077 }, { "candidate": "Melissa Elliott", "votes": 75, "share": 19.230769230769234 } ], "participated": true, "map_key": "GRANVILLE_EAOX" }, "geometry": { "type": "Polygon", "coordinates": [ [ [ -78.572369991638283, 36.290954000050952 ], [ -78.573158990877729, 36.294926999925458 ], [ -78.58581199113587, 36.312984999750633 ], [ -78.589047990875514, 36.311633999636584 ], [ -78.594704990723997, 36.319513999919337 ], [ -78.595046991030799, 36.324400000383463 ], [ -78.592446990921786, 36.330424000202058 ], [ -78.593437991565125, 36.336553999811045 ], [ -78.590001991374479, 36.344578999891027 ], [ -78.589849991285874, 36.342130000127618 ], [ -78.592542991448781, 36.33521000037176 ], [ -78.591943990831425, 36.329247999530388 ], [ -78.582418990770506, 36.323317999753442 ], [ -78.580947991075405, 36.325232999629911 ], [ -78.580196990597628, 36.323827000319696 ], [ -78.578606991346618, 36.323014000210676 ], [ -78.576285990788378, 36.323108000381886 ], [ -78.57624599138822, 36.321333999798853 ], [ -78.57541699105424, 36.320394999947993 ], [ -78.570598991006051, 36.320669000397494 ], [ -78.568523991384467, 36.318557999891205 ], [ -78.568649991445781, 36.316620000145136 ], [ -78.567204991551336, 36.315768999738573 ], [ -78.55829999071949, 36.314530999616132 ], [ -78.558538991150499, 36.313427000389886 ], [ -78.552992990604224, 36.313252999663042 ], [ -78.55289199167072, 36.3107750002941 ], [ -78.555782991388824, 36.309085000353711 ], [ -78.559440990970032, 36.309024000168733 ], [ -78.558971991138165, 36.30765899992673 ], [ -78.560884990848393, 36.306670000230376 ], [ -78.561749990962383, 36.308960000338843 ], [ -78.563624991223591, 36.308930000417483 ], [ -78.562218991397287, 36.305886999718361 ], [ -78.566513991661708, 36.30367500020995 ], [ -78.570297991247202, 36.305347999950293 ], [ -78.570221991571074, 36.308857000069438 ], [ -78.573858991498653, 36.309133000347408 ], [ -78.573696990599544, 36.304444999873283 ], [ -78.572342991645357, 36.304645999848105 ], [ -78.572222991154717, 36.303781000341445 ], [ -78.573593990626264, 36.3032099996718 ], [ -78.573103991520242, 36.301013000028099 ], [ -78.573653991130243, 36.300581000009203 ], [ -78.570038991291753, 36.296788999616695 ], [ -78.569418990593846, 36.293160000037666 ], [ -78.572369991638283, 36.290954000050952 ] ] ] } },
{ "type": "Feature", "properties": { "county": null, "precinct": null, "enr_desc": "Kittrell", "winner": null, "winner_votes": null, "winner_share": null, "runner_up": null, "runner_up_votes": null, "runner_up_share": null, "contest_votes": null, "margin_of_victory": null, "is_tie": false, "results": null, "participated": false, "map_key": null }, "geometry": { "type": "Polygon", "coordinates": [ [ [ -78.496613991276391, 36.175198999631682 ], [ -78.499299991016088, 36.175770000248384 ], [ -78.508330991027933, 36.18295599986962 ], [ -78.508941991502198, 36.240591999975834 ], [ -78.50793599090386, 36.241883999559455 ], [ -78.506017990916916, 36.241288999886905 ], [ -78.505971991518877, 36.239044000070571 ], [ -78.502161991012855, 36.238343000119798 ], [ -78.495709990802908, 36.233053999852373 ], [ -78.495216991684373, 36.235298999691999 ], [ -78.493907991292218, 36.234338999681668 ], [ -78.490009990775548, 36.235516999966428 ], [ -78.488618991406753, 36.23413199962517 ], [ -78.489167991151419, 36.231749000310487 ], [ -78.487465990661704, 36.230650999930326 ], [ -78.485165991634744, 36.230491999725302 ], [ -78.483507991106407, 36.233371000213459 ], [ -78.483027990808196, 36.237639000120545 ], [ -78.483321991590927, 36.242004999527488 ], [ -78.484488990648515, 36.244817000349116 ], [ -78.481769991355776, 36.246091999720932 ], [ -78.479120990950776, 36.245774999758069 ], [ -78.478774991049093, 36.246758000150272 ], [ -78.479791991386008, 36.248679999667353 ], [ -78.484396990673829, 36.251094999750826 ], [ -78.484337991125514, 36.254191999802927 ], [ -78.486529990760161, 36.255492999568666 ], [ -78.484020991142231, 36.256296000284756 ], [ -78.484170991219244, 36.257708000131636 ], [ -78.483309991054597, 36.25867499986812 ], [ -78.478962990657152, 36.257451000053273 ], [ -78.46967399166212, 36.282088000213314 ], [ -78.46577499121986, 36.284395999744781 ], [ -78.433917991495989, 36.281545999732089 ], [ -78.419294990706661, 36.277122000051115 ], [ -78.405070991202237, 36.277002999806847 ], [ -78.402114991414749, 36.276044999733173 ], [ -78.387580990635783, 36.274615000038054 ], [ -78.361090990649345, 36.265814999943068 ], [ -78.357977991629923, 36.259217999669247 ], [ -78.35789599061053, 36.256559000260957 ], [ -78.358756991413188, 36.254438999591123 ], [ -78.356067991148379, 36.248363000195354 ], [ -78.356295990862563, 36.24557899987154 ], [ -78.358580991077133, 36.243612000038851 ], [ -78.358776990730377, 36.242266000032693 ], [ -78.356707990668596, 36.234719000119213 ], [ -78.37813999146357, 36.235064999521057 ], [ -78.412094990788262, 36.169596999857056 ], [ -78.416552991242568, 36.169335999620458 ], [ -78.418128990910375, 36.167459000296404 ], [ -78.42200899157227, 36.168091000197784 ], [ -78.421522990729812, 36.164416000153686 ], [ -78.424930991299817, 36.163637000336024 ], [ -78.432356991600443, 36.164376999986601 ], [ -78.431316990760777, 36.166141999770396 ], [ -78.431816991382988, 36.166685999926237 ], [ -78.435926990657492, 36.166290000361819 ], [ -78.440761991223695, 36.167798999632282 ], [ -78.448079991182453, 36.168162999657689 ], [ -78.449857990682602, 36.169110000374189 ], [ -78.45401299112369, 36.167996999675488 ], [ -78.455420991021583, 36.165082999671817 ], [ -78.457908991020901, 36.163660999864717 ], [ -78.460415990755962, 36.165947999816979 ], [ -78.460685990753603, 36.1699649998544 ], [ -78.46606499161085, 36.172324999751091 ], [ -78.473962991237627, 36.172581999875909 ], [ -78.476206990670946, 36.173664999822186 ], [ -78.485607991342022, 36.175094000070565 ], [ -78.484529991275096, 36.179007999572832 ], [ -78.487580990728176, 36.179984999839519 ], [ -78.49249799073165, 36.183978999942056 ], [ -78.495734991327282, 36.180234999593189 ], [ -78.495459991605202, 36.175786000387859 ], [ -78.496613991276391, 36.175198999631682 ] ] ] } },
{ "type": "Feature", "properties": { "county": "VANCE", "precinct": "MIDD", "enr_desc": "Middleburg", "winner": "Curtis McRae", "winner_votes": 331.0, "winner_share": 64.39688715953308, "runner_up": "Melissa Elliott", "runner_up_votes": 183.0, "runner_up_share": 35.603112840466927, "contest_votes": 514.0, "margin_of_victory": 28.793774319066152, "is_tie": false, "results": [ { "candidate": "Curtis McRae", "votes": 331, "share": 64.39688715953308 }, { "candidate": "Melissa Elliott", "votes": 183, "share": 35.60311284046693 } ], "participated": true, "map_key": "VANCE_MIDD" }, "geometry": { "type": "Polygon", "coordinates": [ [ [ -78.400513991338016, 36.384746000402707 ], [ -78.40079099088176, 36.39037999992189 ], [ -78.399330990852519, 36.394179999939212 ], [ -78.399168990609994, 36.398882000198576 ], [ -78.392769991376497, 36.408507999915876 ], [ -78.390410990660484, 36.415804000291232 ], [ -78.384301990644914, 36.42697200019181 ], [ -78.378047990615173, 36.441981000096881 ], [ -78.375098991374884, 36.45168400004723 ], [ -78.374192991427577, 36.45271400017289 ], [ -78.371208991228045, 36.473310000378902 ], [ -78.365819990562642, 36.486652000170977 ], [ -78.34992499157002, 36.515917999621877 ], [ -78.323990990891417, 36.543822000227344 ], [ -78.287439991198099, 36.358356999900145 ], [ -78.297514991605212, 36.358087000237227 ], [ -78.306578991068676, 36.354056999657367 ], [ -78.325957990791025, 36.353324999892628 ], [ -78.334837991108202, 36.354494999821235 ], [ -78.343600991147639, 36.353071999989957 ], [ -78.348819991059131, 36.35360500025353 ], [ -78.350868991037402, 36.352958999687992 ], [ -78.348453990805879, 36.354499999787336 ], [ -78.348115991406686, 36.357124999735596 ], [ -78.349381991109937, 36.3605320003984 ], [ -78.350922990964008, 36.361384999818306 ], [ -78.344562990766477, 36.366911000143787 ], [ -78.343371990692788, 36.36967099953592 ], [ -78.34647099066288, 36.377922999682262 ], [ -78.346211991504816, 36.380827000361371 ], [ -78.3747809909312, 36.380345999620857 ], [ -78.400513991338016, 36.384746000402707 ] ] ] } },
{ "type": "Feature", "properties": { "county": "GRANVILLE", "precinct": "MTEN", "enr_desc": "Voting District 00Mten", "winner": "Curtis McRae", "winner_votes": 312.0, "winner_share": 51.741293532338304, "runner_up": "Melissa Elliott", "runner_up_votes": 291.0, "runner_up_share": 48.258706467661696, "contest_votes": 603.0, "margin_of_victory": 3.4825870646766077, "is_tie": false, "results": [ { "candidate": "Curtis McRae", "votes": 312, "share": 51.741293532338304 }, { "candidate": "Melissa Elliott", "votes": 291, "share": 48.258706467661696 } ], "participated": true, "map_key": "GRANVILLE_MTEN" }, "geometry": { "type": "Polygon", "coordinates": [ [ [ -78.557662990676178, 36.025702000315519 ], [ -78.603678991609854, 36.042412999950713 ], [ -78.671228991014047, 36.069593999936224 ], [ -78.667567991133723, 36.170368999900504 ], [ -78.65548699063136, 36.17047300010762 ], [ -78.634527991683782, 36.16599999965532 ], [ -78.612651991083055, 36.158571999610494 ], [ -78.598473990797217, 36.146967999984298 ], [ -78.591893990941628, 36.142623000233421 ], [ -78.581659990789092, 36.142527999961267 ], [ -78.576562990783856, 36.141847000283796 ], [ -78.574933990702803, 36.140519000028249 ], [ -78.572817990827403, 36.136566000383908 ], [ -78.576400991614562, 36.1300810002435 ], [ -78.575195991602271, 36.126821000420058 ], [ -78.576132990781829, 36.120811999678992 ], [ -78.574957991586047, 36.11508100007859 ], [ -78.562854990879785, 36.11197999987963 ], [ -78.55826799113234, 36.107172999915356 ], [ -78.560196991320367, 36.097857999844713 ], [ -78.560370991284273, 36.093308000285376 ], [ -78.567437990904537, 36.096364000054287 ], [ -78.573380990861878, 36.097091000412377 ], [ -78.575908991244432, 36.095707999633639 ], [ -78.583006990871937, 36.094325999782704 ], [ -78.587033991218718, 36.095833999846782 ], [ -78.591262990630497, 36.094571000138544 ], [ -78.593247991223762, 36.0927229996135 ], [ -78.593261991225319, 36.091668999992756 ], [ -78.595985991612054, 36.089712999549036 ], [ -78.602429991512011, 36.08841399964242 ], [ -78.599321991300286, 36.078233000079493 ], [ -78.596307990964206, 36.0719780001766 ], [ -78.583563990599544, 36.075809999543054 ], [ -78.583049991241268, 36.074868999948826 ], [ -78.58045399074129, 36.066290000008316 ], [ -78.581467991658684, 36.060850000201881 ], [ -78.578343991141253, 36.055515999695032 ], [ -78.58008599108291, 36.05240700020336 ], [ -78.579782991412472, 36.047454999818093 ], [ -78.583378991474959, 36.044208000370219 ], [ -78.583673990827506, 36.041352000339685 ], [ -78.581333991680864, 36.041444999823412 ], [ -78.57971099083646, 36.04293100039726 ], [ -78.576149991288219, 36.043836999782691 ], [ -78.5738339916809, 36.046238999569084 ], [ -78.569192991143197, 36.045351999521763 ], [ -78.568148991235716, 36.042521999753468 ], [ -78.560459990935044, 36.032692000072565 ], [ -78.559826990759348, 36.028346000160731 ], [ -78.557662990676178, 36.025702000315519 ] ] ] } },
{ "type": "Feature", "properties": { "county": "VANCE", "precinct": "NH", "enr_desc": "New Hope", "winner": "Curtis McRae", "winner_votes": 345.0, "winner_share": 60.954063604240282, "runner_up": "Melissa Elliott", "runner_up_votes": 221.0, "runner_up_share": 39.045936395759718, "contest_votes": 566.0, "margin_of_victory": 21.908127208480565, "is_tie": false, "results": [ { "candidate": "Curtis McRae", "votes": 345, "share": 60.95406360424028 }, { "candidate": "Melissa Elliott", "votes": 221, "share": 39.04593639575972 } ], "participated": true, "map_key": "VANCE_NH" }, "geometry": { "type": "Polygon", "coordinates": [ [ [ -78.510452991184934, 36.382352999935335 ], [ -78.510959990681144, 36.430752000110978 ], [ -78.511223991035408, 36.454807999984467 ], [ -78.500928990692415, 36.486956999833822 ], [ -78.504060991347004, 36.488280999528961 ], [ -78.504186990561323, 36.489581999793543 ], [ -78.502344990837898, 36.491091000055846 ], [ -78.504477991281789, 36.491846000072464 ], [ -78.504202991614306, 36.495160999642899 ], [ -78.502314990889616, 36.498146999742026 ], [ -78.50055799058309, 36.49826999987026 ], [ -78.501534990978456, 36.501648000412544 ], [ -78.500222990628444, 36.504000999553071 ], [ -78.494856991475316, 36.508216000124996 ], [ -78.496886990632319, 36.508356999924601 ], [ -78.496180991365677, 36.510375999745243 ], [ -78.497735990807001, 36.514663999764124 ], [ -78.493796990949008, 36.51605299959845 ], [ -78.493324991636612, 36.51830699953949 ], [ -78.491349990547988, 36.51824099978932 ], [ -78.489956991321989, 36.517280000252754 ], [ -78.488787991345845, 36.51822599964774 ], [ -78.486256991326016, 36.518184999792041 ], [ -78.485468991565554, 36.516761000346484 ], [ -78.483767990638455, 36.516971000203796 ], [ -78.483476991254676, 36.518162000330506 ], [ -78.480243990797945, 36.517968000398724 ], [ -78.479831991116725, 36.51944700005555 ], [ -78.478624990682889, 36.519465999785751 ], [ -78.475458990689845, 36.522057000271104 ], [ -78.474129991027056, 36.522246000139582 ], [ -78.472906991572614, 36.521232000157454 ], [ -78.472482991021266, 36.522397000339929 ], [ -78.470500990696223, 36.522671000231149 ], [ -78.470090991201317, 36.523576999617944 ], [ -78.470821991023342, 36.524957999765597 ], [ -78.47020599085856, 36.525809999931624 ], [ -78.468289991379152, 36.523587000359271 ], [ -78.466348991330321, 36.524119999583604 ], [ -78.465199990688802, 36.525641999712271 ], [ -78.468628990852665, 36.525692000090757 ], [ -78.469312991087293, 36.526684999767816 ], [ -78.467077991308315, 36.53218099961483 ], [ -78.463996991609022, 36.533627999808161 ], [ -78.458856991582493, 36.53181300006905 ], [ -78.458598991107934, 36.533456999611751 ], [ -78.457388991037504, 36.533985000237855 ], [ -78.456011991625445, 36.533361999787843 ], [ -78.455339990699798, 36.534109000086616 ], [ -78.454909991096343, 36.535704999667736 ], [ -78.455995991346711, 36.538311999959802 ], [ -78.453390990649041, 36.540057999944615 ], [ -78.457301990580973, 36.541462999598352 ], [ -78.456912990583135, 36.542541000369468 ], [ -78.323990990891417, 36.543822000227344 ], [ -78.34992499157002, 36.515917999621877 ], [ -78.365819990562642, 36.486652000170977 ], [ -78.371208991228045, 36.473310000378902 ], [ -78.374192991427577, 36.45271400017289 ], [ -78.375098991374884, 36.45168400004723 ], [ -78.378047990615173, 36.441981000096881 ], [ -78.384301990644914, 36.42697200019181 ], [ -78.390410990660484, 36.415804000291232 ], [ -78.392769991376497, 36.408507999915876 ], [ -78.399168990609994, 36.398882000198576 ], [ -78.399330990852519, 36.394179999939212 ], [ -78.40079099088176, 36.39037999992189 ], [ -78.400513991338016, 36.384746000402707 ], [ -78.400571991491759, 36.382640999575898 ], [ -78.402128990995635, 36.381497000349725 ], [ -78.404719991027619, 36.375573000228698 ], [ -78.417396991247287, 36.375370000158355 ], [ -78.446142990832442, 36.375137999708322 ], [ -78.44622799075519, 36.384725000136605 ], [ -78.510452991184934, 36.382352999935335 ] ] ] } },
{ "type": "Feature", "properties": { "county": "VANCE", "precinct": "NV", "enr_desc": "Northern Vance", "winner": "Curtis McRae", "winner_votes": 91.0, "winner_share": 61.073825503355707, "runner_up": "Melissa Elliott", "runner_up_votes": 58.0, "runner_up_share": 38.926174496644293, "contest_votes": 149.0, "margin_of_victory": 22.147651006711413, "is_tie": false, "results": [ { "candidate": "Curtis McRae", "votes": 91, "share": 61.07382550335571 }, { "candidate": "Melissa Elliott", "votes": 58, "share": 38.92617449664429 } ], "participated": true, "map_key": "VANCE_NV" }, "geometry": { "type": "Polygon", "coordinates": [ [ [ -78.414133990564721, 36.34643200028448 ], [ -78.415484990787562, 36.348688999864898 ], [ -78.419513990860978, 36.352296000050615 ], [ -78.420350991220772, 36.354252000283317 ], [ -78.418748991118889, 36.363569999895525 ], [ -78.418967991375894, 36.370288000095542 ], [ -78.417396991247287, 36.375370000158355 ], [ -78.404719991027619, 36.375573000228698 ], [ -78.402128990995635, 36.381497000349725 ], [ -78.400571991491759, 36.382640999575898 ], [ -78.400513991338016, 36.384746000402707 ], [ -78.3747809909312, 36.380345999620857 ], [ -78.346211991504816, 36.380827000361371 ], [ -78.34647099066288, 36.377922999682262 ], [ -78.343371990692788, 36.36967099953592 ], [ -78.344562990766477, 36.366911000143787 ], [ -78.350922990964008, 36.361384999818306 ], [ -78.361725991118163, 36.351768999712291 ], [ -78.366349991153072, 36.349227000311565 ], [ -78.365686991140123, 36.341083000342806 ], [ -78.366267991091377, 36.334505999644001 ], [ -78.36793599070657, 36.321446999672652 ], [ -78.369329991337466, 36.316417999712954 ], [ -78.372435991050622, 36.316936999745067 ], [ -78.37192299057007, 36.318177999507142 ], [ -78.373588991116193, 36.319442999932221 ], [ -78.374416990731788, 36.317005999925335 ], [ -78.379320990645098, 36.316887000194477 ], [ -78.378806991608201, 36.317347000191567 ], [ -78.381300991548827, 36.318764000200318 ], [ -78.380575990798135, 36.321642999956069 ], [ -78.382662991113975, 36.320899000363688 ], [ -78.382930991666157, 36.319605999533088 ], [ -78.383568991630938, 36.320060999913707 ], [ -78.382726990605306, 36.321942999642609 ], [ -78.387343991200424, 36.323573000185654 ], [ -78.38621599128453, 36.32640299980217 ], [ -78.383860991134952, 36.325002000243053 ], [ -78.382771990979393, 36.331123000280563 ], [ -78.38728799099043, 36.330994000375014 ], [ -78.387324991113161, 36.333750999553843 ], [ -78.388715990663272, 36.333663999710126 ], [ -78.388671990750581, 36.335285999729187 ], [ -78.390773990992869, 36.33557799991874 ], [ -78.390710991548815, 36.336563000192427 ], [ -78.390011990996925, 36.336560000139841 ], [ -78.390137990606348, 36.339353000333034 ], [ -78.392699991484562, 36.340226000307347 ], [ -78.389021990728679, 36.346479000134885 ], [ -78.389428991594968, 36.347751999569134 ], [ -78.391214990908097, 36.347460000364329 ], [ -78.390670990776897, 36.348229999739836 ], [ -78.391721991301466, 36.349308999924041 ], [ -78.390758991249868, 36.350103999971964 ], [ -78.389982990971134, 36.349528999588074 ], [ -78.389257991600473, 36.350631000213035 ], [ -78.390034991137412, 36.351073999918512 ], [ -78.392405990714181, 36.348932999989877 ], [ -78.395558990909066, 36.348651999666259 ], [ -78.395799991020738, 36.346745000298206 ], [ -78.407966990766425, 36.341646999935072 ], [ -78.41182399164073, 36.34586299956905 ], [ -78.413396990697805, 36.346870999535462 ], [ -78.414133990564721, 36.34643200028448 ] ] ] } },
{ "type": "Feature", "properties": { "county": "GRANVILLE", "precinct": "OKHL", "enr_desc": "Voting District 00Okhl", "winner": "Curtis McRae", "winner_votes": 106.0, "winner_share": 79.104477611940297, "runner_up": "Melissa Elliott", "runner_up_votes": 28.0, "runner_up_share": 20.8955223880597, "contest_votes": 134.0, "margin_of_victory": 58.208955223880594, "is_tie": false, "results": [ { "candidate": "Curtis McRae", "votes": 106, "share": 79.1044776119403 }, { "candidate": "Melissa Elliott", "votes": 28, "share": 20.8955223880597 } ], "participated": true, "map_key": "GRANVILLE_OKHL" }, "geometry": { "type": "Polygon", "coordinates": [ [ [ -78.797481991606105, 36.43280600020352 ], [ -78.79484499154951, 36.526438999647347 ], [ -78.796273991627828, 36.541740999789972 ], [ -78.654867990915434, 36.54190900011924 ], [ -78.655454991161662, 36.487660999699528 ], [ -78.65722599163179, 36.430781999663061 ], [ -78.797481991606105, 36.43280600020352 ] ] ] } },
{ "type": "Feature", "properties": { "county": null, "precinct": null, "enr_desc": "Sandy Creek", "winner": null, "winner_votes": null, "winner_share": null, "runner_up": null, "runner_up_votes": null, "runner_up_share": null, "contest_votes": null, "margin_of_victory": null, "is_tie": false, "results": null, "participated": false, "map_key": null }, "geometry": { "type": "Polygon", "coordinates": [ [ [ -78.387580990635783, 36.274615000038054 ], [ -78.378401990939466, 36.298270000224079 ], [ -78.379062990682456, 36.300241999989872 ], [ -78.374821991544323, 36.308011999656067 ], [ -78.370464991172341, 36.312857999926855 ], [ -78.369329991337466, 36.316417999712954 ], [ -78.36793599070657, 36.321446999672652 ], [ -78.366267991091377, 36.334505999644001 ], [ -78.365686991140123, 36.341083000342806 ], [ -78.366349991153072, 36.349227000311565 ], [ -78.361725991118163, 36.351768999712291 ], [ -78.350922990964008, 36.361384999818306 ], [ -78.349381991109937, 36.3605320003984 ], [ -78.348115991406686, 36.357124999735596 ], [ -78.348453990805879, 36.354499999787336 ], [ -78.350868991037402, 36.352958999687992 ], [ -78.348819991059131, 36.35360500025353 ], [ -78.343600991147639, 36.353071999989957 ], [ -78.334837991108202, 36.354494999821235 ], [ -78.325957990791025, 36.353324999892628 ], [ -78.306578991068676, 36.354056999657367 ], [ -78.297514991605212, 36.358087000237227 ], [ -78.287439991198099, 36.358356999900145 ], [ -78.277164990846273, 36.306131999721174 ], [ -78.290940991265259, 36.290262999956461 ], [ -78.292241990919734, 36.284982000223685 ], [ -78.302137990738728, 36.27470800020717 ], [ -78.304986991003929, 36.267923999706198 ], [ -78.308550991135846, 36.264925000082165 ], [ -78.314800990802567, 36.256171000225748 ], [ -78.332566990951264, 36.241677000049101 ], [ -78.338134991190614, 36.234447999920583 ], [ -78.356707990668596, 36.234719000119213 ], [ -78.358776990730377, 36.242266000032693 ], [ -78.358580991077133, 36.243612000038851 ], [ -78.356295990862563, 36.24557899987154 ], [ -78.356067991148379, 36.248363000195354 ], [ -78.358756991413188, 36.254438999591123 ], [ -78.35789599061053, 36.256559000260957 ], [ -78.357977991629923, 36.259217999669247 ], [ -78.361090990649345, 36.265814999943068 ], [ -78.387580990635783, 36.274615000038054 ] ] ] } },
{ "type": "Feature", "properties": { "county": "GRANVILLE", "precinct": "SALM", "enr_desc": "Voting District 00Salm", "winner": "Curtis McRae", "winner_votes": 194.0, "winner_share": 78.861788617886177, "runner_up": "Melissa Elliott", "runner_up_votes": 52.0, "runner_up_share": 21.138211382113823, "contest_votes": 246.0, "margin_of_victory": 57.723577235772353, "is_tie": false, "results": [ { "candidate": "Curtis McRae", "votes": 194, "share": 78.86178861788618 }, { "candidate": "Melissa Elliott", "votes": 52, "share": 21.138211382113823 } ], "participated": true, "map_key": "GRANVILLE_SALM" }, "geometry": { "type": "Polygon", "coordinates": [ [ [ -78.590001991374479, 36.344578999891027 ], [ -78.590233991225475, 36.358526000229716 ], [ -78.591550990893765, 36.365751999866305 ], [ -78.59323299121715, 36.369363000402785 ], [ -78.594611990899054, 36.379444999848161 ], [ -78.589404990671895, 36.415118000401549 ], [ -78.584362991081662, 36.423169000180394 ], [ -78.582125990615012, 36.429896999796867 ], [ -78.510959990681144, 36.430752000110978 ], [ -78.510452991184934, 36.382352999935335 ], [ -78.509677991315542, 36.30972900027637 ], [ -78.555782991388824, 36.309085000353711 ], [ -78.55289199167072, 36.3107750002941 ], [ -78.552992990604224, 36.313252999663042 ], [ -78.558538991150499, 36.313427000389886 ], [ -78.55829999071949, 36.314530999616132 ], [ -78.567204991551336, 36.315768999738573 ], [ -78.568649991445781, 36.316620000145136 ], [ -78.568523991384467, 36.318557999891205 ], [ -78.570598991006051, 36.320669000397494 ], [ -78.57541699105424, 36.320394999947993 ], [ -78.57624599138822, 36.321333999798853 ], [ -78.576285990788378, 36.323108000381886 ], [ -78.578606991346618, 36.323014000210676 ], [ -78.580196990597628, 36.323827000319696 ], [ -78.580947991075405, 36.325232999629911 ], [ -78.582418990770506, 36.323317999753442 ], [ -78.591943990831425, 36.329247999530388 ], [ -78.592542991448781, 36.33521000037176 ], [ -78.589849991285874, 36.342130000127618 ], [ -78.590001991374479, 36.344578999891027 ] ] ] } },
{ "type": "Feature", "properties": { "county": "GRANVILLE", "precinct": "SASS", "enr_desc": "Voting District 00Sass", "winner": "Curtis McRae", "winner_votes": 144.0, "winner_share": 72.361809045226138, "runner_up": "Melissa Elliott", "runner_up_votes": 55.0, "runner_up_share": 27.638190954773869, "contest_votes": 199.0, "margin_of_victory": 44.72361809045227, "is_tie": false, "results": [ { "candidate": "Curtis McRae", "votes": 144, "share": 72.36180904522614 }, { "candidate": "Melissa Elliott", "votes": 55, "share": 27.63819095477387 } ], "participated": true, "map_key": "GRANVILLE_SASS" }, "geometry": { "type": "Polygon", "coordinates": [ [ [ -78.510959990681144, 36.430752000110978 ], [ -78.582125990615012, 36.429896999796867 ], [ -78.65722599163179, 36.430781999663061 ], [ -78.655454991161662, 36.487660999699528 ], [ -78.654867990915434, 36.54190900011924 ], [ -78.510896990543799, 36.541048999933594 ], [ -78.456912990583135, 36.542541000369468 ], [ -78.457301990580973, 36.541462999598352 ], [ -78.453390990649041, 36.540057999944615 ], [ -78.455995991346711, 36.538311999959802 ], [ -78.454909991096343, 36.535704999667736 ], [ -78.455339990699798, 36.534109000086616 ], [ -78.456011991625445, 36.533361999787843 ], [ -78.457388991037504, 36.533985000237855 ], [ -78.458598991107934, 36.533456999611751 ], [ -78.458856991582493, 36.53181300006905 ], [ -78.463996991609022, 36.533627999808161 ], [ -78.467077991308315, 36.53218099961483 ], [ -78.469312991087293, 36.526684999767816 ], [ -78.468628990852665, 36.525692000090757 ], [ -78.465199990688802, 36.525641999712271 ], [ -78.466348991330321, 36.524119999583604 ], [ -78.468289991379152, 36.523587000359271 ], [ -78.47020599085856, 36.525809999931624 ], [ -78.470821991023342, 36.524957999765597 ], [ -78.470090991201317, 36.523576999617944 ], [ -78.470500990696223, 36.522671000231149 ], [ -78.472482991021266, 36.522397000339929 ], [ -78.472906991572614, 36.521232000157454 ], [ -78.474129991027056, 36.522246000139582 ], [ -78.475458990689845, 36.522057000271104 ], [ -78.478624990682889, 36.519465999785751 ], [ -78.479831991116725, 36.51944700005555 ], [ -78.480243990797945, 36.517968000398724 ], [ -78.483476991254676, 36.518162000330506 ], [ -78.483767990638455, 36.516971000203796 ], [ -78.485468991565554, 36.516761000346484 ], [ -78.486256991326016, 36.518184999792041 ], [ -78.488787991345845, 36.51822599964774 ], [ -78.489956991321989, 36.517280000252754 ], [ -78.491349990547988, 36.51824099978932 ], [ -78.493324991636612, 36.51830699953949 ], [ -78.493796990949008, 36.51605299959845 ], [ -78.497735990807001, 36.514663999764124 ], [ -78.496180991365677, 36.510375999745243 ], [ -78.496886990632319, 36.508356999924601 ], [ -78.494856991475316, 36.508216000124996 ], [ -78.500222990628444, 36.504000999553071 ], [ -78.501534990978456, 36.501648000412544 ], [ -78.50055799058309, 36.49826999987026 ], [ -78.502314990889616, 36.498146999742026 ], [ -78.504202991614306, 36.495160999642899 ], [ -78.504477991281789, 36.491846000072464 ], [ -78.502344990837898, 36.491091000055846 ], [ -78.504186990561323, 36.489581999793543 ], [ -78.504060991347004, 36.488280999528961 ], [ -78.500928990692415, 36.486956999833822 ], [ -78.511223991035408, 36.454807999984467 ], [ -78.510959990681144, 36.430752000110978 ] ] ] } },
{ "type": "Feature", "properties": { "county": "GRANVILLE", "precinct": "SOOX", "enr_desc": "Voting District 00Soox", "winner": "Curtis McRae", "winner_votes": 239.0, "winner_share": 85.357142857142847, "runner_up": "Melissa Elliott", "runner_up_votes": 41.0, "runner_up_share": 14.642857142857144, "contest_votes": 280.0, "margin_of_victory": 70.714285714285708, "is_tie": false, "results": [ { "candidate": "Curtis McRae", "votes": 239, "share": 85.35714285714285 }, { "candidate": "Melissa Elliott", "votes": 41, "share": 14.642857142857144 } ], "participated": true, "map_key": "GRANVILLE_SOOX" }, "geometry": { "type": "Polygon", "coordinates": [ [ [ -78.572369991638283, 36.290954000050952 ], [ -78.573186991568889, 36.290833000312887 ], [ -78.573322991430373, 36.292005000246313 ], [ -78.575116991570212, 36.291997000028424 ], [ -78.57637199132428, 36.290968000182545 ], [ -78.581279991157587, 36.297526000400282 ], [ -78.583559991467695, 36.296327999616082 ], [ -78.589360990969524, 36.298101000351579 ], [ -78.589343990917129, 36.29658100041371 ], [ -78.597277991312993, 36.295033999989315 ], [ -78.596672991065518, 36.292911999530027 ], [ -78.600125991255752, 36.292577999546502 ], [ -78.601826990809215, 36.294094999843864 ], [ -78.603694991555884, 36.292230000191758 ], [ -78.605296991450629, 36.292587000095615 ], [ -78.601798990716645, 36.298484000315511 ], [ -78.604844991106418, 36.298983000050129 ], [ -78.603612990727939, 36.299911000170184 ], [ -78.604141990698665, 36.300645999535327 ], [ -78.608654991043082, 36.303785999965541 ], [ -78.606569990917492, 36.305819000076028 ], [ -78.600669990812065, 36.305948999576351 ], [ -78.589047990875514, 36.311633999636584 ], [ -78.58581199113587, 36.312984999750633 ], [ -78.573158990877729, 36.294926999925458 ], [ -78.572369991638283, 36.290954000050952 ] ] ] } },
{ "type": "Feature", "properties": { "county": "GRANVILLE", "precinct": "TYHO", "enr_desc": "Voting District 00Tyho", "winner": "Curtis McRae", "winner_votes": 169.0, "winner_share": 54.166666666666664, "runner_up": "Melissa Elliott", "runner_up_votes": 143.0, "runner_up_share": 45.833333333333329, "contest_votes": 312.0, "margin_of_victory": 8.3333333333333357, "is_tie": false, "results": [ { "candidate": "Curtis McRae", "votes": 169, "share": 54.166666666666664 }, { "candidate": "Melissa Elliott", "votes": 143, "share": 45.83333333333333 } ], "participated": true, "map_key": "GRANVILLE_TYHO" }, "geometry": { "type": "Polygon", "coordinates": [ [ [ -78.80311799143297, 36.177162000038088 ], [ -78.80049699109307, 36.309888999763054 ], [ -78.660780990573514, 36.307997000110895 ], [ -78.662678991214392, 36.250143999922507 ], [ -78.662676991017861, 36.242483999696695 ], [ -78.661645991169181, 36.240888999679512 ], [ -78.663174990613413, 36.234674999795139 ], [ -78.659113991169008, 36.234798999683115 ], [ -78.650338990822291, 36.233300000198824 ], [ -78.647894990946199, 36.228836000423648 ], [ -78.643216991291098, 36.228626999862229 ], [ -78.641972991219291, 36.224566999948628 ], [ -78.640255991032475, 36.223029000143519 ], [ -78.637303991341824, 36.223742000417339 ], [ -78.627692991175053, 36.221909999655956 ], [ -78.621262990823951, 36.216772000237796 ], [ -78.612722991006734, 36.211848000158554 ], [ -78.615792990756844, 36.209365000356847 ], [ -78.617291991278861, 36.209775000275904 ], [ -78.618578991303352, 36.207841999968032 ], [ -78.618382991250627, 36.20690399954087 ], [ -78.620414990658404, 36.207713000203107 ], [ -78.619045990851106, 36.203563000403278 ], [ -78.619570991432823, 36.201340999605634 ], [ -78.628716991260418, 36.199334000087305 ], [ -78.634689991456469, 36.199399000222293 ], [ -78.644165990674395, 36.192880999568217 ], [ -78.645858990869314, 36.190786999668077 ], [ -78.652408991347357, 36.18788900036725 ], [ -78.655599991172579, 36.187992999571733 ], [ -78.660058991403204, 36.186522999716907 ], [ -78.66317099152289, 36.183898000116798 ], [ -78.666637991466501, 36.178628999681891 ], [ -78.667419991572501, 36.179191999792991 ], [ -78.669774990726012, 36.182002000217032 ], [ -78.696427990605201, 36.18080599982693 ], [ -78.749725991252888, 36.178419999975411 ], [ -78.80311799143297, 36.177162000038088 ] ] ] } },
{ "type": "Feature", "properties": { "county": "VANCE", "precinct": "WH", "enr_desc": "West Henderson", "winner": "Curtis McRae", "winner_votes": 500.0, "winner_share": 69.34812760055479, "runner_up": "Melissa Elliott", "runner_up_votes": 221.0, "runner_up_share": 30.651872399445214, "contest_votes": 721.0, "margin_of_victory": 38.69625520110958, "is_tie": false, "results": [ { "candidate": "Curtis McRae", "votes": 500, "share": 69.34812760055479 }, { "candidate": "Melissa Elliott", "votes": 221, "share": 30.651872399445214 } ], "participated": true, "map_key": "VANCE_WH" }, "geometry": { "type": "Polygon", "coordinates": [ [ [ -78.446142990832442, 36.375137999708322 ], [ -78.417396991247287, 36.375370000158355 ], [ -78.418967991375894, 36.370288000095542 ], [ -78.418748991118889, 36.363569999895525 ], [ -78.420350991220772, 36.354252000283317 ], [ -78.419513990860978, 36.352296000050615 ], [ -78.415484990787562, 36.348688999864898 ], [ -78.414133990564721, 36.34643200028448 ], [ -78.420926991587095, 36.342597999662701 ], [ -78.419187991068199, 36.34060000021671 ], [ -78.420400990679113, 36.339486999641622 ], [ -78.416831991623113, 36.339453999594099 ], [ -78.416362990665675, 36.335140999511189 ], [ -78.41874599069304, 36.326814999758483 ], [ -78.415950991664928, 36.326647000285178 ], [ -78.416872991300181, 36.323837000248204 ], [ -78.416006990594738, 36.32373100032747 ], [ -78.414118991216853, 36.320669999682764 ], [ -78.415691991281463, 36.320001999797732 ], [ -78.414590990923841, 36.319144000277447 ], [ -78.419241991185785, 36.316641000118771 ], [ -78.432458991616031, 36.312049999859795 ], [ -78.438985991270243, 36.308036000170631 ], [ -78.442719990892542, 36.306769999708031 ], [ -78.449641990639051, 36.306479000161168 ], [ -78.455855991042057, 36.303590999619637 ], [ -78.458129991245173, 36.303703999781249 ], [ -78.455676990836764, 36.309170000167661 ], [ -78.456569991438116, 36.318494000338106 ], [ -78.454921991610718, 36.320569999590425 ], [ -78.450739991631153, 36.321698000402385 ], [ -78.445252990650332, 36.338334000405958 ], [ -78.447000990996671, 36.340391999695335 ], [ -78.451968991390828, 36.352873000369172 ], [ -78.454581990679031, 36.355913999917739 ], [ -78.453848990721511, 36.364450000350615 ], [ -78.452114991057044, 36.36842300030299 ], [ -78.448737991176685, 36.370469000125048 ], [ -78.446390990577214, 36.373479999832483 ], [ -78.446142990832442, 36.375137999708322 ] ] ] } },
{ "type": "Feature", "properties": { "county": "GRANVILLE", "precinct": "WILT", "enr_desc": "Voting District 00Wilt", "winner": "Melissa Elliott", "winner_votes": 322.0, "winner_share": 61.450381679389309, "runner_up": "Curtis McRae", "runner_up_votes": 202.0, "runner_up_share": 38.549618320610683, "contest_votes": 524.0, "margin_of_victory": 22.900763358778626, "is_tie": false, "results": [ { "candidate": "Melissa Elliott", "votes": 322, "share": 61.45038167938931 }, { "candidate": "Curtis McRae", "votes": 202, "share": 38.54961832061068 } ], "participated": true, "map_key": "GRANVILLE_WILT" }, "geometry": { "type": "Polygon", "coordinates": [ [ [ -78.557662990676178, 36.025702000315519 ], [ -78.559826990759348, 36.028346000160731 ], [ -78.560459990935044, 36.032692000072565 ], [ -78.568148991235716, 36.042521999753468 ], [ -78.569192991143197, 36.045351999521763 ], [ -78.5738339916809, 36.046238999569084 ], [ -78.576149991288219, 36.043836999782691 ], [ -78.57971099083646, 36.04293100039726 ], [ -78.581333991680864, 36.041444999823412 ], [ -78.583673990827506, 36.041352000339685 ], [ -78.583378991474959, 36.044208000370219 ], [ -78.579782991412472, 36.047454999818093 ], [ -78.58008599108291, 36.05240700020336 ], [ -78.578343991141253, 36.055515999695032 ], [ -78.581467991658684, 36.060850000201881 ], [ -78.58045399074129, 36.066290000008316 ], [ -78.583049991241268, 36.074868999948826 ], [ -78.583563990599544, 36.075809999543054 ], [ -78.596307990964206, 36.0719780001766 ], [ -78.599321991300286, 36.078233000079493 ], [ -78.602429991512011, 36.08841399964242 ], [ -78.595985991612054, 36.089712999549036 ], [ -78.593261991225319, 36.091668999992756 ], [ -78.593247991223762, 36.0927229996135 ], [ -78.591262990630497, 36.094571000138544 ], [ -78.587033991218718, 36.095833999846782 ], [ -78.583006990871937, 36.094325999782704 ], [ -78.575908991244432, 36.095707999633639 ], [ -78.573380990861878, 36.097091000412377 ], [ -78.567437990904537, 36.096364000054287 ], [ -78.560370991284273, 36.093308000285376 ], [ -78.560196991320367, 36.097857999844713 ], [ -78.55826799113234, 36.107172999915356 ], [ -78.562854990879785, 36.11197999987963 ], [ -78.574957991586047, 36.11508100007859 ], [ -78.576132990781829, 36.120811999678992 ], [ -78.575195991602271, 36.126821000420058 ], [ -78.576400991614562, 36.1300810002435 ], [ -78.572817990827403, 36.136566000383908 ], [ -78.574933990702803, 36.140519000028249 ], [ -78.576562990783856, 36.141847000283796 ], [ -78.581659990789092, 36.142527999961267 ], [ -78.591893990941628, 36.142623000233421 ], [ -78.598473990797217, 36.146967999984298 ], [ -78.612651991083055, 36.158571999610494 ], [ -78.634527991683782, 36.16599999965532 ], [ -78.65548699063136, 36.17047300010762 ], [ -78.667567991133723, 36.170368999900504 ], [ -78.667419991572501, 36.179191999792991 ], [ -78.666637991466501, 36.178628999681891 ], [ -78.66317099152289, 36.183898000116798 ], [ -78.660058991403204, 36.186522999716907 ], [ -78.655599991172579, 36.187992999571733 ], [ -78.652408991347357, 36.18788900036725 ], [ -78.645858990869314, 36.190786999668077 ], [ -78.644165990674395, 36.192880999568217 ], [ -78.634689991456469, 36.199399000222293 ], [ -78.628716991260418, 36.199334000087305 ], [ -78.619570991432823, 36.201340999605634 ], [ -78.61561899114956, 36.198954999881849 ], [ -78.613076990780698, 36.195927999945219 ], [ -78.610960990595089, 36.196732999883743 ], [ -78.608860990668376, 36.194066999753339 ], [ -78.607979991074416, 36.194113999671252 ], [ -78.608078991457816, 36.194967000049054 ], [ -78.607353991275559, 36.19523500032323 ], [ -78.604809990654033, 36.192477999972667 ], [ -78.601939990921167, 36.193337000183334 ], [ -78.600085991553854, 36.192461999893069 ], [ -78.600123991577604, 36.190220999576091 ], [ -78.595154991360971, 36.190312000184292 ], [ -78.591377990842048, 36.188603000209014 ], [ -78.590248990949561, 36.191844000327514 ], [ -78.587195991243121, 36.193582000366185 ], [ -78.586934991176562, 36.195847999864213 ], [ -78.586168991011633, 36.196337000316788 ], [ -78.585451991002913, 36.194981999673175 ], [ -78.584020991253979, 36.195456999576059 ], [ -78.581905990807755, 36.19437499963535 ], [ -78.576614990675665, 36.194635999967495 ], [ -78.575786991120907, 36.193596999576634 ], [ -78.576516990642901, 36.191565999846325 ], [ -78.574970991142905, 36.190199999784568 ], [ -78.56668099149114, 36.191492999863272 ], [ -78.564070991555852, 36.191078000039475 ], [ -78.561523990687064, 36.189176000118643 ], [ -78.560079990704779, 36.18903599967274 ], [ -78.558790991022221, 36.190743000009611 ], [ -78.557559990607004, 36.190834999787405 ], [ -78.554802990969023, 36.188386000313685 ], [ -78.549855991431556, 36.188188000337739 ], [ -78.546144990836652, 36.185741000409266 ], [ -78.543479991307848, 36.185190000198752 ], [ -78.539827991156187, 36.182381999639858 ], [ -78.536856991449824, 36.182908999679206 ], [ -78.536285990726881, 36.184865000106846 ], [ -78.532404990608015, 36.186048000159936 ], [ -78.53008999071379, 36.184102999632223 ], [ -78.527187990711667, 36.183795999865978 ], [ -78.527492990996024, 36.181479999612392 ], [ -78.525627991237343, 36.180380000195534 ], [ -78.52310499163228, 36.181192000165531 ], [ -78.518606991386747, 36.180543000278163 ], [ -78.51731999063837, 36.181889999984158 ], [ -78.510805990660444, 36.183667000209141 ], [ -78.508330991027933, 36.18295599986962 ], [ -78.499299991016088, 36.175770000248384 ], [ -78.496613991276391, 36.175198999631682 ], [ -78.544811990663419, 36.080845999771626 ], [ -78.546413991026085, 36.021826000381765 ], [ -78.557662990676178, 36.025702000315519 ] ] ] } },
{ "type": "Feature", "properties": { "county": "GRANVILLE", "precinct": "WOEL", "enr_desc": "Voting District 00Woel", "winner": "Curtis McRae", "winner_votes": 184.0, "winner_share": 82.882882882882882, "runner_up": "Melissa Elliott", "runner_up_votes": 38.0, "runner_up_share": 17.117117117117118, "contest_votes": 222.0, "margin_of_victory": 65.765765765765764, "is_tie": false, "results": [ { "candidate": "Curtis McRae", "votes": 184, "share": 82.88288288288288 }, { "candidate": "Melissa Elliott", "votes": 38, "share": 17.117117117117118 } ], "participated": true, "map_key": "GRANVILLE_WOEL" }, "geometry": { "type": "Polygon", "coordinates": [ [ [ -78.590001991374479, 36.344578999891027 ], [ -78.591793991124476, 36.344436999864719 ], [ -78.594297991421513, 36.337999999851696 ], [ -78.597997990781124, 36.334824000090954 ], [ -78.597834990992055, 36.328916999542315 ], [ -78.60497999096404, 36.327112000014921 ], [ -78.606325991279391, 36.326001000254294 ], [ -78.606112990672599, 36.324459000334862 ], [ -78.609923990996222, 36.324370000068754 ], [ -78.60964599149564, 36.323108000120101 ], [ -78.605246991162232, 36.323114999531796 ], [ -78.605355991478007, 36.321600999586927 ], [ -78.605516991652379, 36.319585999604328 ], [ -78.606322991226278, 36.319730000235097 ], [ -78.606040991479531, 36.318088000189171 ], [ -78.611289990725581, 36.317627999636663 ], [ -78.611285991379887, 36.316250999720445 ], [ -78.61249999081079, 36.316219000192817 ], [ -78.612595991517509, 36.313209000328918 ], [ -78.614260991507805, 36.312717000200024 ], [ -78.61411399146121, 36.31187600001082 ], [ -78.607794991635771, 36.312100999960926 ], [ -78.606601990649935, 36.310197000121605 ], [ -78.606580991232036, 36.30812100012254 ], [ -78.607676990852895, 36.308098999980572 ], [ -78.607695991142236, 36.30892399952959 ], [ -78.611478990784164, 36.308861000177664 ], [ -78.611100990745342, 36.308034000215201 ], [ -78.660780990573514, 36.307997000110895 ], [ -78.65722599163179, 36.430781999663061 ], [ -78.582125990615012, 36.429896999796867 ], [ -78.584362991081662, 36.423169000180394 ], [ -78.589404990671895, 36.415118000401549 ], [ -78.594611990899054, 36.379444999848161 ], [ -78.59323299121715, 36.369363000402785 ], [ -78.591550990893765, 36.365751999866305 ], [ -78.590233991225475, 36.358526000229716 ], [ -78.590001991374479, 36.344578999891027 ] ] ] } },
{ "type": "Feature", "properties": { "county": "VANCE", "precinct": "CH", "enr_desc": "Central Henderson", "winner": "Curtis McRae", "winner_votes": 330.0, "winner_share": 54.635761589403977, "runner_up": "Melissa Elliott", "runner_up_votes": 274.0, "runner_up_share": 45.364238410596023, "contest_votes": 604.0, "margin_of_victory": 9.2715231788079535, "is_tie": false, "results": [ { "candidate": "Curtis McRae", "votes": 330, "share": 54.63576158940398 }, { "candidate": "Melissa Elliott", "votes": 274, "share": 45.36423841059602 } ], "participated": true, "map_key": "VANCE_CH" }, "geometry": { "type": "Polygon", "coordinates": [ [ [ -78.379320990645098, 36.316887000194477 ], [ -78.383040990665478, 36.310102999979883 ], [ -78.384100991436028, 36.310249000168405 ], [ -78.387013991108716, 36.313673000144526 ], [ -78.386474991557833, 36.316042000118671 ], [ -78.391052991419556, 36.318917999915449 ], [ -78.391041991412365, 36.320489000186711 ], [ -78.395029991009295, 36.320098000081138 ], [ -78.400987991369689, 36.322381000021167 ], [ -78.404620991050194, 36.325911999649698 ], [ -78.411463990723078, 36.321745999528183 ], [ -78.415950991664928, 36.326647000285178 ], [ -78.41874599069304, 36.326814999758483 ], [ -78.416362990665675, 36.335140999511189 ], [ -78.416831991623113, 36.339453999594099 ], [ -78.420400990679113, 36.339486999641622 ], [ -78.419187991068199, 36.34060000021671 ], [ -78.420926991587095, 36.342597999662701 ], [ -78.414133990564721, 36.34643200028448 ], [ -78.413396990697805, 36.346870999535462 ], [ -78.41182399164073, 36.34586299956905 ], [ -78.407966990766425, 36.341646999935072 ], [ -78.395799991020738, 36.346745000298206 ], [ -78.395558990909066, 36.348651999666259 ], [ -78.392405990714181, 36.348932999989877 ], [ -78.390034991137412, 36.351073999918512 ], [ -78.389257991600473, 36.350631000213035 ], [ -78.389982990971134, 36.349528999588074 ], [ -78.390758991249868, 36.350103999971964 ], [ -78.391721991301466, 36.349308999924041 ], [ -78.390670990776897, 36.348229999739836 ], [ -78.391214990908097, 36.347460000364329 ], [ -78.389428991594968, 36.347751999569134 ], [ -78.389021990728679, 36.346479000134885 ], [ -78.392699991484562, 36.340226000307347 ], [ -78.390137990606348, 36.339353000333034 ], [ -78.390011990996925, 36.336560000139841 ], [ -78.390710991548815, 36.336563000192427 ], [ -78.390773990992869, 36.33557799991874 ], [ -78.388671990750581, 36.335285999729187 ], [ -78.388715990663272, 36.333663999710126 ], [ -78.387324991113161, 36.333750999553843 ], [ -78.38728799099043, 36.330994000375014 ], [ -78.382771990979393, 36.331123000280563 ], [ -78.383860991134952, 36.325002000243053 ], [ -78.38621599128453, 36.32640299980217 ], [ -78.387343991200424, 36.323573000185654 ], [ -78.382726990605306, 36.321942999642609 ], [ -78.383568991630938, 36.320060999913707 ], [ -78.382930991666157, 36.319605999533088 ], [ -78.382662991113975, 36.320899000363688 ], [ -78.380575990798135, 36.321642999956069 ], [ -78.381300991548827, 36.318764000200318 ], [ -78.378806991608201, 36.317347000191567 ], [ -78.379320990645098, 36.316887000194477 ] ] ] } },
{ "type": "Feature", "properties": { "county": "VANCE", "precinct": "SH", "enr_desc": "South Henderson", "winner": "Curtis McRae", "winner_votes": 284.0, "winner_share": 62.008733624454152, "runner_up": "Melissa Elliott", "runner_up_votes": 174.0, "runner_up_share": 37.991266375545848, "contest_votes": 458.0, "margin_of_victory": 24.017467248908304, "is_tie": false, "results": [ { "candidate": "Curtis McRae", "votes": 284, "share": 62.00873362445415 }, { "candidate": "Melissa Elliott", "votes": 174, "share": 37.99126637554585 } ], "participated": true, "map_key": "VANCE_SH" }, "geometry": { "type": "Polygon", "coordinates": [ [ [ -78.379320990645098, 36.316887000194477 ], [ -78.374416990731788, 36.317005999925335 ], [ -78.373588991116193, 36.319442999932221 ], [ -78.37192299057007, 36.318177999507142 ], [ -78.372435991050622, 36.316936999745067 ], [ -78.369329991337466, 36.316417999712954 ], [ -78.370464991172341, 36.312857999926855 ], [ -78.374821991544323, 36.308011999656067 ], [ -78.379062990682456, 36.300241999989872 ], [ -78.378401990939466, 36.298270000224079 ], [ -78.387580990635783, 36.274615000038054 ], [ -78.402114991414749, 36.276044999733173 ], [ -78.405070991202237, 36.277002999806847 ], [ -78.419294990706661, 36.277122000051115 ], [ -78.433917991495989, 36.281545999732089 ], [ -78.46577499121986, 36.284395999744781 ], [ -78.46441099145234, 36.286339999869014 ], [ -78.463910991227976, 36.291377000212009 ], [ -78.463226990746719, 36.292519999664513 ], [ -78.459861991022962, 36.294332000037429 ], [ -78.458213991397386, 36.296723000134456 ], [ -78.455855991042057, 36.303590999619637 ], [ -78.449641990639051, 36.306479000161168 ], [ -78.442719990892542, 36.306769999708031 ], [ -78.438985991270243, 36.308036000170631 ], [ -78.432458991616031, 36.312049999859795 ], [ -78.419241991185785, 36.316641000118771 ], [ -78.414590990923841, 36.319144000277447 ], [ -78.415691991281463, 36.320001999797732 ], [ -78.414118991216853, 36.320669999682764 ], [ -78.416006990594738, 36.32373100032747 ], [ -78.416872991300181, 36.323837000248204 ], [ -78.415950991664928, 36.326647000285178 ], [ -78.411463990723078, 36.321745999528183 ], [ -78.404620991050194, 36.325911999649698 ], [ -78.400987991369689, 36.322381000021167 ], [ -78.395029991009295, 36.320098000081138 ], [ -78.391041991412365, 36.320489000186711 ], [ -78.391052991419556, 36.318917999915449 ], [ -78.386474991557833, 36.316042000118671 ], [ -78.387013991108716, 36.313673000144526 ], [ -78.384100991436028, 36.310249000168405 ], [ -78.383040990665478, 36.310102999979883 ], [ -78.379320990645098, 36.316887000194477 ] ] ] } }
]
}
