{
"type": "FeatureCollection",
"name": "nc_house_of_representatives_district_048_rep",
"crs": { "type": "name", "properties": { "name": "urn:ogc:def:crs:OGC:1.3:CRS84" } },
"features": [
{ "type": "Feature", "properties": { "county": "HOKE", "precinct": "1", "enr_desc": "Allendale", "winner": "Kirk Lowery", "winner_votes": 41, "winner_share": 85.416666666666657, "runner_up": "Ralph Carter", "runner_up_votes": 7, "runner_up_share": 14.583333333333334, "contest_votes": 48, "margin_of_victory": 70.833333333333329, "is_tie": false, "results": [ { "candidate": "Kirk Lowery", "votes": 41, "share": 85.41666666666666 }, { "candidate": "Ralph Carter", "votes": 7, "share": 14.583333333333334 } ], "participated": true, "map_key": "HOKE_1" }, "geometry": { "type": "Polygon", "coordinates": [ [ [ -79.204667991194427, 34.834136000307062 ], [ -79.347867991379644, 34.838552999930499 ], [ -79.348801990812277, 34.839517000045944 ], [ -79.348111991365414, 34.840980000421041 ], [ -79.347087991461706, 34.840951000105747 ], [ -79.34790399108897, 34.843146999705475 ], [ -79.345134991464235, 34.843364000351293 ], [ -79.34529199162337, 34.846000000325745 ], [ -79.343303991659369, 34.846097999595372 ], [ -79.342768991187512, 34.847645000144794 ], [ -79.341778991054213, 34.847510000358803 ], [ -79.341383991687806, 34.848249999858183 ], [ -79.342147991681898, 34.849241000386051 ], [ -79.341335991787602, 34.848886000046178 ], [ -79.341488991330891, 34.84966500026642 ], [ -79.340538991363516, 34.849593999864332 ], [ -79.340374991410357, 34.850630000330568 ], [ -79.338753991630185, 34.850427999829421 ], [ -79.340227991527911, 34.851841999955568 ], [ -79.338378990769556, 34.852039999973059 ], [ -79.337320991233199, 34.852934000104234 ], [ -79.338000990977804, 34.853476000336087 ], [ -79.336922990979701, 34.85379000030693 ], [ -79.338151990741054, 34.855720000467265 ], [ -79.337332991493824, 34.856393999583929 ], [ -79.33829499149607, 34.856215000311522 ], [ -79.337957991528143, 34.856838999967266 ], [ -79.338971991086012, 34.857026000452137 ], [ -79.338150991718152, 34.857374999750505 ], [ -79.337849990966546, 34.859287000388036 ], [ -79.341549991180059, 34.862315000267337 ], [ -79.340843991688288, 34.863185000291367 ], [ -79.342014991110105, 34.864486999820294 ], [ -79.341796991824367, 34.867293000455938 ], [ -79.34288999132599, 34.867716999862459 ], [ -79.34210799129707, 34.868292999721191 ], [ -79.343548991108491, 34.868433999590962 ], [ -79.343380991078703, 34.870073000381197 ], [ -79.34183899121723, 34.869933999778333 ], [ -79.342031991281544, 34.871928000383527 ], [ -79.34295699127405, 34.872089999979686 ], [ -79.342627991271328, 34.873700999918199 ], [ -79.343875991204456, 34.874757999583679 ], [ -79.344984991175011, 34.874368999625887 ], [ -79.344256991105141, 34.877727999824451 ], [ -79.346549990747903, 34.879067999739398 ], [ -79.346426990945247, 34.882336999712521 ], [ -79.347452991275944, 34.882398000153799 ], [ -79.346632990760142, 34.882936999940895 ], [ -79.348381991370289, 34.886423000158061 ], [ -79.336587991729843, 34.888984999787084 ], [ -79.309951990830399, 34.905768999777465 ], [ -79.288254991060327, 34.905825000122711 ], [ -79.283584991326094, 34.909545999591785 ], [ -79.269080991189796, 34.903182999609456 ], [ -79.269606991510329, 34.898421000002763 ], [ -79.277316990828993, 34.884764000024703 ], [ -79.27443999113018, 34.883827000423061 ], [ -79.260998991717003, 34.871408999993825 ], [ -79.249910991062137, 34.863841999646873 ], [ -79.23751199172203, 34.857199000233571 ], [ -79.228486991121514, 34.854185999795519 ], [ -79.217205991628333, 34.845537999866643 ], [ -79.204667991194427, 34.834136000307062 ] ] ] } },
{ "type": "Feature", "properties": { "county": "SCOTLAND", "precinct": "01-16", "enr_desc": "01-16/01", "winner": "Ralph Carter", "winner_votes": 69, "winner_share": 64.485981308411212, "runner_up": "Kirk Lowery", "runner_up_votes": 38, "runner_up_share": 35.514018691588781, "contest_votes": 107, "margin_of_victory": 28.971962616822431, "is_tie": false, "results": [ { "candidate": "Ralph Carter", "votes": 69, "share": 64.48598130841121 }, { "candidate": "Kirk Lowery", "votes": 38, "share": 35.51401869158878 } ], "participated": true, "map_key": "SCOTLAND_01-16" }, "geometry": { "type": "Polygon", "coordinates": [ [ [ -79.361641991102104, 34.740150000277524 ], [ -79.369172991061276, 34.744292000016458 ], [ -79.393584991759866, 34.753019999778424 ], [ -79.40209599111013, 34.75520699982863 ], [ -79.432390991617041, 34.766903000145653 ], [ -79.446121991771847, 34.768386999909076 ], [ -79.462803991653573, 34.774160999772185 ], [ -79.470294991413823, 34.776706000074888 ], [ -79.478219991137181, 34.774943000190369 ], [ -79.486042991458419, 34.777039000302196 ], [ -79.48534399079729, 34.780937999598741 ], [ -79.485633991010985, 34.786424999827148 ], [ -79.472007991830182, 34.781464000180321 ], [ -79.460771991043572, 34.794511000162636 ], [ -79.456269991654864, 34.797506999710777 ], [ -79.442353990951347, 34.801239999784841 ], [ -79.435498991362195, 34.805766000379222 ], [ -79.436029991785929, 34.805028000373433 ], [ -79.437789991341134, 34.803511000458194 ], [ -79.432247991029669, 34.7987700002518 ], [ -79.422370990834722, 34.801110000147105 ], [ -79.418782990878825, 34.80370399978306 ], [ -79.412099990981872, 34.805783999991718 ], [ -79.408988991587805, 34.807959000473147 ], [ -79.401112991692429, 34.815210000103868 ], [ -79.393243991519483, 34.815024999622217 ], [ -79.388468991202842, 34.816891999676926 ], [ -79.380188991592064, 34.818343999820577 ], [ -79.372816990987971, 34.821578999784961 ], [ -79.359216991321077, 34.815044000383402 ], [ -79.355865991525533, 34.814522999987581 ], [ -79.355441991052331, 34.815265000113691 ], [ -79.35396699134985, 34.81530500037659 ], [ -79.354318991303046, 34.814597000474578 ], [ -79.353083991085441, 34.814280000137906 ], [ -79.353629991575204, 34.813371000355112 ], [ -79.352816991639799, 34.813216000467818 ], [ -79.353520991015913, 34.812457000076492 ], [ -79.351338990761292, 34.812613000268612 ], [ -79.350775991775947, 34.811238999925372 ], [ -79.351760991312219, 34.810833999669633 ], [ -79.350405991751884, 34.809910999777976 ], [ -79.350596991569688, 34.809190999742981 ], [ -79.349146991381133, 34.808725000319193 ], [ -79.349597990903391, 34.807857999695656 ], [ -79.348988990853243, 34.80728600028818 ], [ -79.350189991019548, 34.805233999779091 ], [ -79.34939999093676, 34.803964999777641 ], [ -79.348482991114111, 34.803910999783689 ], [ -79.348595991028688, 34.803201000054507 ], [ -79.347647991107848, 34.80351499968657 ], [ -79.346809990980432, 34.802529000379131 ], [ -79.347566991769554, 34.802004999805817 ], [ -79.347175991479432, 34.801133000310777 ], [ -79.348090991584485, 34.800755999763233 ], [ -79.346467990987691, 34.800392999637438 ], [ -79.346635991013542, 34.798112000277484 ], [ -79.345588991244824, 34.797659999963848 ], [ -79.345446991230432, 34.795882000078237 ], [ -79.344045991402609, 34.796075999697464 ], [ -79.344409991076873, 34.795092999662806 ], [ -79.342962991376382, 34.794092000341593 ], [ -79.343280990791357, 34.792418999657464 ], [ -79.344175991131735, 34.792280999979425 ], [ -79.341909991371082, 34.792142999863337 ], [ -79.342411990744594, 34.790197000143849 ], [ -79.341539990889004, 34.790325000412949 ], [ -79.34175699151848, 34.789083999768138 ], [ -79.339562990825712, 34.789114000110132 ], [ -79.33961299171132, 34.78714400039857 ], [ -79.338299990924455, 34.787767999971948 ], [ -79.338007991462604, 34.78581099983078 ], [ -79.338876991504847, 34.785675000153915 ], [ -79.33717799075211, 34.785524000223141 ], [ -79.337852991588022, 34.784520999958794 ], [ -79.336773991215452, 34.783895999893545 ], [ -79.337232991094496, 34.783359999658629 ], [ -79.336460990980399, 34.78302099961126 ], [ -79.336371991691806, 34.78131199979579 ], [ -79.335251991112841, 34.781148999910677 ], [ -79.334378991660586, 34.777377000362279 ], [ -79.331922990794325, 34.77709900023298 ], [ -79.33313099164215, 34.776434000358044 ], [ -79.331789990944259, 34.776468000241522 ], [ -79.332236991164379, 34.775735999780458 ], [ -79.331192990807551, 34.775429999887614 ], [ -79.331605990903782, 34.774744000022942 ], [ -79.330824991410566, 34.774078000080152 ], [ -79.361641991102104, 34.740150000277524 ] ] ] } },
{ "type": "Feature", "properties": { "county": "HOKE", "precinct": "2", "enr_desc": "Antioch", "winner": "Kirk Lowery", "winner_votes": 60, "winner_share": 86.956521739130437, "runner_up": "Ralph Carter", "runner_up_votes": 9, "runner_up_share": 13.043478260869565, "contest_votes": 69, "margin_of_victory": 73.913043478260875, "is_tie": false, "results": [ { "candidate": "Kirk Lowery", "votes": 60, "share": 86.95652173913044 }, { "candidate": "Ralph Carter", "votes": 9, "share": 13.043478260869565 } ], "participated": true, "map_key": "HOKE_2" }, "geometry": { "type": "Polygon", "coordinates": [ [ [ -79.204667991194427, 34.834136000307062 ], [ -79.217205991628333, 34.845537999866643 ], [ -79.228486991121514, 34.854185999795519 ], [ -79.23751199172203, 34.857199000233571 ], [ -79.249910991062137, 34.863841999646873 ], [ -79.260998991717003, 34.871408999993825 ], [ -79.27443999113018, 34.883827000423061 ], [ -79.277316990828993, 34.884764000024703 ], [ -79.269606991510329, 34.898421000002763 ], [ -79.269080991189796, 34.903182999609456 ], [ -79.266667990736266, 34.911498999854039 ], [ -79.263090991501272, 34.919963000219049 ], [ -79.256647991662675, 34.927105000407863 ], [ -79.243943991315703, 34.932735000431052 ], [ -79.243262990806613, 34.934253000407715 ], [ -79.243743991698693, 34.937603000231327 ], [ -79.242705991005408, 34.940589999838942 ], [ -79.232415991743736, 34.934094000127551 ], [ -79.225824991371169, 34.933894000056313 ], [ -79.220281991065519, 34.932522000229426 ], [ -79.215598991562743, 34.927294999673258 ], [ -79.218630991551194, 34.944579999749493 ], [ -79.216526991357881, 34.944870000254006 ], [ -79.207087991778536, 34.942708000088523 ], [ -79.206719991475993, 34.944817999983556 ], [ -79.195913991684364, 34.941207000310634 ], [ -79.192774991246395, 34.935340000177355 ], [ -79.192722991216712, 34.930170000278231 ], [ -79.189902990773504, 34.926325000093307 ], [ -79.18714599106795, 34.919174000079757 ], [ -79.185041991677451, 34.917030000460684 ], [ -79.180163990820787, 34.914294999853283 ], [ -79.181999991686382, 34.911882000228523 ], [ -79.177861991756259, 34.907225999970962 ], [ -79.175733991673567, 34.906770000318936 ], [ -79.173085991179576, 34.904392000211686 ], [ -79.166757991522203, 34.901833999923134 ], [ -79.163487991089568, 34.90279099959276 ], [ -79.153906990748382, 34.900673000398974 ], [ -79.150408991083097, 34.892406000265815 ], [ -79.145240990883195, 34.889793999604905 ], [ -79.142518991664105, 34.889335000156279 ], [ -79.140685991317469, 34.889968999922452 ], [ -79.134577990784351, 34.888257000013667 ], [ -79.132283991760644, 34.886677000177954 ], [ -79.133826991047954, 34.884824999627803 ], [ -79.130759991733314, 34.881052999699918 ], [ -79.191390990960315, 34.833717000299934 ], [ -79.204667991194427, 34.834136000307062 ] ] ] } },
{ "type": "Feature", "properties": { "county": "SCOTLAND", "precinct": "02-25", "enr_desc": "02-25/02", "winner": "Ralph Carter", "winner_votes": 189, "winner_share": 63.422818791946312, "runner_up": "Kirk Lowery", "runner_up_votes": 109, "runner_up_share": 36.577181208053695, "contest_votes": 298, "margin_of_victory": 26.845637583892618, "is_tie": false, "results": [ { "candidate": "Ralph Carter", "votes": 189, "share": 63.42281879194631 }, { "candidate": "Kirk Lowery", "votes": 109, "share": 36.577181208053695 } ], "participated": true, "map_key": "SCOTLAND_02-25" }, "geometry": { "type": "Polygon", "coordinates": [ [ [ -79.504941990777667, 34.665757000458363 ], [ -79.50403799110704, 34.668883999839061 ], [ -79.502956990754484, 34.66915800007218 ], [ -79.502678991064542, 34.670393999705674 ], [ -79.503343991597632, 34.67044000020465 ], [ -79.500597990940733, 34.67254599991044 ], [ -79.501012991686707, 34.673645000074764 ], [ -79.500402991507585, 34.674286000470985 ], [ -79.502229991108038, 34.6778599999259 ], [ -79.502977990780181, 34.678043000357619 ], [ -79.503059991447273, 34.679508000390932 ], [ -79.504694990914757, 34.679828999598378 ], [ -79.505303991397824, 34.682395000341181 ], [ -79.504415990801689, 34.683264000387325 ], [ -79.505911991333136, 34.684890999935867 ], [ -79.505993991625118, 34.68653999980662 ], [ -79.509818991495266, 34.688328000063876 ], [ -79.510427991535849, 34.689748000244442 ], [ -79.509761991121422, 34.690320000061348 ], [ -79.513197990935993, 34.693872000078663 ], [ -79.513889991660506, 34.695772999955317 ], [ -79.514193991204408, 34.697008999940934 ], [ -79.513334991171703, 34.696939999852617 ], [ -79.513028991557363, 34.697879000201183 ], [ -79.513444991692168, 34.69858900024083 ], [ -79.509393991361037, 34.702754999919968 ], [ -79.511017991436461, 34.704143000187344 ], [ -79.493337991695142, 34.716785999762514 ], [ -79.48511799075753, 34.71947699966416 ], [ -79.479335990934203, 34.72298700032664 ], [ -79.465209990983737, 34.725614999908522 ], [ -79.459970991083097, 34.728666000332503 ], [ -79.456157991191176, 34.72946500037142 ], [ -79.4677879915902, 34.764415999998192 ], [ -79.462803991653573, 34.774160999772185 ], [ -79.446121991771847, 34.768386999909076 ], [ -79.432390991617041, 34.766903000145653 ], [ -79.40209599111013, 34.75520699982863 ], [ -79.393584991759866, 34.753019999778424 ], [ -79.369172991061276, 34.744292000016458 ], [ -79.361641991102104, 34.740150000277524 ], [ -79.366794991688906, 34.734484999953494 ], [ -79.367403991247656, 34.732769000074192 ], [ -79.369030991489083, 34.73204000003372 ], [ -79.461505991205414, 34.630379000237369 ], [ -79.504941990777667, 34.665757000458363 ] ] ] } },
{ "type": "Feature", "properties": { "county": "SCOTLAND", "precinct": "3", "enr_desc": "03", "winner": "Ralph Carter", "winner_votes": 268, "winner_share": 72.237196765498652, "runner_up": "Kirk Lowery", "runner_up_votes": 103, "runner_up_share": 27.762803234501348, "contest_votes": 371, "margin_of_victory": 44.474393530997304, "is_tie": false, "results": [ { "candidate": "Ralph Carter", "votes": 268, "share": 72.23719676549865 }, { "candidate": "Kirk Lowery", "votes": 103, "share": 27.762803234501348 } ], "participated": true, "map_key": "SCOTLAND_3" }, "geometry": { "type": "Polygon", "coordinates": [ [ [ -79.528247990859498, 34.782297999974489 ], [ -79.516372990815498, 34.781917000113424 ], [ -79.5062829917333, 34.778147999914097 ], [ -79.499445991535509, 34.776665999996538 ], [ -79.488388990871584, 34.777820999932821 ], [ -79.486042991458419, 34.777039000302196 ], [ -79.478219991137181, 34.774943000190369 ], [ -79.470294991413823, 34.776706000074888 ], [ -79.462803991653573, 34.774160999772185 ], [ -79.4677879915902, 34.764415999998192 ], [ -79.470463991210494, 34.759561999888348 ], [ -79.489629991310139, 34.745256999782555 ], [ -79.513818990872537, 34.74550499959814 ], [ -79.524943991706095, 34.746660999688729 ], [ -79.52790299168926, 34.744208000094844 ], [ -79.531477991335436, 34.745465999730492 ], [ -79.535978991639467, 34.748490999746139 ], [ -79.537109990879401, 34.751574000331033 ], [ -79.542657991199647, 34.754527999625488 ], [ -79.543017991065639, 34.756360000451231 ], [ -79.539270990872694, 34.761534999678048 ], [ -79.537992991107828, 34.764694999759342 ], [ -79.536298991564422, 34.766115000429828 ], [ -79.534300991561039, 34.766550000090902 ], [ -79.533412991102495, 34.767877999837701 ], [ -79.531358991099935, 34.768289000227938 ], [ -79.531496991205643, 34.771266000403429 ], [ -79.527969990905405, 34.777197000480825 ], [ -79.528247990859498, 34.782297999974489 ] ] ] } },
{ "type": "Feature", "properties": { "county": "HOKE", "precinct": "3", "enr_desc": "Blue Springs", "winner": "Kirk Lowery", "winner_votes": 30, "winner_share": 58.82352941176471, "runner_up": "Ralph Carter", "runner_up_votes": 21, "runner_up_share": 41.17647058823529, "contest_votes": 51, "margin_of_victory": 17.64705882352942, "is_tie": false, "results": [ { "candidate": "Kirk Lowery", "votes": 30, "share": 58.82352941176471 }, { "candidate": "Ralph Carter", "votes": 21, "share": 41.17647058823529 } ], "participated": true, "map_key": "HOKE_3" }, "geometry": { "type": "Polygon", "coordinates": [ [ [ -79.377833990723261, 34.973996000242145 ], [ -79.375861991189609, 34.975875000083867 ], [ -79.371350991399893, 34.977761000095676 ], [ -79.361839990773134, 34.977118000085795 ], [ -79.357016991172529, 34.974259000270841 ], [ -79.343061991222712, 34.969214999942366 ], [ -79.335035991713795, 34.968746999836306 ], [ -79.3277039908386, 34.971955999860256 ], [ -79.311692991287956, 34.979463999769564 ], [ -79.299659991448863, 34.981110000376766 ], [ -79.287878991287144, 34.985891999778026 ], [ -79.279589991508047, 34.985332000348237 ], [ -79.277508990740358, 34.98386299977038 ], [ -79.276381991725742, 34.98392200026791 ], [ -79.273486991655489, 34.981187000373957 ], [ -79.273336990841131, 34.977380000182471 ], [ -79.268769991459948, 34.972300000173504 ], [ -79.267689991632665, 34.969858999700577 ], [ -79.265410991592574, 34.9677380000889 ], [ -79.26204799075488, 34.966579000171343 ], [ -79.260965991357622, 34.964776000178894 ], [ -79.258473991059191, 34.964029000054801 ], [ -79.255099991503144, 34.960953999859719 ], [ -79.255434991487391, 34.959831999618359 ], [ -79.249246990824346, 34.95866499981409 ], [ -79.24551799160173, 34.959725000212877 ], [ -79.243658991088353, 34.959188000009519 ], [ -79.239305990864054, 34.953040999580878 ], [ -79.240512991624129, 34.951392000452351 ], [ -79.239848991786317, 34.945567000091614 ], [ -79.242705991005408, 34.940589999838942 ], [ -79.243743991698693, 34.937603000231327 ], [ -79.243262990806613, 34.934253000407715 ], [ -79.243943991315703, 34.932735000431052 ], [ -79.256647991662675, 34.927105000407863 ], [ -79.263090991501272, 34.919963000219049 ], [ -79.266667990736266, 34.911498999854039 ], [ -79.269080991189796, 34.903182999609456 ], [ -79.283584991326094, 34.909545999591785 ], [ -79.288254991060327, 34.905825000122711 ], [ -79.309951990830399, 34.905768999777465 ], [ -79.336587991729843, 34.888984999787084 ], [ -79.348381991370289, 34.886423000158061 ], [ -79.348916991216853, 34.893650999770287 ], [ -79.350314991359113, 34.894542000448112 ], [ -79.349331991305831, 34.894416000164753 ], [ -79.348297991692533, 34.896158000290157 ], [ -79.349584991781555, 34.897646999943838 ], [ -79.348773990971566, 34.898324000073011 ], [ -79.349804991013883, 34.898919000086565 ], [ -79.348320991519429, 34.899634999849695 ], [ -79.34929599073935, 34.900811000130467 ], [ -79.348458991761177, 34.901243999782658 ], [ -79.34909999089092, 34.902534000019578 ], [ -79.348525991333872, 34.903091999987346 ], [ -79.349550991010474, 34.903959999654177 ], [ -79.34960699089018, 34.905255000278011 ], [ -79.350531990973892, 34.905444999979096 ], [ -79.349640990766574, 34.905975000373438 ], [ -79.350875991550993, 34.908784999635692 ], [ -79.35173399083763, 34.908969000060452 ], [ -79.351487991186119, 34.910750000154628 ], [ -79.35209599115673, 34.911123000115921 ], [ -79.350865991414622, 34.911985999614153 ], [ -79.351799991794294, 34.913006999868422 ], [ -79.350803990754358, 34.913462999622396 ], [ -79.351796991759144, 34.914170999968512 ], [ -79.350838991346208, 34.914376000331131 ], [ -79.35145699119478, 34.915750000337226 ], [ -79.350417991557578, 34.917518999648379 ], [ -79.351745991416237, 34.919816000330897 ], [ -79.349724991286493, 34.921389999950989 ], [ -79.351287990925528, 34.923618000190245 ], [ -79.35102499162609, 34.924584000425583 ], [ -79.352447991194978, 34.924060999835405 ], [ -79.352198991143041, 34.925142000388647 ], [ -79.354589990816635, 34.926575999879418 ], [ -79.354385991425545, 34.929464000383177 ], [ -79.355379991313541, 34.930223000328645 ], [ -79.355335990919116, 34.932144000029055 ], [ -79.356129991484039, 34.933139000042374 ], [ -79.355376991194646, 34.933048000043591 ], [ -79.354216991658433, 34.934472000038255 ], [ -79.355325991725991, 34.935822000413744 ], [ -79.354657990755911, 34.937206000393282 ], [ -79.353208991581681, 34.936892000041787 ], [ -79.354294991005474, 34.938628999936192 ], [ -79.35290499140163, 34.939564000026429 ], [ -79.353838991168359, 34.939949999677879 ], [ -79.352900991238684, 34.940393000193041 ], [ -79.353975991338856, 34.943193999936589 ], [ -79.353131991254415, 34.944329000038088 ], [ -79.354254991765089, 34.944162000278297 ], [ -79.354299991295392, 34.945620999828535 ], [ -79.355259991061331, 34.944837000273736 ], [ -79.355084991750402, 34.945604000384719 ], [ -79.356919991757678, 34.947556000187085 ], [ -79.356594991693669, 34.94809100016306 ], [ -79.358451991394404, 34.949651999797609 ], [ -79.359339990789707, 34.949273000312871 ], [ -79.361006991013355, 34.950379999911974 ], [ -79.362191991019216, 34.950257999707404 ], [ -79.361288990754701, 34.950668999840005 ], [ -79.362367990915786, 34.952085999844073 ], [ -79.362063991458626, 34.953073999711187 ], [ -79.363644991603124, 34.954184000407054 ], [ -79.360838991343741, 34.957922000019245 ], [ -79.362377991473863, 34.957513000190303 ], [ -79.362275990928083, 34.958691000375119 ], [ -79.363132991665893, 34.958405000292039 ], [ -79.362830990980626, 34.959289000470378 ], [ -79.36397199127606, 34.960312000084372 ], [ -79.36695499074807, 34.96248499976349 ], [ -79.367612991694472, 34.962123000116542 ], [ -79.368081991809589, 34.96297000046507 ], [ -79.368707991009884, 34.962420000238716 ], [ -79.369793991721238, 34.963195999619195 ], [ -79.37042599143976, 34.966492000432204 ], [ -79.371903991126018, 34.968532999983495 ], [ -79.373305991219681, 34.96854700011238 ], [ -79.373460990993692, 34.969847999902136 ], [ -79.377833990723261, 34.973996000242145 ] ] ] } },
{ "type": "Feature", "properties": { "county": "HOKE", "precinct": "4", "enr_desc": "Buchan", "winner": "Kirk Lowery", "winner_votes": 46, "winner_share": 54.117647058823529, "runner_up": "Ralph Carter", "runner_up_votes": 39, "runner_up_share": 45.882352941176471, "contest_votes": 85, "margin_of_victory": 8.235294117647058, "is_tie": false, "results": [ { "candidate": "Kirk Lowery", "votes": 46, "share": 54.11764705882353 }, { "candidate": "Ralph Carter", "votes": 39, "share": 45.88235294117647 } ], "participated": true, "map_key": "HOKE_4" }, "geometry": { "type": "Polygon", "coordinates": [ [ [ -79.442694990956355, 35.022979999654815 ], [ -79.443633991578594, 35.024505999913075 ], [ -79.44555999108799, 35.024716999630769 ], [ -79.445808991085784, 35.026038000443911 ], [ -79.449437991525258, 35.026952000410994 ], [ -79.44899199163342, 35.027319999960994 ], [ -79.449815991036445, 35.028044000195784 ], [ -79.450051991094114, 35.030201000017748 ], [ -79.452055991050116, 35.030437999620752 ], [ -79.452814991295099, 35.033785000123196 ], [ -79.453919991110965, 35.033544000037793 ], [ -79.453937991033328, 35.034689000199101 ], [ -79.454710991666218, 35.034479000459378 ], [ -79.456082991555306, 35.037302999726805 ], [ -79.457338991176712, 35.037668000146972 ], [ -79.456222991095274, 35.039500000334428 ], [ -79.457578990820693, 35.040099999941688 ], [ -79.45819699128559, 35.041623999620988 ], [ -79.45696599160695, 35.041640999703276 ], [ -79.458750990775982, 35.04363899991197 ], [ -79.433842990833554, 35.068772999689671 ], [ -79.398002991622462, 35.101560000069959 ], [ -79.38985099089652, 35.074096000322861 ], [ -79.388941991290295, 35.067684999988337 ], [ -79.389711991755902, 35.063957999973027 ], [ -79.386160991299391, 35.053495000144281 ], [ -79.383201990835786, 35.047857000220993 ], [ -79.375236991595671, 35.038308999833859 ], [ -79.369961991270586, 35.028285000055028 ], [ -79.360813991040175, 35.016722000061968 ], [ -79.35856199073821, 35.009328000377955 ], [ -79.35842199109932, 35.00216100035022 ], [ -79.370474991555838, 34.983612000144731 ], [ -79.371350991399893, 34.977761000095676 ], [ -79.375861991189609, 34.975875000083867 ], [ -79.377833990723261, 34.973996000242145 ], [ -79.378153991614198, 34.975371999653696 ], [ -79.378957991376183, 34.975282999816855 ], [ -79.378536990896706, 34.975783999802623 ], [ -79.381903991128794, 34.976502999833038 ], [ -79.382844991755718, 34.97829699967042 ], [ -79.38627999141373, 34.979926000143713 ], [ -79.386345991397121, 34.98146299968986 ], [ -79.387848991240048, 34.981967000311961 ], [ -79.388317991030021, 34.981416000295944 ], [ -79.388729991267894, 34.982998000160777 ], [ -79.390594991271215, 34.983839999725177 ], [ -79.391117991234779, 34.985526 ], [ -79.390186990829321, 34.9859339996082 ], [ -79.393226991092931, 34.98913400011088 ], [ -79.394130991441585, 34.988800999731964 ], [ -79.394105991519325, 34.989624999761034 ], [ -79.396609991582096, 34.991814999931243 ], [ -79.39602499071664, 34.992703999928679 ], [ -79.396980991403026, 34.99273999971922 ], [ -79.396505991359959, 34.994115000445163 ], [ -79.39836099148458, 34.993958999678448 ], [ -79.398495991203831, 34.995224999830022 ], [ -79.400636991126035, 34.996096999859603 ], [ -79.401162991250914, 34.997406999799658 ], [ -79.404062990873641, 34.997899999830366 ], [ -79.405901991725315, 34.999572000453007 ], [ -79.407615991185935, 34.9992430003363 ], [ -79.410097990764072, 35.00199099959508 ], [ -79.411396990737515, 35.001259999896376 ], [ -79.4115609916811, 35.002142000062413 ], [ -79.413366991739721, 35.002168999784239 ], [ -79.415062991799218, 35.003574000244875 ], [ -79.415979991567838, 35.002918000131636 ], [ -79.415630991105431, 35.003954000169593 ], [ -79.417857991245796, 35.004797999788508 ], [ -79.41795899138468, 35.005805000074822 ], [ -79.420094990993746, 35.006395999890515 ], [ -79.419401991223779, 35.006743999830093 ], [ -79.420204991741514, 35.007242999849474 ], [ -79.419596991494018, 35.007724000154617 ], [ -79.420845991446711, 35.007858999796056 ], [ -79.421109990798527, 35.009043000126042 ], [ -79.423074990717822, 35.010297000180323 ], [ -79.424916990923094, 35.010353000046294 ], [ -79.424785991433239, 35.011164999782551 ], [ -79.425927991106477, 35.011852000160495 ], [ -79.425455991760543, 35.012552999878253 ], [ -79.429251991245366, 35.015588000349396 ], [ -79.428500991554117, 35.016408999718301 ], [ -79.430372991798279, 35.017199000001433 ], [ -79.431329991753785, 35.020131000220296 ], [ -79.43342699089358, 35.021013000236643 ], [ -79.434899991710452, 35.020533000364935 ], [ -79.436696991012909, 35.02213499960105 ], [ -79.437681991012525, 35.021354999919197 ], [ -79.439294991726427, 35.022647999798586 ], [ -79.441965991771198, 35.022276000230171 ], [ -79.442694990956355, 35.022979999654815 ] ] ] } },
{ "type": "Feature", "properties": { "county": "SCOTLAND", "precinct": "4", "enr_desc": "04", "winner": "Ralph Carter", "winner_votes": 366, "winner_share": 70.930232558139537, "runner_up": "Kirk Lowery", "runner_up_votes": 150, "runner_up_share": 29.069767441860467, "contest_votes": 516, "margin_of_victory": 41.860465116279073, "is_tie": false, "results": [ { "candidate": "Ralph Carter", "votes": 366, "share": 70.93023255813954 }, { "candidate": "Kirk Lowery", "votes": 150, "share": 29.069767441860467 } ], "participated": true, "map_key": "SCOTLAND_4" }, "geometry": { "type": "Polygon", "coordinates": [ [ [ -79.504941990777667, 34.665757000458363 ], [ -79.532566991601769, 34.688260000205318 ], [ -79.516794991463556, 34.712634999628776 ], [ -79.51853799106992, 34.713430999599304 ], [ -79.519312991811091, 34.715401000110312 ], [ -79.518813991119771, 34.71613400002753 ], [ -79.519700990816844, 34.716637999677125 ], [ -79.520031990747967, 34.719546000152882 ], [ -79.519032990784851, 34.720782000284387 ], [ -79.520834990991176, 34.72222599970334 ], [ -79.519918991337249, 34.723278999935438 ], [ -79.520806991321265, 34.723599999994057 ], [ -79.520112991681273, 34.724171999977735 ], [ -79.521054990838863, 34.72577600004292 ], [ -79.520249991158096, 34.727241000115335 ], [ -79.521661991816472, 34.731387000384409 ], [ -79.522271991647784, 34.731501000179541 ], [ -79.521661991373577, 34.732073999831627 ], [ -79.522214991555117, 34.734569999665219 ], [ -79.525614991394406, 34.738114000404131 ], [ -79.526525991046825, 34.743243999681354 ], [ -79.52790299168926, 34.744208000094844 ], [ -79.524943991706095, 34.746660999688729 ], [ -79.513818990872537, 34.74550499959814 ], [ -79.489629991310139, 34.745256999782555 ], [ -79.470463991210494, 34.759561999888348 ], [ -79.4677879915902, 34.764415999998192 ], [ -79.456157991191176, 34.72946500037142 ], [ -79.459970991083097, 34.728666000332503 ], [ -79.465209990983737, 34.725614999908522 ], [ -79.479335990934203, 34.72298700032664 ], [ -79.48511799075753, 34.71947699966416 ], [ -79.493337991695142, 34.716785999762514 ], [ -79.511017991436461, 34.704143000187344 ], [ -79.509393991361037, 34.702754999919968 ], [ -79.513444991692168, 34.69858900024083 ], [ -79.513028991557363, 34.697879000201183 ], [ -79.513334991171703, 34.696939999852617 ], [ -79.514193991204408, 34.697008999940934 ], [ -79.513889991660506, 34.695772999955317 ], [ -79.513197990935993, 34.693872000078663 ], [ -79.509761991121422, 34.690320000061348 ], [ -79.510427991535849, 34.689748000244442 ], [ -79.509818991495266, 34.688328000063876 ], [ -79.505993991625118, 34.68653999980662 ], [ -79.505911991333136, 34.684890999935867 ], [ -79.504415990801689, 34.683264000387325 ], [ -79.505303991397824, 34.682395000341181 ], [ -79.504694990914757, 34.679828999598378 ], [ -79.503059991447273, 34.679508000390932 ], [ -79.502977990780181, 34.678043000357619 ], [ -79.502229991108038, 34.6778599999259 ], [ -79.500402991507585, 34.674286000470985 ], [ -79.501012991686707, 34.673645000074764 ], [ -79.500597990940733, 34.67254599991044 ], [ -79.503343991597632, 34.67044000020465 ], [ -79.502678991064542, 34.670393999705674 ], [ -79.502956990754484, 34.66915800007218 ], [ -79.50403799110704, 34.668883999839061 ], [ -79.504941990777667, 34.665757000458363 ] ] ] } },
{ "type": "Feature", "properties": { "county": "HOKE", "precinct": "5", "enr_desc": "Mccain", "winner": "Kirk Lowery", "winner_votes": 53, "winner_share": 51.960784313725497, "runner_up": "Ralph Carter", "runner_up_votes": 49, "runner_up_share": 48.03921568627451, "contest_votes": 102, "margin_of_victory": 3.9215686274509878, "is_tie": false, "results": [ { "candidate": "Kirk Lowery", "votes": 53, "share": 51.9607843137255 }, { "candidate": "Ralph Carter", "votes": 49, "share": 48.03921568627451 } ], "participated": true, "map_key": "HOKE_5" }, "geometry": { "type": "Polygon", "coordinates": [ [ [ -79.371350991399893, 34.977761000095676 ], [ -79.370474991555838, 34.983612000144731 ], [ -79.35842199109932, 35.00216100035022 ], [ -79.35856199073821, 35.009328000377955 ], [ -79.360813991040175, 35.016722000061968 ], [ -79.369961991270586, 35.028285000055028 ], [ -79.375236991595671, 35.038308999833859 ], [ -79.383201990835786, 35.047857000220993 ], [ -79.386160991299391, 35.053495000144281 ], [ -79.389711991755902, 35.063957999973027 ], [ -79.388941991290295, 35.067684999988337 ], [ -79.38985099089652, 35.074096000322861 ], [ -79.398002991622462, 35.101560000069959 ], [ -79.360352991561882, 35.136886999868857 ], [ -79.335476991604267, 35.161588000409864 ], [ -79.332087990952161, 35.161322999638422 ], [ -79.330729991423595, 35.16219699980698 ], [ -79.328534991601742, 35.161521000030184 ], [ -79.328320991037515, 35.162511000467084 ], [ -79.329819991093117, 35.163191999845289 ], [ -79.32932499120426, 35.16446699963543 ], [ -79.327330991313744, 35.164729999984523 ], [ -79.323997991243459, 35.166868999753525 ], [ -79.320564991459761, 35.167732000320875 ], [ -79.318931990825917, 35.167335999677007 ], [ -79.316114990940846, 35.168550999994331 ], [ -79.314019991707724, 35.167864000436516 ], [ -79.312299991230063, 35.168485000284768 ], [ -79.310539990950645, 35.172963999615369 ], [ -79.308083990854314, 35.173655999874491 ], [ -79.306871991526222, 35.175320999848644 ], [ -79.304622990920336, 35.175204999799099 ], [ -79.304314991368614, 35.177117999779469 ], [ -79.302467991179171, 35.178514000310891 ], [ -79.301389991744898, 35.178299000454921 ], [ -79.30155099129, 35.179118000252181 ], [ -79.298575990716344, 35.182118000355395 ], [ -79.294474991486567, 35.184754999791004 ], [ -79.292786991260982, 35.188371000010221 ], [ -79.291119991611666, 35.187589999917719 ], [ -79.290289990888738, 35.188381000187249 ], [ -79.288415991334432, 35.188352999858665 ], [ -79.286305990814071, 35.190600999611348 ], [ -79.284355990930223, 35.190223999960622 ], [ -79.28504699088154, 35.19289300041396 ], [ -79.282220991186747, 35.193877999705805 ], [ -79.281484990791924, 35.195226000311038 ], [ -79.280466991605593, 35.19448900037397 ], [ -79.277078991450608, 35.195511000197932 ], [ -79.275230990969931, 35.197889999617246 ], [ -79.271058991770104, 35.199371999900968 ], [ -79.26455899128112, 35.199183000032789 ], [ -79.26137099085075, 35.201434000366454 ], [ -79.261308991317136, 35.202907000020552 ], [ -79.259533990834697, 35.204494000270095 ], [ -79.256957991056623, 35.202904999959912 ], [ -79.255658991485845, 35.202926000413491 ], [ -79.249611991663627, 35.207436000438463 ], [ -79.249326991430266, 35.209078999692245 ], [ -79.247148990743227, 35.211308000014384 ], [ -79.246659991691274, 35.213100000396153 ], [ -79.242749991536172, 35.213735000261558 ], [ -79.240741990823039, 35.211968999602121 ], [ -79.242108991537577, 35.209245000052107 ], [ -79.24016899154762, 35.208395999961986 ], [ -79.240124991402951, 35.207056000251981 ], [ -79.239109991419454, 35.206561000111847 ], [ -79.235039990772535, 35.20796500007463 ], [ -79.235487991225725, 35.206573000436073 ], [ -79.234802991512723, 35.205570999835324 ], [ -79.238754991741956, 35.198321000409322 ], [ -79.242862990910666, 35.187172999590956 ], [ -79.240700991691597, 35.183692999634211 ], [ -79.240538990784032, 35.173401999730714 ], [ -79.236482991425305, 35.166795000351449 ], [ -79.235139991707698, 35.161316999573231 ], [ -79.23626599172097, 35.146958000059058 ], [ -79.234184991204771, 35.140102999982403 ], [ -79.229681991202327, 35.133319999880101 ], [ -79.228676991777149, 35.133097000441111 ], [ -79.229157991222351, 35.13253399994182 ], [ -79.225167990885595, 35.12639500011894 ], [ -79.224223991766294, 35.115369000443465 ], [ -79.227544990784594, 35.104846999743202 ], [ -79.233238990889234, 35.080371000041609 ], [ -79.230834991141094, 35.066015999861349 ], [ -79.233049991329452, 35.041304000092673 ], [ -79.266003991721504, 35.042940000203309 ], [ -79.263239991458306, 35.039875000355572 ], [ -79.261195991333366, 35.03927500036292 ], [ -79.260335991257577, 35.036598999915896 ], [ -79.258612991518859, 35.035723999573044 ], [ -79.257551991051685, 35.033371999836689 ], [ -79.257575990872439, 35.027316000115242 ], [ -79.254546991240417, 35.022192999789077 ], [ -79.259912991265551, 35.02011300026583 ], [ -79.263165991209803, 35.02030099999935 ], [ -79.267856991508069, 35.017779999674154 ], [ -79.271209991044245, 35.018331000334705 ], [ -79.27538399154227, 35.020459000332991 ], [ -79.279197991803485, 35.020102999591217 ], [ -79.286641991473331, 35.015373000078057 ], [ -79.293007991602494, 35.013873999849991 ], [ -79.29702899140004, 35.01386799978637 ], [ -79.298217990994701, 35.014605000378864 ], [ -79.308801990862932, 35.008840000158521 ], [ -79.30637999121906, 35.007083999597377 ], [ -79.324986991243037, 34.979348000273873 ], [ -79.3277039908386, 34.971955999860256 ], [ -79.335035991713795, 34.968746999836306 ], [ -79.343061991222712, 34.969214999942366 ], [ -79.357016991172529, 34.974259000270841 ], [ -79.361839990773134, 34.977118000085795 ], [ -79.371350991399893, 34.977761000095676 ] ] ] } },
{ "type": "Feature", "properties": { "county": "SCOTLAND", "precinct": "05-10", "enr_desc": "05-10/05", "winner": "Kirk Lowery", "winner_votes": 110, "winner_share": 51.401869158878498, "runner_up": "Ralph Carter", "runner_up_votes": 104, "runner_up_share": 48.598130841121495, "contest_votes": 214, "margin_of_victory": 2.8037383177570021, "is_tie": false, "results": [ { "candidate": "Kirk Lowery", "votes": 110, "share": 51.4018691588785 }, { "candidate": "Ralph Carter", "votes": 104, "share": 48.598130841121495 } ], "participated": true, "map_key": "SCOTLAND_05-10" }, "geometry": { "type": "Polygon", "coordinates": [ [ [ -79.532566991601769, 34.688260000205318 ], [ -79.676493991113418, 34.805064999671892 ], [ -79.692943991056012, 34.805154999795185 ], [ -79.692512991590263, 34.806847000407977 ], [ -79.68821599084329, 34.809915000072245 ], [ -79.688391990955182, 34.811339999683746 ], [ -79.678372991557296, 34.813947999867928 ], [ -79.672851991751855, 34.813271000456488 ], [ -79.659103991108552, 34.815262000036029 ], [ -79.654498991614986, 34.814881000060794 ], [ -79.644814991110266, 34.820047999763531 ], [ -79.637398991819822, 34.82294700046225 ], [ -79.634570991053025, 34.82549300003847 ], [ -79.625643991175522, 34.817894999672312 ], [ -79.621624991191737, 34.816353999978297 ], [ -79.614044991775401, 34.815308999992759 ], [ -79.607215991719102, 34.814871999650343 ], [ -79.596357991253498, 34.811249999812034 ], [ -79.58768499101042, 34.80706400044339 ], [ -79.583092991154686, 34.801779000195523 ], [ -79.579075990868063, 34.799447000155993 ], [ -79.561827991202335, 34.792765999905576 ], [ -79.554132991149601, 34.787831999888319 ], [ -79.550167991121015, 34.786912999996922 ], [ -79.542064991749086, 34.783338999907954 ], [ -79.528247990859498, 34.782297999974489 ], [ -79.527969990905405, 34.777197000480825 ], [ -79.531496991205643, 34.771266000403429 ], [ -79.531358991099935, 34.768289000227938 ], [ -79.533412991102495, 34.767877999837701 ], [ -79.534300991561039, 34.766550000090902 ], [ -79.536298991564422, 34.766115000429828 ], [ -79.537992991107828, 34.764694999759342 ], [ -79.539270990872694, 34.761534999678048 ], [ -79.543017991065639, 34.756360000451231 ], [ -79.542657991199647, 34.754527999625488 ], [ -79.537109990879401, 34.751574000331033 ], [ -79.535978991639467, 34.748490999746139 ], [ -79.531477991335436, 34.745465999730492 ], [ -79.52790299168926, 34.744208000094844 ], [ -79.526525991046825, 34.743243999681354 ], [ -79.525614991394406, 34.738114000404131 ], [ -79.522214991555117, 34.734569999665219 ], [ -79.521661991373577, 34.732073999831627 ], [ -79.522271991647784, 34.731501000179541 ], [ -79.521661991816472, 34.731387000384409 ], [ -79.520249991158096, 34.727241000115335 ], [ -79.521054990838863, 34.72577600004292 ], [ -79.520112991681273, 34.724171999977735 ], [ -79.520806991321265, 34.723599999994057 ], [ -79.519918991337249, 34.723278999935438 ], [ -79.520834990991176, 34.72222599970334 ], [ -79.519032990784851, 34.720782000284387 ], [ -79.520031990747967, 34.719546000152882 ], [ -79.519700990816844, 34.716637999677125 ], [ -79.518813991119771, 34.71613400002753 ], [ -79.519312991811091, 34.715401000110312 ], [ -79.51853799106992, 34.713430999599304 ], [ -79.516794991463556, 34.712634999628776 ], [ -79.532566991601769, 34.688260000205318 ] ] ] } },
{ "type": "Feature", "properties": { "county": "SCOTLAND", "precinct": "06-89", "enr_desc": "06-89/06", "winner": "Ralph Carter", "winner_votes": 281, "winner_share": 64.746543778801851, "runner_up": "Kirk Lowery", "runner_up_votes": 153, "runner_up_share": 35.253456221198157, "contest_votes": 434, "margin_of_victory": 29.493087557603694, "is_tie": false, "results": [ { "candidate": "Ralph Carter", "votes": 281, "share": 64.74654377880185 }, { "candidate": "Kirk Lowery", "votes": 153, "share": 35.25345622119816 } ], "participated": true, "map_key": "SCOTLAND_06-89" }, "geometry": { "type": "Polygon", "coordinates": [ [ [ -79.486042991458419, 34.777039000302196 ], [ -79.488388990871584, 34.777820999932821 ], [ -79.499445991535509, 34.776665999996538 ], [ -79.5062829917333, 34.778147999914097 ], [ -79.516372990815498, 34.781917000113424 ], [ -79.528247990859498, 34.782297999974489 ], [ -79.542064991749086, 34.783338999907954 ], [ -79.550167991121015, 34.786912999996922 ], [ -79.554132991149601, 34.787831999888319 ], [ -79.561827991202335, 34.792765999905576 ], [ -79.579075990868063, 34.799447000155993 ], [ -79.583092991154686, 34.801779000195523 ], [ -79.58768499101042, 34.80706400044339 ], [ -79.596357991253498, 34.811249999812034 ], [ -79.607215991719102, 34.814871999650343 ], [ -79.614044991775401, 34.815308999992759 ], [ -79.616376991614516, 34.81690899968936 ], [ -79.617124991112888, 34.818601000097907 ], [ -79.620800991565872, 34.81798199987464 ], [ -79.622764990865747, 34.820237999843677 ], [ -79.623159990971786, 34.821566000263886 ], [ -79.622186991501451, 34.822118000144165 ], [ -79.621444991635883, 34.824870000035368 ], [ -79.622928991811108, 34.826817000454021 ], [ -79.62199299085394, 34.829388000476577 ], [ -79.619221991797787, 34.830968000119206 ], [ -79.618590991417932, 34.833331000186945 ], [ -79.620132991465269, 34.8352419998578 ], [ -79.617667990984316, 34.837678999931903 ], [ -79.617366990983868, 34.839282000290339 ], [ -79.62280899170257, 34.843739000362554 ], [ -79.621467991161936, 34.845734999990107 ], [ -79.619717991666789, 34.846461999645655 ], [ -79.619928991246056, 34.848903000283954 ], [ -79.626259991609459, 34.850971999854529 ], [ -79.62676699138575, 34.85191099963621 ], [ -79.615999991534636, 34.865928000017874 ], [ -79.561855991647903, 34.910349999648659 ], [ -79.563976991810932, 34.910816000102479 ], [ -79.565229991433071, 34.91026799995587 ], [ -79.566006991130465, 34.91113599991904 ], [ -79.563986991077485, 34.917946000074494 ], [ -79.567571991717386, 34.924121000392724 ], [ -79.568258990862944, 34.927372000314968 ], [ -79.571549991439269, 34.928240000255627 ], [ -79.573833991286662, 34.930018000437578 ], [ -79.576817991070754, 34.929815000345364 ], [ -79.578603991527885, 34.930895999717954 ], [ -79.579444991038187, 34.933439999808655 ], [ -79.581729991027217, 34.935441999644745 ], [ -79.584786991103286, 34.945385000102128 ], [ -79.583240991650229, 34.947999999827196 ], [ -79.584763991401886, 34.950165000473874 ], [ -79.58561799086776, 34.954744999990801 ], [ -79.583215991248423, 34.955609999716287 ], [ -79.581606991375196, 34.957413000340985 ], [ -79.582002991601058, 34.960778000061268 ], [ -79.581205991474377, 34.962224000141333 ], [ -79.581899991382556, 34.96387699993462 ], [ -79.577578991172913, 34.968770999719631 ], [ -79.577992991545642, 34.972386000040778 ], [ -79.571652990931852, 34.975228000259101 ], [ -79.566666991605672, 34.979415000478042 ], [ -79.573422990767639, 34.992210000325578 ], [ -79.567934991616639, 34.994325000203602 ], [ -79.566920991590621, 34.995680000457014 ], [ -79.553037990722373, 35.004775000237117 ], [ -79.529907991473664, 35.015314999721973 ], [ -79.524237990908389, 35.018776999647102 ], [ -79.521380991139893, 35.019225000175908 ], [ -79.510505991075334, 35.026152000299106 ], [ -79.483293991720615, 35.033679999596039 ], [ -79.46888599135815, 35.036567000441856 ], [ -79.460885991664625, 35.040898000389788 ], [ -79.458750990775982, 35.04363899991197 ], [ -79.45696599160695, 35.041640999703276 ], [ -79.45819699128559, 35.041623999620988 ], [ -79.457578990820693, 35.040099999941688 ], [ -79.456222991095274, 35.039500000334428 ], [ -79.457338991176712, 35.037668000146972 ], [ -79.456082991555306, 35.037302999726805 ], [ -79.454710991666218, 35.034479000459378 ], [ -79.453937991033328, 35.034689000199101 ], [ -79.453919991110965, 35.033544000037793 ], [ -79.452814991295099, 35.033785000123196 ], [ -79.452055991050116, 35.030437999620752 ], [ -79.450051991094114, 35.030201000017748 ], [ -79.449815991036445, 35.028044000195784 ], [ -79.44899199163342, 35.027319999960994 ], [ -79.449437991525258, 35.026952000410994 ], [ -79.445808991085784, 35.026038000443911 ], [ -79.44555999108799, 35.024716999630769 ], [ -79.443633991578594, 35.024505999913075 ], [ -79.442694990956355, 35.022979999654815 ], [ -79.445692990941595, 35.018073000407099 ], [ -79.446559991290144, 35.014833999713304 ], [ -79.446616991027625, 34.975415000271255 ], [ -79.462538991730241, 34.969482999921823 ], [ -79.472207991264952, 34.957978000177974 ], [ -79.482907990974198, 34.940969000426868 ], [ -79.482857991630439, 34.935153000236134 ], [ -79.479735990940171, 34.927557999753972 ], [ -79.479812991742847, 34.921427999683914 ], [ -79.477224990754593, 34.908865999930292 ], [ -79.473849991472051, 34.904027999632476 ], [ -79.47149999074766, 34.902793000442792 ], [ -79.471566990773937, 34.899734000012216 ], [ -79.469140991235506, 34.900233999686399 ], [ -79.468089991316418, 34.898925999713597 ], [ -79.468033991166621, 34.897094000087392 ], [ -79.465781991497124, 34.896567000464586 ], [ -79.466365991087102, 34.895468000185943 ], [ -79.464085991217942, 34.89336199958759 ], [ -79.458422991638599, 34.890979999897326 ], [ -79.456771991662464, 34.888574000086109 ], [ -79.452518990797728, 34.886098999605792 ], [ -79.451990990915192, 34.883854000448309 ], [ -79.445713991021393, 34.878687000442525 ], [ -79.445602990754423, 34.877174999646854 ], [ -79.444574990920529, 34.876466000332222 ], [ -79.441680991189841, 34.869880000432758 ], [ -79.435440991037694, 34.866895000428222 ], [ -79.434288991379233, 34.861934000199575 ], [ -79.430603990994399, 34.857906000121361 ], [ -79.429751990739121, 34.853141999798829 ], [ -79.428738991739777, 34.852902999800875 ], [ -79.428874991517134, 34.8516969997331 ], [ -79.426013991413612, 34.850139999955928 ], [ -79.425986990971225, 34.848169999921687 ], [ -79.424486990947329, 34.846909999619207 ], [ -79.42398799128037, 34.844323000128945 ], [ -79.422598991243532, 34.842491000334469 ], [ -79.42196299152792, 34.83591800013501 ], [ -79.42029699111589, 34.834474999953564 ], [ -79.419797991515367, 34.832391000182831 ], [ -79.420540991522273, 34.826867000470145 ], [ -79.417201990848511, 34.822212000195798 ], [ -79.416814991165509, 34.819396999647537 ], [ -79.417361991185956, 34.818633000396709 ], [ -79.416435991567297, 34.817937000020656 ], [ -79.417524991342873, 34.815788999590936 ], [ -79.414488991191391, 34.813170999890204 ], [ -79.412592991383718, 34.812728999625818 ], [ -79.411354991697436, 34.810015000357033 ], [ -79.408988991587805, 34.807959000473147 ], [ -79.412099990981872, 34.805783999991718 ], [ -79.418782990878825, 34.80370399978306 ], [ -79.422370990834722, 34.801110000147105 ], [ -79.432247991029669, 34.7987700002518 ], [ -79.437789991341134, 34.803511000458194 ], [ -79.436029991785929, 34.805028000373433 ], [ -79.435498991362195, 34.805766000379222 ], [ -79.442353990951347, 34.801239999784841 ], [ -79.456269991654864, 34.797506999710777 ], [ -79.460771991043572, 34.794511000162636 ], [ -79.472007991830182, 34.781464000180321 ], [ -79.485633991010985, 34.786424999827148 ], [ -79.48534399079729, 34.780937999598741 ], [ -79.486042991458419, 34.777039000302196 ] ] ] } },
{ "type": "Feature", "properties": { "county": "HOKE", "precinct": "06B", "enr_desc": "Puppy Creek", "winner": "Ralph Carter", "winner_votes": 87, "winner_share": 56.493506493506494, "runner_up": "Kirk Lowery", "runner_up_votes": 67, "runner_up_share": 43.506493506493506, "contest_votes": 154, "margin_of_victory": 12.987012987012989, "is_tie": false, "results": [ { "candidate": "Ralph Carter", "votes": 87, "share": 56.493506493506494 }, { "candidate": "Kirk Lowery", "votes": 67, "share": 43.506493506493506 } ], "participated": true, "map_key": "HOKE_06B" }, "geometry": { "type": "Polygon", "coordinates": [ [ [ -79.107538991377453, 34.969022000106769 ], [ -79.115219991217685, 34.972675999609898 ], [ -79.118420991130264, 34.975130000065541 ], [ -79.117121991128869, 34.976924999926098 ], [ -79.118053991543874, 34.980576999739029 ], [ -79.123231991246044, 34.990362999839306 ], [ -79.126736990862426, 34.994892000006232 ], [ -79.130870991186285, 35.003496000116151 ], [ -79.136959990799497, 35.017362999896299 ], [ -79.137331991058872, 35.02286199996032 ], [ -79.139838990806652, 35.028754000457774 ], [ -79.135997991475548, 35.03086799994562 ], [ -79.130041991040969, 35.031614000060827 ], [ -79.083185991352423, 35.032660000373397 ], [ -79.072255991427355, 35.018008999858885 ], [ -79.071390991482346, 35.014510000106142 ], [ -79.06964299156418, 35.013266999633423 ], [ -79.08074099111829, 35.00627200013998 ], [ -79.091587991544472, 35.001818999584721 ], [ -79.093926991461586, 34.997323999628975 ], [ -79.099185990861869, 34.993351999871663 ], [ -79.10041399122106, 34.988293999743163 ], [ -79.105652991483183, 34.989555000001396 ], [ -79.106240990795769, 34.982534000312491 ], [ -79.10238399109322, 34.972598000389993 ], [ -79.102275991453709, 34.969389999851131 ], [ -79.107538991377453, 34.969022000106769 ] ] ] } },
{ "type": "Feature", "properties": { "county": "SCOTLAND", "precinct": "7", "enr_desc": "07", "winner": "Ralph Carter", "winner_votes": 155, "winner_share": 64.853556485355639, "runner_up": "Kirk Lowery", "runner_up_votes": 84, "runner_up_share": 35.146443514644346, "contest_votes": 239, "margin_of_victory": 29.707112970711293, "is_tie": false, "results": [ { "candidate": "Ralph Carter", "votes": 155, "share": 64.85355648535564 }, { "candidate": "Kirk Lowery", "votes": 84, "share": 35.146443514644346 } ], "participated": true, "map_key": "SCOTLAND_7" }, "geometry": { "type": "Polygon", "coordinates": [ [ [ -79.408988991587805, 34.807959000473147 ], [ -79.411354991697436, 34.810015000357033 ], [ -79.412592991383718, 34.812728999625818 ], [ -79.414488991191391, 34.813170999890204 ], [ -79.417524991342873, 34.815788999590936 ], [ -79.416435991567297, 34.817937000020656 ], [ -79.417361991185956, 34.818633000396709 ], [ -79.416814991165509, 34.819396999647537 ], [ -79.417201990848511, 34.822212000195798 ], [ -79.420540991522273, 34.826867000470145 ], [ -79.419797991515367, 34.832391000182831 ], [ -79.42029699111589, 34.834474999953564 ], [ -79.42196299152792, 34.83591800013501 ], [ -79.422598991243532, 34.842491000334469 ], [ -79.42398799128037, 34.844323000128945 ], [ -79.424486990947329, 34.846909999619207 ], [ -79.425986990971225, 34.848169999921687 ], [ -79.426013991413612, 34.850139999955928 ], [ -79.428874991517134, 34.8516969997331 ], [ -79.428738991739777, 34.852902999800875 ], [ -79.429751990739121, 34.853141999798829 ], [ -79.430603990994399, 34.857906000121361 ], [ -79.434288991379233, 34.861934000199575 ], [ -79.435440991037694, 34.866895000428222 ], [ -79.441680991189841, 34.869880000432758 ], [ -79.444574990920529, 34.876466000332222 ], [ -79.445602990754423, 34.877174999646854 ], [ -79.445713991021393, 34.878687000442525 ], [ -79.451990990915192, 34.883854000448309 ], [ -79.452518990797728, 34.886098999605792 ], [ -79.456771991662464, 34.888574000086109 ], [ -79.458422991638599, 34.890979999897326 ], [ -79.464085991217942, 34.89336199958759 ], [ -79.466365991087102, 34.895468000185943 ], [ -79.465781991497124, 34.896567000464586 ], [ -79.468033991166621, 34.897094000087392 ], [ -79.468089991316418, 34.898925999713597 ], [ -79.469140991235506, 34.900233999686399 ], [ -79.471566990773937, 34.899734000012216 ], [ -79.47149999074766, 34.902793000442792 ], [ -79.473849991472051, 34.904027999632476 ], [ -79.477224990754593, 34.908865999930292 ], [ -79.479812991742847, 34.921427999683914 ], [ -79.479735990940171, 34.927557999753972 ], [ -79.482857991630439, 34.935153000236134 ], [ -79.482907990974198, 34.940969000426868 ], [ -79.472207991264952, 34.957978000177974 ], [ -79.462538991730241, 34.969482999921823 ], [ -79.446616991027625, 34.975415000271255 ], [ -79.446559991290144, 35.014833999713304 ], [ -79.445692990941595, 35.018073000407099 ], [ -79.442694990956355, 35.022979999654815 ], [ -79.441965991771198, 35.022276000230171 ], [ -79.439294991726427, 35.022647999798586 ], [ -79.437681991012525, 35.021354999919197 ], [ -79.436696991012909, 35.02213499960105 ], [ -79.434899991710452, 35.020533000364935 ], [ -79.43342699089358, 35.021013000236643 ], [ -79.431329991753785, 35.020131000220296 ], [ -79.430372991798279, 35.017199000001433 ], [ -79.428500991554117, 35.016408999718301 ], [ -79.429251991245366, 35.015588000349396 ], [ -79.425455991760543, 35.012552999878253 ], [ -79.425927991106477, 35.011852000160495 ], [ -79.424785991433239, 35.011164999782551 ], [ -79.424916990923094, 35.010353000046294 ], [ -79.423074990717822, 35.010297000180323 ], [ -79.421109990798527, 35.009043000126042 ], [ -79.420845991446711, 35.007858999796056 ], [ -79.419596991494018, 35.007724000154617 ], [ -79.420204991741514, 35.007242999849474 ], [ -79.419401991223779, 35.006743999830093 ], [ -79.420094990993746, 35.006395999890515 ], [ -79.41795899138468, 35.005805000074822 ], [ -79.417857991245796, 35.004797999788508 ], [ -79.415630991105431, 35.003954000169593 ], [ -79.415979991567838, 35.002918000131636 ], [ -79.415062991799218, 35.003574000244875 ], [ -79.413366991739721, 35.002168999784239 ], [ -79.4115609916811, 35.002142000062413 ], [ -79.411396990737515, 35.001259999896376 ], [ -79.410097990764072, 35.00199099959508 ], [ -79.407615991185935, 34.9992430003363 ], [ -79.405901991725315, 34.999572000453007 ], [ -79.404062990873641, 34.997899999830366 ], [ -79.401162991250914, 34.997406999799658 ], [ -79.400636991126035, 34.996096999859603 ], [ -79.398495991203831, 34.995224999830022 ], [ -79.39836099148458, 34.993958999678448 ], [ -79.396505991359959, 34.994115000445163 ], [ -79.396980991403026, 34.99273999971922 ], [ -79.39602499071664, 34.992703999928679 ], [ -79.396609991582096, 34.991814999931243 ], [ -79.394105991519325, 34.989624999761034 ], [ -79.394130991441585, 34.988800999731964 ], [ -79.393226991092931, 34.98913400011088 ], [ -79.390186990829321, 34.9859339996082 ], [ -79.391117991234779, 34.985526 ], [ -79.390594991271215, 34.983839999725177 ], [ -79.388729991267894, 34.982998000160777 ], [ -79.388317991030021, 34.981416000295944 ], [ -79.387848991240048, 34.981967000311961 ], [ -79.386345991397121, 34.98146299968986 ], [ -79.38627999141373, 34.979926000143713 ], [ -79.382844991755718, 34.97829699967042 ], [ -79.381903991128794, 34.976502999833038 ], [ -79.378536990896706, 34.975783999802623 ], [ -79.378957991376183, 34.975282999816855 ], [ -79.378153991614198, 34.975371999653696 ], [ -79.377833990723261, 34.973996000242145 ], [ -79.373460990993692, 34.969847999902136 ], [ -79.373305991219681, 34.96854700011238 ], [ -79.371903991126018, 34.968532999983495 ], [ -79.37042599143976, 34.966492000432204 ], [ -79.369793991721238, 34.963195999619195 ], [ -79.368707991009884, 34.962420000238716 ], [ -79.368081991809589, 34.96297000046507 ], [ -79.367612991694472, 34.962123000116542 ], [ -79.36695499074807, 34.96248499976349 ], [ -79.36397199127606, 34.960312000084372 ], [ -79.362830990980626, 34.959289000470378 ], [ -79.363132991665893, 34.958405000292039 ], [ -79.362275990928083, 34.958691000375119 ], [ -79.362377991473863, 34.957513000190303 ], [ -79.360838991343741, 34.957922000019245 ], [ -79.363644991603124, 34.954184000407054 ], [ -79.362063991458626, 34.953073999711187 ], [ -79.362367990915786, 34.952085999844073 ], [ -79.361288990754701, 34.950668999840005 ], [ -79.362191991019216, 34.950257999707404 ], [ -79.361006991013355, 34.950379999911974 ], [ -79.359339990789707, 34.949273000312871 ], [ -79.358451991394404, 34.949651999797609 ], [ -79.356594991693669, 34.94809100016306 ], [ -79.356919991757678, 34.947556000187085 ], [ -79.355084991750402, 34.945604000384719 ], [ -79.355259991061331, 34.944837000273736 ], [ -79.354299991295392, 34.945620999828535 ], [ -79.354254991765089, 34.944162000278297 ], [ -79.353131991254415, 34.944329000038088 ], [ -79.353975991338856, 34.943193999936589 ], [ -79.352900991238684, 34.940393000193041 ], [ -79.353838991168359, 34.939949999677879 ], [ -79.35290499140163, 34.939564000026429 ], [ -79.354294991005474, 34.938628999936192 ], [ -79.353208991581681, 34.936892000041787 ], [ -79.354657990755911, 34.937206000393282 ], [ -79.355325991725991, 34.935822000413744 ], [ -79.354216991658433, 34.934472000038255 ], [ -79.355376991194646, 34.933048000043591 ], [ -79.356129991484039, 34.933139000042374 ], [ -79.355335990919116, 34.932144000029055 ], [ -79.355379991313541, 34.930223000328645 ], [ -79.354385991425545, 34.929464000383177 ], [ -79.354589990816635, 34.926575999879418 ], [ -79.352198991143041, 34.925142000388647 ], [ -79.352447991194978, 34.924060999835405 ], [ -79.35102499162609, 34.924584000425583 ], [ -79.351287990925528, 34.923618000190245 ], [ -79.349724991286493, 34.921389999950989 ], [ -79.351745991416237, 34.919816000330897 ], [ -79.350417991557578, 34.917518999648379 ], [ -79.35145699119478, 34.915750000337226 ], [ -79.350838991346208, 34.914376000331131 ], [ -79.351796991759144, 34.914170999968512 ], [ -79.350803990754358, 34.913462999622396 ], [ -79.351799991794294, 34.913006999868422 ], [ -79.350865991414622, 34.911985999614153 ], [ -79.35209599115673, 34.911123000115921 ], [ -79.351487991186119, 34.910750000154628 ], [ -79.35173399083763, 34.908969000060452 ], [ -79.350875991550993, 34.908784999635692 ], [ -79.349640990766574, 34.905975000373438 ], [ -79.350531990973892, 34.905444999979096 ], [ -79.34960699089018, 34.905255000278011 ], [ -79.349550991010474, 34.903959999654177 ], [ -79.348525991333872, 34.903091999987346 ], [ -79.34909999089092, 34.902534000019578 ], [ -79.348458991761177, 34.901243999782658 ], [ -79.34929599073935, 34.900811000130467 ], [ -79.348320991519429, 34.899634999849695 ], [ -79.349804991013883, 34.898919000086565 ], [ -79.348773990971566, 34.898324000073011 ], [ -79.349584991781555, 34.897646999943838 ], [ -79.348297991692533, 34.896158000290157 ], [ -79.349331991305831, 34.894416000164753 ], [ -79.350314991359113, 34.894542000448112 ], [ -79.348916991216853, 34.893650999770287 ], [ -79.348381991370289, 34.886423000158061 ], [ -79.346632990760142, 34.882936999940895 ], [ -79.347452991275944, 34.882398000153799 ], [ -79.346426990945247, 34.882336999712521 ], [ -79.346549990747903, 34.879067999739398 ], [ -79.344256991105141, 34.877727999824451 ], [ -79.344984991175011, 34.874368999625887 ], [ -79.343875991204456, 34.874757999583679 ], [ -79.342627991271328, 34.873700999918199 ], [ -79.34295699127405, 34.872089999979686 ], [ -79.342031991281544, 34.871928000383527 ], [ -79.34183899121723, 34.869933999778333 ], [ -79.343380991078703, 34.870073000381197 ], [ -79.343548991108491, 34.868433999590962 ], [ -79.34210799129707, 34.868292999721191 ], [ -79.34288999132599, 34.867716999862459 ], [ -79.341796991824367, 34.867293000455938 ], [ -79.342014991110105, 34.864486999820294 ], [ -79.340843991688288, 34.863185000291367 ], [ -79.341549991180059, 34.862315000267337 ], [ -79.337849990966546, 34.859287000388036 ], [ -79.338150991718152, 34.857374999750505 ], [ -79.338971991086012, 34.857026000452137 ], [ -79.337957991528143, 34.856838999967266 ], [ -79.33829499149607, 34.856215000311522 ], [ -79.337332991493824, 34.856393999583929 ], [ -79.338151990741054, 34.855720000467265 ], [ -79.336922990979701, 34.85379000030693 ], [ -79.338000990977804, 34.853476000336087 ], [ -79.337320991233199, 34.852934000104234 ], [ -79.338378990769556, 34.852039999973059 ], [ -79.340227991527911, 34.851841999955568 ], [ -79.338753991630185, 34.850427999829421 ], [ -79.340374991410357, 34.850630000330568 ], [ -79.340538991363516, 34.849593999864332 ], [ -79.341488991330891, 34.84966500026642 ], [ -79.341335991787602, 34.848886000046178 ], [ -79.342147991681898, 34.849241000386051 ], [ -79.341383991687806, 34.848249999858183 ], [ -79.341778991054213, 34.847510000358803 ], [ -79.342768991187512, 34.847645000144794 ], [ -79.343303991659369, 34.846097999595372 ], [ -79.34529199162337, 34.846000000325745 ], [ -79.345134991464235, 34.843364000351293 ], [ -79.34790399108897, 34.843146999705475 ], [ -79.347087991461706, 34.840951000105747 ], [ -79.348111991365414, 34.840980000421041 ], [ -79.348801990812277, 34.839517000045944 ], [ -79.347867991379644, 34.838552999930499 ], [ -79.348996991096612, 34.838691000258812 ], [ -79.34972599086079, 34.837594000371368 ], [ -79.349253991780017, 34.837002999872219 ], [ -79.350526991236507, 34.836264999583683 ], [ -79.349971991266017, 34.835390999723501 ], [ -79.351929991262011, 34.833789000330938 ], [ -79.350940991777307, 34.83290200011087 ], [ -79.352020991787413, 34.832277999608309 ], [ -79.351203991435113, 34.832044000310411 ], [ -79.353615991507951, 34.828750000283364 ], [ -79.353059991334135, 34.827588999813258 ], [ -79.351630991578375, 34.827699999772271 ], [ -79.35245799088689, 34.826967999601706 ], [ -79.35219999159051, 34.825889000377913 ], [ -79.353657990988552, 34.826193000119098 ], [ -79.352648990974785, 34.825132000116461 ], [ -79.353558991145547, 34.824958999599239 ], [ -79.3529979911373, 34.823938999848863 ], [ -79.355331991276515, 34.821896000338711 ], [ -79.356104991557388, 34.822062000096572 ], [ -79.356081990994056, 34.820730000149652 ], [ -79.356746991596864, 34.821273999988485 ], [ -79.357716991033513, 34.820605999657381 ], [ -79.356905990797685, 34.819509000317488 ], [ -79.35735899168175, 34.818856000355289 ], [ -79.355889990760176, 34.817773999661128 ], [ -79.355992991500088, 34.816435999710095 ], [ -79.354868991552692, 34.816696999645309 ], [ -79.355441991052331, 34.815265000113691 ], [ -79.355865991525533, 34.814522999987581 ], [ -79.359216991321077, 34.815044000383402 ], [ -79.372816990987971, 34.821578999784961 ], [ -79.380188991592064, 34.818343999820577 ], [ -79.388468991202842, 34.816891999676926 ], [ -79.393243991519483, 34.815024999622217 ], [ -79.401112991692429, 34.815210000103868 ], [ -79.408988991587805, 34.807959000473147 ] ] ] } },
{ "type": "Feature", "properties": { "county": "HOKE", "precinct": "12", "enr_desc": "Rockfish", "winner": "Ralph Carter", "winner_votes": 154, "winner_share": 61.847389558232933, "runner_up": "Kirk Lowery", "runner_up_votes": 95, "runner_up_share": 38.152610441767074, "contest_votes": 249, "margin_of_victory": 23.69477911646586, "is_tie": false, "results": [ { "candidate": "Ralph Carter", "votes": 154, "share": 61.84738955823293 }, { "candidate": "Kirk Lowery", "votes": 95, "share": 38.152610441767074 } ], "participated": true, "map_key": "HOKE_12" }, "geometry": { "type": "Polygon", "coordinates": [ [ [ -79.037301991441709, 34.953839000333801 ], [ -79.038994991384286, 34.954301999824111 ], [ -79.040462990988942, 34.953442999848804 ], [ -79.045325991780913, 34.954744000420739 ], [ -79.04592699100094, 34.953223000003753 ], [ -79.048815990890787, 34.953854000089848 ], [ -79.049652991146019, 34.952416999921759 ], [ -79.05073599083893, 34.953535000185916 ], [ -79.051817990903956, 34.952621999881565 ], [ -79.052802991225704, 34.953245999955151 ], [ -79.052705991253376, 34.952551999857768 ], [ -79.054549991301698, 34.952470000200982 ], [ -79.057807991583473, 34.949379000180095 ], [ -79.058662991346679, 34.95011000043484 ], [ -79.060517990984366, 34.949505999759893 ], [ -79.061485991676989, 34.950307999679033 ], [ -79.061645990896039, 34.949494999806774 ], [ -79.062706991537922, 34.949286000288197 ], [ -79.064074991783585, 34.949764000240755 ], [ -79.063774990946101, 34.950242000450906 ], [ -79.064975990968748, 34.949758999752042 ], [ -79.065142991604517, 34.950797000146771 ], [ -79.067691990794842, 34.951501000187207 ], [ -79.067318991743008, 34.95207799984329 ], [ -79.070962991133982, 34.952676999842396 ], [ -79.071022991162735, 34.953495000321986 ], [ -79.075340991559017, 34.953413000282623 ], [ -79.075734991037095, 34.954034000454577 ], [ -79.076955991731054, 34.953308000260222 ], [ -79.078176990795413, 34.954461999802774 ], [ -79.080479991112355, 34.954061000439381 ], [ -79.080873991519269, 34.955280999969119 ], [ -79.082401991033734, 34.955451000310077 ], [ -79.08474499148582, 34.957396000397182 ], [ -79.086840991709195, 34.957060000091872 ], [ -79.090732991508531, 34.958780000362751 ], [ -79.091833991510541, 34.957520999722959 ], [ -79.093181991432573, 34.958559000435393 ], [ -79.09405599092841, 34.957882999786733 ], [ -79.095190991074659, 34.958816999901366 ], [ -79.097099991263434, 34.958696000144819 ], [ -79.09789499125489, 34.960431999995194 ], [ -79.099569991664765, 34.959711999671349 ], [ -79.101172991418508, 34.961386999844947 ], [ -79.103909991197668, 34.96233199999309 ], [ -79.105018991638275, 34.964182999624171 ], [ -79.107568991395041, 34.964737999788383 ], [ -79.108036991275853, 34.965864000293834 ], [ -79.107449991642625, 34.966627999869367 ], [ -79.108510990870585, 34.966687999746959 ], [ -79.10917899088831, 34.967490000277422 ], [ -79.108751990951745, 34.967989999647465 ], [ -79.10968599090593, 34.96799700033386 ], [ -79.107538991377453, 34.969022000106769 ], [ -79.102275991453709, 34.969389999851131 ], [ -79.10238399109322, 34.972598000389993 ], [ -79.106240990795769, 34.982534000312491 ], [ -79.105652991483183, 34.989555000001396 ], [ -79.10041399122106, 34.988293999743163 ], [ -79.099185990861869, 34.993351999871663 ], [ -79.093926991461586, 34.997323999628975 ], [ -79.091587991544472, 35.001818999584721 ], [ -79.08074099111829, 35.00627200013998 ], [ -79.06964299156418, 35.013266999633423 ], [ -79.067048991580123, 35.012637000379513 ], [ -79.061937990866468, 35.009114999654791 ], [ -79.060654990806341, 35.004609999899593 ], [ -79.057017991349539, 35.000765999972309 ], [ -79.05676999142247, 34.99828200032016 ], [ -79.049698990954354, 34.991954000150947 ], [ -79.047443991200126, 34.985470999647738 ], [ -79.048171991105832, 34.981517000275055 ], [ -79.047024991381491, 34.978279000381733 ], [ -79.043468991330442, 34.975243000269018 ], [ -79.04267599165189, 34.972018000138497 ], [ -79.04109099156075, 34.970514000221343 ], [ -79.041033990745689, 34.967793000078977 ], [ -79.039735991767358, 34.966899000329917 ], [ -79.037270991408732, 34.96704499974382 ], [ -79.034774991073277, 34.963118999692625 ], [ -79.037582990957588, 34.957536999695776 ], [ -79.035555991140114, 34.955196999759714 ], [ -79.037301991441709, 34.953839000333801 ] ] ] } },
{ "type": "Feature", "properties": { "county": "HOKE", "precinct": "13", "enr_desc": "Stonewall", "winner": "Ralph Carter", "winner_votes": 64, "winner_share": 50.793650793650791, "runner_up": "Kirk Lowery", "runner_up_votes": 62, "runner_up_share": 49.206349206349202, "contest_votes": 126, "margin_of_victory": 1.5873015873015888, "is_tie": false, "results": [ { "candidate": "Ralph Carter", "votes": 64, "share": 50.79365079365079 }, { "candidate": "Kirk Lowery", "votes": 62, "share": 49.2063492063492 } ], "participated": true, "map_key": "HOKE_13" }, "geometry": { "type": "Polygon", "coordinates": [ [ [ -79.130759991733314, 34.881052999699918 ], [ -79.133826991047954, 34.884824999627803 ], [ -79.132283991760644, 34.886677000177954 ], [ -79.134577990784351, 34.888257000013667 ], [ -79.140685991317469, 34.889968999922452 ], [ -79.142518991664105, 34.889335000156279 ], [ -79.145240990883195, 34.889793999604905 ], [ -79.150408991083097, 34.892406000265815 ], [ -79.153906990748382, 34.900673000398974 ], [ -79.163487991089568, 34.90279099959276 ], [ -79.166757991522203, 34.901833999923134 ], [ -79.173085991179576, 34.904392000211686 ], [ -79.175733991673567, 34.906770000318936 ], [ -79.177861991756259, 34.907225999970962 ], [ -79.181999991686382, 34.911882000228523 ], [ -79.180163990820787, 34.914294999853283 ], [ -79.185041991677451, 34.917030000460684 ], [ -79.18714599106795, 34.919174000079757 ], [ -79.189902990773504, 34.926325000093307 ], [ -79.192722991216712, 34.930170000278231 ], [ -79.192774991246395, 34.935340000177355 ], [ -79.195913991684364, 34.941207000310634 ], [ -79.206719991475993, 34.944817999983556 ], [ -79.206477990921655, 34.94966900029663 ], [ -79.209787991062072, 34.955684000155991 ], [ -79.205079991107894, 34.95496499986983 ], [ -79.201928991033256, 34.957374999572082 ], [ -79.197412991032607, 34.958230999740174 ], [ -79.19188599095709, 34.960993000101148 ], [ -79.192623991793369, 34.963522000331935 ], [ -79.189817990744231, 34.965527000354747 ], [ -79.185277991046064, 34.970845999886784 ], [ -79.184676990859373, 34.972648999793492 ], [ -79.180241991520901, 34.972267000165367 ], [ -79.176258990961955, 34.97237900014597 ], [ -79.17177999121364, 34.970245999778165 ], [ -79.165209991207632, 34.97180500008362 ], [ -79.158828990717893, 34.971485000128673 ], [ -79.15821399174429, 34.972270999873288 ], [ -79.154695990769383, 34.973039000245443 ], [ -79.148386991536555, 34.972581000335417 ], [ -79.147184991717111, 34.973207000413879 ], [ -79.140082991511463, 34.971917999896839 ], [ -79.135531991755428, 34.969498000003469 ], [ -79.125577991280593, 34.969876999770229 ], [ -79.124132990888569, 34.96898999993028 ], [ -79.121642991435223, 34.969123000401218 ], [ -79.12162199147005, 34.968392000235497 ], [ -79.119399991264615, 34.969162000398484 ], [ -79.116575991107922, 34.968086000256619 ], [ -79.112957991149585, 34.969466999907993 ], [ -79.11223699142738, 34.96857199962659 ], [ -79.10968599090593, 34.96799700033386 ], [ -79.108751990951745, 34.967989999647465 ], [ -79.10917899088831, 34.967490000277422 ], [ -79.108510990870585, 34.966687999746959 ], [ -79.107449991642625, 34.966627999869367 ], [ -79.108036991275853, 34.965864000293834 ], [ -79.107568991395041, 34.964737999788383 ], [ -79.105018991638275, 34.964182999624171 ], [ -79.103909991197668, 34.96233199999309 ], [ -79.101172991418508, 34.961386999844947 ], [ -79.099569991664765, 34.959711999671349 ], [ -79.09789499125489, 34.960431999995194 ], [ -79.097099991263434, 34.958696000144819 ], [ -79.095190991074659, 34.958816999901366 ], [ -79.09405599092841, 34.957882999786733 ], [ -79.093181991432573, 34.958559000435393 ], [ -79.091833991510541, 34.957520999722959 ], [ -79.090732991508531, 34.958780000362751 ], [ -79.086840991709195, 34.957060000091872 ], [ -79.08474499148582, 34.957396000397182 ], [ -79.082401991033734, 34.955451000310077 ], [ -79.080873991519269, 34.955280999969119 ], [ -79.080479991112355, 34.954061000439381 ], [ -79.078176990795413, 34.954461999802774 ], [ -79.076955991731054, 34.953308000260222 ], [ -79.075734991037095, 34.954034000454577 ], [ -79.075340991559017, 34.953413000282623 ], [ -79.071022991162735, 34.953495000321986 ], [ -79.070962991133982, 34.952676999842396 ], [ -79.067318991743008, 34.95207799984329 ], [ -79.067691990794842, 34.951501000187207 ], [ -79.065142991604517, 34.950797000146771 ], [ -79.064975990968748, 34.949758999752042 ], [ -79.063774990946101, 34.950242000450906 ], [ -79.064074991783585, 34.949764000240755 ], [ -79.062706991537922, 34.949286000288197 ], [ -79.061645990896039, 34.949494999806774 ], [ -79.061485991676989, 34.950307999679033 ], [ -79.060517990984366, 34.949505999759893 ], [ -79.058662991346679, 34.95011000043484 ], [ -79.057807991583473, 34.949379000180095 ], [ -79.054549991301698, 34.952470000200982 ], [ -79.052705991253376, 34.952551999857768 ], [ -79.052802991225704, 34.953245999955151 ], [ -79.051817990903956, 34.952621999881565 ], [ -79.05073599083893, 34.953535000185916 ], [ -79.049652991146019, 34.952416999921759 ], [ -79.048815990890787, 34.953854000089848 ], [ -79.04592699100094, 34.953223000003753 ], [ -79.045325991780913, 34.954744000420739 ], [ -79.040462990988942, 34.953442999848804 ], [ -79.038994991384286, 34.954301999824111 ], [ -79.037301991441709, 34.953839000333801 ], [ -79.130759991733314, 34.881052999699918 ] ] ] } },
{ "type": "Feature", "properties": { "county": "HOKE", "precinct": "14", "enr_desc": "Wayside", "winner": "Ralph Carter", "winner_votes": 66, "winner_share": 62.264150943396224, "runner_up": "Kirk Lowery", "runner_up_votes": 40, "runner_up_share": 37.735849056603776, "contest_votes": 106, "margin_of_victory": 24.528301886792448, "is_tie": false, "results": [ { "candidate": "Ralph Carter", "votes": 66, "share": 62.264150943396224 }, { "candidate": "Kirk Lowery", "votes": 40, "share": 37.735849056603776 } ], "participated": true, "map_key": "HOKE_14" }, "geometry": { "type": "Polygon", "coordinates": [ [ [ -79.139838990806652, 35.028754000457774 ], [ -79.148428991011755, 35.024187999935947 ], [ -79.154083991017586, 35.019895000102629 ], [ -79.161254991807112, 35.01158699971667 ], [ -79.164845991082984, 35.009225999978781 ], [ -79.164719991357529, 35.012539999817683 ], [ -79.166776991169158, 35.015557999728955 ], [ -79.166488991150914, 35.018068999885116 ], [ -79.167776991626837, 35.020777999812296 ], [ -79.166519991378578, 35.023987000200492 ], [ -79.166960991502791, 35.025932000357834 ], [ -79.165534991681739, 35.029178000447622 ], [ -79.167318991402169, 35.043014000384659 ], [ -79.198726991018745, 35.039546999752787 ], [ -79.233049991329452, 35.041304000092673 ], [ -79.230834991141094, 35.066015999861349 ], [ -79.233238990889234, 35.080371000041609 ], [ -79.227544990784594, 35.104846999743202 ], [ -79.224223991766294, 35.115369000443465 ], [ -79.225167990885595, 35.12639500011894 ], [ -79.229157991222351, 35.13253399994182 ], [ -79.228676991777149, 35.133097000441111 ], [ -79.229681991202327, 35.133319999880101 ], [ -79.234184991204771, 35.140102999982403 ], [ -79.23626599172097, 35.146958000059058 ], [ -79.235139991707698, 35.161316999573231 ], [ -79.236482991425305, 35.166795000351449 ], [ -79.240538990784032, 35.173401999730714 ], [ -79.240700991691597, 35.183692999634211 ], [ -79.242862990910666, 35.187172999590956 ], [ -79.238754991741956, 35.198321000409322 ], [ -79.234802991512723, 35.205570999835324 ], [ -79.235487991225725, 35.206573000436073 ], [ -79.235039990772535, 35.20796500007463 ], [ -79.239109991419454, 35.206561000111847 ], [ -79.240124991402951, 35.207056000251981 ], [ -79.24016899154762, 35.208395999961986 ], [ -79.236675990941222, 35.210752999959567 ], [ -79.23427599096631, 35.2101239997777 ], [ -79.229711991540867, 35.210601999874001 ], [ -79.227408991158825, 35.207304000051131 ], [ -79.223967991234588, 35.204356999733946 ], [ -79.223510991275788, 35.202069999883079 ], [ -79.219755991594326, 35.202391999879268 ], [ -79.218316990739666, 35.198337999591033 ], [ -79.216683990855188, 35.19794099995849 ], [ -79.213991991027285, 35.195138000455252 ], [ -79.211628991619222, 35.193948000006372 ], [ -79.208058990926475, 35.194822000291914 ], [ -79.206208991491863, 35.19365699975603 ], [ -79.206088991510526, 35.195158999780752 ], [ -79.204224990842576, 35.195719000424695 ], [ -79.203495991252012, 35.194302000409024 ], [ -79.204297991274927, 35.192640999604464 ], [ -79.202377990777833, 35.192395999863855 ], [ -79.201274991624373, 35.193509000162848 ], [ -79.200509990769376, 35.192297999907886 ], [ -79.198489991295887, 35.192132999797629 ], [ -79.196001990729314, 35.193040000100986 ], [ -79.195076991230238, 35.191591000218445 ], [ -79.194373991506808, 35.192580999899967 ], [ -79.195359991569163, 35.193798000367792 ], [ -79.194890991786806, 35.194420000235027 ], [ -79.19312499103421, 35.194584000116336 ], [ -79.192731990992712, 35.1930740001972 ], [ -79.190706991723403, 35.193381999658271 ], [ -79.189039991338433, 35.192352000315672 ], [ -79.188592991015597, 35.194056999839965 ], [ -79.185040991729579, 35.193703000433558 ], [ -79.18332999127297, 35.191958999786785 ], [ -79.183755991318023, 35.190729999987411 ], [ -79.181129991355519, 35.189770999773501 ], [ -79.180090991000299, 35.190429000063112 ], [ -79.178648991759246, 35.189888000050409 ], [ -79.178267991247367, 35.191831000310806 ], [ -79.175213990806071, 35.193059999872638 ], [ -79.172393991626933, 35.19150699957315 ], [ -79.172831991413034, 35.190793999753176 ], [ -79.171970991748879, 35.189125999812696 ], [ -79.173251991303843, 35.18783999956743 ], [ -79.17265299082834, 35.186284000131288 ], [ -79.170218990848554, 35.184959000361701 ], [ -79.167959990818744, 35.185064000358921 ], [ -79.167497991405227, 35.183958000202132 ], [ -79.168969991313858, 35.182431999824566 ], [ -79.168328990761907, 35.181383000096993 ], [ -79.161954991169821, 35.180451999718528 ], [ -79.161505991441558, 35.178722999954594 ], [ -79.159341990931935, 35.179463000432598 ], [ -79.160408991193691, 35.182468999757198 ], [ -79.158702990730617, 35.182378999775572 ], [ -79.156412991230184, 35.179947000342814 ], [ -79.154442991549857, 35.180724999580683 ], [ -79.153983991038288, 35.178109000406863 ], [ -79.154973990782054, 35.176629999834823 ], [ -79.151832991743177, 35.174147000197614 ], [ -79.148762991146469, 35.17626399968308 ], [ -79.147626991470403, 35.176173999940843 ], [ -79.148892990728498, 35.173090000149877 ], [ -79.145752991587585, 35.172060000359522 ], [ -79.146359991533998, 35.170555999672587 ], [ -79.142843991482437, 35.169011999977421 ], [ -79.140809991060848, 35.169234000356859 ], [ -79.137272991737547, 35.171557000080227 ], [ -79.135507991226476, 35.176140999907588 ], [ -79.136259991246447, 35.177063999568283 ], [ -79.132951990858999, 35.177748999598357 ], [ -79.129550991490134, 35.175731000007957 ], [ -79.131509991064647, 35.173898999981276 ], [ -79.128214991637094, 35.171643999959997 ], [ -79.127564991634088, 35.167672000243243 ], [ -79.125263991694538, 35.166538000268943 ], [ -79.122948991763209, 35.167393000109001 ], [ -79.12248799082252, 35.169328999993958 ], [ -79.119872991200509, 35.171702000347331 ], [ -79.116345990995953, 35.171707999887076 ], [ -79.11186699139742, 35.170115000038784 ], [ -79.11007499149612, 35.170538000444928 ], [ -79.109213991425662, 35.171225999965579 ], [ -79.109612991281836, 35.172733999596012 ], [ -79.108915990739959, 35.174704000030388 ], [ -79.107533991456734, 35.175851999588978 ], [ -79.104410991466636, 35.175208999978615 ], [ -79.103382991596547, 35.172713000449043 ], [ -79.10109499172907, 35.171909000175113 ], [ -79.099562990896573, 35.173515999959051 ], [ -79.097550991044955, 35.174232999655572 ], [ -79.11292099145011, 35.1256510002382 ], [ -79.111864990783616, 35.124184000252114 ], [ -79.109121991202258, 35.124670999986094 ], [ -79.107560991455571, 35.122443999629731 ], [ -79.105454991410099, 35.121453000274528 ], [ -79.103481991614515, 35.116576000020721 ], [ -79.102883991037146, 35.116821999691574 ], [ -79.101265991074129, 35.114605999627159 ], [ -79.100114990735491, 35.110885000365307 ], [ -79.10075699126314, 35.108063000045725 ], [ -79.098976991613696, 35.105512000350409 ], [ -79.099826991692737, 35.103032000238549 ], [ -79.098321991522084, 35.100997000179532 ], [ -79.099555991039566, 35.098948999790565 ], [ -79.098022990924349, 35.095800999982302 ], [ -79.098457991150596, 35.094345000035624 ], [ -79.093175990841857, 35.090349000432674 ], [ -79.09349599155729, 35.089035000287879 ], [ -79.09173599146024, 35.082904000437715 ], [ -79.093427991246543, 35.079598000380535 ], [ -79.090315991149708, 35.077533999638817 ], [ -79.089282991513656, 35.071059999922753 ], [ -79.091026991765091, 35.06802400033677 ], [ -79.090795991469719, 35.064842000211463 ], [ -79.092087990876067, 35.063946999851694 ], [ -79.090387991739689, 35.059375000008664 ], [ -79.092635990940181, 35.057701999814725 ], [ -79.093165991673388, 35.056266000449504 ], [ -79.090065991349803, 35.053952000252345 ], [ -79.089572991031588, 35.052275999964372 ], [ -79.088264991407215, 35.051815999622846 ], [ -79.088938991784971, 35.050579000274439 ], [ -79.088107990817647, 35.049622999945313 ], [ -79.091776991791093, 35.047525000381057 ], [ -79.090057991042286, 35.045806000163893 ], [ -79.090683991299002, 35.044020999946568 ], [ -79.090290991273818, 35.042031000214074 ], [ -79.087766991674755, 35.039862000309228 ], [ -79.087097991610904, 35.037608000069213 ], [ -79.084320990924638, 35.035591000249831 ], [ -79.083185991352423, 35.032660000373397 ], [ -79.130041991040969, 35.031614000060827 ], [ -79.135997991475548, 35.03086799994562 ], [ -79.139838990806652, 35.028754000457774 ] ] ] } },
{ "type": "Feature", "properties": { "county": "HOKE", "precinct": "15", "enr_desc": "Philippi", "winner": "Ralph Carter", "winner_votes": 49, "winner_share": 55.056179775280903, "runner_up": "Kirk Lowery", "runner_up_votes": 40, "runner_up_share": 44.943820224719097, "contest_votes": 89, "margin_of_victory": 10.112359550561806, "is_tie": false, "results": [ { "candidate": "Ralph Carter", "votes": 49, "share": 55.0561797752809 }, { "candidate": "Kirk Lowery", "votes": 40, "share": 44.9438202247191 } ], "participated": true, "map_key": "HOKE_15" }, "geometry": { "type": "Polygon", "coordinates": [ [ [ -79.107538991377453, 34.969022000106769 ], [ -79.10968599090593, 34.96799700033386 ], [ -79.11223699142738, 34.96857199962659 ], [ -79.112957991149585, 34.969466999907993 ], [ -79.116575991107922, 34.968086000256619 ], [ -79.119399991264615, 34.969162000398484 ], [ -79.12162199147005, 34.968392000235497 ], [ -79.121642991435223, 34.969123000401218 ], [ -79.124132990888569, 34.96898999993028 ], [ -79.125577991280593, 34.969876999770229 ], [ -79.135531991755428, 34.969498000003469 ], [ -79.140082991511463, 34.971917999896839 ], [ -79.147184991717111, 34.973207000413879 ], [ -79.148386991536555, 34.972581000335417 ], [ -79.154695990769383, 34.973039000245443 ], [ -79.15821399174429, 34.972270999873288 ], [ -79.158828990717893, 34.971485000128673 ], [ -79.165209991207632, 34.97180500008362 ], [ -79.17177999121364, 34.970245999778165 ], [ -79.176258990961955, 34.97237900014597 ], [ -79.180241991520901, 34.972267000165367 ], [ -79.172762991425842, 34.978582000361101 ], [ -79.170519990891961, 34.977245999774247 ], [ -79.165674991800444, 34.984344000070827 ], [ -79.159322991502464, 34.989087999800887 ], [ -79.160342990877226, 34.990267999889952 ], [ -79.161508990850081, 34.995455999664863 ], [ -79.163865990794861, 34.997720999843089 ], [ -79.163373990840327, 35.003802999892123 ], [ -79.164845991082984, 35.009225999978781 ], [ -79.161254991807112, 35.01158699971667 ], [ -79.154083991017586, 35.019895000102629 ], [ -79.148428991011755, 35.024187999935947 ], [ -79.139838990806652, 35.028754000457774 ], [ -79.137331991058872, 35.02286199996032 ], [ -79.136959990799497, 35.017362999896299 ], [ -79.130870991186285, 35.003496000116151 ], [ -79.126736990862426, 34.994892000006232 ], [ -79.123231991246044, 34.990362999839306 ], [ -79.118053991543874, 34.980576999739029 ], [ -79.117121991128869, 34.976924999926098 ], [ -79.118420991130264, 34.975130000065541 ], [ -79.115219991217685, 34.972675999609898 ], [ -79.107538991377453, 34.969022000106769 ] ] ] } },
{ "type": "Feature", "properties": { "county": "HOKE", "precinct": "61", "enr_desc": "Raeford  1", "winner": "Kirk Lowery", "winner_votes": 48, "winner_share": 58.536585365853654, "runner_up": "Ralph Carter", "runner_up_votes": 34, "runner_up_share": 41.463414634146339, "contest_votes": 82, "margin_of_victory": 17.073170731707314, "is_tie": false, "results": [ { "candidate": "Kirk Lowery", "votes": 48, "share": 58.536585365853654 }, { "candidate": "Ralph Carter", "votes": 34, "share": 41.46341463414634 } ], "participated": true, "map_key": "HOKE_61" }, "geometry": { "type": "Polygon", "coordinates": [ [ [ -79.206719991475993, 34.944817999983556 ], [ -79.207087991778536, 34.942708000088523 ], [ -79.216526991357881, 34.944870000254006 ], [ -79.218630991551194, 34.944579999749493 ], [ -79.221371991104107, 34.960137000236912 ], [ -79.223418991316024, 34.966932000320575 ], [ -79.224654991752928, 34.971190000376943 ], [ -79.224020990846412, 34.974166000151314 ], [ -79.224094990761259, 34.993530000221611 ], [ -79.221887990772444, 34.993919999842284 ], [ -79.221587990821263, 34.989692000338124 ], [ -79.22082999154982, 34.992355000453891 ], [ -79.218015990980476, 34.991722000334448 ], [ -79.218425991333248, 34.989742999860148 ], [ -79.210803991696324, 34.989746999574969 ], [ -79.210807990795672, 34.991723000000235 ], [ -79.208853991455854, 34.992816999966294 ], [ -79.207950991184106, 34.991983000191595 ], [ -79.208256991500633, 34.991396000157316 ], [ -79.205109991496357, 34.989928000358582 ], [ -79.203898991157359, 34.987306999739786 ], [ -79.202703991374079, 34.987465000001734 ], [ -79.198743991018674, 34.984705999848089 ], [ -79.194877990794751, 34.979381000314952 ], [ -79.191552991337645, 34.976947000348524 ], [ -79.190387991209576, 34.9742859999864 ], [ -79.187280991048993, 34.972808000273609 ], [ -79.184676990859373, 34.972648999793492 ], [ -79.185277991046064, 34.970845999886784 ], [ -79.189817990744231, 34.965527000354747 ], [ -79.192623991793369, 34.963522000331935 ], [ -79.19188599095709, 34.960993000101148 ], [ -79.197412991032607, 34.958230999740174 ], [ -79.201928991033256, 34.957374999572082 ], [ -79.205079991107894, 34.95496499986983 ], [ -79.209787991062072, 34.955684000155991 ], [ -79.206477990921655, 34.94966900029663 ], [ -79.206719991475993, 34.944817999983556 ] ] ] } },
{ "type": "Feature", "properties": { "county": "HOKE", "precinct": "62", "enr_desc": "Raeford  2", "winner": "Kirk Lowery", "winner_votes": 33, "winner_share": 73.333333333333329, "runner_up": "Ralph Carter", "runner_up_votes": 12, "runner_up_share": 26.666666666666668, "contest_votes": 45, "margin_of_victory": 46.666666666666657, "is_tie": false, "results": [ { "candidate": "Kirk Lowery", "votes": 33, "share": 73.33333333333333 }, { "candidate": "Ralph Carter", "votes": 12, "share": 26.666666666666668 } ], "participated": true, "map_key": "HOKE_62" }, "geometry": { "type": "Polygon", "coordinates": [ [ [ -79.223418991316024, 34.966932000320575 ], [ -79.233311991433808, 34.967136999683575 ], [ -79.237928990718686, 34.969576999803472 ], [ -79.232280991783583, 34.975770999971395 ], [ -79.233964990946376, 34.977105000329544 ], [ -79.233461991782633, 34.984192999876612 ], [ -79.235654991112895, 34.984176999613346 ], [ -79.235472991530926, 34.987965999638888 ], [ -79.238478991307019, 34.990895000404166 ], [ -79.235884991392439, 34.991865000233631 ], [ -79.235841991080321, 34.991141999570623 ], [ -79.23453199166083, 34.991473999735078 ], [ -79.234636991292589, 34.989761000443139 ], [ -79.231931990952077, 34.989744000080812 ], [ -79.232842991666956, 34.990730999750667 ], [ -79.232141991597373, 34.990729999742697 ], [ -79.232564990911044, 34.992168999707673 ], [ -79.231457991598631, 34.992863999925433 ], [ -79.231487991560357, 34.989710000343173 ], [ -79.229232990888178, 34.989717000419439 ], [ -79.229560990819735, 34.992981000185225 ], [ -79.228468991265942, 34.993094999950443 ], [ -79.228932991226401, 34.994442000391501 ], [ -79.2268059907815, 34.995749999938319 ], [ -79.226684991673849, 34.993152999634958 ], [ -79.224094990761259, 34.993530000221611 ], [ -79.224020990846412, 34.974166000151314 ], [ -79.224654991752928, 34.971190000376943 ], [ -79.223418991316024, 34.966932000320575 ] ] ] } },
{ "type": "Feature", "properties": { "county": "HOKE", "precinct": "63", "enr_desc": "Raeford  3", "winner": "Ralph Carter", "winner_votes": 38, "winner_share": 56.71641791044776, "runner_up": "Kirk Lowery", "runner_up_votes": 29, "runner_up_share": 43.283582089552233, "contest_votes": 67, "margin_of_victory": 13.432835820895527, "is_tie": false, "results": [ { "candidate": "Ralph Carter", "votes": 38, "share": 56.71641791044776 }, { "candidate": "Kirk Lowery", "votes": 29, "share": 43.28358208955223 } ], "participated": true, "map_key": "HOKE_63" }, "geometry": { "type": "Polygon", "coordinates": [ [ [ -79.180241991520901, 34.972267000165367 ], [ -79.184676990859373, 34.972648999793492 ], [ -79.187280991048993, 34.972808000273609 ], [ -79.190387991209576, 34.9742859999864 ], [ -79.191552991337645, 34.976947000348524 ], [ -79.194877990794751, 34.979381000314952 ], [ -79.198743991018674, 34.984705999848089 ], [ -79.202703991374079, 34.987465000001734 ], [ -79.203898991157359, 34.987306999739786 ], [ -79.205109991496357, 34.989928000358582 ], [ -79.208256991500633, 34.991396000157316 ], [ -79.207950991184106, 34.991983000191595 ], [ -79.208853991455854, 34.992816999966294 ], [ -79.214230991421914, 34.998107999980014 ], [ -79.215065991556031, 34.99985500013468 ], [ -79.218716990740504, 35.000933000333653 ], [ -79.223152990916077, 35.003889000401387 ], [ -79.226184991215888, 35.004458999890012 ], [ -79.229250990965269, 35.00638200025162 ], [ -79.233918991194628, 35.004902000376923 ], [ -79.235302990997596, 35.005225999773927 ], [ -79.238682991176731, 35.008092999592328 ], [ -79.242175991253447, 35.008766999616469 ], [ -79.242029990808561, 35.009777999885614 ], [ -79.24349299107179, 35.010447999908209 ], [ -79.249009990910139, 35.019858999650459 ], [ -79.254546991240417, 35.022192999789077 ], [ -79.257575990872439, 35.027316000115242 ], [ -79.257551991051685, 35.033371999836689 ], [ -79.258612991518859, 35.035723999573044 ], [ -79.260335991257577, 35.036598999915896 ], [ -79.261195991333366, 35.03927500036292 ], [ -79.263239991458306, 35.039875000355572 ], [ -79.266003991721504, 35.042940000203309 ], [ -79.233049991329452, 35.041304000092673 ], [ -79.198726991018745, 35.039546999752787 ], [ -79.167318991402169, 35.043014000384659 ], [ -79.165534991681739, 35.029178000447622 ], [ -79.166960991502791, 35.025932000357834 ], [ -79.166519991378578, 35.023987000200492 ], [ -79.167776991626837, 35.020777999812296 ], [ -79.166488991150914, 35.018068999885116 ], [ -79.166776991169158, 35.015557999728955 ], [ -79.164719991357529, 35.012539999817683 ], [ -79.164845991082984, 35.009225999978781 ], [ -79.163373990840327, 35.003802999892123 ], [ -79.163865990794861, 34.997720999843089 ], [ -79.161508990850081, 34.995455999664863 ], [ -79.160342990877226, 34.990267999889952 ], [ -79.159322991502464, 34.989087999800887 ], [ -79.165674991800444, 34.984344000070827 ], [ -79.170519990891961, 34.977245999774247 ], [ -79.172762991425842, 34.978582000361101 ], [ -79.180241991520901, 34.972267000165367 ] ] ] } },
{ "type": "Feature", "properties": { "county": "HOKE", "precinct": "64", "enr_desc": "Raeford  4", "winner": "Kirk Lowery", "winner_votes": 51, "winner_share": 54.255319148936167, "runner_up": "Ralph Carter", "runner_up_votes": 43, "runner_up_share": 45.744680851063826, "contest_votes": 94, "margin_of_victory": 8.5106382978723403, "is_tie": false, "results": [ { "candidate": "Kirk Lowery", "votes": 51, "share": 54.25531914893617 }, { "candidate": "Ralph Carter", "votes": 43, "share": 45.744680851063826 } ], "participated": true, "map_key": "HOKE_64" }, "geometry": { "type": "Polygon", "coordinates": [ [ [ -79.242705991005408, 34.940589999838942 ], [ -79.239848991786317, 34.945567000091614 ], [ -79.240512991624129, 34.951392000452351 ], [ -79.239305990864054, 34.953040999580878 ], [ -79.243658991088353, 34.959188000009519 ], [ -79.24551799160173, 34.959725000212877 ], [ -79.249246990824346, 34.95866499981409 ], [ -79.255434991487391, 34.959831999618359 ], [ -79.255099991503144, 34.960953999859719 ], [ -79.258473991059191, 34.964029000054801 ], [ -79.260965991357622, 34.964776000178894 ], [ -79.26204799075488, 34.966579000171343 ], [ -79.265410991592574, 34.9677380000889 ], [ -79.267689991632665, 34.969858999700577 ], [ -79.268769991459948, 34.972300000173504 ], [ -79.273336990841131, 34.977380000182471 ], [ -79.273486991655489, 34.981187000373957 ], [ -79.276381991725742, 34.98392200026791 ], [ -79.277508990740358, 34.98386299977038 ], [ -79.279589991508047, 34.985332000348237 ], [ -79.287878991287144, 34.985891999778026 ], [ -79.299659991448863, 34.981110000376766 ], [ -79.311692991287956, 34.979463999769564 ], [ -79.3277039908386, 34.971955999860256 ], [ -79.324986991243037, 34.979348000273873 ], [ -79.30637999121906, 35.007083999597377 ], [ -79.308801990862932, 35.008840000158521 ], [ -79.298217990994701, 35.014605000378864 ], [ -79.29702899140004, 35.01386799978637 ], [ -79.293007991602494, 35.013873999849991 ], [ -79.286641991473331, 35.015373000078057 ], [ -79.279197991803485, 35.020102999591217 ], [ -79.27538399154227, 35.020459000332991 ], [ -79.271209991044245, 35.018331000334705 ], [ -79.267856991508069, 35.017779999674154 ], [ -79.263165991209803, 35.02030099999935 ], [ -79.259912991265551, 35.02011300026583 ], [ -79.254546991240417, 35.022192999789077 ], [ -79.249009990910139, 35.019858999650459 ], [ -79.24349299107179, 35.010447999908209 ], [ -79.242029990808561, 35.009777999885614 ], [ -79.242175991253447, 35.008766999616469 ], [ -79.238682991176731, 35.008092999592328 ], [ -79.235302990997596, 35.005225999773927 ], [ -79.245077991625635, 35.000000999750277 ], [ -79.245447991800432, 34.989812000152867 ], [ -79.238478991307019, 34.990895000404166 ], [ -79.235472991530926, 34.987965999638888 ], [ -79.235654991112895, 34.984176999613346 ], [ -79.233461991782633, 34.984192999876612 ], [ -79.233964990946376, 34.977105000329544 ], [ -79.232280991783583, 34.975770999971395 ], [ -79.237928990718686, 34.969576999803472 ], [ -79.233311991433808, 34.967136999683575 ], [ -79.223418991316024, 34.966932000320575 ], [ -79.221371991104107, 34.960137000236912 ], [ -79.218630991551194, 34.944579999749493 ], [ -79.215598991562743, 34.927294999673258 ], [ -79.220281991065519, 34.932522000229426 ], [ -79.225824991371169, 34.933894000056313 ], [ -79.232415991743736, 34.934094000127551 ], [ -79.242705991005408, 34.940589999838942 ] ] ] } },
{ "type": "Feature", "properties": { "county": "HOKE", "precinct": "65", "enr_desc": "Raeford  5", "winner": "Kirk Lowery", "winner_votes": 1, "winner_share": 50.0, "runner_up": "Ralph Carter", "runner_up_votes": 1, "runner_up_share": 50.0, "contest_votes": 2, "margin_of_victory": 0.0, "is_tie": true, "results": [ { "candidate": "Kirk Lowery", "votes": 1, "share": 50.0 }, { "candidate": "Ralph Carter", "votes": 1, "share": 50.0 } ], "participated": true, "map_key": "HOKE_65" }, "geometry": { "type": "Polygon", "coordinates": [ [ [ -79.235302990997596, 35.005225999773927 ], [ -79.233918991194628, 35.004902000376923 ], [ -79.229250990965269, 35.00638200025162 ], [ -79.226184991215888, 35.004458999890012 ], [ -79.223152990916077, 35.003889000401387 ], [ -79.218716990740504, 35.000933000333653 ], [ -79.215065991556031, 34.99985500013468 ], [ -79.214230991421914, 34.998107999980014 ], [ -79.208853991455854, 34.992816999966294 ], [ -79.210807990795672, 34.991723000000235 ], [ -79.210803991696324, 34.989746999574969 ], [ -79.218425991333248, 34.989742999860148 ], [ -79.218015990980476, 34.991722000334448 ], [ -79.22082999154982, 34.992355000453891 ], [ -79.221587990821263, 34.989692000338124 ], [ -79.221887990772444, 34.993919999842284 ], [ -79.224094990761259, 34.993530000221611 ], [ -79.226684991673849, 34.993152999634958 ], [ -79.2268059907815, 34.995749999938319 ], [ -79.228932991226401, 34.994442000391501 ], [ -79.228468991265942, 34.993094999950443 ], [ -79.229560990819735, 34.992981000185225 ], [ -79.229232990888178, 34.989717000419439 ], [ -79.231487991560357, 34.989710000343173 ], [ -79.231457991598631, 34.992863999925433 ], [ -79.232564990911044, 34.992168999707673 ], [ -79.232141991597373, 34.990729999742697 ], [ -79.232842991666956, 34.990730999750667 ], [ -79.231931990952077, 34.989744000080812 ], [ -79.234636991292589, 34.989761000443139 ], [ -79.23453199166083, 34.991473999735078 ], [ -79.235841991080321, 34.991141999570623 ], [ -79.235884991392439, 34.991865000233631 ], [ -79.238478991307019, 34.990895000404166 ], [ -79.245447991800432, 34.989812000152867 ], [ -79.245077991625635, 35.000000999750277 ], [ -79.235302990997596, 35.005225999773927 ] ] ] } }
]
}
