{
"type": "FeatureCollection",
"name": "nc_state_senate_district_34_rep",
"crs": { "type": "name", "properties": { "name": "urn:ogc:def:crs:OGC:1.3:CRS84" } },
"features": [
{ "type": "Feature", "properties": { "county": "CABARRUS", "precinct": "01-02", "enr_desc": "01-02", "winner": "Kevin Crutchfield", "winner_votes": 124.0, "winner_share": 54.625550660792953, "runner_up": "Chris Measmer", "runner_up_votes": 103.0, "runner_up_share": 45.374449339207047, "contest_votes": 227.0, "margin_of_victory": 9.2511013215859066, "is_tie": false, "results": [ { "candidate": "Kevin Crutchfield", "votes": 124, "share": 54.62555066079295 }, { "candidate": "Chris Measmer", "votes": 103, "share": 45.37444933920705 } ], "participated": true, "map_key": "CABARRUS_01-02" }, "geometry": { "type": "Polygon", "coordinates": [ [ [ -80.575937991590962, 35.221813999998794 ], [ -80.627933991381198, 35.248669000019653 ], [ -80.620474991451232, 35.25306900048637 ], [ -80.624087991020104, 35.265164999756088 ], [ -80.623237990729621, 35.269716000125946 ], [ -80.62489899088375, 35.276206000370692 ], [ -80.623112991568476, 35.279780999673946 ], [ -80.624957991389721, 35.285802999733043 ], [ -80.624100991343298, 35.291926999726584 ], [ -80.622934990837905, 35.292743999859219 ], [ -80.621928991012794, 35.291180999893371 ], [ -80.620112991635423, 35.291807000067202 ], [ -80.619412990879312, 35.292995000012326 ], [ -80.617989991065599, 35.292539000567636 ], [ -80.616036990789695, 35.293776999697172 ], [ -80.611900990770721, 35.293772999987361 ], [ -80.608435990934268, 35.293139999921067 ], [ -80.606898990727046, 35.291281000203483 ], [ -80.604889991718863, 35.293461999908878 ], [ -80.600755990992013, 35.293393999963229 ], [ -80.598353990905323, 35.295794000423442 ], [ -80.597849991118551, 35.298587999764536 ], [ -80.594917991106968, 35.30012899995122 ], [ -80.594793990859671, 35.303418000306969 ], [ -80.593886990790935, 35.304497999918766 ], [ -80.591845991213788, 35.304041000354999 ], [ -80.589314991217805, 35.305749000157121 ], [ -80.586730991129656, 35.305999000125105 ], [ -80.585703991755167, 35.307214999803143 ], [ -80.584708991023831, 35.306518999703101 ], [ -80.583571990793885, 35.306821999771962 ], [ -80.580588990786239, 35.310665999946629 ], [ -80.577708990776387, 35.308727000109727 ], [ -80.576808991057376, 35.308975000521905 ], [ -80.576398990705258, 35.310207000348704 ], [ -80.578223991553884, 35.309963000083926 ], [ -80.578566991373179, 35.311519000373004 ], [ -80.575896990719514, 35.313894999708651 ], [ -80.572739990840731, 35.312927999962085 ], [ -80.573212991410998, 35.310278999743943 ], [ -80.572653990697049, 35.309980000044064 ], [ -80.570783990686792, 35.310226000063288 ], [ -80.568911991429417, 35.312409999837669 ], [ -80.565444991123286, 35.311306000453683 ], [ -80.564293991094218, 35.311432999751922 ], [ -80.563822991503358, 35.312279999878598 ], [ -80.565835991560206, 35.311580999797336 ], [ -80.566408991595395, 35.312768000555756 ], [ -80.564525991306056, 35.314079999686307 ], [ -80.56587099121397, 35.314656000500591 ], [ -80.564608991402949, 35.317030999779604 ], [ -80.566853991705372, 35.316041999978552 ], [ -80.56887399101025, 35.31862000050895 ], [ -80.567179991278394, 35.319304000132227 ], [ -80.563441991214106, 35.317593000123502 ], [ -80.561057990886567, 35.317899999762012 ], [ -80.559935991158767, 35.320205999879455 ], [ -80.560919990830939, 35.322923999978663 ], [ -80.560415990908581, 35.32468800049913 ], [ -80.557892991755949, 35.319462000458827 ], [ -80.550102991091848, 35.313280999702087 ], [ -80.548006990909812, 35.306778999702843 ], [ -80.548810990887631, 35.305382000133456 ], [ -80.562082991606871, 35.295385999934147 ], [ -80.570161991005079, 35.287886000217242 ], [ -80.57290499091755, 35.284620000070781 ], [ -80.575008991091508, 35.279548999677338 ], [ -80.576997991775798, 35.265886000120666 ], [ -80.574139990760372, 35.258201000369354 ], [ -80.573849991536946, 35.251977999938809 ], [ -80.572370991055394, 35.248712999905486 ], [ -80.571309991122035, 35.241149000549619 ], [ -80.569170991191001, 35.235699000375455 ], [ -80.57039199172138, 35.22698599976588 ], [ -80.575937991590962, 35.221813999998794 ] ] ] } },
{ "type": "Feature", "properties": { "county": null, "precinct": null, "enr_desc": "01-04", "winner": null, "winner_votes": null, "winner_share": null, "runner_up": null, "runner_up_votes": null, "runner_up_share": null, "contest_votes": null, "margin_of_victory": null, "is_tie": false, "results": null, "participated": false, "map_key": null }, "geometry": { "type": "Polygon", "coordinates": [ [ [ -80.672488991639099, 35.284568000021004 ], [ -80.660159990726513, 35.283941000430929 ], [ -80.657002991375464, 35.289655999746572 ], [ -80.651365991088795, 35.29211499982619 ], [ -80.654083990998771, 35.296748000015057 ], [ -80.655560991038925, 35.301959999722179 ], [ -80.6550849909448, 35.310482000199869 ], [ -80.652510991671249, 35.313614000038712 ], [ -80.648741990884616, 35.310959000375945 ], [ -80.64666199138864, 35.310845000081244 ], [ -80.642150991177161, 35.306916000310437 ], [ -80.62969899094, 35.300158999943314 ], [ -80.624295990822446, 35.294339999948811 ], [ -80.624100991343298, 35.291926999726584 ], [ -80.624957991389721, 35.285802999733043 ], [ -80.623112991568476, 35.279780999673946 ], [ -80.62489899088375, 35.276206000370692 ], [ -80.623237990729621, 35.269716000125946 ], [ -80.624087991020104, 35.265164999756088 ], [ -80.620474991451232, 35.25306900048637 ], [ -80.627933991381198, 35.248669000019653 ], [ -80.666479991581127, 35.267933999991399 ], [ -80.668493991628253, 35.273854000298897 ], [ -80.670103990693747, 35.275745999811939 ], [ -80.672488991639099, 35.284568000021004 ] ] ] } },
{ "type": "Feature", "properties": { "county": "CABARRUS", "precinct": "01-07", "enr_desc": "01-07", "winner": "Chris Measmer", "winner_votes": 161.0, "winner_share": 60.526315789473685, "runner_up": "Kevin Crutchfield", "runner_up_votes": 105.0, "runner_up_share": 39.473684210526315, "contest_votes": 266.0, "margin_of_victory": 21.05263157894737, "is_tie": false, "results": [ { "candidate": "Chris Measmer", "votes": 161, "share": 60.526315789473685 }, { "candidate": "Kevin Crutchfield", "votes": 105, "share": 39.473684210526315 } ], "participated": true, "map_key": "CABARRUS_01-07" }, "geometry": { "type": "Polygon", "coordinates": [ [ [ -80.64666199138864, 35.310845000081244 ], [ -80.64920499155582, 35.314027000107295 ], [ -80.649711991115041, 35.316640999896606 ], [ -80.645911991503169, 35.318175000167223 ], [ -80.637543991196509, 35.324861000491232 ], [ -80.62902799107701, 35.331539999852247 ], [ -80.615966991461875, 35.338278000314872 ], [ -80.617821991670837, 35.334084000069396 ], [ -80.618268991270824, 35.330472000010658 ], [ -80.617644991053893, 35.327481000039739 ], [ -80.612578991608757, 35.318281000530696 ], [ -80.607952990932489, 35.316279999802816 ], [ -80.604142990870855, 35.309405999900285 ], [ -80.600731991551029, 35.307339000048948 ], [ -80.599976991554158, 35.305686000249032 ], [ -80.598162990987191, 35.306683999987783 ], [ -80.594793990859671, 35.303418000306969 ], [ -80.594917991106968, 35.30012899995122 ], [ -80.597849991118551, 35.298587999764536 ], [ -80.598353990905323, 35.295794000423442 ], [ -80.600755990992013, 35.293393999963229 ], [ -80.604889991718863, 35.293461999908878 ], [ -80.606898990727046, 35.291281000203483 ], [ -80.608435990934268, 35.293139999921067 ], [ -80.611900990770721, 35.293772999987361 ], [ -80.616036990789695, 35.293776999697172 ], [ -80.617989991065599, 35.292539000567636 ], [ -80.619412990879312, 35.292995000012326 ], [ -80.620112991635423, 35.291807000067202 ], [ -80.621928991012794, 35.291180999893371 ], [ -80.622934990837905, 35.292743999859219 ], [ -80.624100991343298, 35.291926999726584 ], [ -80.624295990822446, 35.294339999948811 ], [ -80.62969899094, 35.300158999943314 ], [ -80.642150991177161, 35.306916000310437 ], [ -80.64666199138864, 35.310845000081244 ] ] ] } },
{ "type": "Feature", "properties": { "county": "CABARRUS", "precinct": "01-08", "enr_desc": "01-08", "winner": "Kevin Crutchfield", "winner_votes": 168.0, "winner_share": 58.947368421052623, "runner_up": "Chris Measmer", "runner_up_votes": 117.0, "runner_up_share": 41.05263157894737, "contest_votes": 285.0, "margin_of_victory": 17.894736842105253, "is_tie": false, "results": [ { "candidate": "Kevin Crutchfield", "votes": 168, "share": 58.94736842105262 }, { "candidate": "Chris Measmer", "votes": 117, "share": 41.05263157894737 } ], "participated": true, "map_key": "CABARRUS_01-08" }, "geometry": { "type": "Polygon", "coordinates": [ [ [ -80.594793990859671, 35.303418000306969 ], [ -80.598162990987191, 35.306683999987783 ], [ -80.599976991554158, 35.305686000249032 ], [ -80.600731991551029, 35.307339000048948 ], [ -80.604142990870855, 35.309405999900285 ], [ -80.607952990932489, 35.316279999802816 ], [ -80.612578991608757, 35.318281000530696 ], [ -80.617644991053893, 35.327481000039739 ], [ -80.618268991270824, 35.330472000010658 ], [ -80.617821991670837, 35.334084000069396 ], [ -80.615966991461875, 35.338278000314872 ], [ -80.611853990728122, 35.340020999803365 ], [ -80.604270991177017, 35.34163700017897 ], [ -80.600496991457291, 35.343513999897517 ], [ -80.597197990846396, 35.346349999738599 ], [ -80.592287991179816, 35.353406000548816 ], [ -80.575141991496992, 35.34808699991202 ], [ -80.567114991027495, 35.344877000228124 ], [ -80.553708991175213, 35.342079000153888 ], [ -80.55532799166231, 35.338895000186987 ], [ -80.558979991472484, 35.335915000104947 ], [ -80.56034499127766, 35.329435000129386 ], [ -80.560415990908581, 35.32468800049913 ], [ -80.560919990830939, 35.322923999978663 ], [ -80.559935991158767, 35.320205999879455 ], [ -80.561057990886567, 35.317899999762012 ], [ -80.563441991214106, 35.317593000123502 ], [ -80.567179991278394, 35.319304000132227 ], [ -80.56887399101025, 35.31862000050895 ], [ -80.566853991705372, 35.316041999978552 ], [ -80.564608991402949, 35.317030999779604 ], [ -80.56587099121397, 35.314656000500591 ], [ -80.564525991306056, 35.314079999686307 ], [ -80.566408991595395, 35.312768000555756 ], [ -80.565835991560206, 35.311580999797336 ], [ -80.563822991503358, 35.312279999878598 ], [ -80.564293991094218, 35.311432999751922 ], [ -80.565444991123286, 35.311306000453683 ], [ -80.568911991429417, 35.312409999837669 ], [ -80.570783990686792, 35.310226000063288 ], [ -80.572653990697049, 35.309980000044064 ], [ -80.573212991410998, 35.310278999743943 ], [ -80.572739990840731, 35.312927999962085 ], [ -80.575896990719514, 35.313894999708651 ], [ -80.578566991373179, 35.311519000373004 ], [ -80.578223991553884, 35.309963000083926 ], [ -80.576398990705258, 35.310207000348704 ], [ -80.576808991057376, 35.308975000521905 ], [ -80.577708990776387, 35.308727000109727 ], [ -80.580588990786239, 35.310665999946629 ], [ -80.583571990793885, 35.306821999771962 ], [ -80.584708991023831, 35.306518999703101 ], [ -80.585703991755167, 35.307214999803143 ], [ -80.586730991129656, 35.305999000125105 ], [ -80.589314991217805, 35.305749000157121 ], [ -80.591845991213788, 35.304041000354999 ], [ -80.593886990790935, 35.304497999918766 ], [ -80.594793990859671, 35.303418000306969 ] ] ] } },
{ "type": "Feature", "properties": { "county": "CABARRUS", "precinct": "01-10", "enr_desc": "01-10", "winner": "Chris Measmer", "winner_votes": 100.0, "winner_share": 58.139534883720934, "runner_up": "Kevin Crutchfield", "runner_up_votes": 72.0, "runner_up_share": 41.860465116279073, "contest_votes": 172.0, "margin_of_victory": 16.279069767441861, "is_tie": false, "results": [ { "candidate": "Chris Measmer", "votes": 100, "share": 58.139534883720934 }, { "candidate": "Kevin Crutchfield", "votes": 72, "share": 41.86046511627907 } ], "participated": true, "map_key": "CABARRUS_01-10" }, "geometry": { "type": "Polygon", "coordinates": [ [ [ -80.673718991710899, 35.338050000033668 ], [ -80.675655991453752, 35.339426000328935 ], [ -80.677399991323327, 35.336081000001492 ], [ -80.67866399093397, 35.336778999842899 ], [ -80.676044991475123, 35.339668000240493 ], [ -80.678747991582298, 35.34196000026148 ], [ -80.675207990917755, 35.343743999836988 ], [ -80.672769991273938, 35.342331999836453 ], [ -80.669877991046889, 35.342204000417141 ], [ -80.66610399077851, 35.344104999861244 ], [ -80.662779991755286, 35.343984000542449 ], [ -80.66069999124862, 35.342558000051739 ], [ -80.663611991453095, 35.34061400047306 ], [ -80.663137990773393, 35.338234000539295 ], [ -80.659424991726667, 35.337179999978083 ], [ -80.658386990921329, 35.335822000221938 ], [ -80.652759990832365, 35.335575000341649 ], [ -80.652632991712423, 35.336447999812975 ], [ -80.65375099155159, 35.33700299977491 ], [ -80.653263991765357, 35.33935599998118 ], [ -80.65085799147792, 35.337112999732774 ], [ -80.645563991026549, 35.335299999837915 ], [ -80.638689990719655, 35.33463100001498 ], [ -80.63824199092295, 35.332573999773786 ], [ -80.635140990893603, 35.33275400027815 ], [ -80.63329499074203, 35.33200200034095 ], [ -80.633123991171416, 35.333356999720259 ], [ -80.629746990853874, 35.33330800007522 ], [ -80.63120699166015, 35.358884000321005 ], [ -80.601980991230505, 35.355007999790182 ], [ -80.59753999101018, 35.354809000481175 ], [ -80.592287991179816, 35.353406000548816 ], [ -80.597197990846396, 35.346349999738599 ], [ -80.600496991457291, 35.343513999897517 ], [ -80.604270991177017, 35.34163700017897 ], [ -80.611853990728122, 35.340020999803365 ], [ -80.615966991461875, 35.338278000314872 ], [ -80.62902799107701, 35.331539999852247 ], [ -80.637543991196509, 35.324861000491232 ], [ -80.643412991555707, 35.322745000248766 ], [ -80.655631990806782, 35.321638000327447 ], [ -80.656498991430198, 35.328201999941022 ], [ -80.658680991059555, 35.331029999900629 ], [ -80.659740991090189, 35.33119100004631 ], [ -80.66503199109296, 35.3288050001618 ], [ -80.666730991154765, 35.332770000424908 ], [ -80.673718991710899, 35.338050000033668 ] ] ] } },
{ "type": "Feature", "properties": { "county": "CABARRUS", "precinct": "01-11", "enr_desc": "01-11", "winner": "Kevin Crutchfield", "winner_votes": 194.0, "winner_share": 51.595744680851062, "runner_up": "Chris Measmer", "runner_up_votes": 182.0, "runner_up_share": 48.404255319148938, "contest_votes": 376.0, "margin_of_victory": 3.1914893617021249, "is_tie": false, "results": [ { "candidate": "Kevin Crutchfield", "votes": 194, "share": 51.59574468085106 }, { "candidate": "Chris Measmer", "votes": 182, "share": 48.40425531914894 } ], "participated": true, "map_key": "CABARRUS_01-11" }, "geometry": { "type": "Polygon", "coordinates": [ [ [ -80.672488991639099, 35.284568000021004 ], [ -80.693060990820427, 35.346378999974327 ], [ -80.695472990951941, 35.347759000109662 ], [ -80.697757990776253, 35.349365999845382 ], [ -80.697159990719484, 35.350523000412217 ], [ -80.693571991455698, 35.350687999882432 ], [ -80.690709990835146, 35.349568999914737 ], [ -80.692507991219273, 35.347789000014252 ], [ -80.690941991564657, 35.346142000248967 ], [ -80.686372991616935, 35.345465000437549 ], [ -80.683309991184018, 35.33866700031458 ], [ -80.681972990979318, 35.333143000159325 ], [ -80.680526991341068, 35.332811000074216 ], [ -80.680254991244141, 35.331138000562021 ], [ -80.679482991268017, 35.330771000523413 ], [ -80.677433991576635, 35.330756000100642 ], [ -80.676211991501987, 35.333320000415043 ], [ -80.670557991755942, 35.332563000080206 ], [ -80.670559991336248, 35.333781999816829 ], [ -80.673718991710899, 35.338050000033668 ], [ -80.666730991154765, 35.332770000424908 ], [ -80.66503199109296, 35.3288050001618 ], [ -80.659740991090189, 35.33119100004631 ], [ -80.658680991059555, 35.331029999900629 ], [ -80.656498991430198, 35.328201999941022 ], [ -80.655631990806782, 35.321638000327447 ], [ -80.643412991555707, 35.322745000248766 ], [ -80.637543991196509, 35.324861000491232 ], [ -80.645911991503169, 35.318175000167223 ], [ -80.649711991115041, 35.316640999896606 ], [ -80.64920499155582, 35.314027000107295 ], [ -80.64666199138864, 35.310845000081244 ], [ -80.648741990884616, 35.310959000375945 ], [ -80.652510991671249, 35.313614000038712 ], [ -80.6550849909448, 35.310482000199869 ], [ -80.655560991038925, 35.301959999722179 ], [ -80.654083990998771, 35.296748000015057 ], [ -80.651365991088795, 35.29211499982619 ], [ -80.657002991375464, 35.289655999746572 ], [ -80.660159990726513, 35.283941000430929 ], [ -80.672488991639099, 35.284568000021004 ] ] ] } },
{ "type": "Feature", "properties": { "county": "CABARRUS", "precinct": "02-01", "enr_desc": "02-01", "winner": "Kevin Crutchfield", "winner_votes": 99.0, "winner_share": 54.395604395604394, "runner_up": "Chris Measmer", "runner_up_votes": 83.0, "runner_up_share": 45.604395604395606, "contest_votes": 182.0, "margin_of_victory": 8.7912087912087884, "is_tie": false, "results": [ { "candidate": "Kevin Crutchfield", "votes": 99, "share": 54.395604395604394 }, { "candidate": "Chris Measmer", "votes": 83, "share": 45.604395604395606 } ], "participated": true, "map_key": "CABARRUS_02-01" }, "geometry": { "type": "Polygon", "coordinates": [ [ [ -80.666293991096865, 35.412464000479652 ], [ -80.669185991591348, 35.416561999872066 ], [ -80.672783991091947, 35.419090000163465 ], [ -80.666856991142808, 35.428541000334477 ], [ -80.629119991251741, 35.426439999700968 ], [ -80.619446991099991, 35.420351000272134 ], [ -80.613691991428311, 35.415659000035511 ], [ -80.608543990968187, 35.400234000457878 ], [ -80.609123991463761, 35.397889000521765 ], [ -80.611220991202373, 35.396093999959803 ], [ -80.616003991159786, 35.395082000003363 ], [ -80.640057991391487, 35.409974999901884 ], [ -80.640422990795045, 35.410551000061218 ], [ -80.639213991021506, 35.413123999999719 ], [ -80.659428991346587, 35.41484400019791 ], [ -80.666293991096865, 35.412464000479652 ] ] ] } },
{ "type": "Feature", "properties": { "county": "CABARRUS", "precinct": "02-05", "enr_desc": "02-05", "winner": "Kevin Crutchfield", "winner_votes": 182.0, "winner_share": 56.346749226006189, "runner_up": "Chris Measmer", "runner_up_votes": 141.0, "runner_up_share": 43.653250773993804, "contest_votes": 323.0, "margin_of_victory": 12.693498452012385, "is_tie": false, "results": [ { "candidate": "Kevin Crutchfield", "votes": 182, "share": 56.34674922600619 }, { "candidate": "Chris Measmer", "votes": 141, "share": 43.653250773993804 } ], "participated": true, "map_key": "CABARRUS_02-05" }, "geometry": { "type": "Polygon", "coordinates": [ [ [ -80.666293991096865, 35.412464000479652 ], [ -80.659428991346587, 35.41484400019791 ], [ -80.639213991021506, 35.413123999999719 ], [ -80.640422990795045, 35.410551000061218 ], [ -80.640057991391487, 35.409974999901884 ], [ -80.616003991159786, 35.395082000003363 ], [ -80.638848991549082, 35.38717199980951 ], [ -80.647898991542647, 35.382371000349927 ], [ -80.656815991099734, 35.377502000271491 ], [ -80.657516991432715, 35.37900100009292 ], [ -80.656277990854434, 35.38504599972147 ], [ -80.658488991364649, 35.386679000210414 ], [ -80.664744991533865, 35.39594100023745 ], [ -80.659085991640453, 35.398078000316559 ], [ -80.66014899165539, 35.401421999766249 ], [ -80.666293991096865, 35.412464000479652 ] ] ] } },
{ "type": "Feature", "properties": { "county": "CABARRUS", "precinct": "02-06", "enr_desc": "02-06", "winner": "Kevin Crutchfield", "winner_votes": 71.0, "winner_share": 58.677685950413228, "runner_up": "Chris Measmer", "runner_up_votes": 50.0, "runner_up_share": 41.32231404958678, "contest_votes": 121.0, "margin_of_victory": 17.355371900826448, "is_tie": false, "results": [ { "candidate": "Kevin Crutchfield", "votes": 71, "share": 58.67768595041323 }, { "candidate": "Chris Measmer", "votes": 50, "share": 41.32231404958678 } ], "participated": true, "map_key": "CABARRUS_02-06" }, "geometry": { "type": "Polygon", "coordinates": [ [ [ -80.614809990880602, 35.426203999904338 ], [ -80.615993991036873, 35.422830999894188 ], [ -80.613691991428311, 35.415659000035511 ], [ -80.619446991099991, 35.420351000272134 ], [ -80.629119991251741, 35.426439999700968 ], [ -80.666856991142808, 35.428541000334477 ], [ -80.660713991084691, 35.433631999911206 ], [ -80.65148299075058, 35.437930999811158 ], [ -80.646601991240601, 35.438837000197466 ], [ -80.634336990867681, 35.439333999918148 ], [ -80.62168299079157, 35.442501000221696 ], [ -80.621322991502524, 35.445253000449839 ], [ -80.622081990704501, 35.444900000128328 ], [ -80.622197990993072, 35.446644999697682 ], [ -80.620438991765326, 35.447724000491007 ], [ -80.617863990706425, 35.449238999977027 ], [ -80.615062991239, 35.449247999967234 ], [ -80.612769990822983, 35.44525200017403 ], [ -80.612580990945759, 35.444991999925008 ], [ -80.613521991695123, 35.444733999963638 ], [ -80.613093990935084, 35.443694999901297 ], [ -80.614857991014802, 35.443427999825801 ], [ -80.613713991556523, 35.439311000039837 ], [ -80.615905991194595, 35.434867999841543 ], [ -80.614809990880602, 35.426203999904338 ] ] ] } },
{ "type": "Feature", "properties": { "county": "CABARRUS", "precinct": "02-02", "enr_desc": "02-02", "winner": "Chris Measmer", "winner_votes": 143.0, "winner_share": 51.624548736462096, "runner_up": "Kevin Crutchfield", "runner_up_votes": 134.0, "runner_up_share": 48.375451263537904, "contest_votes": 277.0, "margin_of_victory": 3.2490974729241913, "is_tie": false, "results": [ { "candidate": "Chris Measmer", "votes": 143, "share": 51.624548736462096 }, { "candidate": "Kevin Crutchfield", "votes": 134, "share": 48.375451263537904 } ], "participated": true, "map_key": "CABARRUS_02-02" }, "geometry": { "type": "Polygon", "coordinates": [ [ [ -80.709395991274789, 35.374410999802762 ], [ -80.698466990698208, 35.402106999880672 ], [ -80.696204990979012, 35.401507999690523 ], [ -80.69384899084794, 35.401999000248104 ], [ -80.693933990819062, 35.401189000080095 ], [ -80.696556991588238, 35.399908999753862 ], [ -80.693955991713025, 35.387823000069453 ], [ -80.692643991185051, 35.386165000321853 ], [ -80.688244990767501, 35.384264999778473 ], [ -80.68056799131756, 35.391437999811302 ], [ -80.673800991521745, 35.390308000092247 ], [ -80.664744991533865, 35.39594100023745 ], [ -80.658488991364649, 35.386679000210414 ], [ -80.656277990854434, 35.38504599972147 ], [ -80.657516991432715, 35.37900100009292 ], [ -80.656815991099734, 35.377502000271491 ], [ -80.663534991467301, 35.373121000064771 ], [ -80.670517990880953, 35.362000000071127 ], [ -80.675151991113566, 35.359541999931842 ], [ -80.675939991583391, 35.360343999888165 ], [ -80.678485990686596, 35.360179999801986 ], [ -80.67963199122245, 35.36201300013046 ], [ -80.678483991757474, 35.363480000369051 ], [ -80.675155990703232, 35.362678000557572 ], [ -80.673843991725008, 35.363134000499279 ], [ -80.674343991412485, 35.368194000511835 ], [ -80.680696991218028, 35.368786999812166 ], [ -80.681923991195603, 35.37133399981122 ], [ -80.683374991212972, 35.37028299977284 ], [ -80.685667991494626, 35.370072000195805 ], [ -80.687321990991634, 35.367488999786126 ], [ -80.689050991269582, 35.367216000489208 ], [ -80.692128991618517, 35.366941999681821 ], [ -80.699899990987092, 35.371517000116256 ], [ -80.70666799112206, 35.368538000317848 ], [ -80.707646991714753, 35.36895500001868 ], [ -80.707701991004555, 35.369983000186913 ], [ -80.706166991482178, 35.371125000470364 ], [ -80.705660991767061, 35.372665000126737 ], [ -80.707705990708206, 35.374609000457234 ], [ -80.709395991274789, 35.374410999802762 ] ] ] } },
{ "type": "Feature", "properties": { "county": "CABARRUS", "precinct": "02-03", "enr_desc": "02-03", "winner": "Kevin Crutchfield", "winner_votes": 207.0, "winner_share": 54.617414248021113, "runner_up": "Chris Measmer", "runner_up_votes": 172.0, "runner_up_share": 45.382585751978894, "contest_votes": 379.0, "margin_of_victory": 9.2348284960422191, "is_tie": false, "results": [ { "candidate": "Kevin Crutchfield", "votes": 207, "share": 54.61741424802111 }, { "candidate": "Chris Measmer", "votes": 172, "share": 45.382585751978894 } ], "participated": true, "map_key": "CABARRUS_02-03" }, "geometry": { "type": "Polygon", "coordinates": [ [ [ -80.719671991099645, 35.362792000190119 ], [ -80.709395991274789, 35.374410999802762 ], [ -80.707705990708206, 35.374609000457234 ], [ -80.705660991767061, 35.372665000126737 ], [ -80.706166991482178, 35.371125000470364 ], [ -80.707701991004555, 35.369983000186913 ], [ -80.707646991714753, 35.36895500001868 ], [ -80.70666799112206, 35.368538000317848 ], [ -80.699899990987092, 35.371517000116256 ], [ -80.692128991618517, 35.366941999681821 ], [ -80.689050991269582, 35.367216000489208 ], [ -80.687321990991634, 35.367488999786126 ], [ -80.685667991494626, 35.370072000195805 ], [ -80.683374991212972, 35.37028299977284 ], [ -80.681923991195603, 35.37133399981122 ], [ -80.680696991218028, 35.368786999812166 ], [ -80.674343991412485, 35.368194000511835 ], [ -80.673843991725008, 35.363134000499279 ], [ -80.675155990703232, 35.362678000557572 ], [ -80.678483991757474, 35.363480000369051 ], [ -80.67963199122245, 35.36201300013046 ], [ -80.678485990686596, 35.360179999801986 ], [ -80.675939991583391, 35.360343999888165 ], [ -80.675151991113566, 35.359541999931842 ], [ -80.670517990880953, 35.362000000071127 ], [ -80.663534991467301, 35.373121000064771 ], [ -80.656815991099734, 35.377502000271491 ], [ -80.647898991542647, 35.382371000349927 ], [ -80.641775991370523, 35.377929999778821 ], [ -80.638576990735714, 35.371479999694436 ], [ -80.636877990781898, 35.365014000038244 ], [ -80.63260299175117, 35.363622000531151 ], [ -80.627102991131451, 35.369441000564521 ], [ -80.622442991054029, 35.371478999680072 ], [ -80.621956990938997, 35.369486000501936 ], [ -80.623687991557986, 35.366261000367594 ], [ -80.626535991044221, 35.364450999783202 ], [ -80.63120699166015, 35.358884000321005 ], [ -80.629746990853874, 35.33330800007522 ], [ -80.633123991171416, 35.333356999720259 ], [ -80.63329499074203, 35.33200200034095 ], [ -80.635140990893603, 35.33275400027815 ], [ -80.63824199092295, 35.332573999773786 ], [ -80.638689990719655, 35.33463100001498 ], [ -80.645563991026549, 35.335299999837915 ], [ -80.65085799147792, 35.337112999732774 ], [ -80.653263991765357, 35.33935599998118 ], [ -80.65375099155159, 35.33700299977491 ], [ -80.652632991712423, 35.336447999812975 ], [ -80.652759990832365, 35.335575000341649 ], [ -80.658386990921329, 35.335822000221938 ], [ -80.659424991726667, 35.337179999978083 ], [ -80.663137990773393, 35.338234000539295 ], [ -80.663611991453095, 35.34061400047306 ], [ -80.66069999124862, 35.342558000051739 ], [ -80.662779991755286, 35.343984000542449 ], [ -80.66610399077851, 35.344104999861244 ], [ -80.669877991046889, 35.342204000417141 ], [ -80.672769991273938, 35.342331999836453 ], [ -80.675207990917755, 35.343743999836988 ], [ -80.678747991582298, 35.34196000026148 ], [ -80.676044991475123, 35.339668000240493 ], [ -80.67866399093397, 35.336778999842899 ], [ -80.677399991323327, 35.336081000001492 ], [ -80.675655991453752, 35.339426000328935 ], [ -80.673718991710899, 35.338050000033668 ], [ -80.670559991336248, 35.333781999816829 ], [ -80.670557991755942, 35.332563000080206 ], [ -80.676211991501987, 35.333320000415043 ], [ -80.677433991576635, 35.330756000100642 ], [ -80.679482991268017, 35.330771000523413 ], [ -80.680254991244141, 35.331138000562021 ], [ -80.680526991341068, 35.332811000074216 ], [ -80.681972990979318, 35.333143000159325 ], [ -80.683309991184018, 35.33866700031458 ], [ -80.686372991616935, 35.345465000437549 ], [ -80.690941991564657, 35.346142000248967 ], [ -80.692507991219273, 35.347789000014252 ], [ -80.690709990835146, 35.349568999914737 ], [ -80.693571991455698, 35.350687999882432 ], [ -80.697159990719484, 35.350523000412217 ], [ -80.697757990776253, 35.349365999845382 ], [ -80.695472990951941, 35.347759000109662 ], [ -80.708877991263265, 35.355349999830587 ], [ -80.719671991099645, 35.362792000190119 ] ] ] } },
{ "type": "Feature", "properties": { "county": "CABARRUS", "precinct": "02-07", "enr_desc": "02-07", "winner": "Kevin Crutchfield", "winner_votes": 165.0, "winner_share": 54.098360655737707, "runner_up": "Chris Measmer", "runner_up_votes": 140.0, "runner_up_share": 45.901639344262293, "contest_votes": 305.0, "margin_of_victory": 8.1967213114754145, "is_tie": false, "results": [ { "candidate": "Kevin Crutchfield", "votes": 165, "share": 54.09836065573771 }, { "candidate": "Chris Measmer", "votes": 140, "share": 45.90163934426229 } ], "participated": true, "map_key": "CABARRUS_02-07" }, "geometry": { "type": "Polygon", "coordinates": [ [ [ -80.698466990698208, 35.402106999880672 ], [ -80.693091991583387, 35.407502000394295 ], [ -80.678912991345882, 35.413288000533392 ], [ -80.675472990728707, 35.415816999954878 ], [ -80.672783991091947, 35.419090000163465 ], [ -80.669185991591348, 35.416561999872066 ], [ -80.666293991096865, 35.412464000479652 ], [ -80.66014899165539, 35.401421999766249 ], [ -80.659085991640453, 35.398078000316559 ], [ -80.664744991533865, 35.39594100023745 ], [ -80.673800991521745, 35.390308000092247 ], [ -80.68056799131756, 35.391437999811302 ], [ -80.688244990767501, 35.384264999778473 ], [ -80.692643991185051, 35.386165000321853 ], [ -80.693955991713025, 35.387823000069453 ], [ -80.696556991588238, 35.399908999753862 ], [ -80.693933990819062, 35.401189000080095 ], [ -80.69384899084794, 35.401999000248104 ], [ -80.696204990979012, 35.401507999690523 ], [ -80.698466990698208, 35.402106999880672 ] ] ] } },
{ "type": "Feature", "properties": { "county": "CABARRUS", "precinct": "02-09", "enr_desc": "02-09", "winner": "Kevin Crutchfield", "winner_votes": 185.0, "winner_share": 58.359621451104104, "runner_up": "Chris Measmer", "runner_up_votes": 132.0, "runner_up_share": 41.640378548895903, "contest_votes": 317.0, "margin_of_victory": 16.719242902208201, "is_tie": false, "results": [ { "candidate": "Kevin Crutchfield", "votes": 185, "share": 58.359621451104104 }, { "candidate": "Chris Measmer", "votes": 132, "share": 41.6403785488959 } ], "participated": true, "map_key": "CABARRUS_02-09" }, "geometry": { "type": "Polygon", "coordinates": [ [ [ -80.752905990785649, 35.415604000125278 ], [ -80.751872991052807, 35.414260999715424 ], [ -80.745721991211838, 35.418527999746608 ], [ -80.733069991664976, 35.408559000372449 ], [ -80.728309991064563, 35.408224000386298 ], [ -80.722534991447219, 35.409794000002378 ], [ -80.717969991039922, 35.409285000273137 ], [ -80.703325991544403, 35.403300000002879 ], [ -80.698466990698208, 35.402106999880672 ], [ -80.709395991274789, 35.374410999802762 ], [ -80.719671991099645, 35.362792000190119 ], [ -80.744409991355113, 35.380667000530359 ], [ -80.75530899164859, 35.394822999825294 ], [ -80.766413990924733, 35.401478000557773 ], [ -80.763548991057689, 35.412098999960627 ], [ -80.752166990729791, 35.414050000044519 ], [ -80.752905990785649, 35.415604000125278 ] ] ] } },
{ "type": "Feature", "properties": { "county": "CABARRUS", "precinct": "02-08", "enr_desc": "02-08", "winner": "Kevin Crutchfield", "winner_votes": 165.0, "winner_share": 56.896551724137936, "runner_up": "Chris Measmer", "runner_up_votes": 125.0, "runner_up_share": 43.103448275862064, "contest_votes": 290.0, "margin_of_victory": 13.793103448275872, "is_tie": false, "results": [ { "candidate": "Kevin Crutchfield", "votes": 165, "share": 56.896551724137936 }, { "candidate": "Chris Measmer", "votes": 125, "share": 43.103448275862064 } ], "participated": true, "map_key": "CABARRUS_02-08" }, "geometry": { "type": "Polygon", "coordinates": [ [ [ -80.752905990785649, 35.415604000125278 ], [ -80.764908991333201, 35.440967999798225 ], [ -80.747570991306446, 35.442196000428311 ], [ -80.738771990682125, 35.441641000566435 ], [ -80.708107991035234, 35.437280000072995 ], [ -80.698848990708242, 35.436659000165569 ], [ -80.692827991584309, 35.437404999987429 ], [ -80.6882479916611, 35.437073000052678 ], [ -80.688079991542821, 35.429518000407775 ], [ -80.679437991425004, 35.429082999779851 ], [ -80.677468990795376, 35.423518000533605 ], [ -80.672783991091947, 35.419090000163465 ], [ -80.675472990728707, 35.415816999954878 ], [ -80.678912991345882, 35.413288000533392 ], [ -80.693091991583387, 35.407502000394295 ], [ -80.698466990698208, 35.402106999880672 ], [ -80.703325991544403, 35.403300000002879 ], [ -80.717969991039922, 35.409285000273137 ], [ -80.722534991447219, 35.409794000002378 ], [ -80.728309991064563, 35.408224000386298 ], [ -80.733069991664976, 35.408559000372449 ], [ -80.745721991211838, 35.418527999746608 ], [ -80.751872991052807, 35.414260999715424 ], [ -80.752905990785649, 35.415604000125278 ] ] ] } },
{ "type": "Feature", "properties": { "county": "CABARRUS", "precinct": "12-08", "enr_desc": "12-08", "winner": "Kevin Crutchfield", "winner_votes": 24.0, "winner_share": 52.173913043478258, "runner_up": "Chris Measmer", "runner_up_votes": 22.0, "runner_up_share": 47.826086956521742, "contest_votes": 46.0, "margin_of_victory": 4.3478260869565162, "is_tie": false, "results": [ { "candidate": "Kevin Crutchfield", "votes": 24, "share": 52.17391304347826 }, { "candidate": "Chris Measmer", "votes": 22, "share": 47.82608695652174 } ], "participated": true, "map_key": "CABARRUS_12-08" }, "geometry": { "type": "Polygon", "coordinates": [ [ [ -80.589153991171074, 35.381123000305053 ], [ -80.589674991639512, 35.380902000125246 ], [ -80.605644991033287, 35.387119999747839 ], [ -80.607493990994186, 35.391409000296456 ], [ -80.611220991202373, 35.396093999959803 ], [ -80.609123991463761, 35.397889000521765 ], [ -80.608543990968187, 35.400234000457878 ], [ -80.613691991428311, 35.415659000035511 ], [ -80.606434990958121, 35.409910999921976 ], [ -80.600863991136777, 35.40881300027597 ], [ -80.59865499131682, 35.407413999897202 ], [ -80.592989990917218, 35.400831000535071 ], [ -80.590856991662179, 35.401802000202025 ], [ -80.587763991392578, 35.392840999722274 ], [ -80.587641990853953, 35.389393000331289 ], [ -80.589153991171074, 35.381123000305053 ] ] ] } },
{ "type": "Feature", "properties": { "county": "CABARRUS", "precinct": "03-00", "enr_desc": "03-00", "winner": "Kevin Crutchfield", "winner_votes": 203.0, "winner_share": 56.862745098039213, "runner_up": "Chris Measmer", "runner_up_votes": 154.0, "runner_up_share": 43.137254901960787, "contest_votes": 357.0, "margin_of_victory": 13.725490196078425, "is_tie": false, "results": [ { "candidate": "Kevin Crutchfield", "votes": 203, "share": 56.86274509803921 }, { "candidate": "Chris Measmer", "votes": 154, "share": 43.13725490196079 } ], "participated": true, "map_key": "CABARRUS_03-00" }, "geometry": { "type": "Polygon", "coordinates": [ [ [ -80.6882479916611, 35.437073000052678 ], [ -80.692827991584309, 35.437404999987429 ], [ -80.698848990708242, 35.436659000165569 ], [ -80.708107991035234, 35.437280000072995 ], [ -80.738771990682125, 35.441641000566435 ], [ -80.747570991306446, 35.442196000428311 ], [ -80.764908991333201, 35.440967999798225 ], [ -80.77297399075475, 35.457679000130447 ], [ -80.773383991384392, 35.463147999885543 ], [ -80.779330991227837, 35.472011999761257 ], [ -80.781894991569345, 35.483818999906909 ], [ -80.786863991534375, 35.493155999802774 ], [ -80.787068991372962, 35.496874999999584 ], [ -80.785691991506837, 35.503085000041786 ], [ -80.784166991723652, 35.506016999941544 ], [ -80.68829699129455, 35.505802999726271 ], [ -80.688439991467249, 35.481846999835881 ], [ -80.693089991454698, 35.477627999737535 ], [ -80.700590991544246, 35.474811999976907 ], [ -80.702166991573037, 35.472816999952379 ], [ -80.703212991205291, 35.467322000424204 ], [ -80.701747991043135, 35.464183000270353 ], [ -80.70023099134508, 35.462874000111263 ], [ -80.700805991300484, 35.458792999749853 ], [ -80.691899991567311, 35.446797999758708 ], [ -80.688379991585023, 35.438965000091734 ], [ -80.6882479916611, 35.437073000052678 ] ] ] } },
{ "type": "Feature", "properties": { "county": "CABARRUS", "precinct": "04-03", "enr_desc": "04-03", "winner": "Kevin Crutchfield", "winner_votes": 124.0, "winner_share": 63.265306122448983, "runner_up": "Chris Measmer", "runner_up_votes": 72.0, "runner_up_share": 36.734693877551024, "contest_votes": 196.0, "margin_of_victory": 26.530612244897959, "is_tie": false, "results": [ { "candidate": "Kevin Crutchfield", "votes": 124, "share": 63.26530612244898 }, { "candidate": "Chris Measmer", "votes": 72, "share": 36.734693877551024 } ], "participated": true, "map_key": "CABARRUS_04-03" }, "geometry": { "type": "Polygon", "coordinates": [ [ [ -80.611116990909338, 35.493303000082449 ], [ -80.609313991679372, 35.499653999820275 ], [ -80.609200991112047, 35.504748000452722 ], [ -80.570601991489951, 35.503318000014254 ], [ -80.571011991055073, 35.500776000162269 ], [ -80.577258991725813, 35.491303000005395 ], [ -80.579739990868376, 35.481001000539777 ], [ -80.583469991376703, 35.48278799996109 ], [ -80.585103991009689, 35.482473000183106 ], [ -80.586780991376713, 35.487704999905972 ], [ -80.590348991713697, 35.488306999808735 ], [ -80.590115990719738, 35.488843000551526 ], [ -80.5925329911462, 35.48990000055155 ], [ -80.599269991430077, 35.488817000527149 ], [ -80.604675991493124, 35.489287999702945 ], [ -80.609003991698799, 35.493051000375317 ], [ -80.611116990909338, 35.493303000082449 ] ] ] } },
{ "type": "Feature", "properties": { "county": "CABARRUS", "precinct": "04-01", "enr_desc": "04-01", "winner": "Kevin Crutchfield", "winner_votes": 94.0, "winner_share": 54.335260115606928, "runner_up": "Chris Measmer", "runner_up_votes": 79.0, "runner_up_share": 45.664739884393065, "contest_votes": 173.0, "margin_of_victory": 8.6705202312138638, "is_tie": false, "results": [ { "candidate": "Kevin Crutchfield", "votes": 94, "share": 54.33526011560693 }, { "candidate": "Chris Measmer", "votes": 79, "share": 45.664739884393065 } ], "participated": true, "map_key": "CABARRUS_04-01" }, "geometry": { "type": "Polygon", "coordinates": [ [ [ -80.612769990822983, 35.44525200017403 ], [ -80.615062991239, 35.449247999967234 ], [ -80.624008991674643, 35.475867000231801 ], [ -80.623259990907542, 35.476148999757612 ], [ -80.621803990776556, 35.471830000459804 ], [ -80.603358991281965, 35.473217999985522 ], [ -80.593564990864408, 35.477515999896404 ], [ -80.590217991308236, 35.480693999923176 ], [ -80.586956990695526, 35.481890000387821 ], [ -80.58604599156169, 35.480042000295249 ], [ -80.585080990747954, 35.480117000290079 ], [ -80.584983991562368, 35.479169000026126 ], [ -80.583591991407374, 35.478218999754063 ], [ -80.584948991453032, 35.477107000522892 ], [ -80.585899990667031, 35.473527999887196 ], [ -80.585287991437383, 35.471239000034949 ], [ -80.590351991345713, 35.468625999833009 ], [ -80.588147991003666, 35.465841000218965 ], [ -80.589347991415835, 35.464943000354786 ], [ -80.592504991207875, 35.464104000561463 ], [ -80.593218991403177, 35.46556300013701 ], [ -80.596351990981674, 35.46503199993478 ], [ -80.595161991171452, 35.459435000346595 ], [ -80.596335991214644, 35.458309000459607 ], [ -80.595145991336182, 35.457663000378552 ], [ -80.59389699140641, 35.459129999979588 ], [ -80.593091991139573, 35.45896900026964 ], [ -80.594366991127316, 35.455608999789753 ], [ -80.595390991719199, 35.455238000083526 ], [ -80.596376991184684, 35.455882000546303 ], [ -80.599518991345661, 35.452987000273602 ], [ -80.600891991184639, 35.452970999757504 ], [ -80.60065699151383, 35.451809000352064 ], [ -80.602657991102319, 35.451450000129711 ], [ -80.602907991555213, 35.452945999813238 ], [ -80.602009991041626, 35.453417000376419 ], [ -80.602661990746839, 35.45415599989267 ], [ -80.605538990999236, 35.452561000386432 ], [ -80.60358099130211, 35.44984800038042 ], [ -80.600462991231069, 35.450467000043112 ], [ -80.600547991556638, 35.448474000246442 ], [ -80.605736991705342, 35.446862000420602 ], [ -80.607876991045785, 35.447154000140287 ], [ -80.609760991649551, 35.448925999883556 ], [ -80.611266991060106, 35.445971000211593 ], [ -80.612769990822983, 35.44525200017403 ] ] ] } },
{ "type": "Feature", "properties": { "county": "CABARRUS", "precinct": "04-13", "enr_desc": "04-13", "winner": "Kevin Crutchfield", "winner_votes": 234.0, "winner_share": 55.581947743467929, "runner_up": "Chris Measmer", "runner_up_votes": 187.0, "runner_up_share": 44.418052256532064, "contest_votes": 421.0, "margin_of_victory": 11.163895486935864, "is_tie": false, "results": [ { "candidate": "Kevin Crutchfield", "votes": 234, "share": 55.58194774346793 }, { "candidate": "Chris Measmer", "votes": 187, "share": 44.418052256532064 } ], "participated": true, "map_key": "CABARRUS_04-13" }, "geometry": { "type": "Polygon", "coordinates": [ [ [ -80.620438991765326, 35.447724000491007 ], [ -80.622423991513784, 35.451894000357946 ], [ -80.625706991334155, 35.455592000444035 ], [ -80.638915991407472, 35.45095499975767 ], [ -80.635918990899924, 35.446264000475814 ], [ -80.640445991366775, 35.444775999842832 ], [ -80.643099990773678, 35.44539000029544 ], [ -80.644217991084659, 35.446719000196097 ], [ -80.644829991717586, 35.449922000429943 ], [ -80.64681999118875, 35.451135999702878 ], [ -80.64920599108089, 35.455069000507152 ], [ -80.652551990682582, 35.461169999730735 ], [ -80.652828991337117, 35.465706000190259 ], [ -80.655653991646403, 35.475651000556198 ], [ -80.653091991609216, 35.487774000188359 ], [ -80.650941991494975, 35.487742000009035 ], [ -80.65202199106696, 35.486359000516906 ], [ -80.649928990706954, 35.485372000518431 ], [ -80.637977991644235, 35.48651599973627 ], [ -80.639085991278819, 35.479881000269529 ], [ -80.634367991205522, 35.479398000145856 ], [ -80.625949990900693, 35.482448999840678 ], [ -80.623259990907542, 35.476148999757612 ], [ -80.624008991674643, 35.475867000231801 ], [ -80.615062991239, 35.449247999967234 ], [ -80.617863990706425, 35.449238999977027 ], [ -80.620438991765326, 35.447724000491007 ] ] ] } },
{ "type": "Feature", "properties": { "county": "CABARRUS", "precinct": "04-08", "enr_desc": "04-08", "winner": "Kevin Crutchfield", "winner_votes": 68.0, "winner_share": 56.666666666666664, "runner_up": "Chris Measmer", "runner_up_votes": 52.0, "runner_up_share": 43.333333333333336, "contest_votes": 120.0, "margin_of_victory": 13.333333333333329, "is_tie": false, "results": [ { "candidate": "Kevin Crutchfield", "votes": 68, "share": 56.666666666666664 }, { "candidate": "Chris Measmer", "votes": 52, "share": 43.333333333333336 } ], "participated": true, "map_key": "CABARRUS_04-08" }, "geometry": { "type": "Polygon", "coordinates": [ [ [ -80.666856991142808, 35.428541000334477 ], [ -80.672783991091947, 35.419090000163465 ], [ -80.677468990795376, 35.423518000533605 ], [ -80.679437991425004, 35.429082999779851 ], [ -80.688079991542821, 35.429518000407775 ], [ -80.6882479916611, 35.437073000052678 ], [ -80.688379991585023, 35.438965000091734 ], [ -80.691899991567311, 35.446797999758708 ], [ -80.68631799086522, 35.444823000224652 ], [ -80.684008990692206, 35.440906000241363 ], [ -80.682657991512656, 35.44503400038402 ], [ -80.683244991431664, 35.448627000030477 ], [ -80.674799990716565, 35.450757999757663 ], [ -80.675713991748452, 35.453389000079198 ], [ -80.669908990853173, 35.451191000027343 ], [ -80.664483991015686, 35.456416999795181 ], [ -80.661459991584977, 35.457542000471953 ], [ -80.660590991281168, 35.456319000467779 ], [ -80.656243990765219, 35.456018000501437 ], [ -80.655455990716405, 35.455022000477811 ], [ -80.64920599108089, 35.455069000507152 ], [ -80.64681999118875, 35.451135999702878 ], [ -80.644829991717586, 35.449922000429943 ], [ -80.644217991084659, 35.446719000196097 ], [ -80.643099990773678, 35.44539000029544 ], [ -80.640445991366775, 35.444775999842832 ], [ -80.635918990899924, 35.446264000475814 ], [ -80.638915991407472, 35.45095499975767 ], [ -80.625706991334155, 35.455592000444035 ], [ -80.622423991513784, 35.451894000357946 ], [ -80.620438991765326, 35.447724000491007 ], [ -80.622197990993072, 35.446644999697682 ], [ -80.622081990704501, 35.444900000128328 ], [ -80.621322991502524, 35.445253000449839 ], [ -80.62168299079157, 35.442501000221696 ], [ -80.634336990867681, 35.439333999918148 ], [ -80.646601991240601, 35.438837000197466 ], [ -80.65148299075058, 35.437930999811158 ], [ -80.660713991084691, 35.433631999911206 ], [ -80.666856991142808, 35.428541000334477 ] ] ] } },
{ "type": "Feature", "properties": { "county": "CABARRUS", "precinct": "04-09", "enr_desc": "04-09", "winner": "Kevin Crutchfield", "winner_votes": 184.0, "winner_share": 59.934853420195445, "runner_up": "Chris Measmer", "runner_up_votes": 123.0, "runner_up_share": 40.065146579804562, "contest_votes": 307.0, "margin_of_victory": 19.869706840390883, "is_tie": false, "results": [ { "candidate": "Kevin Crutchfield", "votes": 184, "share": 59.934853420195445 }, { "candidate": "Chris Measmer", "votes": 123, "share": 40.06514657980456 } ], "participated": true, "map_key": "CABARRUS_04-09" }, "geometry": { "type": "Polygon", "coordinates": [ [ [ -80.68829699129455, 35.505802999726271 ], [ -80.678870991060563, 35.505795000165151 ], [ -80.675477990793226, 35.506510000065404 ], [ -80.657653990786741, 35.506177000560832 ], [ -80.657425990832209, 35.505637999959887 ], [ -80.651569990824854, 35.492391000103247 ], [ -80.653091991609216, 35.487774000188359 ], [ -80.655653991646403, 35.475651000556198 ], [ -80.652828991337117, 35.465706000190259 ], [ -80.652551990682582, 35.461169999730735 ], [ -80.64920599108089, 35.455069000507152 ], [ -80.655455990716405, 35.455022000477811 ], [ -80.656243990765219, 35.456018000501437 ], [ -80.660590991281168, 35.456319000467779 ], [ -80.661459991584977, 35.457542000471953 ], [ -80.664483991015686, 35.456416999795181 ], [ -80.669908990853173, 35.451191000027343 ], [ -80.675713991748452, 35.453389000079198 ], [ -80.674799990716565, 35.450757999757663 ], [ -80.683244991431664, 35.448627000030477 ], [ -80.682657991512656, 35.44503400038402 ], [ -80.684008990692206, 35.440906000241363 ], [ -80.68631799086522, 35.444823000224652 ], [ -80.691899991567311, 35.446797999758708 ], [ -80.700805991300484, 35.458792999749853 ], [ -80.70023099134508, 35.462874000111263 ], [ -80.701747991043135, 35.464183000270353 ], [ -80.703212991205291, 35.467322000424204 ], [ -80.702166991573037, 35.472816999952379 ], [ -80.700590991544246, 35.474811999976907 ], [ -80.693089991454698, 35.477627999737535 ], [ -80.688439991467249, 35.481846999835881 ], [ -80.68829699129455, 35.505802999726271 ] ] ] } },
{ "type": "Feature", "properties": { "county": "CABARRUS", "precinct": "04-11", "enr_desc": "04-11", "winner": "Kevin Crutchfield", "winner_votes": 96.0, "winner_share": 63.157894736842103, "runner_up": "Chris Measmer", "runner_up_votes": 56.0, "runner_up_share": 36.84210526315789, "contest_votes": 152.0, "margin_of_victory": 26.315789473684212, "is_tie": false, "results": [ { "candidate": "Kevin Crutchfield", "votes": 96, "share": 63.1578947368421 }, { "candidate": "Chris Measmer", "votes": 56, "share": 36.84210526315789 } ], "participated": true, "map_key": "CABARRUS_04-11" }, "geometry": { "type": "Polygon", "coordinates": [ [ [ -80.651569990824854, 35.492391000103247 ], [ -80.657425990832209, 35.505637999959887 ], [ -80.609200991112047, 35.504748000452722 ], [ -80.609313991679372, 35.499653999820275 ], [ -80.611116990909338, 35.493303000082449 ], [ -80.611309990807584, 35.486945000255083 ], [ -80.614334990875037, 35.486170000563007 ], [ -80.615911991503751, 35.484609000089257 ], [ -80.620052990978408, 35.487681000098355 ], [ -80.621661991457941, 35.491224999812935 ], [ -80.625752990657602, 35.493024999900761 ], [ -80.623270991749621, 35.497676999732192 ], [ -80.624695990901699, 35.495364999775269 ], [ -80.624953991557234, 35.496399000449877 ], [ -80.62575999077383, 35.495200000446779 ], [ -80.627435991722294, 35.491443000316856 ], [ -80.631467991310402, 35.493085000189453 ], [ -80.631927991493882, 35.491621999786837 ], [ -80.631252991627576, 35.489853999881348 ], [ -80.632863991496919, 35.488638000219112 ], [ -80.636170990779348, 35.493792000528714 ], [ -80.636873991553571, 35.492232000266249 ], [ -80.639302990870306, 35.491049000009532 ], [ -80.640885991673073, 35.492168999926108 ], [ -80.644286991352587, 35.492791999971047 ], [ -80.649034991461775, 35.491884000431185 ], [ -80.651569990824854, 35.492391000103247 ] ] ] } },
{ "type": "Feature", "properties": { "county": "CABARRUS", "precinct": "04-12", "enr_desc": "04-12", "winner": "Kevin Crutchfield", "winner_votes": 111.0, "winner_share": 56.632653061224488, "runner_up": "Chris Measmer", "runner_up_votes": 85.0, "runner_up_share": 43.367346938775512, "contest_votes": 196.0, "margin_of_victory": 13.265306122448976, "is_tie": false, "results": [ { "candidate": "Kevin Crutchfield", "votes": 111, "share": 56.63265306122449 }, { "candidate": "Chris Measmer", "votes": 85, "share": 43.36734693877551 } ], "participated": true, "map_key": "CABARRUS_04-12" }, "geometry": { "type": "Polygon", "coordinates": [ [ [ -80.585103991009689, 35.482473000183106 ], [ -80.586956990695526, 35.481890000387821 ], [ -80.590217991308236, 35.480693999923176 ], [ -80.593564990864408, 35.477515999896404 ], [ -80.603358991281965, 35.473217999985522 ], [ -80.621803990776556, 35.471830000459804 ], [ -80.623259990907542, 35.476148999757612 ], [ -80.625949990900693, 35.482448999840678 ], [ -80.634367991205522, 35.479398000145856 ], [ -80.639085991278819, 35.479881000269529 ], [ -80.637977991644235, 35.48651599973627 ], [ -80.649928990706954, 35.485372000518431 ], [ -80.65202199106696, 35.486359000516906 ], [ -80.650941991494975, 35.487742000009035 ], [ -80.653091991609216, 35.487774000188359 ], [ -80.651569990824854, 35.492391000103247 ], [ -80.649034991461775, 35.491884000431185 ], [ -80.644286991352587, 35.492791999971047 ], [ -80.640885991673073, 35.492168999926108 ], [ -80.639302990870306, 35.491049000009532 ], [ -80.636873991553571, 35.492232000266249 ], [ -80.636170990779348, 35.493792000528714 ], [ -80.632863991496919, 35.488638000219112 ], [ -80.631252991627576, 35.489853999881348 ], [ -80.631927991493882, 35.491621999786837 ], [ -80.631467991310402, 35.493085000189453 ], [ -80.627435991722294, 35.491443000316856 ], [ -80.62575999077383, 35.495200000446779 ], [ -80.624953991557234, 35.496399000449877 ], [ -80.624695990901699, 35.495364999775269 ], [ -80.623270991749621, 35.497676999732192 ], [ -80.625752990657602, 35.493024999900761 ], [ -80.621661991457941, 35.491224999812935 ], [ -80.620052990978408, 35.487681000098355 ], [ -80.615911991503751, 35.484609000089257 ], [ -80.614334990875037, 35.486170000563007 ], [ -80.611309990807584, 35.486945000255083 ], [ -80.611116990909338, 35.493303000082449 ], [ -80.609003991698799, 35.493051000375317 ], [ -80.604675991493124, 35.489287999702945 ], [ -80.599269991430077, 35.488817000527149 ], [ -80.5925329911462, 35.48990000055155 ], [ -80.590115990719738, 35.488843000551526 ], [ -80.590348991713697, 35.488306999808735 ], [ -80.586780991376713, 35.487704999905972 ], [ -80.585103991009689, 35.482473000183106 ] ] ] } },
{ "type": "Feature", "properties": { "county": "CABARRUS", "precinct": "05-00", "enr_desc": "05-00", "winner": "Chris Measmer", "winner_votes": 147.0, "winner_share": 51.041666666666664, "runner_up": "Kevin Crutchfield", "runner_up_votes": 141.0, "runner_up_share": 48.958333333333329, "contest_votes": 288.0, "margin_of_victory": 2.0833333333333357, "is_tie": false, "results": [ { "candidate": "Chris Measmer", "votes": 147, "share": 51.041666666666664 }, { "candidate": "Kevin Crutchfield", "votes": 141, "share": 48.95833333333333 } ], "participated": true, "map_key": "CABARRUS_05-00" }, "geometry": { "type": "Polygon", "coordinates": [ [ [ -80.51326299087583, 35.415071000237056 ], [ -80.519000991347198, 35.414937000418647 ], [ -80.52797199090837, 35.417352000251746 ], [ -80.5355319915042, 35.414526000435529 ], [ -80.549450990800381, 35.415969000306312 ], [ -80.555646990991391, 35.415780999950044 ], [ -80.559941990967147, 35.420231999914279 ], [ -80.5642119907222, 35.422962000249704 ], [ -80.566120990804038, 35.425988999832811 ], [ -80.567048991194099, 35.427997000471876 ], [ -80.569453990892114, 35.43957800056323 ], [ -80.574798991754747, 35.450984999896519 ], [ -80.573455990968185, 35.45655299973815 ], [ -80.577600991426422, 35.464546999802387 ], [ -80.578154991096227, 35.474842000087811 ], [ -80.580928991286669, 35.48008900011704 ], [ -80.583985990919174, 35.480605000065552 ], [ -80.583469991376703, 35.48278799996109 ], [ -80.579739990868376, 35.481001000539777 ], [ -80.577258991725813, 35.491303000005395 ], [ -80.571011991055073, 35.500776000162269 ], [ -80.570601991489951, 35.503318000014254 ], [ -80.521817991724916, 35.50225300016892 ], [ -80.496996991532626, 35.502570000405491 ], [ -80.499750991240774, 35.498698000506124 ], [ -80.50378099121923, 35.487510000143466 ], [ -80.501597991090549, 35.481245000237067 ], [ -80.499742991130674, 35.457638999987807 ], [ -80.509845991300182, 35.44859300017346 ], [ -80.512258991553239, 35.445025000252528 ], [ -80.51212899085408, 35.441005999980078 ], [ -80.51024999084602, 35.434480999962091 ], [ -80.51020099161299, 35.428316999905711 ], [ -80.510746990978276, 35.423305000419688 ], [ -80.51326299087583, 35.415071000237056 ] ] ] } },
{ "type": "Feature", "properties": { "county": "CABARRUS", "precinct": "06-00", "enr_desc": "06-00", "winner": "Chris Measmer", "winner_votes": 209.0, "winner_share": 52.51256281407035, "runner_up": "Kevin Crutchfield", "runner_up_votes": 189.0, "runner_up_share": 47.48743718592965, "contest_votes": 398.0, "margin_of_victory": 5.0251256281406995, "is_tie": false, "results": [ { "candidate": "Chris Measmer", "votes": 209, "share": 52.51256281407035 }, { "candidate": "Kevin Crutchfield", "votes": 189, "share": 47.48743718592965 } ], "participated": true, "map_key": "CABARRUS_06-00" }, "geometry": { "type": "Polygon", "coordinates": [ [ [ -80.418705991218914, 35.433048999913787 ], [ -80.422145991731185, 35.433400000386008 ], [ -80.427125991599652, 35.431566000514792 ], [ -80.434456991751205, 35.433584000224691 ], [ -80.436891990715878, 35.43534499973277 ], [ -80.43736999126655, 35.437818000420833 ], [ -80.438825991207395, 35.43997300042976 ], [ -80.44020499172656, 35.439989000044662 ], [ -80.51020099161299, 35.428316999905711 ], [ -80.51024999084602, 35.434480999962091 ], [ -80.51212899085408, 35.441005999980078 ], [ -80.512258991553239, 35.445025000252528 ], [ -80.509845991300182, 35.44859300017346 ], [ -80.499742991130674, 35.457638999987807 ], [ -80.501597991090549, 35.481245000237067 ], [ -80.50378099121923, 35.487510000143466 ], [ -80.499750991240774, 35.498698000506124 ], [ -80.496996991532626, 35.502570000405491 ], [ -80.406298990924341, 35.50208399973738 ], [ -80.406204990865888, 35.4993060003709 ], [ -80.403961991033583, 35.495641000317228 ], [ -80.401440991618898, 35.488888000148691 ], [ -80.400536991209549, 35.482384999658684 ], [ -80.399683990907278, 35.480992999859339 ], [ -80.40498899163488, 35.46623700041917 ], [ -80.418705991218914, 35.433048999913787 ] ] ] } },
{ "type": "Feature", "properties": { "county": "CABARRUS", "precinct": "07-00", "enr_desc": "07-00", "winner": "Kevin Crutchfield", "winner_votes": 127.0, "winner_share": 61.650485436893199, "runner_up": "Chris Measmer", "runner_up_votes": 79.0, "runner_up_share": 38.349514563106794, "contest_votes": 206.0, "margin_of_victory": 23.300970873786405, "is_tie": false, "results": [ { "candidate": "Kevin Crutchfield", "votes": 127, "share": 61.6504854368932 }, { "candidate": "Chris Measmer", "votes": 79, "share": 38.349514563106794 } ], "participated": true, "map_key": "CABARRUS_07-00" }, "geometry": { "type": "Polygon", "coordinates": [ [ [ -80.406298990924341, 35.50208399973738 ], [ -80.295420991192415, 35.502920000450231 ], [ -80.350753991222177, 35.419523000185087 ], [ -80.40961899142539, 35.424572000173377 ], [ -80.411624991503359, 35.42945400033328 ], [ -80.418705991218914, 35.433048999913787 ], [ -80.40498899163488, 35.46623700041917 ], [ -80.399683990907278, 35.480992999859339 ], [ -80.400536991209549, 35.482384999658684 ], [ -80.401440991618898, 35.488888000148691 ], [ -80.403961991033583, 35.495641000317228 ], [ -80.406204990865888, 35.4993060003709 ], [ -80.406298990924341, 35.50208399973738 ] ] ] } },
{ "type": "Feature", "properties": { "county": "CABARRUS", "precinct": "12-11", "enr_desc": "12-11", "winner": "Kevin Crutchfield", "winner_votes": 65.0, "winner_share": 57.522123893805308, "runner_up": "Chris Measmer", "runner_up_votes": 48.0, "runner_up_share": 42.477876106194692, "contest_votes": 113.0, "margin_of_victory": 15.044247787610615, "is_tie": false, "results": [ { "candidate": "Kevin Crutchfield", "votes": 65, "share": 57.52212389380531 }, { "candidate": "Chris Measmer", "votes": 48, "share": 42.47787610619469 } ], "participated": true, "map_key": "CABARRUS_12-11" }, "geometry": { "type": "Polygon", "coordinates": [ [ [ -80.614809990880602, 35.426203999904338 ], [ -80.615905991194595, 35.434867999841543 ], [ -80.613713991556523, 35.439311000039837 ], [ -80.614857991014802, 35.443427999825801 ], [ -80.613093990935084, 35.443694999901297 ], [ -80.613521991695123, 35.444733999963638 ], [ -80.612580990945759, 35.444991999925008 ], [ -80.611967991100826, 35.445159999882179 ], [ -80.606431991195706, 35.43938899998691 ], [ -80.603757991207956, 35.44430100046219 ], [ -80.602111991394608, 35.442828000197295 ], [ -80.596625991085119, 35.441114999845844 ], [ -80.594165990817729, 35.440862999730228 ], [ -80.593011990779118, 35.441764999879283 ], [ -80.590588991514537, 35.439976000267812 ], [ -80.588910990828595, 35.435315999810776 ], [ -80.58561199077603, 35.431194999924152 ], [ -80.587894990974931, 35.430522000521343 ], [ -80.590292991312594, 35.431825999964154 ], [ -80.592009990888158, 35.431062999926183 ], [ -80.595425990753313, 35.431826000150025 ], [ -80.597999990674623, 35.427816999829474 ], [ -80.59555099120459, 35.425908999886225 ], [ -80.600060991725272, 35.422921000362656 ], [ -80.604693991235905, 35.421344000207867 ], [ -80.606265991028096, 35.425197999977129 ], [ -80.606693991450442, 35.430922000453918 ], [ -80.614809990880602, 35.426203999904338 ] ] ] } },
{ "type": "Feature", "properties": { "county": "CABARRUS", "precinct": "12-12", "enr_desc": "12-12", "winner": "Kevin Crutchfield", "winner_votes": 85.0, "winner_share": 57.432432432432435, "runner_up": "Chris Measmer", "runner_up_votes": 63.0, "runner_up_share": 42.567567567567565, "contest_votes": 148.0, "margin_of_victory": 14.86486486486487, "is_tie": false, "results": [ { "candidate": "Kevin Crutchfield", "votes": 85, "share": 57.432432432432435 }, { "candidate": "Chris Measmer", "votes": 63, "share": 42.567567567567565 } ], "participated": true, "map_key": "CABARRUS_12-12" }, "geometry": { "type": "Polygon", "coordinates": [ [ [ -80.592287991179816, 35.353406000548816 ], [ -80.59753999101018, 35.354809000481175 ], [ -80.601980991230505, 35.355007999790182 ], [ -80.599290991640331, 35.357877999707561 ], [ -80.596727991507379, 35.359019000187693 ], [ -80.596143991322592, 35.361163000315827 ], [ -80.596086991189921, 35.364998000483332 ], [ -80.597717990736541, 35.370720000107923 ], [ -80.597709991008486, 35.376412000449122 ], [ -80.595732991005903, 35.37836599994052 ], [ -80.589674991639512, 35.380902000125246 ], [ -80.589153991171074, 35.381123000305053 ], [ -80.584034990945099, 35.383240999777776 ], [ -80.581871990769358, 35.38219800033297 ], [ -80.582223990709622, 35.380015000482338 ], [ -80.57976299173022, 35.375949000001725 ], [ -80.579897990976178, 35.372600000485733 ], [ -80.578768991238022, 35.368590999857048 ], [ -80.571630990687794, 35.359455999813235 ], [ -80.571886991538037, 35.357230000089629 ], [ -80.573628991255987, 35.355887999867079 ], [ -80.575452991160518, 35.3519269998814 ], [ -80.575141991496992, 35.34808699991202 ], [ -80.592287991179816, 35.353406000548816 ] ] ] } },
{ "type": "Feature", "properties": { "county": "CABARRUS", "precinct": "08-00", "enr_desc": "08-00", "winner": "Kevin Crutchfield", "winner_votes": 331.0, "winner_share": 63.653846153846146, "runner_up": "Chris Measmer", "runner_up_votes": 189.0, "runner_up_share": 36.346153846153847, "contest_votes": 520.0, "margin_of_victory": 27.307692307692299, "is_tie": false, "results": [ { "candidate": "Kevin Crutchfield", "votes": 331, "share": 63.653846153846146 }, { "candidate": "Chris Measmer", "votes": 189, "share": 36.34615384615385 } ], "participated": true, "map_key": "CABARRUS_08-00" }, "geometry": { "type": "Polygon", "coordinates": [ [ [ -80.487301991571158, 35.382275999849121 ], [ -80.492905991399837, 35.387638000116659 ], [ -80.498496990879687, 35.398039000025847 ], [ -80.504244991630515, 35.401789000196331 ], [ -80.510272991144106, 35.407679000224284 ], [ -80.512179991088004, 35.410590000037161 ], [ -80.51326299087583, 35.415071000237056 ], [ -80.510746990978276, 35.423305000419688 ], [ -80.51020099161299, 35.428316999905711 ], [ -80.44020499172656, 35.439989000044662 ], [ -80.438825991207395, 35.43997300042976 ], [ -80.43736999126655, 35.437818000420833 ], [ -80.436891990715878, 35.43534499973277 ], [ -80.434456991751205, 35.433584000224691 ], [ -80.427125991599652, 35.431566000514792 ], [ -80.422145991731185, 35.433400000386008 ], [ -80.418705991218914, 35.433048999913787 ], [ -80.411624991503359, 35.42945400033328 ], [ -80.40961899142539, 35.424572000173377 ], [ -80.350753991222177, 35.419523000185087 ], [ -80.396913991520464, 35.349689000070413 ], [ -80.443565990716579, 35.379286999865194 ], [ -80.446051991025257, 35.380192999809481 ], [ -80.463867991570865, 35.382880000545278 ], [ -80.46872699119514, 35.380395000516465 ], [ -80.480597991061941, 35.380054000395972 ], [ -80.487301991571158, 35.382275999849121 ] ] ] } },
{ "type": "Feature", "properties": { "county": "CABARRUS", "precinct": "09-00", "enr_desc": "09-00", "winner": "Kevin Crutchfield", "winner_votes": 211.0, "winner_share": 53.689567430025441, "runner_up": "Chris Measmer", "runner_up_votes": 182.0, "runner_up_share": 46.310432569974552, "contest_votes": 393.0, "margin_of_victory": 7.3791348600508897, "is_tie": false, "results": [ { "candidate": "Kevin Crutchfield", "votes": 211, "share": 53.68956743002544 }, { "candidate": "Chris Measmer", "votes": 182, "share": 46.31043256997455 } ], "participated": true, "map_key": "CABARRUS_09-00" }, "geometry": { "type": "Polygon", "coordinates": [ [ [ -80.445341990847467, 35.275718999888873 ], [ -80.485591991091454, 35.282159000461697 ], [ -80.482536990859614, 35.283571000529733 ], [ -80.480946990803872, 35.286741999950372 ], [ -80.473619991516514, 35.295182999707229 ], [ -80.473127991502409, 35.296105000208037 ], [ -80.47503399174829, 35.300253999667802 ], [ -80.470463990900072, 35.303129999751739 ], [ -80.466679991218314, 35.30836900039256 ], [ -80.472433991723008, 35.311486999740957 ], [ -80.482860991731272, 35.315375000269547 ], [ -80.487975991513181, 35.318993999881791 ], [ -80.495045991487515, 35.320770999697579 ], [ -80.49980599105163, 35.319989000255653 ], [ -80.503966991577954, 35.323955000424824 ], [ -80.503905991403045, 35.32483900003588 ], [ -80.503742991374409, 35.325859000162247 ], [ -80.505112990882381, 35.326655999782673 ], [ -80.504408991518872, 35.33053200037201 ], [ -80.506976991676098, 35.334997000254688 ], [ -80.514101991420176, 35.33994900037527 ], [ -80.510768991216977, 35.348493000102408 ], [ -80.509282990873984, 35.356097000486152 ], [ -80.503299990998414, 35.373662000373848 ], [ -80.497538990688028, 35.374241999944054 ], [ -80.494443991027012, 35.375451000319778 ], [ -80.487301991571158, 35.382275999849121 ], [ -80.480597991061941, 35.380054000395972 ], [ -80.46872699119514, 35.380395000516465 ], [ -80.463867991570865, 35.382880000545278 ], [ -80.446051991025257, 35.380192999809481 ], [ -80.443565990716579, 35.379286999865194 ], [ -80.396913991520464, 35.349689000070413 ], [ -80.445341990847467, 35.275718999888873 ] ] ] } },
{ "type": "Feature", "properties": { "county": "CABARRUS", "precinct": "10-00", "enr_desc": "10-00", "winner": "Kevin Crutchfield", "winner_votes": 277.0, "winner_share": 61.96868008948546, "runner_up": "Chris Measmer", "runner_up_votes": 170.0, "runner_up_share": 38.031319910514547, "contest_votes": 447.0, "margin_of_victory": 23.937360178970913, "is_tie": false, "results": [ { "candidate": "Kevin Crutchfield", "votes": 277, "share": 61.96868008948546 }, { "candidate": "Chris Measmer", "votes": 170, "share": 38.03131991051455 } ], "participated": true, "map_key": "CABARRUS_10-00" }, "geometry": { "type": "Polygon", "coordinates": [ [ [ -80.575937991590962, 35.221813999998794 ], [ -80.57039199172138, 35.22698599976588 ], [ -80.569170991191001, 35.235699000375455 ], [ -80.571309991122035, 35.241149000549619 ], [ -80.572370991055394, 35.248712999905486 ], [ -80.573849991536946, 35.251977999938809 ], [ -80.574139990760372, 35.258201000369354 ], [ -80.576997991775798, 35.265886000120666 ], [ -80.575008991091508, 35.279548999677338 ], [ -80.57290499091755, 35.284620000070781 ], [ -80.570161991005079, 35.287886000217242 ], [ -80.562082991606871, 35.295385999934147 ], [ -80.548810990887631, 35.305382000133456 ], [ -80.548006990909812, 35.306778999702843 ], [ -80.550102991091848, 35.313280999702087 ], [ -80.557892991755949, 35.319462000458827 ], [ -80.560415990908581, 35.32468800049913 ], [ -80.558097991445237, 35.325435999738012 ], [ -80.555191991652279, 35.323171000462175 ], [ -80.551726991770323, 35.322229999930897 ], [ -80.55074699135092, 35.326628999929532 ], [ -80.547700990793757, 35.327067999960001 ], [ -80.544626990823105, 35.321800000150645 ], [ -80.541414990917048, 35.320875000291558 ], [ -80.536131991677323, 35.323832000277378 ], [ -80.533811990729262, 35.328801000298824 ], [ -80.530148990838057, 35.32925300012338 ], [ -80.524476990996959, 35.326691000096673 ], [ -80.521572991483168, 35.320735000004525 ], [ -80.51920099157006, 35.318471000389629 ], [ -80.518530991604266, 35.318534000384382 ], [ -80.516458991729465, 35.323753000321986 ], [ -80.515450990946348, 35.324353000309543 ], [ -80.513496990939132, 35.324029999687674 ], [ -80.512578991369608, 35.320591000461086 ], [ -80.511459990829124, 35.320138000535891 ], [ -80.503966991577954, 35.323955000424824 ], [ -80.49980599105163, 35.319989000255653 ], [ -80.495045991487515, 35.320770999697579 ], [ -80.487975991513181, 35.318993999881791 ], [ -80.482860991731272, 35.315375000269547 ], [ -80.472433991723008, 35.311486999740957 ], [ -80.466679991218314, 35.30836900039256 ], [ -80.470463990900072, 35.303129999751739 ], [ -80.47503399174829, 35.300253999667802 ], [ -80.473127991502409, 35.296105000208037 ], [ -80.473619991516514, 35.295182999707229 ], [ -80.480946990803872, 35.286741999950372 ], [ -80.482536990859614, 35.283571000529733 ], [ -80.485591991091454, 35.282159000461697 ], [ -80.445341990847467, 35.275718999888873 ], [ -80.484355991017281, 35.216367999805811 ], [ -80.483052991393194, 35.214094000105391 ], [ -80.483402991005093, 35.212428000178136 ], [ -80.489081991553775, 35.209867000293407 ], [ -80.494388990934411, 35.20562199967798 ], [ -80.496646991388531, 35.203338000439118 ], [ -80.499538990703655, 35.198064999798405 ], [ -80.505654990829271, 35.193750999695759 ], [ -80.506095990725001, 35.191475999902423 ], [ -80.504106991411106, 35.18748600047909 ], [ -80.504984991586085, 35.184997999949623 ], [ -80.575937991590962, 35.221813999998794 ] ] ] } },
{ "type": "Feature", "properties": { "county": "CABARRUS", "precinct": "11-01", "enr_desc": "11-01", "winner": "Kevin Crutchfield", "winner_votes": 121.0, "winner_share": 56.279069767441861, "runner_up": "Chris Measmer", "runner_up_votes": 94.0, "runner_up_share": 43.720930232558139, "contest_votes": 215.0, "margin_of_victory": 12.558139534883722, "is_tie": false, "results": [ { "candidate": "Kevin Crutchfield", "votes": 121, "share": 56.27906976744186 }, { "candidate": "Chris Measmer", "votes": 94, "share": 43.72093023255814 } ], "participated": true, "map_key": "CABARRUS_11-01" }, "geometry": { "type": "Polygon", "coordinates": [ [ [ -80.575141991496992, 35.34808699991202 ], [ -80.575452991160518, 35.3519269998814 ], [ -80.573628991255987, 35.355887999867079 ], [ -80.571886991538037, 35.357230000089629 ], [ -80.571630990687794, 35.359455999813235 ], [ -80.578768991238022, 35.368590999857048 ], [ -80.579897990976178, 35.372600000485733 ], [ -80.57976299173022, 35.375949000001725 ], [ -80.582223990709622, 35.380015000482338 ], [ -80.581871990769358, 35.38219800033297 ], [ -80.577856990886715, 35.381078000174604 ], [ -80.565414990794807, 35.381505000554689 ], [ -80.557089991416049, 35.380533999797137 ], [ -80.553203991203034, 35.378574999730212 ], [ -80.551560991758222, 35.375706000089629 ], [ -80.550462991546297, 35.371701999911565 ], [ -80.542193991275155, 35.362091000074102 ], [ -80.539286991005426, 35.359982000289293 ], [ -80.535406990831106, 35.354468999710804 ], [ -80.534341991634136, 35.349216999797612 ], [ -80.533247990840465, 35.347415999755519 ], [ -80.524170991498764, 35.343434000091229 ], [ -80.512525991416481, 35.328924000417253 ], [ -80.503905991403045, 35.32483900003588 ], [ -80.503966991577954, 35.323955000424824 ], [ -80.511459990829124, 35.320138000535891 ], [ -80.512578991369608, 35.320591000461086 ], [ -80.513496990939132, 35.324029999687674 ], [ -80.515450990946348, 35.324353000309543 ], [ -80.516458991729465, 35.323753000321986 ], [ -80.518530991604266, 35.318534000384382 ], [ -80.51920099157006, 35.318471000389629 ], [ -80.521572991483168, 35.320735000004525 ], [ -80.524476990996959, 35.326691000096673 ], [ -80.530148990838057, 35.32925300012338 ], [ -80.533811990729262, 35.328801000298824 ], [ -80.536131991677323, 35.323832000277378 ], [ -80.541414990917048, 35.320875000291558 ], [ -80.544626990823105, 35.321800000150645 ], [ -80.547700990793757, 35.327067999960001 ], [ -80.55074699135092, 35.326628999929532 ], [ -80.551726991770323, 35.322229999930897 ], [ -80.555191991652279, 35.323171000462175 ], [ -80.558097991445237, 35.325435999738012 ], [ -80.560415990908581, 35.32468800049913 ], [ -80.56034499127766, 35.329435000129386 ], [ -80.558979991472484, 35.335915000104947 ], [ -80.55532799166231, 35.338895000186987 ], [ -80.553708991175213, 35.342079000153888 ], [ -80.567114991027495, 35.344877000228124 ], [ -80.575141991496992, 35.34808699991202 ] ] ] } },
{ "type": "Feature", "properties": { "county": "CABARRUS", "precinct": "11-02", "enr_desc": "11-02", "winner": "Kevin Crutchfield", "winner_votes": 262.0, "winner_share": 61.214953271028037, "runner_up": "Chris Measmer", "runner_up_votes": 166.0, "runner_up_share": 38.785046728971963, "contest_votes": 428.0, "margin_of_victory": 22.429906542056074, "is_tie": false, "results": [ { "candidate": "Kevin Crutchfield", "votes": 262, "share": 61.21495327102804 }, { "candidate": "Chris Measmer", "votes": 166, "share": 38.78504672897196 } ], "participated": true, "map_key": "CABARRUS_11-02" }, "geometry": { "type": "Polygon", "coordinates": [ [ [ -80.503905991403045, 35.32483900003588 ], [ -80.512525991416481, 35.328924000417253 ], [ -80.524170991498764, 35.343434000091229 ], [ -80.533247990840465, 35.347415999755519 ], [ -80.534341991634136, 35.349216999797612 ], [ -80.535406990831106, 35.354468999710804 ], [ -80.539286991005426, 35.359982000289293 ], [ -80.542193991275155, 35.362091000074102 ], [ -80.550462991546297, 35.371701999911565 ], [ -80.551560991758222, 35.375706000089629 ], [ -80.550468991538452, 35.37903800043069 ], [ -80.551057990899167, 35.383704000513127 ], [ -80.546350991261292, 35.386926000348616 ], [ -80.543501991549107, 35.390103000548201 ], [ -80.539811990783761, 35.390720000531083 ], [ -80.539856991002182, 35.396125000214198 ], [ -80.540876991389652, 35.397568000220289 ], [ -80.54183099107442, 35.401129999700615 ], [ -80.541426991467432, 35.403385000249536 ], [ -80.543352990688135, 35.406480999815997 ], [ -80.543777991366127, 35.411144000360963 ], [ -80.544981991752692, 35.412386000157724 ], [ -80.54828899171909, 35.413564000368744 ], [ -80.549450990800381, 35.415969000306312 ], [ -80.5355319915042, 35.414526000435529 ], [ -80.52797199090837, 35.417352000251746 ], [ -80.519000991347198, 35.414937000418647 ], [ -80.51326299087583, 35.415071000237056 ], [ -80.512179991088004, 35.410590000037161 ], [ -80.510272991144106, 35.407679000224284 ], [ -80.504244991630515, 35.401789000196331 ], [ -80.498496990879687, 35.398039000025847 ], [ -80.492905991399837, 35.387638000116659 ], [ -80.487301991571158, 35.382275999849121 ], [ -80.494443991027012, 35.375451000319778 ], [ -80.497538990688028, 35.374241999944054 ], [ -80.503299990998414, 35.373662000373848 ], [ -80.509282990873984, 35.356097000486152 ], [ -80.510768991216977, 35.348493000102408 ], [ -80.514101991420176, 35.33994900037527 ], [ -80.506976991676098, 35.334997000254688 ], [ -80.504408991518872, 35.33053200037201 ], [ -80.505112990882381, 35.326655999782673 ], [ -80.503742991374409, 35.325859000162247 ], [ -80.503905991403045, 35.32483900003588 ] ] ] } },
{ "type": "Feature", "properties": { "county": "CABARRUS", "precinct": "12-03", "enr_desc": "12-03", "winner": "Kevin Crutchfield", "winner_votes": 113.0, "winner_share": 60.427807486631011, "runner_up": "Chris Measmer", "runner_up_votes": 74.0, "runner_up_share": 39.572192513368989, "contest_votes": 187.0, "margin_of_victory": 20.855614973262021, "is_tie": false, "results": [ { "candidate": "Kevin Crutchfield", "votes": 113, "share": 60.42780748663101 }, { "candidate": "Chris Measmer", "votes": 74, "share": 39.57219251336899 } ], "participated": true, "map_key": "CABARRUS_12-03" }, "geometry": { "type": "Polygon", "coordinates": [ [ [ -80.58561199077603, 35.431194999924152 ], [ -80.588910990828595, 35.435315999810776 ], [ -80.590588991514537, 35.439976000267812 ], [ -80.593011990779118, 35.441764999879283 ], [ -80.594165990817729, 35.440862999730228 ], [ -80.596625991085119, 35.441114999845844 ], [ -80.602111991394608, 35.442828000197295 ], [ -80.603757991207956, 35.44430100046219 ], [ -80.606431991195706, 35.43938899998691 ], [ -80.611967991100826, 35.445159999882179 ], [ -80.612580990945759, 35.444991999925008 ], [ -80.612769990822983, 35.44525200017403 ], [ -80.611266991060106, 35.445971000211593 ], [ -80.609760991649551, 35.448925999883556 ], [ -80.607876991045785, 35.447154000140287 ], [ -80.605736991705342, 35.446862000420602 ], [ -80.600547991556638, 35.448474000246442 ], [ -80.600462991231069, 35.450467000043112 ], [ -80.60358099130211, 35.44984800038042 ], [ -80.605538990999236, 35.452561000386432 ], [ -80.602661990746839, 35.45415599989267 ], [ -80.602009991041626, 35.453417000376419 ], [ -80.602907991555213, 35.452945999813238 ], [ -80.602657991102319, 35.451450000129711 ], [ -80.60065699151383, 35.451809000352064 ], [ -80.600891991184639, 35.452970999757504 ], [ -80.599518991345661, 35.452987000273602 ], [ -80.596376991184684, 35.455882000546303 ], [ -80.595390991719199, 35.455238000083526 ], [ -80.594366991127316, 35.455608999789753 ], [ -80.593091991139573, 35.45896900026964 ], [ -80.59389699140641, 35.459129999979588 ], [ -80.595145991336182, 35.457663000378552 ], [ -80.596335991214644, 35.458309000459607 ], [ -80.595161991171452, 35.459435000346595 ], [ -80.596351990981674, 35.46503199993478 ], [ -80.593218991403177, 35.46556300013701 ], [ -80.592504991207875, 35.464104000561463 ], [ -80.589347991415835, 35.464943000354786 ], [ -80.588147991003666, 35.465841000218965 ], [ -80.590351991345713, 35.468625999833009 ], [ -80.585287991437383, 35.471239000034949 ], [ -80.585899990667031, 35.473527999887196 ], [ -80.584948991453032, 35.477107000522892 ], [ -80.583591991407374, 35.478218999754063 ], [ -80.584983991562368, 35.479169000026126 ], [ -80.585080990747954, 35.480117000290079 ], [ -80.58604599156169, 35.480042000295249 ], [ -80.586956990695526, 35.481890000387821 ], [ -80.585103991009689, 35.482473000183106 ], [ -80.583469991376703, 35.48278799996109 ], [ -80.583985990919174, 35.480605000065552 ], [ -80.580928991286669, 35.48008900011704 ], [ -80.578154991096227, 35.474842000087811 ], [ -80.577600991426422, 35.464546999802387 ], [ -80.573455990968185, 35.45655299973815 ], [ -80.574798991754747, 35.450984999896519 ], [ -80.569453990892114, 35.43957800056323 ], [ -80.567048991194099, 35.427997000471876 ], [ -80.568109990677542, 35.429797000333693 ], [ -80.571659990842846, 35.428557000102295 ], [ -80.57371899069264, 35.429715999797033 ], [ -80.573933991623491, 35.429151999924237 ], [ -80.575444991040186, 35.429442000364205 ], [ -80.577100990754744, 35.432304000278869 ], [ -80.580283990916243, 35.434359000428692 ], [ -80.583899990891993, 35.434278999807653 ], [ -80.584457991686889, 35.432062999666954 ], [ -80.58561199077603, 35.431194999924152 ] ] ] } },
{ "type": "Feature", "properties": { "county": "CABARRUS", "precinct": "12-04", "enr_desc": "12-04", "winner": "Kevin Crutchfield", "winner_votes": 74.0, "winner_share": 61.666666666666671, "runner_up": "Chris Measmer", "runner_up_votes": 46.0, "runner_up_share": 38.333333333333336, "contest_votes": 120.0, "margin_of_victory": 23.333333333333336, "is_tie": false, "results": [ { "candidate": "Kevin Crutchfield", "votes": 74, "share": 61.66666666666667 }, { "candidate": "Chris Measmer", "votes": 46, "share": 38.333333333333336 } ], "participated": true, "map_key": "CABARRUS_12-04" }, "geometry": { "type": "Polygon", "coordinates": [ [ [ -80.57918799143674, 35.408679999989602 ], [ -80.589436991242167, 35.417837999735227 ], [ -80.588466990952185, 35.418479999676968 ], [ -80.592086990670396, 35.423313999917532 ], [ -80.59555099120459, 35.425908999886225 ], [ -80.597999990674623, 35.427816999829474 ], [ -80.595425990753313, 35.431826000150025 ], [ -80.592009990888158, 35.431062999926183 ], [ -80.590292991312594, 35.431825999964154 ], [ -80.587894990974931, 35.430522000521343 ], [ -80.58561199077603, 35.431194999924152 ], [ -80.584457991686889, 35.432062999666954 ], [ -80.583899990891993, 35.434278999807653 ], [ -80.580283990916243, 35.434359000428692 ], [ -80.577100990754744, 35.432304000278869 ], [ -80.575444991040186, 35.429442000364205 ], [ -80.573933991623491, 35.429151999924237 ], [ -80.57371899069264, 35.429715999797033 ], [ -80.571659990842846, 35.428557000102295 ], [ -80.568109990677542, 35.429797000333693 ], [ -80.567048991194099, 35.427997000471876 ], [ -80.566120990804038, 35.425988999832811 ], [ -80.568987991566416, 35.421317000228512 ], [ -80.571856990839365, 35.41853900039581 ], [ -80.568112991047201, 35.410311999912018 ], [ -80.578092990835827, 35.409481000122291 ], [ -80.57918799143674, 35.408679999989602 ] ] ] } },
{ "type": "Feature", "properties": { "county": "CABARRUS", "precinct": "12-13", "enr_desc": "12-13", "winner": "Kevin Crutchfield", "winner_votes": 46.0, "winner_share": 56.09756097560976, "runner_up": "Chris Measmer", "runner_up_votes": 36.0, "runner_up_share": 43.902439024390247, "contest_votes": 82.0, "margin_of_victory": 12.195121951219512, "is_tie": false, "results": [ { "candidate": "Kevin Crutchfield", "votes": 46, "share": 56.09756097560976 }, { "candidate": "Chris Measmer", "votes": 36, "share": 43.90243902439025 } ], "participated": true, "map_key": "CABARRUS_12-13" }, "geometry": { "type": "Polygon", "coordinates": [ [ [ -80.581871990769358, 35.38219800033297 ], [ -80.584034990945099, 35.383240999777776 ], [ -80.589153991171074, 35.381123000305053 ], [ -80.587641990853953, 35.389393000331289 ], [ -80.587763991392578, 35.392840999722274 ], [ -80.590856991662179, 35.401802000202025 ], [ -80.592989990917218, 35.400831000535071 ], [ -80.59865499131682, 35.407413999897202 ], [ -80.600863991136777, 35.40881300027597 ], [ -80.606434990958121, 35.409910999921976 ], [ -80.613691991428311, 35.415659000035511 ], [ -80.615993991036873, 35.422830999894188 ], [ -80.614809990880602, 35.426203999904338 ], [ -80.606693991450442, 35.430922000453918 ], [ -80.606265991028096, 35.425197999977129 ], [ -80.604693991235905, 35.421344000207867 ], [ -80.600060991725272, 35.422921000362656 ], [ -80.59555099120459, 35.425908999886225 ], [ -80.592086990670396, 35.423313999917532 ], [ -80.588466990952185, 35.418479999676968 ], [ -80.589436991242167, 35.417837999735227 ], [ -80.57918799143674, 35.408679999989602 ], [ -80.575662991332052, 35.40534100051191 ], [ -80.576613991525619, 35.404679000494191 ], [ -80.576794991136254, 35.400789000220271 ], [ -80.578966990863293, 35.401231999779263 ], [ -80.580228990868562, 35.391451000371625 ], [ -80.582662991671768, 35.386036000082647 ], [ -80.581690991622736, 35.383834000446299 ], [ -80.581871990769358, 35.38219800033297 ] ] ] } },
{ "type": "Feature", "properties": { "county": "CABARRUS", "precinct": "12-05", "enr_desc": "12-05", "winner": "Kevin Crutchfield", "winner_votes": 140.0, "winner_share": 57.377049180327866, "runner_up": "Chris Measmer", "runner_up_votes": 104.0, "runner_up_share": 42.622950819672127, "contest_votes": 244.0, "margin_of_victory": 14.754098360655739, "is_tie": false, "results": [ { "candidate": "Kevin Crutchfield", "votes": 140, "share": 57.377049180327866 }, { "candidate": "Chris Measmer", "votes": 104, "share": 42.62295081967213 } ], "participated": true, "map_key": "CABARRUS_12-05" }, "geometry": { "type": "Polygon", "coordinates": [ [ [ -80.575662991332052, 35.40534100051191 ], [ -80.57918799143674, 35.408679999989602 ], [ -80.578092990835827, 35.409481000122291 ], [ -80.568112991047201, 35.410311999912018 ], [ -80.571856990839365, 35.41853900039581 ], [ -80.568987991566416, 35.421317000228512 ], [ -80.566120990804038, 35.425988999832811 ], [ -80.5642119907222, 35.422962000249704 ], [ -80.559941990967147, 35.420231999914279 ], [ -80.555646990991391, 35.415780999950044 ], [ -80.549450990800381, 35.415969000306312 ], [ -80.54828899171909, 35.413564000368744 ], [ -80.544981991752692, 35.412386000157724 ], [ -80.543777991366127, 35.411144000360963 ], [ -80.543352990688135, 35.406480999815997 ], [ -80.541426991467432, 35.403385000249536 ], [ -80.54183099107442, 35.401129999700615 ], [ -80.540876991389652, 35.397568000220289 ], [ -80.544396991163239, 35.396883999820645 ], [ -80.548700990888875, 35.397226999944131 ], [ -80.551208991215915, 35.399025000382188 ], [ -80.556021990879501, 35.399712000207764 ], [ -80.557990991323393, 35.400932000159713 ], [ -80.565165991418013, 35.3933649998826 ], [ -80.575662991332052, 35.40534100051191 ] ] ] } },
{ "type": "Feature", "properties": { "county": "CABARRUS", "precinct": "12-09", "enr_desc": "12-09", "winner": "Kevin Crutchfield", "winner_votes": 101.0, "winner_share": 52.879581151832454, "runner_up": "Chris Measmer", "runner_up_votes": 90.0, "runner_up_share": 47.120418848167539, "contest_votes": 191.0, "margin_of_victory": 5.7591623036649153, "is_tie": false, "results": [ { "candidate": "Kevin Crutchfield", "votes": 101, "share": 52.879581151832454 }, { "candidate": "Chris Measmer", "votes": 90, "share": 47.12041884816754 } ], "participated": true, "map_key": "CABARRUS_12-09" }, "geometry": { "type": "Polygon", "coordinates": [ [ [ -80.63120699166015, 35.358884000321005 ], [ -80.626535991044221, 35.364450999783202 ], [ -80.623687991557986, 35.366261000367594 ], [ -80.621956990938997, 35.369486000501936 ], [ -80.622442991054029, 35.371478999680072 ], [ -80.627102991131451, 35.369441000564521 ], [ -80.63260299175117, 35.363622000531151 ], [ -80.636877990781898, 35.365014000038244 ], [ -80.638576990735714, 35.371479999694436 ], [ -80.641775991370523, 35.377929999778821 ], [ -80.647898991542647, 35.382371000349927 ], [ -80.638848991549082, 35.38717199980951 ], [ -80.616003991159786, 35.395082000003363 ], [ -80.611220991202373, 35.396093999959803 ], [ -80.607493990994186, 35.391409000296456 ], [ -80.605644991033287, 35.387119999747839 ], [ -80.589674991639512, 35.380902000125246 ], [ -80.595732991005903, 35.37836599994052 ], [ -80.597709991008486, 35.376412000449122 ], [ -80.597717990736541, 35.370720000107923 ], [ -80.596086991189921, 35.364998000483332 ], [ -80.596143991322592, 35.361163000315827 ], [ -80.596727991507379, 35.359019000187693 ], [ -80.599290991640331, 35.357877999707561 ], [ -80.601980991230505, 35.355007999790182 ], [ -80.63120699166015, 35.358884000321005 ] ] ] } },
{ "type": "Feature", "properties": { "county": "CABARRUS", "precinct": "12-14", "enr_desc": "12-14", "winner": "Kevin Crutchfield", "winner_votes": 121.0, "winner_share": 55.25114155251142, "runner_up": "Chris Measmer", "runner_up_votes": 98.0, "runner_up_share": 44.74885844748858, "contest_votes": 219.0, "margin_of_victory": 10.50228310502284, "is_tie": false, "results": [ { "candidate": "Kevin Crutchfield", "votes": 121, "share": 55.25114155251142 }, { "candidate": "Chris Measmer", "votes": 98, "share": 44.74885844748858 } ], "participated": true, "map_key": "CABARRUS_12-14" }, "geometry": { "type": "Polygon", "coordinates": [ [ [ -80.551560991758222, 35.375706000089629 ], [ -80.553203991203034, 35.378574999730212 ], [ -80.557089991416049, 35.380533999797137 ], [ -80.565414990794807, 35.381505000554689 ], [ -80.577856990886715, 35.381078000174604 ], [ -80.581871990769358, 35.38219800033297 ], [ -80.581690991622736, 35.383834000446299 ], [ -80.582662991671768, 35.386036000082647 ], [ -80.580228990868562, 35.391451000371625 ], [ -80.578966990863293, 35.401231999779263 ], [ -80.576794991136254, 35.400789000220271 ], [ -80.576613991525619, 35.404679000494191 ], [ -80.575662991332052, 35.40534100051191 ], [ -80.565165991418013, 35.3933649998826 ], [ -80.557990991323393, 35.400932000159713 ], [ -80.556021990879501, 35.399712000207764 ], [ -80.551208991215915, 35.399025000382188 ], [ -80.548700990888875, 35.397226999944131 ], [ -80.544396991163239, 35.396883999820645 ], [ -80.540876991389652, 35.397568000220289 ], [ -80.539856991002182, 35.396125000214198 ], [ -80.539811990783761, 35.390720000531083 ], [ -80.543501991549107, 35.390103000548201 ], [ -80.546350991261292, 35.386926000348616 ], [ -80.551057990899167, 35.383704000513127 ], [ -80.550468991538452, 35.37903800043069 ], [ -80.551560991758222, 35.375706000089629 ] ] ] } }
]
}
