{
"type": "FeatureCollection",
"name": "northampton_county_board_of_commissioners_district_04_dem",
"crs": { "type": "name", "properties": { "name": "urn:ogc:def:crs:OGC:1.3:CRS84" } },
"features": [
{ "type": "Feature", "properties": { "county": "NORTHAMPTON", "precinct": "LAKE G", "enr_desc": "Lake Gaston", "winner": "Melvetta Broadnax Taylor", "winner_votes": 79, "winner_share": 68.103448275862064, "runner_up": "Lemuel Ricks", "runner_up_votes": 37, "runner_up_share": 31.896551724137932, "contest_votes": 116, "margin_of_victory": 36.206896551724128, "is_tie": false, "results": [ { "candidate": "Melvetta Broadnax Taylor", "votes": 79, "share": 68.10344827586206 }, { "candidate": "Lemuel Ricks", "votes": 37, "share": 31.896551724137932 } ], "participated": true, "map_key": "NORTHAMPTON_LAKE G" }, "geometry": { "type": "Polygon", "coordinates": [ [ [ -77.777634991136324, 36.483604999462301 ], [ -77.789132991453172, 36.491210000160763 ], [ -77.794404990970392, 36.49186599957914 ], [ -77.805201990607742, 36.497207999906429 ], [ -77.817452991264005, 36.500481999519209 ], [ -77.83421299081094, 36.501134000300063 ], [ -77.841466991502955, 36.502258000054802 ], [ -77.844526990807339, 36.503705999655857 ], [ -77.850939991382987, 36.504534000131478 ], [ -77.858292991295571, 36.506647999826306 ], [ -77.860334991505681, 36.50638699974872 ], [ -77.866051991088881, 36.503381000226234 ], [ -77.869389990942267, 36.503604000169965 ], [ -77.876035990990744, 36.506100999637447 ], [ -77.880908991379357, 36.506850000337344 ], [ -77.88489499121728, 36.506434000012128 ], [ -77.885513991241382, 36.508033000151634 ], [ -77.887566991335945, 36.509823000162456 ], [ -77.892354991359923, 36.512070999476798 ], [ -77.896164990900544, 36.509468999779678 ], [ -77.89952399072007, 36.504258999924652 ], [ -77.899772991298335, 36.544595999971143 ], [ -77.738797990762379, 36.545431000296091 ], [ -77.739984991417984, 36.543760999599748 ], [ -77.743082991399703, 36.542540000178029 ], [ -77.747461990841018, 36.537692999652258 ], [ -77.749208990922895, 36.531189999503049 ], [ -77.752267990795133, 36.526317999546322 ], [ -77.754393990543036, 36.524880999695043 ], [ -77.759850991054648, 36.5232389997932 ], [ -77.769431991161113, 36.513436000319736 ], [ -77.773873990750985, 36.510768999741892 ], [ -77.776097991259093, 36.502842999508211 ], [ -77.778769990975192, 36.500149000048189 ], [ -77.777634991136324, 36.483604999462301 ] ] ] } },
{ "type": "Feature", "properties": { "county": "NORTHAMPTON", "precinct": "COMIPE", "enr_desc": "Conway/Milwaukee/Pendleton", "winner": "Lemuel Ricks", "winner_votes": 200, "winner_share": 74.626865671641795, "runner_up": "Melvetta Broadnax Taylor", "runner_up_votes": 68, "runner_up_share": 25.373134328358208, "contest_votes": 268, "margin_of_victory": 49.25373134328359, "is_tie": false, "results": [ { "candidate": "Lemuel Ricks", "votes": 200, "share": 74.6268656716418 }, { "candidate": "Melvetta Broadnax Taylor", "votes": 68, "share": 25.37313432835821 } ], "participated": true, "map_key": "NORTHAMPTON_COMIPE" }, "geometry": { "type": "Polygon", "coordinates": [ [ [ -77.182972991326977, 36.374008999623499 ], [ -77.184416991150272, 36.372251000253854 ], [ -77.182321990587553, 36.370442000189456 ], [ -77.181699991385173, 36.36852000013775 ], [ -77.184047990570548, 36.364925999720064 ], [ -77.187472991510745, 36.363643999475698 ], [ -77.193244991566246, 36.363803999524805 ], [ -77.199500991235297, 36.367328000250374 ], [ -77.202811990965913, 36.36556499945803 ], [ -77.204027990597339, 36.362475000156799 ], [ -77.21104699096729, 36.36446499994814 ], [ -77.223727991119574, 36.37178400003139 ], [ -77.226302991661399, 36.370570000266099 ], [ -77.227746991601038, 36.370889999740285 ], [ -77.228964991576063, 36.373017999558932 ], [ -77.230293991390127, 36.372147999473178 ], [ -77.232020991417599, 36.372489999911089 ], [ -77.23335999154645, 36.374693999725338 ], [ -77.235100991350976, 36.374791000320855 ], [ -77.244849991494121, 36.381903999587998 ], [ -77.249624991303875, 36.387033000092011 ], [ -77.249900991155187, 36.394554999669751 ], [ -77.246177991383249, 36.409419999903832 ], [ -77.24858099068102, 36.422088999466212 ], [ -77.25329799149732, 36.434783000111985 ], [ -77.269128991476578, 36.454231000109992 ], [ -77.266207991004819, 36.457870999464369 ], [ -77.266319990908983, 36.461280999603247 ], [ -77.265014991194278, 36.464759999489111 ], [ -77.264519991073897, 36.478286999572425 ], [ -77.265151991143412, 36.482029999550903 ], [ -77.267910990738741, 36.488526999595372 ], [ -77.264960990986822, 36.489896999556109 ], [ -77.262650990656269, 36.493724999750633 ], [ -77.261586990913358, 36.498202999884981 ], [ -77.25628799084069, 36.504150000298921 ], [ -77.254293990587612, 36.502075999626562 ], [ -77.247405991554999, 36.499512999429989 ], [ -77.242071990571475, 36.495049999446856 ], [ -77.237847990927506, 36.490253000080479 ], [ -77.229051991173236, 36.487808999621215 ], [ -77.222436990783521, 36.483963000285975 ], [ -77.216574991486951, 36.496193999700679 ], [ -77.210386991188926, 36.500497999581711 ], [ -77.209432991588258, 36.502372999648514 ], [ -77.204751990897989, 36.506746000086807 ], [ -77.200672991269229, 36.507263999826286 ], [ -77.194379990717437, 36.505134999809144 ], [ -77.193997990685745, 36.506783000018928 ], [ -77.189402991360566, 36.505991000056042 ], [ -77.184637991456327, 36.506911999968231 ], [ -77.180836991593551, 36.500151999443467 ], [ -77.169489991137851, 36.493922000050873 ], [ -77.163007991557194, 36.493506999674032 ], [ -77.159147991343559, 36.494961999866881 ], [ -77.153586991511801, 36.492453999425116 ], [ -77.151770991006671, 36.491145000118593 ], [ -77.151259991289024, 36.489607999721002 ], [ -77.149131990819214, 36.488892999581545 ], [ -77.149221990990497, 36.486656999618887 ], [ -77.147949991421868, 36.485038000040369 ], [ -77.148495990758207, 36.481709000224278 ], [ -77.149660991083806, 36.480456999815843 ], [ -77.148814990910267, 36.478882999977586 ], [ -77.143359990812954, 36.477469999508578 ], [ -77.140397991607841, 36.478310999611985 ], [ -77.140297991407422, 36.474557999974081 ], [ -77.142224991569236, 36.472017999880386 ], [ -77.141988990736408, 36.470965000108613 ], [ -77.143055991146809, 36.470301000266069 ], [ -77.142455991581855, 36.469111000204087 ], [ -77.142898991279594, 36.468104000256027 ], [ -77.146203991535685, 36.466114000267204 ], [ -77.150582991112117, 36.467213000157251 ], [ -77.152966991613638, 36.465269000212814 ], [ -77.153498991582779, 36.461561000116845 ], [ -77.156390990673628, 36.456708999608715 ], [ -77.156872991363485, 36.454396999477986 ], [ -77.158317991337142, 36.45425999973164 ], [ -77.161065990825705, 36.457464999957701 ], [ -77.165484990971962, 36.45838100011018 ], [ -77.165116990913035, 36.456114999781803 ], [ -77.167101991133038, 36.455266000175016 ], [ -77.16721899137147, 36.452389999474121 ], [ -77.170139991057994, 36.451390999952586 ], [ -77.175102990741649, 36.440847999568895 ], [ -77.186415991233218, 36.44165099986671 ], [ -77.194740991143831, 36.439395999836563 ], [ -77.192581991109705, 36.432911999866953 ], [ -77.195593990981124, 36.43140099947199 ], [ -77.197126990861506, 36.429035000242195 ], [ -77.199306991612687, 36.418737999657957 ], [ -77.198411990700706, 36.416260999571861 ], [ -77.201467990962399, 36.411876999541143 ], [ -77.200871990971592, 36.404686999460999 ], [ -77.203079991139276, 36.402460000237994 ], [ -77.204363991054649, 36.399493000162089 ], [ -77.206078990609129, 36.398202999478663 ], [ -77.208529990999949, 36.397940999652526 ], [ -77.209228991622751, 36.39667699950666 ], [ -77.201921991167083, 36.390797000215713 ], [ -77.195267991570162, 36.381467000325031 ], [ -77.189726990971479, 36.381040000284443 ], [ -77.185569990792771, 36.379629999494277 ], [ -77.180911991194449, 36.379958000269447 ], [ -77.181486990946567, 36.37635800020503 ], [ -77.183274990659243, 36.375917999804805 ], [ -77.182972991326977, 36.374008999623499 ] ] ] } },
{ "type": "Feature", "properties": { "county": "NORTHAMPTON", "precinct": "CREEKS", "enr_desc": "Creeksville", "winner": "Lemuel Ricks", "winner_votes": 58, "winner_share": 77.333333333333329, "runner_up": "Melvetta Broadnax Taylor", "runner_up_votes": 17, "runner_up_share": 22.666666666666664, "contest_votes": 75, "margin_of_victory": 54.666666666666664, "is_tie": false, "results": [ { "candidate": "Lemuel Ricks", "votes": 58, "share": 77.33333333333333 }, { "candidate": "Melvetta Broadnax Taylor", "votes": 17, "share": 22.666666666666664 } ], "participated": true, "map_key": "NORTHAMPTON_CREEKS" }, "geometry": { "type": "Polygon", "coordinates": [ [ [ -77.399751991132277, 36.411092000131383 ], [ -77.399986991377389, 36.417132000100899 ], [ -77.402816991179265, 36.427076999772879 ], [ -77.401241991184392, 36.437170999939156 ], [ -77.39626499075132, 36.438823999945093 ], [ -77.385575991316969, 36.435375000273517 ], [ -77.378554991295331, 36.435479000142927 ], [ -77.362110991074402, 36.439821000218949 ], [ -77.347313990854687, 36.439592999462583 ], [ -77.320101991139822, 36.44540899942924 ], [ -77.299591991254403, 36.444198999852155 ], [ -77.280316990986165, 36.438635000015282 ], [ -77.25329799149732, 36.434783000111985 ], [ -77.24858099068102, 36.422088999466212 ], [ -77.246177991383249, 36.409419999903832 ], [ -77.249900991155187, 36.394554999669751 ], [ -77.249624991303875, 36.387033000092011 ], [ -77.244849991494121, 36.381903999587998 ], [ -77.235100991350976, 36.374791000320855 ], [ -77.23335999154645, 36.374693999725338 ], [ -77.232020991417599, 36.372489999911089 ], [ -77.238230991255676, 36.370685999602379 ], [ -77.241813991073272, 36.371201999703104 ], [ -77.24834999122794, 36.377112999456017 ], [ -77.255381991213, 36.380734999797667 ], [ -77.257164990959041, 36.380758999892812 ], [ -77.261581991223565, 36.378242999433596 ], [ -77.265203991183029, 36.378587999450318 ], [ -77.270638991043811, 36.37923100030423 ], [ -77.277373990567412, 36.382665999502073 ], [ -77.280005990860872, 36.382162999682073 ], [ -77.283035990589227, 36.379601000175938 ], [ -77.296761991358125, 36.382807999598555 ], [ -77.301800991234344, 36.385462999707507 ], [ -77.305168990579332, 36.390314999522118 ], [ -77.308851991455441, 36.39230200006584 ], [ -77.308855991424991, 36.393915999695423 ], [ -77.310220991573061, 36.395526999784956 ], [ -77.315954990650397, 36.398829999566715 ], [ -77.317341991380786, 36.396654999774221 ], [ -77.321162991565672, 36.39795999955011 ], [ -77.329373990802864, 36.396150000248014 ], [ -77.332146991426384, 36.393654999765644 ], [ -77.336816991145611, 36.391410999940319 ], [ -77.352004991076228, 36.390852000320301 ], [ -77.360224991024126, 36.387604999672305 ], [ -77.369198990873514, 36.389110999536996 ], [ -77.380836991227937, 36.387077999496228 ], [ -77.391589990844167, 36.391591999619159 ], [ -77.394375991368435, 36.390821000327243 ], [ -77.39847599083258, 36.391914000245407 ], [ -77.401554991141069, 36.391561999703455 ], [ -77.40177799161313, 36.396776999797339 ], [ -77.399751991132277, 36.411092000131383 ] ] ] } },
{ "type": "Feature", "properties": { "county": "NORTHAMPTON", "precinct": "GALATI", "enr_desc": "Galatia", "winner": "Lemuel Ricks", "winner_votes": 65, "winner_share": 73.86363636363636, "runner_up": "Melvetta Broadnax Taylor", "runner_up_votes": 23, "runner_up_share": 26.136363636363637, "contest_votes": 88, "margin_of_victory": 47.72727272727272, "is_tie": false, "results": [ { "candidate": "Lemuel Ricks", "votes": 65, "share": 73.86363636363636 }, { "candidate": "Melvetta Broadnax Taylor", "votes": 23, "share": 26.136363636363637 } ], "participated": true, "map_key": "NORTHAMPTON_GALATI" }, "geometry": { "type": "Polygon", "coordinates": [ [ [ -77.401241991184392, 36.437170999939156 ], [ -77.39909099107409, 36.441408999989015 ], [ -77.398112991618632, 36.445649999980859 ], [ -77.397690990999536, 36.44899199989402 ], [ -77.398827991420106, 36.454831000125161 ], [ -77.39623299070584, 36.45804099958999 ], [ -77.395968991449053, 36.466637999884036 ], [ -77.399665991310286, 36.472668999650622 ], [ -77.401266990758344, 36.477631000314261 ], [ -77.397252990702682, 36.483197999616458 ], [ -77.388425991047868, 36.499825999796656 ], [ -77.386710991095143, 36.507377999830915 ], [ -77.387145991075556, 36.510668999552948 ], [ -77.389790990695303, 36.51565099988558 ], [ -77.389476991459816, 36.51753699974703 ], [ -77.379673990888648, 36.529101000203383 ], [ -77.378866990597885, 36.531212999638278 ], [ -77.372677991623661, 36.536987999973071 ], [ -77.372709990565042, 36.544767999598029 ], [ -77.226183990653126, 36.544507999718213 ], [ -77.226408991168896, 36.5329580001031 ], [ -77.228266991066718, 36.529383999750728 ], [ -77.233129991315792, 36.52328099943346 ], [ -77.239155990592323, 36.520412999475731 ], [ -77.240609991034333, 36.517969000218315 ], [ -77.238287990910933, 36.51720000029956 ], [ -77.249017990945305, 36.513047000117538 ], [ -77.252416990868909, 36.509860999981477 ], [ -77.254036990591061, 36.506035000279574 ], [ -77.25628799084069, 36.504150000298921 ], [ -77.261586990913358, 36.498202999884981 ], [ -77.262650990656269, 36.493724999750633 ], [ -77.264960990986822, 36.489896999556109 ], [ -77.267910990738741, 36.488526999595372 ], [ -77.265151991143412, 36.482029999550903 ], [ -77.264519991073897, 36.478286999572425 ], [ -77.265014991194278, 36.464759999489111 ], [ -77.266319990908983, 36.461280999603247 ], [ -77.266207991004819, 36.457870999464369 ], [ -77.269128991476578, 36.454231000109992 ], [ -77.25329799149732, 36.434783000111985 ], [ -77.280316990986165, 36.438635000015282 ], [ -77.299591991254403, 36.444198999852155 ], [ -77.320101991139822, 36.44540899942924 ], [ -77.347313990854687, 36.439592999462583 ], [ -77.362110991074402, 36.439821000218949 ], [ -77.378554991295331, 36.435479000142927 ], [ -77.385575991316969, 36.435375000273517 ], [ -77.39626499075132, 36.438823999945093 ], [ -77.401241991184392, 36.437170999939156 ] ] ] } },
{ "type": "Feature", "properties": { "county": "NORTHAMPTON", "precinct": "GAPL", "enr_desc": "Garysburg/Pleasa_Pleasant Hill", "winner": "Melvetta Broadnax Taylor", "winner_votes": 189, "winner_share": 77.459016393442624, "runner_up": "Lemuel Ricks", "runner_up_votes": 55, "runner_up_share": 22.540983606557376, "contest_votes": 244, "margin_of_victory": 54.918032786885249, "is_tie": false, "results": [ { "candidate": "Melvetta Broadnax Taylor", "votes": 189, "share": 77.45901639344262 }, { "candidate": "Lemuel Ricks", "votes": 55, "share": 22.540983606557376 } ], "participated": true, "map_key": "NORTHAMPTON_GAPL" }, "geometry": { "type": "Polygon", "coordinates": [ [ [ -77.466941991380935, 36.321785000247715 ], [ -77.47628799096158, 36.317230999932328 ], [ -77.485496990847466, 36.315961000186569 ], [ -77.492526991283384, 36.309431999709638 ], [ -77.49509599099639, 36.308380999771373 ], [ -77.506851990645316, 36.307202000128314 ], [ -77.523741991541343, 36.306775000017915 ], [ -77.542074991426972, 36.30317600009618 ], [ -77.548012991043095, 36.303446999663173 ], [ -77.556295991541248, 36.305207999651927 ], [ -77.570776990978871, 36.313536999696197 ], [ -77.573002990876603, 36.316419999481745 ], [ -77.574546990690592, 36.323289999448626 ], [ -77.577205991006153, 36.328516999713621 ], [ -77.585274990758805, 36.334966000068668 ], [ -77.585598990777115, 36.337344000094546 ], [ -77.580425991560816, 36.349133999581674 ], [ -77.576540991536675, 36.354379999875889 ], [ -77.572015991044339, 36.358027999678271 ], [ -77.561601990661742, 36.36272400005187 ], [ -77.556192991041712, 36.368207999499006 ], [ -77.550075991523784, 36.370160000168639 ], [ -77.547565991072346, 36.372482999669316 ], [ -77.544445991244686, 36.393894999637929 ], [ -77.549480990648348, 36.4120520000384 ], [ -77.552035990848353, 36.415765999484478 ], [ -77.555274990594995, 36.417963999888777 ], [ -77.572388990572705, 36.422892000310142 ], [ -77.580911991118398, 36.424125000212001 ], [ -77.585595991130631, 36.42201300019439 ], [ -77.587715991149508, 36.422409000047622 ], [ -77.590294991297398, 36.424538000136081 ], [ -77.590804990811819, 36.429649000064096 ], [ -77.592283991132092, 36.431616999731943 ], [ -77.597038991451782, 36.434226999788898 ], [ -77.609631991622052, 36.436745999746606 ], [ -77.612986991011141, 36.439118999771964 ], [ -77.613863990574373, 36.442072999962456 ], [ -77.616270990943292, 36.444105999874758 ], [ -77.621596990593574, 36.443204000278492 ], [ -77.625212990641231, 36.445188999489545 ], [ -77.616027990879417, 36.456936000075387 ], [ -77.607550991640053, 36.478296000089941 ], [ -77.601104991646338, 36.488151000153131 ], [ -77.596505991089742, 36.502972000119563 ], [ -77.586225991005648, 36.520180000220755 ], [ -77.584185991585414, 36.532852000113344 ], [ -77.576406990719164, 36.545187000009001 ], [ -77.497641990916208, 36.545087999768391 ], [ -77.49740299073801, 36.504962999527223 ], [ -77.498330990973756, 36.500151000093879 ], [ -77.4988009913626, 36.472746999707212 ], [ -77.502741990672078, 36.473313000304167 ], [ -77.510863991384511, 36.472801999692052 ], [ -77.527730991095879, 36.474623999937243 ], [ -77.526832991339759, 36.466224000199631 ], [ -77.524561990592801, 36.461414999814636 ], [ -77.487080990879264, 36.471564999714658 ], [ -77.48585499163417, 36.466421999480765 ], [ -77.481307991501183, 36.460200999479504 ], [ -77.474391991313482, 36.454757000091739 ], [ -77.467762991572627, 36.452378999653334 ], [ -77.465040991654206, 36.449564999639257 ], [ -77.465775990698418, 36.445583000075025 ], [ -77.464816991278624, 36.441822999707441 ], [ -77.466454990844795, 36.438113999761775 ], [ -77.463560991333367, 36.431736999933598 ], [ -77.463078991202295, 36.428761999721821 ], [ -77.464691991038208, 36.427319999484567 ], [ -77.464747990645634, 36.425305999775141 ], [ -77.46301299074409, 36.421672000150856 ], [ -77.463421991058013, 36.41933600022471 ], [ -77.466648991652121, 36.415646999622496 ], [ -77.465609991531664, 36.41243099990254 ], [ -77.466027990808954, 36.41147800031721 ], [ -77.463043991623309, 36.410158000128362 ], [ -77.46005899105846, 36.410534999580669 ], [ -77.456400991065749, 36.408464000308776 ], [ -77.455905990958072, 36.407266999644762 ], [ -77.452981991070928, 36.405016999837407 ], [ -77.451370991582991, 36.402368999587893 ], [ -77.452556991451516, 36.398012000246567 ], [ -77.449810991010679, 36.395013999588819 ], [ -77.450716991083368, 36.392826999692204 ], [ -77.450128990600959, 36.390294999810337 ], [ -77.446561990985472, 36.388486999829382 ], [ -77.44491999165696, 36.386473000081004 ], [ -77.448202990595846, 36.385603000258548 ], [ -77.449730990847925, 36.38351999970115 ], [ -77.452221990741691, 36.382902000261481 ], [ -77.454342991104625, 36.37905699969923 ], [ -77.452168991164825, 36.377458000220471 ], [ -77.454635990842704, 36.375028999850002 ], [ -77.455592991585618, 36.372582999941052 ], [ -77.459835991269159, 36.369287000170765 ], [ -77.463061991486896, 36.368325000116521 ], [ -77.465550990999517, 36.366103999471107 ], [ -77.468803990613864, 36.365430999781857 ], [ -77.466941991380935, 36.321785000247715 ] ] ] } },
{ "type": "Feature", "properties": { "county": "NORTHAMPTON", "precinct": "GASTON", "enr_desc": "Gaston", "winner": "Melvetta Broadnax Taylor", "winner_votes": 139, "winner_share": 68.472906403940897, "runner_up": "Lemuel Ricks", "runner_up_votes": 64, "runner_up_share": 31.527093596059114, "contest_votes": 203, "margin_of_victory": 36.945812807881779, "is_tie": false, "results": [ { "candidate": "Melvetta Broadnax Taylor", "votes": 139, "share": 68.4729064039409 }, { "candidate": "Lemuel Ricks", "votes": 64, "share": 31.527093596059114 } ], "participated": true, "map_key": "NORTHAMPTON_GASTON" }, "geometry": { "type": "Polygon", "coordinates": [ [ [ -77.777634991136324, 36.483604999462301 ], [ -77.778769990975192, 36.500149000048189 ], [ -77.776097991259093, 36.502842999508211 ], [ -77.773873990750985, 36.510768999741892 ], [ -77.769431991161113, 36.513436000319736 ], [ -77.759850991054648, 36.5232389997932 ], [ -77.754393990543036, 36.524880999695043 ], [ -77.752267990795133, 36.526317999546322 ], [ -77.749208990922895, 36.531189999503049 ], [ -77.747461990841018, 36.537692999652258 ], [ -77.743082991399703, 36.542540000178029 ], [ -77.739984991417984, 36.543760999599748 ], [ -77.738797990762379, 36.545431000296091 ], [ -77.576406990719164, 36.545187000009001 ], [ -77.584185991585414, 36.532852000113344 ], [ -77.586225991005648, 36.520180000220755 ], [ -77.596505991089742, 36.502972000119563 ], [ -77.601104991646338, 36.488151000153131 ], [ -77.607550991640053, 36.478296000089941 ], [ -77.616027990879417, 36.456936000075387 ], [ -77.625212990641231, 36.445188999489545 ], [ -77.630742990687978, 36.450599999735111 ], [ -77.631421990875737, 36.454596000242518 ], [ -77.632951991657052, 36.456544999581951 ], [ -77.635958990932807, 36.466833999493204 ], [ -77.638099991130829, 36.470242000168753 ], [ -77.639564991017778, 36.475010000034594 ], [ -77.64450899070242, 36.480484000111169 ], [ -77.645960990744101, 36.480895000347459 ], [ -77.649834990580743, 36.481442999923829 ], [ -77.661273990932528, 36.47920700020962 ], [ -77.668198991277094, 36.480026999676681 ], [ -77.67293599055067, 36.478976000250235 ], [ -77.681139991657261, 36.479176999644721 ], [ -77.694475991627428, 36.481799999958476 ], [ -77.710043991024136, 36.487150000014068 ], [ -77.720776991544483, 36.486565999834099 ], [ -77.725466990588302, 36.48753600026928 ], [ -77.730716990556076, 36.486476000027181 ], [ -77.743237991652279, 36.479612999521017 ], [ -77.748541991655614, 36.478759999911517 ], [ -77.755071990694887, 36.479197000272194 ], [ -77.763148990616656, 36.482109999497446 ], [ -77.765930990570084, 36.482193999785849 ], [ -77.767913990661384, 36.480045000261796 ], [ -77.774025991314062, 36.481695999658136 ], [ -77.777634991136324, 36.483604999462301 ] ] ] } },
{ "type": "Feature", "properties": { "county": "NORTHAMPTON", "precinct": "JARE", "enr_desc": "Jackson/Rehoboth", "winner": "Lemuel Ricks", "winner_votes": 58, "winner_share": 59.793814432989691, "runner_up": "Melvetta Broadnax Taylor", "runner_up_votes": 39, "runner_up_share": 40.206185567010309, "contest_votes": 97, "margin_of_victory": 19.587628865979383, "is_tie": false, "results": [ { "candidate": "Lemuel Ricks", "votes": 58, "share": 59.79381443298969 }, { "candidate": "Melvetta Broadnax Taylor", "votes": 39, "share": 40.20618556701031 } ], "participated": true, "map_key": "NORTHAMPTON_JARE" }, "geometry": { "type": "Polygon", "coordinates": [ [ [ -77.276327991626005, 36.319761000224162 ], [ -77.283936990897615, 36.315300000206271 ], [ -77.291884991028823, 36.313744999620702 ], [ -77.303423991384307, 36.30525499970728 ], [ -77.307675991242562, 36.303458999819028 ], [ -77.311109991643647, 36.302983999782221 ], [ -77.319901990968333, 36.296343000089223 ], [ -77.329349991096038, 36.294815999932318 ], [ -77.341335991205867, 36.289595999453283 ], [ -77.348261991302579, 36.289685000012426 ], [ -77.350494990721927, 36.287486999545891 ], [ -77.35578199058078, 36.289155999888749 ], [ -77.359993990690882, 36.28952099961888 ], [ -77.364208991312182, 36.293547000190159 ], [ -77.371506991422962, 36.296632999562327 ], [ -77.372893990953443, 36.298668999921439 ], [ -77.372724990914051, 36.30038600029058 ], [ -77.375532990839901, 36.299565999708207 ], [ -77.378937990660361, 36.30032699981107 ], [ -77.381409991441146, 36.299324000167978 ], [ -77.383794991643867, 36.300426999661553 ], [ -77.38839699118202, 36.300015000228264 ], [ -77.395034991676766, 36.302296999734843 ], [ -77.396418991548416, 36.304769000132133 ], [ -77.398482990725384, 36.305158999611123 ], [ -77.398821991032477, 36.306485999785011 ], [ -77.399632991272853, 36.306483999461236 ], [ -77.40162399071032, 36.303077000090092 ], [ -77.403376991260501, 36.302001999618682 ], [ -77.403038990812036, 36.300147999536087 ], [ -77.40419899121153, 36.298133999813579 ], [ -77.406686991254347, 36.297562000066947 ], [ -77.407478990667812, 36.295639999724031 ], [ -77.405104990972973, 36.290443999489746 ], [ -77.402080991193884, 36.289412999831896 ], [ -77.401910991542209, 36.288727000146999 ], [ -77.403946990981993, 36.287354000070948 ], [ -77.403975991403058, 36.285271000170887 ], [ -77.406803990645798, 36.281610000005386 ], [ -77.408499991305248, 36.282296999739906 ], [ -77.411299991660542, 36.281427999977417 ], [ -77.411752990829939, 36.279780000205399 ], [ -77.413101991166755, 36.279872999891744 ], [ -77.412611991125516, 36.285931000314598 ], [ -77.414033990939714, 36.292866000097881 ], [ -77.421647991431172, 36.299609999471876 ], [ -77.427869990916705, 36.307999000118087 ], [ -77.434651991609172, 36.314381000036434 ], [ -77.43802599155245, 36.321640999941152 ], [ -77.440290991318832, 36.323613999691631 ], [ -77.445885990572094, 36.324888000233678 ], [ -77.456898991119388, 36.322581000082479 ], [ -77.466941991380935, 36.321785000247715 ], [ -77.468803990613864, 36.365430999781857 ], [ -77.465550990999517, 36.366103999471107 ], [ -77.463061991486896, 36.368325000116521 ], [ -77.459835991269159, 36.369287000170765 ], [ -77.455592991585618, 36.372582999941052 ], [ -77.454635990842704, 36.375028999850002 ], [ -77.452168991164825, 36.377458000220471 ], [ -77.454342991104625, 36.37905699969923 ], [ -77.452221990741691, 36.382902000261481 ], [ -77.449730990847925, 36.38351999970115 ], [ -77.448202990595846, 36.385603000258548 ], [ -77.44491999165696, 36.386473000081004 ], [ -77.446561990985472, 36.388486999829382 ], [ -77.450128990600959, 36.390294999810337 ], [ -77.450716991083368, 36.392826999692204 ], [ -77.449810991010679, 36.395013999588819 ], [ -77.452556991451516, 36.398012000246567 ], [ -77.451370991582991, 36.402368999587893 ], [ -77.452981991070928, 36.405016999837407 ], [ -77.455905990958072, 36.407266999644762 ], [ -77.446659990690947, 36.409827000183064 ], [ -77.446257990682142, 36.411426999488867 ], [ -77.442761991126929, 36.414675999833328 ], [ -77.43962799086961, 36.419959999467636 ], [ -77.436041991525173, 36.421724999564141 ], [ -77.435218990611233, 36.42349299981889 ], [ -77.41094599147273, 36.413543999606738 ], [ -77.399751991132277, 36.411092000131383 ], [ -77.40177799161313, 36.396776999797339 ], [ -77.401554991141069, 36.391561999703455 ], [ -77.39847599083258, 36.391914000245407 ], [ -77.394375991368435, 36.390821000327243 ], [ -77.391589990844167, 36.391591999619159 ], [ -77.380836991227937, 36.387077999496228 ], [ -77.369198990873514, 36.389110999536996 ], [ -77.360224991024126, 36.387604999672305 ], [ -77.352004991076228, 36.390852000320301 ], [ -77.349919991584756, 36.388972000167485 ], [ -77.329784991545353, 36.380456000167264 ], [ -77.332177990686077, 36.378384999630285 ], [ -77.319224991209239, 36.374180999898691 ], [ -77.319986990626489, 36.370414999818664 ], [ -77.319129991422216, 36.366978999701757 ], [ -77.32230799082285, 36.360265999890629 ], [ -77.330863991492066, 36.352239999505102 ], [ -77.333342990728582, 36.34854000025851 ], [ -77.333055990788822, 36.346811999870873 ], [ -77.331038991547402, 36.345529000157583 ], [ -77.326411990681649, 36.345057000194764 ], [ -77.323426991552381, 36.341929000230756 ], [ -77.315107991141176, 36.337641000102884 ], [ -77.31244799063073, 36.334642999760113 ], [ -77.313223991141058, 36.327932000221232 ], [ -77.311832990920593, 36.325856000215715 ], [ -77.300725991166345, 36.325626999640967 ], [ -77.293296990781926, 36.330429999656943 ], [ -77.290895991519918, 36.33042900009545 ], [ -77.285836991296108, 36.32867800016642 ], [ -77.284354990739303, 36.325736999611962 ], [ -77.281533991506222, 36.324556999832794 ], [ -77.280120990849142, 36.322504000155064 ], [ -77.276327991626005, 36.319761000224162 ] ] ] } },
{ "type": "Feature", "properties": { "county": "NORTHAMPTON", "precinct": "LASKER", "enr_desc": "Lasker", "winner": "Lemuel Ricks", "winner_votes": 40, "winner_share": 90.909090909090907, "runner_up": "Melvetta Broadnax Taylor", "runner_up_votes": 4, "runner_up_share": 9.0909090909090917, "contest_votes": 44, "margin_of_victory": 81.818181818181813, "is_tie": false, "results": [ { "candidate": "Lemuel Ricks", "votes": 40, "share": 90.9090909090909 }, { "candidate": "Melvetta Broadnax Taylor", "votes": 4, "share": 9.090909090909092 } ], "participated": true, "map_key": "NORTHAMPTON_LASKER" }, "geometry": { "type": "Polygon", "coordinates": [ [ [ -77.254969990849588, 36.32694100005709 ], [ -77.258393990912694, 36.325615000263106 ], [ -77.265775991525928, 36.325480000267078 ], [ -77.270159991349203, 36.324542999814014 ], [ -77.27344299141788, 36.320859000100427 ], [ -77.276327991626005, 36.319761000224162 ], [ -77.280120990849142, 36.322504000155064 ], [ -77.281533991506222, 36.324556999832794 ], [ -77.284354990739303, 36.325736999611962 ], [ -77.285836991296108, 36.32867800016642 ], [ -77.290895991519918, 36.33042900009545 ], [ -77.293296990781926, 36.330429999656943 ], [ -77.300725991166345, 36.325626999640967 ], [ -77.311832990920593, 36.325856000215715 ], [ -77.313223991141058, 36.327932000221232 ], [ -77.31244799063073, 36.334642999760113 ], [ -77.315107991141176, 36.337641000102884 ], [ -77.323426991552381, 36.341929000230756 ], [ -77.326411990681649, 36.345057000194764 ], [ -77.331038991547402, 36.345529000157583 ], [ -77.333055990788822, 36.346811999870873 ], [ -77.333342990728582, 36.34854000025851 ], [ -77.330863991492066, 36.352239999505102 ], [ -77.32230799082285, 36.360265999890629 ], [ -77.319129991422216, 36.366978999701757 ], [ -77.319986990626489, 36.370414999818664 ], [ -77.319224991209239, 36.374180999898691 ], [ -77.332177990686077, 36.378384999630285 ], [ -77.329784991545353, 36.380456000167264 ], [ -77.349919991584756, 36.388972000167485 ], [ -77.352004991076228, 36.390852000320301 ], [ -77.336816991145611, 36.391410999940319 ], [ -77.332146991426384, 36.393654999765644 ], [ -77.329373990802864, 36.396150000248014 ], [ -77.321162991565672, 36.39795999955011 ], [ -77.317341991380786, 36.396654999774221 ], [ -77.315954990650397, 36.398829999566715 ], [ -77.310220991573061, 36.395526999784956 ], [ -77.308855991424991, 36.393915999695423 ], [ -77.308851991455441, 36.39230200006584 ], [ -77.305168990579332, 36.390314999522118 ], [ -77.301800991234344, 36.385462999707507 ], [ -77.296761991358125, 36.382807999598555 ], [ -77.283035990589227, 36.379601000175938 ], [ -77.280005990860872, 36.382162999682073 ], [ -77.277373990567412, 36.382665999502073 ], [ -77.270638991043811, 36.37923100030423 ], [ -77.265203991183029, 36.378587999450318 ], [ -77.268023990777138, 36.37678099982341 ], [ -77.272196991376433, 36.375947999707911 ], [ -77.274793991341269, 36.374441999891104 ], [ -77.275678991425949, 36.37041700011693 ], [ -77.278362991518108, 36.366395000125429 ], [ -77.279636991513897, 36.36176000000814 ], [ -77.279066991225662, 36.358168999690015 ], [ -77.279630990650531, 36.353994000075325 ], [ -77.276431991365428, 36.35365899982699 ], [ -77.276889991593066, 36.350984000206275 ], [ -77.279084991650549, 36.348920999708149 ], [ -77.276645991454146, 36.348301999648889 ], [ -77.273596990566062, 36.345314999857216 ], [ -77.269018991547256, 36.345211000276549 ], [ -77.264688990943014, 36.341811999649025 ], [ -77.26107799160178, 36.340842999939909 ], [ -77.25947799117813, 36.338602999466353 ], [ -77.256520991257347, 36.336591999483161 ], [ -77.256133991398855, 36.334854000242373 ], [ -77.25215799157904, 36.335016999936649 ], [ -77.250297991388209, 36.334331999719438 ], [ -77.248996991175233, 36.3326119997121 ], [ -77.249275990889728, 36.331420999917505 ], [ -77.254969990849588, 36.32694100005709 ] ] ] } },
{ "type": "Feature", "properties": { "county": "NORTHAMPTON", "precinct": "NEWTOW", "enr_desc": "Newtown", "winner": "Lemuel Ricks", "winner_votes": 55, "winner_share": 70.512820512820511, "runner_up": "Melvetta Broadnax Taylor", "runner_up_votes": 23, "runner_up_share": 29.487179487179489, "contest_votes": 78, "margin_of_victory": 41.025641025641022, "is_tie": false, "results": [ { "candidate": "Lemuel Ricks", "votes": 55, "share": 70.51282051282051 }, { "candidate": "Melvetta Broadnax Taylor", "votes": 23, "share": 29.48717948717949 } ], "participated": true, "map_key": "NORTHAMPTON_NEWTOW" }, "geometry": { "type": "Polygon", "coordinates": [ [ [ -77.159533991056477, 36.365771999536911 ], [ -77.161064990873754, 36.365949999617413 ], [ -77.167686991331408, 36.373428999757685 ], [ -77.174101991010943, 36.376503000277395 ], [ -77.176825990922325, 36.376807999969465 ], [ -77.182972991326977, 36.374008999623499 ], [ -77.183274990659243, 36.375917999804805 ], [ -77.181486990946567, 36.37635800020503 ], [ -77.180911991194449, 36.379958000269447 ], [ -77.185569990792771, 36.379629999494277 ], [ -77.189726990971479, 36.381040000284443 ], [ -77.195267991570162, 36.381467000325031 ], [ -77.201921991167083, 36.390797000215713 ], [ -77.209228991622751, 36.39667699950666 ], [ -77.208529990999949, 36.397940999652526 ], [ -77.206078990609129, 36.398202999478663 ], [ -77.204363991054649, 36.399493000162089 ], [ -77.203079991139276, 36.402460000237994 ], [ -77.200871990971592, 36.404686999460999 ], [ -77.201467990962399, 36.411876999541143 ], [ -77.198411990700706, 36.416260999571861 ], [ -77.199306991612687, 36.418737999657957 ], [ -77.197126990861506, 36.429035000242195 ], [ -77.195593990981124, 36.43140099947199 ], [ -77.192581991109705, 36.432911999866953 ], [ -77.194740991143831, 36.439395999836563 ], [ -77.186415991233218, 36.44165099986671 ], [ -77.175102990741649, 36.440847999568895 ], [ -77.170139991057994, 36.451390999952586 ], [ -77.16721899137147, 36.452389999474121 ], [ -77.167101991133038, 36.455266000175016 ], [ -77.165116990913035, 36.456114999781803 ], [ -77.165484990971962, 36.45838100011018 ], [ -77.161065990825705, 36.457464999957701 ], [ -77.158317991337142, 36.45425999973164 ], [ -77.156872991363485, 36.454396999477986 ], [ -77.156390990673628, 36.456708999608715 ], [ -77.153498991582779, 36.461561000116845 ], [ -77.152966991613638, 36.465269000212814 ], [ -77.150582991112117, 36.467213000157251 ], [ -77.146203991535685, 36.466114000267204 ], [ -77.142898991279594, 36.468104000256027 ], [ -77.142455991581855, 36.469111000204087 ], [ -77.143055991146809, 36.470301000266069 ], [ -77.141988990736408, 36.470965000108613 ], [ -77.142224991569236, 36.472017999880386 ], [ -77.140297991407422, 36.474557999974081 ], [ -77.140397991607841, 36.478310999611985 ], [ -77.137675990549695, 36.480966000027863 ], [ -77.132034991310277, 36.482404999464556 ], [ -77.127756991269365, 36.480480999986462 ], [ -77.125519990654183, 36.476954999663874 ], [ -77.120824990846756, 36.475191000228122 ], [ -77.119524991081306, 36.473981999471825 ], [ -77.12345999069359, 36.470506999915003 ], [ -77.126528991628348, 36.463961000099111 ], [ -77.128329991217996, 36.463616000228342 ], [ -77.132543991131058, 36.460586000280742 ], [ -77.132835991051024, 36.4584369998502 ], [ -77.137105991033621, 36.455752999941602 ], [ -77.136524990791386, 36.447402000063981 ], [ -77.131590991433995, 36.441511000025059 ], [ -77.131338991580961, 36.437805999712957 ], [ -77.159533991056477, 36.365771999536911 ] ] ] } },
{ "type": "Feature", "properties": { "county": "NORTHAMPTON", "precinct": "RICH S", "enr_desc": "Rich Square", "winner": "Melvetta Broadnax Taylor", "winner_votes": 63, "winner_share": 56.756756756756758, "runner_up": "Lemuel Ricks", "runner_up_votes": 48, "runner_up_share": 43.243243243243242, "contest_votes": 111, "margin_of_victory": 13.513513513513516, "is_tie": false, "results": [ { "candidate": "Melvetta Broadnax Taylor", "votes": 63, "share": 56.75675675675676 }, { "candidate": "Lemuel Ricks", "votes": 48, "share": 43.24324324324324 } ], "participated": true, "map_key": "NORTHAMPTON_RICH S" }, "geometry": { "type": "Polygon", "coordinates": [ [ [ -77.191408991669007, 36.28607299997288 ], [ -77.208288990737842, 36.246773999420796 ], [ -77.228798991399088, 36.21738699970232 ], [ -77.228564991619564, 36.214410999527992 ], [ -77.2356809912703, 36.213973999912788 ], [ -77.244132990699185, 36.215138000289471 ], [ -77.248970990624258, 36.218374999555451 ], [ -77.254357991249677, 36.218591999799422 ], [ -77.257937991250131, 36.217505000140662 ], [ -77.264063991513552, 36.217183000282361 ], [ -77.270027990734448, 36.213241000081432 ], [ -77.2756519907891, 36.214463000258668 ], [ -77.278445991540991, 36.213088000197047 ], [ -77.283941991016832, 36.212859999640187 ], [ -77.287826991397225, 36.211383000067933 ], [ -77.290651990600509, 36.212919000308382 ], [ -77.292452991491942, 36.210651000046852 ], [ -77.297905990576567, 36.208105000023409 ], [ -77.298502990622609, 36.206476999871704 ], [ -77.297367991499058, 36.202333999935092 ], [ -77.29326699096471, 36.197083999855323 ], [ -77.295867991643775, 36.193123000107327 ], [ -77.294895990684324, 36.190610000241527 ], [ -77.295106990847884, 36.188422000265753 ], [ -77.298895991317934, 36.186052000183317 ], [ -77.29971699086552, 36.181408999474023 ], [ -77.298125991422424, 36.180246000176481 ], [ -77.295553990620533, 36.174345000046145 ], [ -77.297860991440572, 36.17343899997654 ], [ -77.298313990739601, 36.172323999729002 ], [ -77.295658991370217, 36.172199999999258 ], [ -77.294797990877385, 36.170679999694109 ], [ -77.293226991433812, 36.170581000306136 ], [ -77.293742991336757, 36.169311999613335 ], [ -77.291518991480473, 36.168341999542136 ], [ -77.295255991239046, 36.165747999770524 ], [ -77.299598991291091, 36.164905999534213 ], [ -77.308701991428151, 36.167959000279978 ], [ -77.313060991047436, 36.172209000145806 ], [ -77.31308999153444, 36.175357000020121 ], [ -77.30904799062769, 36.180718999617774 ], [ -77.319385991407842, 36.181790000319253 ], [ -77.325728991364073, 36.186959000059581 ], [ -77.329235991018763, 36.192407999619242 ], [ -77.333002991229534, 36.192592000133743 ], [ -77.340131991272685, 36.189996999866473 ], [ -77.350970990699977, 36.191531999622001 ], [ -77.357869991213505, 36.1974589998336 ], [ -77.370671991266406, 36.202500999651512 ], [ -77.382492991601026, 36.208491999653951 ], [ -77.383610991110956, 36.208205999475432 ], [ -77.383277990887137, 36.208782999679876 ], [ -77.385974991510068, 36.211173999866112 ], [ -77.386594990875878, 36.213547999756607 ], [ -77.382192990980201, 36.227092999995065 ], [ -77.376623990901862, 36.23710399955332 ], [ -77.376191991008795, 36.241378000328552 ], [ -77.376933991453598, 36.245046999738904 ], [ -77.379049990771733, 36.248061999808073 ], [ -77.381365990752414, 36.249756999644546 ], [ -77.409426990762782, 36.263548999752921 ], [ -77.411061991204818, 36.266675000319459 ], [ -77.413313991263692, 36.275434999518914 ], [ -77.413101991166755, 36.279872999891744 ], [ -77.411752990829939, 36.279780000205399 ], [ -77.411299991660542, 36.281427999977417 ], [ -77.408499991305248, 36.282296999739906 ], [ -77.406803990645798, 36.281610000005386 ], [ -77.403975991403058, 36.285271000170887 ], [ -77.403946990981993, 36.287354000070948 ], [ -77.401910991542209, 36.288727000146999 ], [ -77.402080991193884, 36.289412999831896 ], [ -77.405104990972973, 36.290443999489746 ], [ -77.407478990667812, 36.295639999724031 ], [ -77.406686991254347, 36.297562000066947 ], [ -77.40419899121153, 36.298133999813579 ], [ -77.403038990812036, 36.300147999536087 ], [ -77.403376991260501, 36.302001999618682 ], [ -77.40162399071032, 36.303077000090092 ], [ -77.399632991272853, 36.306483999461236 ], [ -77.398821991032477, 36.306485999785011 ], [ -77.398482990725384, 36.305158999611123 ], [ -77.396418991548416, 36.304769000132133 ], [ -77.395034991676766, 36.302296999734843 ], [ -77.38839699118202, 36.300015000228264 ], [ -77.383794991643867, 36.300426999661553 ], [ -77.381409991441146, 36.299324000167978 ], [ -77.378937990660361, 36.30032699981107 ], [ -77.375532990839901, 36.299565999708207 ], [ -77.372724990914051, 36.30038600029058 ], [ -77.372893990953443, 36.298668999921439 ], [ -77.371506991422962, 36.296632999562327 ], [ -77.364208991312182, 36.293547000190159 ], [ -77.359993990690882, 36.28952099961888 ], [ -77.35578199058078, 36.289155999888749 ], [ -77.350494990721927, 36.287486999545891 ], [ -77.348261991302579, 36.289685000012426 ], [ -77.341335991205867, 36.289595999453283 ], [ -77.329349991096038, 36.294815999932318 ], [ -77.319901990968333, 36.296343000089223 ], [ -77.311109991643647, 36.302983999782221 ], [ -77.307675991242562, 36.303458999819028 ], [ -77.303423991384307, 36.30525499970728 ], [ -77.291884991028823, 36.313744999620702 ], [ -77.283936990897615, 36.315300000206271 ], [ -77.276327991626005, 36.319761000224162 ], [ -77.27344299141788, 36.320859000100427 ], [ -77.270159991349203, 36.324542999814014 ], [ -77.265775991525928, 36.325480000267078 ], [ -77.258393990912694, 36.325615000263106 ], [ -77.254969990849588, 36.32694100005709 ], [ -77.256412991534248, 36.323247999466297 ], [ -77.260288991255294, 36.32008099974054 ], [ -77.261421990928824, 36.312053999982083 ], [ -77.259836991666347, 36.30704899951629 ], [ -77.262940991048737, 36.299863999976949 ], [ -77.261536990835069, 36.297391000195617 ], [ -77.262449991100496, 36.291595999639064 ], [ -77.258194991138311, 36.285759999697063 ], [ -77.255609991098567, 36.286749000153669 ], [ -77.255331991037934, 36.290671999559258 ], [ -77.235405991436039, 36.295880999518772 ], [ -77.234066991629945, 36.292781000010393 ], [ -77.234804991403962, 36.288812000243212 ], [ -77.229328991609208, 36.282311000195136 ], [ -77.226356991574889, 36.279924000260166 ], [ -77.226365990860046, 36.27656599989826 ], [ -77.228197991249743, 36.271425999596239 ], [ -77.223312991589552, 36.272029999633112 ], [ -77.219870991618365, 36.274077999731716 ], [ -77.205079991349265, 36.277787000154525 ], [ -77.191408991669007, 36.28607299997288 ] ] ] } },
{ "type": "Feature", "properties": { "county": "NORTHAMPTON", "precinct": "SEABOA", "enr_desc": "Seaboard", "winner": "Melvetta Broadnax Taylor", "winner_votes": 76, "winner_share": 64.406779661016941, "runner_up": "Lemuel Ricks", "runner_up_votes": 42, "runner_up_share": 35.593220338983052, "contest_votes": 118, "margin_of_victory": 28.813559322033889, "is_tie": false, "results": [ { "candidate": "Melvetta Broadnax Taylor", "votes": 76, "share": 64.40677966101694 }, { "candidate": "Lemuel Ricks", "votes": 42, "share": 35.59322033898305 } ], "participated": true, "map_key": "NORTHAMPTON_SEABOA" }, "geometry": { "type": "Polygon", "coordinates": [ [ [ -77.497641990916208, 36.545087999768391 ], [ -77.372709990565042, 36.544767999598029 ], [ -77.372677991623661, 36.536987999973071 ], [ -77.378866990597885, 36.531212999638278 ], [ -77.379673990888648, 36.529101000203383 ], [ -77.389476991459816, 36.51753699974703 ], [ -77.389790990695303, 36.51565099988558 ], [ -77.387145991075556, 36.510668999552948 ], [ -77.386710991095143, 36.507377999830915 ], [ -77.388425991047868, 36.499825999796656 ], [ -77.397252990702682, 36.483197999616458 ], [ -77.401266990758344, 36.477631000314261 ], [ -77.399665991310286, 36.472668999650622 ], [ -77.395968991449053, 36.466637999884036 ], [ -77.39623299070584, 36.45804099958999 ], [ -77.398827991420106, 36.454831000125161 ], [ -77.397690990999536, 36.44899199989402 ], [ -77.398112991618632, 36.445649999980859 ], [ -77.39909099107409, 36.441408999989015 ], [ -77.401241991184392, 36.437170999939156 ], [ -77.402816991179265, 36.427076999772879 ], [ -77.399986991377389, 36.417132000100899 ], [ -77.399751991132277, 36.411092000131383 ], [ -77.41094599147273, 36.413543999606738 ], [ -77.435218990611233, 36.42349299981889 ], [ -77.436041991525173, 36.421724999564141 ], [ -77.43962799086961, 36.419959999467636 ], [ -77.442761991126929, 36.414675999833328 ], [ -77.446257990682142, 36.411426999488867 ], [ -77.446659990690947, 36.409827000183064 ], [ -77.455905990958072, 36.407266999644762 ], [ -77.456400991065749, 36.408464000308776 ], [ -77.46005899105846, 36.410534999580669 ], [ -77.463043991623309, 36.410158000128362 ], [ -77.466027990808954, 36.41147800031721 ], [ -77.465609991531664, 36.41243099990254 ], [ -77.466648991652121, 36.415646999622496 ], [ -77.463421991058013, 36.41933600022471 ], [ -77.46301299074409, 36.421672000150856 ], [ -77.464747990645634, 36.425305999775141 ], [ -77.464691991038208, 36.427319999484567 ], [ -77.463078991202295, 36.428761999721821 ], [ -77.463560991333367, 36.431736999933598 ], [ -77.466454990844795, 36.438113999761775 ], [ -77.464816991278624, 36.441822999707441 ], [ -77.465775990698418, 36.445583000075025 ], [ -77.465040991654206, 36.449564999639257 ], [ -77.467762991572627, 36.452378999653334 ], [ -77.474391991313482, 36.454757000091739 ], [ -77.481307991501183, 36.460200999479504 ], [ -77.48585499163417, 36.466421999480765 ], [ -77.487080990879264, 36.471564999714658 ], [ -77.524561990592801, 36.461414999814636 ], [ -77.526832991339759, 36.466224000199631 ], [ -77.527730991095879, 36.474623999937243 ], [ -77.510863991384511, 36.472801999692052 ], [ -77.502741990672078, 36.473313000304167 ], [ -77.4988009913626, 36.472746999707212 ], [ -77.498330990973756, 36.500151000093879 ], [ -77.49740299073801, 36.504962999527223 ], [ -77.497641990916208, 36.545087999768391 ] ] ] } },
{ "type": "Feature", "properties": { "county": "NORTHAMPTON", "precinct": "SEVERN", "enr_desc": "Severn", "winner": "Lemuel Ricks", "winner_votes": 49, "winner_share": 74.242424242424249, "runner_up": "Melvetta Broadnax Taylor", "runner_up_votes": 17, "runner_up_share": 25.757575757575758, "contest_votes": 66, "margin_of_victory": 48.484848484848492, "is_tie": false, "results": [ { "candidate": "Lemuel Ricks", "votes": 49, "share": 74.24242424242425 }, { "candidate": "Melvetta Broadnax Taylor", "votes": 17, "share": 25.757575757575758 } ], "participated": true, "map_key": "NORTHAMPTON_SEVERN" }, "geometry": { "type": "Polygon", "coordinates": [ [ [ -77.119524991081306, 36.473981999471825 ], [ -77.120824990846756, 36.475191000228122 ], [ -77.125519990654183, 36.476954999663874 ], [ -77.127756991269365, 36.480480999986462 ], [ -77.132034991310277, 36.482404999464556 ], [ -77.137675990549695, 36.480966000027863 ], [ -77.140397991607841, 36.478310999611985 ], [ -77.143359990812954, 36.477469999508578 ], [ -77.148814990910267, 36.478882999977586 ], [ -77.149660991083806, 36.480456999815843 ], [ -77.148495990758207, 36.481709000224278 ], [ -77.147949991421868, 36.485038000040369 ], [ -77.149221990990497, 36.486656999618887 ], [ -77.149131990819214, 36.488892999581545 ], [ -77.151259991289024, 36.489607999721002 ], [ -77.151770991006671, 36.491145000118593 ], [ -77.153586991511801, 36.492453999425116 ], [ -77.159147991343559, 36.494961999866881 ], [ -77.163007991557194, 36.493506999674032 ], [ -77.169489991137851, 36.493922000050873 ], [ -77.180836991593551, 36.500151999443467 ], [ -77.184637991456327, 36.506911999968231 ], [ -77.189402991360566, 36.505991000056042 ], [ -77.193997990685745, 36.506783000018928 ], [ -77.194379990717437, 36.505134999809144 ], [ -77.200672991269229, 36.507263999826286 ], [ -77.204751990897989, 36.506746000086807 ], [ -77.209432991588258, 36.502372999648514 ], [ -77.210386991188926, 36.500497999581711 ], [ -77.216574991486951, 36.496193999700679 ], [ -77.222436990783521, 36.483963000285975 ], [ -77.229051991173236, 36.487808999621215 ], [ -77.237847990927506, 36.490253000080479 ], [ -77.242071990571475, 36.495049999446856 ], [ -77.247405991554999, 36.499512999429989 ], [ -77.254293990587612, 36.502075999626562 ], [ -77.25628799084069, 36.504150000298921 ], [ -77.254036990591061, 36.506035000279574 ], [ -77.252416990868909, 36.509860999981477 ], [ -77.249017990945305, 36.513047000117538 ], [ -77.238287990910933, 36.51720000029956 ], [ -77.240609991034333, 36.517969000218315 ], [ -77.239155990592323, 36.520412999475731 ], [ -77.233129991315792, 36.52328099943346 ], [ -77.228266991066718, 36.529383999750728 ], [ -77.226408991168896, 36.5329580001031 ], [ -77.226183990653126, 36.544507999718213 ], [ -77.206535990607847, 36.544366999447874 ], [ -77.190061990802988, 36.546410000144789 ], [ -77.170544991241925, 36.547279999526211 ], [ -77.164376990817431, 36.546328999761236 ], [ -77.163875990661708, 36.544117999437695 ], [ -77.16044399099718, 36.542004999791601 ], [ -77.157611991044377, 36.542970999598786 ], [ -77.158186991267911, 36.541196999828784 ], [ -77.157261991278702, 36.539939999618944 ], [ -77.154887991538743, 36.541395999854871 ], [ -77.152736991510452, 36.539678999451915 ], [ -77.150970991594434, 36.540528000316208 ], [ -77.151520990793401, 36.538413999742545 ], [ -77.153103991385649, 36.538823000027307 ], [ -77.15334999090399, 36.537952000002129 ], [ -77.149373990548725, 36.536534999852158 ], [ -77.148694991161193, 36.534056999628504 ], [ -77.150732991648326, 36.533343999652246 ], [ -77.15044299086189, 36.530479999560178 ], [ -77.152552991617313, 36.529780999884608 ], [ -77.151665990962101, 36.528418999916418 ], [ -77.148506991599589, 36.526808999858737 ], [ -77.148530990617729, 36.525085999911937 ], [ -77.135362990904738, 36.523745000137893 ], [ -77.131241990854889, 36.522338000126169 ], [ -77.127032991081435, 36.518108999614867 ], [ -77.125634991598062, 36.519816999696602 ], [ -77.122847990599055, 36.520433999749905 ], [ -77.121122990642306, 36.519238999780519 ], [ -77.121805990565548, 36.522141999468467 ], [ -77.118879991371898, 36.523180000014477 ], [ -77.117310991290353, 36.521856999729117 ], [ -77.114118991314811, 36.521502000240176 ], [ -77.115138990709696, 36.519695999857483 ], [ -77.114595991555703, 36.51837599949684 ], [ -77.108757991316239, 36.516816999743178 ], [ -77.102611990660904, 36.516963999574976 ], [ -77.103862990785345, 36.520783000058806 ], [ -77.103226991353154, 36.521046999514034 ], [ -77.099054991320401, 36.51701999947565 ], [ -77.095761991027175, 36.51647299945769 ], [ -77.092795991556031, 36.518170000116257 ], [ -77.089346991127584, 36.516418999681164 ], [ -77.086966991357329, 36.513536000297805 ], [ -77.085222991441384, 36.514148999767976 ], [ -77.083291990902424, 36.513100999707504 ], [ -77.082381991350317, 36.51061200005244 ], [ -77.08327099145356, 36.507232000237195 ], [ -77.080897990896915, 36.507775999736957 ], [ -77.081615991498182, 36.506129000191173 ], [ -77.085150991580562, 36.505290000076059 ], [ -77.084033991086045, 36.500976999758372 ], [ -77.085431991324043, 36.499960999991529 ], [ -77.079974991641961, 36.496383999472854 ], [ -77.07799799065063, 36.497613000108743 ], [ -77.076880991068279, 36.496028999914699 ], [ -77.074669990585562, 36.496234999441548 ], [ -77.074180991424512, 36.497095999948456 ], [ -77.075313991052496, 36.498008000151067 ], [ -77.074001991235676, 36.499514999585017 ], [ -77.071562990879627, 36.497419999673099 ], [ -77.070060991456074, 36.498755000091407 ], [ -77.068584991026341, 36.497302000109372 ], [ -77.066380990904264, 36.49686299953138 ], [ -77.067769991331446, 36.495226000059802 ], [ -77.069927991250779, 36.494542000091428 ], [ -77.067111991569419, 36.492362999552512 ], [ -77.069381991410168, 36.489350999626737 ], [ -77.068738990849681, 36.487232000183432 ], [ -77.066214990950215, 36.487036000091138 ], [ -77.067625991321123, 36.484772999469726 ], [ -77.066418991647907, 36.483599000033323 ], [ -77.066543991323627, 36.482758999782583 ], [ -77.070764991655395, 36.48358899974609 ], [ -77.07127299059627, 36.482970000136575 ], [ -77.07057599103382, 36.479689000098361 ], [ -77.072063990639577, 36.479300999841826 ], [ -77.074863991160299, 36.481113999582803 ], [ -77.074393991308227, 36.478129999975415 ], [ -77.07595899154974, 36.478918000115264 ], [ -77.076734990938704, 36.480562000295208 ], [ -77.078347990721483, 36.478654999588798 ], [ -77.079935990729737, 36.478804000152522 ], [ -77.081303991485385, 36.476664999573416 ], [ -77.082926991090133, 36.47668299983961 ], [ -77.081281990893103, 36.474875999756691 ], [ -77.083320990839638, 36.472361999817934 ], [ -77.084226990612436, 36.472649999683632 ], [ -77.085371991470836, 36.475454999909225 ], [ -77.087352990732384, 36.47366499988582 ], [ -77.0893419916315, 36.473597999452387 ], [ -77.091672991169503, 36.471682000033638 ], [ -77.093620990592896, 36.472326000186762 ], [ -77.095789990968342, 36.473835000094347 ], [ -77.09674499077137, 36.475443000224949 ], [ -77.096213991229732, 36.476027999837228 ], [ -77.099106990798191, 36.4780509997439 ], [ -77.098507990588345, 36.47874700004418 ], [ -77.099929990946876, 36.47909499948549 ], [ -77.101445990689669, 36.477153999747905 ], [ -77.105020991200078, 36.477300000012363 ], [ -77.105636991487543, 36.476179999457187 ], [ -77.107390990728661, 36.47578300009004 ], [ -77.112182990563923, 36.477763000202508 ], [ -77.114772991557103, 36.473774999875296 ], [ -77.119524991081306, 36.473981999471825 ] ] ] } },
{ "type": "Feature", "properties": { "county": "NORTHAMPTON", "precinct": "WOPO", "enr_desc": "Woodland/Potecasi", "winner": "Lemuel Ricks", "winner_votes": 52, "winner_share": 60.465116279069761, "runner_up": "Melvetta Broadnax Taylor", "runner_up_votes": 34, "runner_up_share": 39.534883720930232, "contest_votes": 86, "margin_of_victory": 20.930232558139529, "is_tie": false, "results": [ { "candidate": "Lemuel Ricks", "votes": 52, "share": 60.46511627906976 }, { "candidate": "Melvetta Broadnax Taylor", "votes": 34, "share": 39.53488372093023 } ], "participated": true, "map_key": "NORTHAMPTON_WOPO" }, "geometry": { "type": "Polygon", "coordinates": [ [ [ -77.254969990849588, 36.32694100005709 ], [ -77.249275990889728, 36.331420999917505 ], [ -77.248996991175233, 36.3326119997121 ], [ -77.250297991388209, 36.334331999719438 ], [ -77.25215799157904, 36.335016999936649 ], [ -77.256133991398855, 36.334854000242373 ], [ -77.256520991257347, 36.336591999483161 ], [ -77.25947799117813, 36.338602999466353 ], [ -77.26107799160178, 36.340842999939909 ], [ -77.264688990943014, 36.341811999649025 ], [ -77.269018991547256, 36.345211000276549 ], [ -77.273596990566062, 36.345314999857216 ], [ -77.276645991454146, 36.348301999648889 ], [ -77.279084991650549, 36.348920999708149 ], [ -77.276889991593066, 36.350984000206275 ], [ -77.276431991365428, 36.35365899982699 ], [ -77.279630990650531, 36.353994000075325 ], [ -77.279066991225662, 36.358168999690015 ], [ -77.279636991513897, 36.36176000000814 ], [ -77.278362991518108, 36.366395000125429 ], [ -77.275678991425949, 36.37041700011693 ], [ -77.274793991341269, 36.374441999891104 ], [ -77.272196991376433, 36.375947999707911 ], [ -77.268023990777138, 36.37678099982341 ], [ -77.265203991183029, 36.378587999450318 ], [ -77.261581991223565, 36.378242999433596 ], [ -77.257164990959041, 36.380758999892812 ], [ -77.255381991213, 36.380734999797667 ], [ -77.24834999122794, 36.377112999456017 ], [ -77.241813991073272, 36.371201999703104 ], [ -77.238230991255676, 36.370685999602379 ], [ -77.232020991417599, 36.372489999911089 ], [ -77.230293991390127, 36.372147999473178 ], [ -77.228964991576063, 36.373017999558932 ], [ -77.227746991601038, 36.370889999740285 ], [ -77.226302991661399, 36.370570000266099 ], [ -77.223727991119574, 36.37178400003139 ], [ -77.21104699096729, 36.36446499994814 ], [ -77.204027990597339, 36.362475000156799 ], [ -77.202811990965913, 36.36556499945803 ], [ -77.199500991235297, 36.367328000250374 ], [ -77.193244991566246, 36.363803999524805 ], [ -77.187472991510745, 36.363643999475698 ], [ -77.184047990570548, 36.364925999720064 ], [ -77.181699991385173, 36.36852000013775 ], [ -77.182321990587553, 36.370442000189456 ], [ -77.184416991150272, 36.372251000253854 ], [ -77.182972991326977, 36.374008999623499 ], [ -77.176825990922325, 36.376807999969465 ], [ -77.174101991010943, 36.376503000277395 ], [ -77.167686991331408, 36.373428999757685 ], [ -77.161064990873754, 36.365949999617413 ], [ -77.159533991056477, 36.365771999536911 ], [ -77.191408991669007, 36.28607299997288 ], [ -77.205079991349265, 36.277787000154525 ], [ -77.219870991618365, 36.274077999731716 ], [ -77.223312991589552, 36.272029999633112 ], [ -77.228197991249743, 36.271425999596239 ], [ -77.226365990860046, 36.27656599989826 ], [ -77.226356991574889, 36.279924000260166 ], [ -77.229328991609208, 36.282311000195136 ], [ -77.234804991403962, 36.288812000243212 ], [ -77.234066991629945, 36.292781000010393 ], [ -77.235405991436039, 36.295880999518772 ], [ -77.255331991037934, 36.290671999559258 ], [ -77.255609991098567, 36.286749000153669 ], [ -77.258194991138311, 36.285759999697063 ], [ -77.262449991100496, 36.291595999639064 ], [ -77.261536990835069, 36.297391000195617 ], [ -77.262940991048737, 36.299863999976949 ], [ -77.259836991666347, 36.30704899951629 ], [ -77.261421990928824, 36.312053999982083 ], [ -77.260288991255294, 36.32008099974054 ], [ -77.256412991534248, 36.323247999466297 ], [ -77.254969990849588, 36.32694100005709 ] ] ] } }
]
}
