{
"type": "FeatureCollection",
"name": "orange_county_board_of_commissioners_district_02_dem",
"crs": { "type": "name", "properties": { "name": "urn:ogc:def:crs:OGC:1.3:CRS84" } },
"features": [
{ "type": "Feature", "properties": { "county": null, "precinct": null, "enr_desc": "Dogwood Acres", "winner": null, "winner_votes": null, "winner_share": null, "runner_up": null, "runner_up_votes": null, "runner_up_share": null, "contest_votes": null, "margin_of_victory": null, "is_tie": false, "results": null, "participated": false, "map_key": null }, "geometry": { "type": "Polygon", "coordinates": [ [ [ -79.075393991619848, 35.893562999953758 ], [ -79.064923991130954, 35.891641000000561 ], [ -79.061322990850286, 35.892461000203795 ], [ -79.059395990712673, 35.891323999741928 ], [ -79.061368991511813, 35.889553000284977 ], [ -79.060840991324397, 35.882897000140893 ], [ -79.064446990849007, 35.878411000163617 ], [ -79.066875991503579, 35.872853999937028 ], [ -79.074236991199584, 35.86727999974692 ], [ -79.077106991552114, 35.863659999652342 ], [ -79.081937991136897, 35.860780000055748 ], [ -79.08215799069724, 35.860785000373063 ], [ -79.080698991237412, 35.864811000297543 ], [ -79.080537991495703, 35.874167000335405 ], [ -79.083020990993958, 35.8811050001352 ], [ -79.082874991182763, 35.886315000166725 ], [ -79.079226990743109, 35.892225999612883 ], [ -79.078257990616336, 35.893042000339591 ], [ -79.078229991599983, 35.889957000228087 ], [ -79.077301990648849, 35.889946999597164 ], [ -79.075393991619848, 35.893562999953758 ] ] ] } },
{ "type": "Feature", "properties": { "county": "ORANGE", "precinct": "CA", "enr_desc": "Carr", "winner": "Earl McKee", "winner_votes": 73.0, "winner_share": 59.83606557377049, "runner_up": "Beth Bronson", "runner_up_votes": 49.0, "runner_up_share": 40.16393442622951, "contest_votes": 122.0, "margin_of_victory": 19.672131147540981, "is_tie": false, "results": [ { "candidate": "Earl McKee", "votes": 73, "share": 59.83606557377049 }, { "candidate": "Beth Bronson", "votes": 49, "share": 40.16393442622951 } ], "participated": true, "map_key": "ORANGE_CA" }, "geometry": { "type": "Polygon", "coordinates": [ [ [ -79.259517991046494, 36.137278999824439 ], [ -79.25749599118771, 36.239126999687841 ], [ -79.258008991677713, 36.239127999673656 ], [ -79.257951990971151, 36.243444999723174 ], [ -79.190134990945921, 36.242427999675073 ], [ -79.191625990913749, 36.23690099996999 ], [ -79.195226990916339, 36.232450000179853 ], [ -79.196889990893624, 36.22800900026553 ], [ -79.199263990640191, 36.224682999750001 ], [ -79.198412990717145, 36.222760999854437 ], [ -79.196867990626458, 36.210170999595334 ], [ -79.200078991374824, 36.206502000254787 ], [ -79.203312990816798, 36.198074000362098 ], [ -79.203743991126572, 36.19567100042709 ], [ -79.203023990791621, 36.189656000308013 ], [ -79.205525991392676, 36.183699999920506 ], [ -79.197614990759973, 36.17723200012373 ], [ -79.19102999086715, 36.173709000104822 ], [ -79.19531399107909, 36.168977000317817 ], [ -79.200285991089828, 36.152489000356013 ], [ -79.204332990849537, 36.149962999726185 ], [ -79.210880991402391, 36.147476000158029 ], [ -79.206715991095976, 36.143575999818431 ], [ -79.196145991081323, 36.137035000342841 ], [ -79.259517991046494, 36.137278999824439 ] ] ] } },
{ "type": "Feature", "properties": { "county": null, "precinct": null, "enr_desc": "Carrboro", "winner": null, "winner_votes": null, "winner_share": null, "runner_up": null, "runner_up_votes": null, "runner_up_share": null, "contest_votes": null, "margin_of_victory": null, "is_tie": false, "results": null, "participated": false, "map_key": null }, "geometry": { "type": "Polygon", "coordinates": [ [ [ -79.079579991643641, 35.913585999747397 ], [ -79.084946991711178, 35.915352000083274 ], [ -79.083441990751567, 35.906737999994363 ], [ -79.091150990842024, 35.903753999786282 ], [ -79.094074991118191, 35.9121200002132 ], [ -79.097694990896059, 35.917010999632375 ], [ -79.099626991583492, 35.916205999914489 ], [ -79.100719991240268, 35.917862999785392 ], [ -79.09940999138297, 35.919670000373394 ], [ -79.100248990776706, 35.92670800027603 ], [ -79.10275499149779, 35.927091000124364 ], [ -79.103229990830698, 35.92055299964025 ], [ -79.10714899133626, 35.921611000353622 ], [ -79.107117991414142, 35.922992000031776 ], [ -79.109392991495355, 35.92368000029839 ], [ -79.109832991312146, 35.922359000190177 ], [ -79.115042991069799, 35.923784999902097 ], [ -79.113907991244929, 35.927360000234934 ], [ -79.114890991085261, 35.931200000014968 ], [ -79.114232990849843, 35.93170300011527 ], [ -79.113821990636026, 35.930685999905499 ], [ -79.101028990992702, 35.930895000101529 ], [ -79.102149991652354, 35.934240999910202 ], [ -79.093565990633167, 35.927659999611251 ], [ -79.089683991215779, 35.923367000455336 ], [ -79.08655399120606, 35.92155699956556 ], [ -79.082473990647557, 35.920844999891457 ], [ -79.078700990611338, 35.920662999795056 ], [ -79.076557991035145, 35.918386999831057 ], [ -79.072249991138392, 35.915857000301393 ], [ -79.072226990851604, 35.913837000052823 ], [ -79.07865999161713, 35.914349000182554 ], [ -79.079579991643641, 35.913585999747397 ] ] ] } },
{ "type": "Feature", "properties": { "county": null, "precinct": null, "enr_desc": "Cedar Falls", "winner": null, "winner_votes": null, "winner_share": null, "runner_up": null, "runner_up_votes": null, "runner_up_share": null, "contest_votes": null, "margin_of_victory": null, "is_tie": false, "results": null, "participated": false, "map_key": null }, "geometry": { "type": "Polygon", "coordinates": [ [ [ -79.021903991508978, 35.939522999942859 ], [ -79.02559699063687, 35.937138000058184 ], [ -79.026019990974106, 35.941235999934172 ], [ -79.027343991255421, 35.943247000430915 ], [ -79.026835991698221, 35.944883999811253 ], [ -79.028558991274224, 35.946346000180064 ], [ -79.030976990900967, 35.9462260003911 ], [ -79.0304359911663, 35.947858000201528 ], [ -79.031314990714549, 35.948406999694761 ], [ -79.031576991661751, 35.949962000242429 ], [ -79.034298990982023, 35.951484000167333 ], [ -79.036377990651005, 35.951544999700204 ], [ -79.037990991105275, 35.953499000369085 ], [ -79.037898990721914, 35.957448000361801 ], [ -79.036262991412826, 35.958662000323741 ], [ -79.036307991122399, 35.961979999554856 ], [ -79.033502991153128, 35.961509000153228 ], [ -79.034694991372533, 35.967001000209642 ], [ -79.033726990789603, 35.969489000181738 ], [ -79.024360991470232, 35.96645099957891 ], [ -79.006031991410822, 35.956531000140508 ], [ -79.000736990886693, 35.952697000369589 ], [ -79.001237990969315, 35.949801999606834 ], [ -79.016710991261178, 35.942832999953659 ], [ -79.021903991508978, 35.939522999942859 ] ] ] } },
{ "type": "Feature", "properties": { "county": "ORANGE", "precinct": "CG", "enr_desc": "Cedar Grove", "winner": "Earl McKee", "winner_votes": 139.0, "winner_share": 60.434782608695649, "runner_up": "Beth Bronson", "runner_up_votes": 91.0, "runner_up_share": 39.565217391304344, "contest_votes": 230.0, "margin_of_victory": 20.869565217391305, "is_tie": false, "results": [ { "candidate": "Earl McKee", "votes": 139, "share": 60.43478260869565 }, { "candidate": "Beth Bronson", "votes": 91, "share": 39.565217391304344 } ], "participated": true, "map_key": "ORANGE_CG" }, "geometry": { "type": "Polygon", "coordinates": [ [ [ -79.196145991081323, 36.137035000342841 ], [ -79.206715991095976, 36.143575999818431 ], [ -79.210880991402391, 36.147476000158029 ], [ -79.204332990849537, 36.149962999726185 ], [ -79.200285991089828, 36.152489000356013 ], [ -79.19531399107909, 36.168977000317817 ], [ -79.19102999086715, 36.173709000104822 ], [ -79.197614990759973, 36.17723200012373 ], [ -79.205525991392676, 36.183699999920506 ], [ -79.203023990791621, 36.189656000308013 ], [ -79.203743991126572, 36.19567100042709 ], [ -79.203312990816798, 36.198074000362098 ], [ -79.200078991374824, 36.206502000254787 ], [ -79.196867990626458, 36.210170999595334 ], [ -79.198412990717145, 36.222760999854437 ], [ -79.199263990640191, 36.224682999750001 ], [ -79.196889990893624, 36.22800900026553 ], [ -79.195226990916339, 36.232450000179853 ], [ -79.191625990913749, 36.23690099996999 ], [ -79.190134990945921, 36.242427999675073 ], [ -79.113353990703985, 36.241334999699717 ], [ -79.116427990622469, 36.239949999662493 ], [ -79.120834990880596, 36.240087999765116 ], [ -79.130494990777564, 36.235099000024199 ], [ -79.132273990658291, 36.227406999685002 ], [ -79.134787990586929, 36.224636000252893 ], [ -79.13638499116891, 36.221151999798231 ], [ -79.135885991365868, 36.215808999781061 ], [ -79.137668991061815, 36.209206000054117 ], [ -79.137639991189928, 36.200722999671576 ], [ -79.139332990632553, 36.19911099961061 ], [ -79.142354991319849, 36.198385000047452 ], [ -79.138614991514743, 36.189753000110073 ], [ -79.135502990704737, 36.177074000339381 ], [ -79.131017991261245, 36.168668000024326 ], [ -79.129436990701265, 36.158877999775605 ], [ -79.123220990586617, 36.148801999847898 ], [ -79.120609991664523, 36.136889999980767 ], [ -79.120443990896547, 36.136375999599544 ], [ -79.130108991194206, 36.136703999863165 ], [ -79.196145991081323, 36.137035000342841 ] ] ] } },
{ "type": "Feature", "properties": { "county": null, "precinct": null, "enr_desc": "Coker Hills", "winner": null, "winner_votes": null, "winner_share": null, "runner_up": null, "runner_up_votes": null, "runner_up_share": null, "contest_votes": null, "margin_of_victory": null, "is_tie": false, "results": null, "participated": false, "map_key": null }, "geometry": { "type": "Polygon", "coordinates": [ [ [ -79.030976990900967, 35.9462260003911 ], [ -79.028558991274224, 35.946346000180064 ], [ -79.026835991698221, 35.944883999811253 ], [ -79.027343991255421, 35.943247000430915 ], [ -79.026019990974106, 35.941235999934172 ], [ -79.02559699063687, 35.937138000058184 ], [ -79.029451990723274, 35.935029000312824 ], [ -79.033628990850659, 35.930677000444703 ], [ -79.035068991206742, 35.927740999717855 ], [ -79.038294991255867, 35.926866999566109 ], [ -79.042441991330406, 35.927114999761329 ], [ -79.044893990838304, 35.930233999586569 ], [ -79.039359991338785, 35.9298089998546 ], [ -79.037578991443553, 35.930577000404263 ], [ -79.0432119912128, 35.934592000300377 ], [ -79.041880990967343, 35.935160000396067 ], [ -79.040188991329529, 35.940273999733698 ], [ -79.037417990760929, 35.941629000392567 ], [ -79.035153991627269, 35.944134000065709 ], [ -79.030976990900967, 35.9462260003911 ] ] ] } },
{ "type": "Feature", "properties": { "county": null, "precinct": null, "enr_desc": "Eastside", "winner": null, "winner_votes": null, "winner_share": null, "runner_up": null, "runner_up_votes": null, "runner_up_share": null, "contest_votes": null, "margin_of_victory": null, "is_tie": false, "results": null, "participated": false, "map_key": null }, "geometry": { "type": "Polygon", "coordinates": [ [ [ -79.00438899158263, 35.931500000154386 ], [ -79.007806991691822, 35.932755999937683 ], [ -79.018908990744222, 35.932854000441672 ], [ -79.023385990969444, 35.936216000026207 ], [ -79.021903991508978, 35.939522999942859 ], [ -79.016710991261178, 35.942832999953659 ], [ -79.001237990969315, 35.949801999606834 ], [ -79.00438899158263, 35.931500000154386 ] ] ] } },
{ "type": "Feature", "properties": { "county": null, "precinct": null, "enr_desc": "Colonial Heights", "winner": null, "winner_votes": null, "winner_share": null, "runner_up": null, "runner_up_votes": null, "runner_up_share": null, "contest_votes": null, "margin_of_victory": null, "is_tie": false, "results": null, "participated": false, "map_key": null }, "geometry": { "type": "Polygon", "coordinates": [ [ [ -79.053932991171621, 35.925704999572169 ], [ -79.054094991215166, 35.925084000395366 ], [ -79.055833991036309, 35.925491000433347 ], [ -79.058687991518639, 35.92316099988556 ], [ -79.064300991000934, 35.92050200016412 ], [ -79.068044990922459, 35.916097999896223 ], [ -79.068026991511019, 35.919527999650469 ], [ -79.072960991641025, 35.924361000319401 ], [ -79.073932990608526, 35.925682000404166 ], [ -79.073827991624398, 35.929794999979705 ], [ -79.076216991187749, 35.934702000125945 ], [ -79.076311990713791, 35.940000000447817 ], [ -79.080209991707861, 35.940001000241281 ], [ -79.081707990682503, 35.942719000058524 ], [ -79.08152099092203, 35.94721400020854 ], [ -79.083170990916642, 35.94715799957698 ], [ -79.08189999115767, 35.949628999603171 ], [ -79.077772990630649, 35.951961000423559 ], [ -79.065045990950139, 35.951510000084717 ], [ -79.058362991281214, 35.949431000089589 ], [ -79.056944991342931, 35.939286999658627 ], [ -79.053932991171621, 35.925704999572169 ] ] ] } },
{ "type": "Feature", "properties": { "county": "ORANGE", "precinct": "CS1", "enr_desc": "Coles Store", "winner": "Beth Bronson", "winner_votes": 121.0, "winner_share": 51.054852320675103, "runner_up": "Earl McKee", "runner_up_votes": 116.0, "runner_up_share": 48.945147679324897, "contest_votes": 237.0, "margin_of_victory": 2.1097046413502056, "is_tie": false, "results": [ { "candidate": "Beth Bronson", "votes": 121, "share": 51.0548523206751 }, { "candidate": "Earl McKee", "votes": 116, "share": 48.9451476793249 } ], "participated": true, "map_key": "ORANGE_CS1" }, "geometry": { "type": "Polygon", "coordinates": [ [ [ -79.141201990934064, 35.976647000258971 ], [ -79.136844991094208, 36.031708000086823 ], [ -79.071250991555189, 36.031024000333325 ], [ -79.033185991662592, 36.030424999721617 ], [ -79.034636990897226, 36.027326999998515 ], [ -79.042467991002582, 36.021829999749976 ], [ -79.044931991169037, 36.018717999777728 ], [ -79.051847991180352, 36.016555000197869 ], [ -79.055774990955939, 36.013864999942029 ], [ -79.057982991321168, 36.009421000068379 ], [ -79.063012990887799, 36.005274999880541 ], [ -79.064436990905975, 36.00048399980863 ], [ -79.067702990773356, 35.998797999988881 ], [ -79.070142991201834, 35.995808999651722 ], [ -79.075160991264084, 35.986619999915249 ], [ -79.076444991691289, 35.977265000074887 ], [ -79.0759989909713, 35.96989899977266 ], [ -79.104995990911291, 35.974413999700637 ], [ -79.112133991475019, 35.975479999662518 ], [ -79.114569991051837, 35.977826999859708 ], [ -79.135806991564451, 35.981992999912229 ], [ -79.137504991182183, 35.978934000110264 ], [ -79.141201990934064, 35.976647000258971 ] ] ] } },
{ "type": "Feature", "properties": { "county": "ORANGE", "precinct": "CW", "enr_desc": "Caldwell", "winner": "Earl McKee", "winner_votes": 226.0, "winner_share": 70.846394984326025, "runner_up": "Beth Bronson", "runner_up_votes": 93.0, "runner_up_share": 29.153605015673982, "contest_votes": 319.0, "margin_of_victory": 41.692789968652043, "is_tie": false, "results": [ { "candidate": "Earl McKee", "votes": 226, "share": 70.84639498432603 }, { "candidate": "Beth Bronson", "votes": 93, "share": 29.153605015673982 } ], "participated": true, "map_key": "ORANGE_CW" }, "geometry": { "type": "Polygon", "coordinates": [ [ [ -78.968852991128074, 36.135197000390534 ], [ -79.069064991278623, 36.134608000161528 ], [ -79.068415991268566, 36.158024000302774 ], [ -79.063323991328986, 36.153334999750193 ], [ -79.061542991334747, 36.152580999660863 ], [ -79.058309990951827, 36.159829000188388 ], [ -79.060862991169643, 36.160386999780926 ], [ -79.061905991514948, 36.158958999889158 ], [ -79.066554990809692, 36.161946000343811 ], [ -79.068323990860293, 36.16091000033105 ], [ -79.065923990851658, 36.240908999687946 ], [ -78.950596990704184, 36.239319999857365 ], [ -78.968852991128074, 36.135197000390534 ] ] ] } },
{ "type": "Feature", "properties": { "county": "ORANGE", "precinct": "CX", "enr_desc": "Cheeks", "winner": "Beth Bronson", "winner_votes": 285.0, "winner_share": 60.767590618336889, "runner_up": "Earl McKee", "runner_up_votes": 184.0, "runner_up_share": 39.232409381663111, "contest_votes": 469.0, "margin_of_victory": 21.535181236673779, "is_tie": false, "results": [ { "candidate": "Beth Bronson", "votes": 285, "share": 60.76759061833689 }, { "candidate": "Earl McKee", "votes": 184, "share": 39.23240938166311 } ], "participated": true, "map_key": "ORANGE_CX" }, "geometry": { "type": "Polygon", "coordinates": [ [ [ -79.211775991447581, 36.034171000302756 ], [ -79.261975991671974, 36.03505199967784 ], [ -79.2618069916157, 36.039873000300346 ], [ -79.260859990597652, 36.040086000242439 ], [ -79.261744991150636, 36.041467999688273 ], [ -79.261215990669555, 36.061551999716571 ], [ -79.262142991293857, 36.061681000077755 ], [ -79.26145799140582, 36.065670999780956 ], [ -79.260462990625669, 36.066483000055328 ], [ -79.260379990627428, 36.068845000421646 ], [ -79.261197990830169, 36.068844999678618 ], [ -79.261436990748194, 36.070870000151125 ], [ -79.260361991147988, 36.075593999591419 ], [ -79.26035199137803, 36.095198000207304 ], [ -79.259604990615472, 36.095359000140405 ], [ -79.259410991009858, 36.101695000426737 ], [ -79.26010799084797, 36.103219000078624 ], [ -79.258694991463599, 36.103762999733021 ], [ -79.259575991118126, 36.104647999577651 ], [ -79.260102991398895, 36.107767999576375 ], [ -79.260065990882893, 36.109635999631855 ], [ -79.25951999139869, 36.109632999909294 ], [ -79.260049990943557, 36.110460000432226 ], [ -79.259517991046494, 36.137278999824439 ], [ -79.196145991081323, 36.137035000342841 ], [ -79.188864991277072, 36.130839999716201 ], [ -79.188847990681055, 36.123364000319796 ], [ -79.193908991433958, 36.115899000335553 ], [ -79.199607990669804, 36.115686999756534 ], [ -79.201037991395111, 36.112592000364117 ], [ -79.201043990788804, 36.105708000046185 ], [ -79.195674991166825, 36.105541000280532 ], [ -79.19556699096627, 36.099640000172791 ], [ -79.192399990722791, 36.094318999616256 ], [ -79.191763990704189, 36.081703999628964 ], [ -79.182469991138873, 36.08119000034565 ], [ -79.182323990712419, 36.077783999869055 ], [ -79.179889990780211, 36.077916000447352 ], [ -79.179916991537581, 36.073849999636394 ], [ -79.16982199169955, 36.073454000452706 ], [ -79.169293991147669, 36.071499999827346 ], [ -79.171658990703506, 36.072551000091451 ], [ -79.178216990669213, 36.072599000311087 ], [ -79.193080990961477, 36.069706999859022 ], [ -79.197351990667627, 36.062207000234714 ], [ -79.202780990648364, 36.061727000002747 ], [ -79.204450991523956, 36.060658999922701 ], [ -79.205411990918591, 36.058541999963772 ], [ -79.219587991033293, 36.053513999771845 ], [ -79.22164199092893, 36.051035000374448 ], [ -79.220660991031679, 36.048492999763212 ], [ -79.211775991447581, 36.034171000302756 ] ] ] } },
{ "type": "Feature", "properties": { "county": null, "precinct": null, "enr_desc": "Damascus", "winner": null, "winner_votes": null, "winner_share": null, "runner_up": null, "runner_up_votes": null, "runner_up_share": null, "contest_votes": null, "margin_of_victory": null, "is_tie": false, "results": null, "participated": false, "map_key": null }, "geometry": { "type": "Polygon", "coordinates": [ [ [ -79.08519899168023, 35.896965999974981 ], [ -79.081067991024526, 35.898276000422001 ], [ -79.082073990939861, 35.901676999696832 ], [ -79.081331990893545, 35.902540000144093 ], [ -79.078886990622976, 35.90214999986987 ], [ -79.07744799085259, 35.900012999585392 ], [ -79.074265991384493, 35.899706999730704 ], [ -79.072878991648224, 35.897252000325047 ], [ -79.073864990614084, 35.896732999727213 ], [ -79.073958990876761, 35.893710999796582 ], [ -79.075393991619848, 35.893562999953758 ], [ -79.077301990648849, 35.889946999597164 ], [ -79.078229991599983, 35.889957000228087 ], [ -79.078257990616336, 35.893042000339591 ], [ -79.079226990743109, 35.892225999612883 ], [ -79.082874991182763, 35.886315000166725 ], [ -79.083020990993958, 35.8811050001352 ], [ -79.080537991495703, 35.874167000335405 ], [ -79.080698991237412, 35.864811000297543 ], [ -79.08215799069724, 35.860785000373063 ], [ -79.119622990827949, 35.864186000021569 ], [ -79.116810990891949, 35.865759000334279 ], [ -79.116635991444497, 35.867396999669715 ], [ -79.11780499126472, 35.870336000358115 ], [ -79.115901991149002, 35.870412999712016 ], [ -79.113991990746058, 35.871973999931271 ], [ -79.111035991469379, 35.872657000223668 ], [ -79.106444990731504, 35.876692999950151 ], [ -79.105494991665822, 35.878029000251843 ], [ -79.105811991271466, 35.878935000099375 ], [ -79.096361991187507, 35.880675000385864 ], [ -79.096664990756295, 35.879965999710713 ], [ -79.094767991126162, 35.879834999773117 ], [ -79.095147991075834, 35.883976999615498 ], [ -79.096829991249734, 35.886454999684815 ], [ -79.095061991438897, 35.888080999995779 ], [ -79.095602991270255, 35.890157999565275 ], [ -79.093125991023527, 35.893553999745322 ], [ -79.093625990664023, 35.895444000329299 ], [ -79.089265990927501, 35.898846000230996 ], [ -79.088009991520636, 35.898789999686059 ], [ -79.086814991320054, 35.89670599987064 ], [ -79.08519899168023, 35.896965999974981 ] ] ] } },
{ "type": "Feature", "properties": { "county": null, "precinct": null, "enr_desc": "East Franklin", "winner": null, "winner_votes": null, "winner_share": null, "runner_up": null, "runner_up_votes": null, "runner_up_share": null, "contest_votes": null, "margin_of_victory": null, "is_tie": false, "results": null, "participated": false, "map_key": null }, "geometry": { "type": "Polygon", "coordinates": [ [ [ -79.055793991214486, 35.913143000126809 ], [ -79.056964990646989, 35.915189999930291 ], [ -79.055914990963274, 35.920980000289568 ], [ -79.054094991215166, 35.925084000395366 ], [ -79.053932991171621, 35.925704999572169 ], [ -79.049116990792257, 35.92358900039347 ], [ -79.045637991102311, 35.924313000122318 ], [ -79.042441991330406, 35.927114999761329 ], [ -79.038294991255867, 35.926866999566109 ], [ -79.035068991206742, 35.927740999717855 ], [ -79.030357991615517, 35.927351999899493 ], [ -79.030617990645368, 35.924675000281574 ], [ -79.035811991088877, 35.923933000033195 ], [ -79.036721990926821, 35.921724000112661 ], [ -79.040319991235634, 35.918001000111218 ], [ -79.042680991139761, 35.91685700040977 ], [ -79.045871991504697, 35.916941000251889 ], [ -79.045104991674833, 35.914134000183424 ], [ -79.046590991482731, 35.913584000314138 ], [ -79.048045991535162, 35.916109999941817 ], [ -79.055793991214486, 35.913143000126809 ] ] ] } },
{ "type": "Feature", "properties": { "county": "ORANGE", "precinct": "EF", "enr_desc": "Efland", "winner": "Earl McKee", "winner_votes": 128.0, "winner_share": 54.468085106382979, "runner_up": "Beth Bronson", "runner_up_votes": 107.0, "runner_up_share": 45.531914893617021, "contest_votes": 235.0, "margin_of_victory": 8.9361702127659584, "is_tie": false, "results": [ { "candidate": "Earl McKee", "votes": 128, "share": 54.46808510638298 }, { "candidate": "Beth Bronson", "votes": 107, "share": 45.53191489361702 } ], "participated": true, "map_key": "ORANGE_EF" }, "geometry": { "type": "Polygon", "coordinates": [ [ [ -79.211775991447581, 36.034171000302756 ], [ -79.220660991031679, 36.048492999763212 ], [ -79.22164199092893, 36.051035000374448 ], [ -79.219587991033293, 36.053513999771845 ], [ -79.205411990918591, 36.058541999963772 ], [ -79.204450991523956, 36.060658999922701 ], [ -79.202780990648364, 36.061727000002747 ], [ -79.197351990667627, 36.062207000234714 ], [ -79.193080990961477, 36.069706999859022 ], [ -79.178216990669213, 36.072599000311087 ], [ -79.171658990703506, 36.072551000091451 ], [ -79.169293991147669, 36.071499999827346 ], [ -79.16982199169955, 36.073454000452706 ], [ -79.179916991537581, 36.073849999636394 ], [ -79.179889990780211, 36.077916000447352 ], [ -79.182323990712419, 36.077783999869055 ], [ -79.182469991138873, 36.08119000034565 ], [ -79.191763990704189, 36.081703999628964 ], [ -79.192399990722791, 36.094318999616256 ], [ -79.19556699096627, 36.099640000172791 ], [ -79.195674991166825, 36.105541000280532 ], [ -79.201043990788804, 36.105708000046185 ], [ -79.201037991395111, 36.112592000364117 ], [ -79.199607990669804, 36.115686999756534 ], [ -79.193908991433958, 36.115899000335553 ], [ -79.188847990681055, 36.123364000319796 ], [ -79.188864991277072, 36.130839999716201 ], [ -79.196145991081323, 36.137035000342841 ], [ -79.130108991194206, 36.136703999863165 ], [ -79.131965990714676, 36.117874000002217 ], [ -79.134067990721235, 36.073077999591433 ], [ -79.132616991023625, 36.069867999826556 ], [ -79.130842991675905, 36.071476999859449 ], [ -79.129561991462367, 36.070085000378477 ], [ -79.135926990991663, 36.060402000242185 ], [ -79.136418991320767, 36.053981000416073 ], [ -79.138270990803619, 36.051726999894846 ], [ -79.139178990736809, 36.048641999957034 ], [ -79.138330991248822, 36.044914999984542 ], [ -79.138668991681101, 36.038552000312237 ], [ -79.137358991419305, 36.032458000082826 ], [ -79.211775991447581, 36.034171000302756 ] ] ] } },
{ "type": "Feature", "properties": { "county": null, "precinct": null, "enr_desc": "Estes Hills", "winner": null, "winner_votes": null, "winner_share": null, "runner_up": null, "runner_up_votes": null, "runner_up_share": null, "contest_votes": null, "margin_of_victory": null, "is_tie": false, "results": null, "participated": false, "map_key": null }, "geometry": { "type": "Polygon", "coordinates": [ [ [ -79.030976990900967, 35.9462260003911 ], [ -79.035153991627269, 35.944134000065709 ], [ -79.037417990760929, 35.941629000392567 ], [ -79.040188991329529, 35.940273999733698 ], [ -79.041880990967343, 35.935160000396067 ], [ -79.0432119912128, 35.934592000300377 ], [ -79.037578991443553, 35.930577000404263 ], [ -79.039359991338785, 35.9298089998546 ], [ -79.044893990838304, 35.930233999586569 ], [ -79.042441991330406, 35.927114999761329 ], [ -79.045637991102311, 35.924313000122318 ], [ -79.049116990792257, 35.92358900039347 ], [ -79.053932991171621, 35.925704999572169 ], [ -79.056944991342931, 35.939286999658627 ], [ -79.051523991518167, 35.940160999872134 ], [ -79.048668991399651, 35.942373000334804 ], [ -79.047530991674165, 35.944805000108779 ], [ -79.047198991495733, 35.948483000116212 ], [ -79.045618991210333, 35.950768000199723 ], [ -79.045851991498665, 35.954171000110712 ], [ -79.044775991325636, 35.954175999630692 ], [ -79.044731991659972, 35.956141000378736 ], [ -79.043919990816292, 35.956958000134328 ], [ -79.037898990721914, 35.957448000361801 ], [ -79.037990991105275, 35.953499000369085 ], [ -79.036377990651005, 35.951544999700204 ], [ -79.034298990982023, 35.951484000167333 ], [ -79.031576991661751, 35.949962000242429 ], [ -79.031314990714549, 35.948406999694761 ], [ -79.0304359911663, 35.947858000201528 ], [ -79.030976990900967, 35.9462260003911 ] ] ] } },
{ "type": "Feature", "properties": { "county": "ORANGE", "precinct": "ENO", "enr_desc": "Eno", "winner": "Beth Bronson", "winner_votes": 143.0, "winner_share": 57.661290322580648, "runner_up": "Earl McKee", "runner_up_votes": 105.0, "runner_up_share": 42.338709677419359, "contest_votes": 248.0, "margin_of_victory": 15.322580645161288, "is_tie": false, "results": [ { "candidate": "Beth Bronson", "votes": 143, "share": 57.66129032258065 }, { "candidate": "Earl McKee", "votes": 105, "share": 42.33870967741936 } ], "participated": true, "map_key": "ORANGE_ENO" }, "geometry": { "type": "Polygon", "coordinates": [ [ [ -79.070900991501645, 36.049036999974412 ], [ -79.069719991187895, 36.047709000241305 ], [ -79.069255991075451, 36.048812999843413 ], [ -79.070435991299391, 36.049810999990747 ], [ -79.067998990604806, 36.053343000200933 ], [ -79.063173990931531, 36.069437999975648 ], [ -79.058946991470222, 36.079337999953658 ], [ -79.059497991408207, 36.082698999975371 ], [ -79.061520991197156, 36.085187000037401 ], [ -79.053887991206608, 36.086931000236532 ], [ -79.05205499145913, 36.0850850003823 ], [ -79.049389990801828, 36.084680000276471 ], [ -79.047668991071774, 36.08616799955373 ], [ -79.041728991313363, 36.086215000021681 ], [ -79.042340991165801, 36.087972000166424 ], [ -79.041840991462649, 36.08806300006345 ], [ -79.039397991681, 36.087523000074832 ], [ -79.036342991396609, 36.083963999691584 ], [ -79.034177991603556, 36.084055000350077 ], [ -79.033234991222159, 36.085225999969587 ], [ -79.031457991366722, 36.085678000450748 ], [ -79.025683990881319, 36.08252499963821 ], [ -79.022241991665425, 36.082209999780879 ], [ -79.019966990687351, 36.086446000066104 ], [ -79.015080991458433, 36.086672000249692 ], [ -79.00514399139837, 36.082122000020462 ], [ -79.005920990960476, 36.080364000374757 ], [ -79.009250991222544, 36.077840000233394 ], [ -79.007751991114873, 36.074775999588859 ], [ -79.012802991514107, 36.072793000432583 ], [ -79.014134991176547, 36.07108099999077 ], [ -79.014133991124595, 36.068512000096867 ], [ -79.012800990636734, 36.066709999566172 ], [ -79.007792990940644, 36.069175000301136 ], [ -79.004864991663197, 36.071939000425587 ], [ -79.001911991103725, 36.073377000147964 ], [ -78.999228990902594, 36.072361999697513 ], [ -78.998854991530607, 36.070008999855837 ], [ -78.99540799154984, 36.067099999826418 ], [ -78.993037990598538, 36.066617999854536 ], [ -78.986156990593159, 36.067281000199721 ], [ -78.982499990838292, 36.066286000378383 ], [ -78.981154991651053, 36.064905000325624 ], [ -78.987292991026095, 36.029702000308717 ], [ -79.033185991662592, 36.030424999721617 ], [ -79.071250991555189, 36.031024000333325 ], [ -79.070900991501645, 36.049036999974412 ] ] ] } },
{ "type": "Feature", "properties": { "county": "ORANGE", "precinct": "GB", "enr_desc": "Grady Brown", "winner": "Beth Bronson", "winner_votes": 299.0, "winner_share": 64.163090128755357, "runner_up": "Earl McKee", "runner_up_votes": 167.0, "runner_up_share": 35.836909871244636, "contest_votes": 466.0, "margin_of_victory": 28.326180257510721, "is_tie": false, "results": [ { "candidate": "Beth Bronson", "votes": 299, "share": 64.16309012875536 }, { "candidate": "Earl McKee", "votes": 167, "share": 35.836909871244636 } ], "participated": true, "map_key": "ORANGE_GB" }, "geometry": { "type": "Polygon", "coordinates": [ [ [ -79.137358991419305, 36.032458000082826 ], [ -79.138668991681101, 36.038552000312237 ], [ -79.138330991248822, 36.044914999984542 ], [ -79.139178990736809, 36.048641999957034 ], [ -79.138270990803619, 36.051726999894846 ], [ -79.136418991320767, 36.053981000416073 ], [ -79.135926990991663, 36.060402000242185 ], [ -79.129561991462367, 36.070085000378477 ], [ -79.127008990838874, 36.066750000331147 ], [ -79.124019991558029, 36.065149999938029 ], [ -79.120204991608048, 36.065119000263813 ], [ -79.118613990885734, 36.066876999794083 ], [ -79.114900990924056, 36.068008000102239 ], [ -79.11465199148769, 36.065979000084027 ], [ -79.109605990937808, 36.063914000084942 ], [ -79.107847991251759, 36.062198000174185 ], [ -79.112077990992034, 36.059204999875888 ], [ -79.098782991372573, 36.055710999862207 ], [ -79.090055991042149, 36.05767400031462 ], [ -79.086410991176407, 36.054848000106297 ], [ -79.074381990970465, 36.051965999793261 ], [ -79.070900991501645, 36.049036999974412 ], [ -79.071250991555189, 36.031024000333325 ], [ -79.136844991094208, 36.031708000086823 ], [ -79.137358991419305, 36.032458000082826 ] ] ] } },
{ "type": "Feature", "properties": { "county": null, "precinct": null, "enr_desc": "Glenwood", "winner": null, "winner_votes": null, "winner_share": null, "runner_up": null, "runner_up_votes": null, "runner_up_share": null, "contest_votes": null, "margin_of_victory": null, "is_tie": false, "results": null, "participated": false, "map_key": null }, "geometry": { "type": "Polygon", "coordinates": [ [ [ -79.032720991052159, 35.901407999682739 ], [ -79.026771991374602, 35.909569000331757 ], [ -79.024881990625147, 35.924575999922986 ], [ -79.020017991026322, 35.922505000013373 ], [ -79.014704990786683, 35.918821999763814 ], [ -79.011685991007099, 35.917722000170023 ], [ -79.009105991457901, 35.918331000417872 ], [ -79.006886991350299, 35.917197000103663 ], [ -79.011575991632853, 35.890450000189496 ], [ -79.016402991099554, 35.892883000317809 ], [ -79.022208990869444, 35.893705999900568 ], [ -79.02371099105568, 35.896049000310519 ], [ -79.023438990685108, 35.899060000200315 ], [ -79.027455991504809, 35.899532000297945 ], [ -79.032720991052159, 35.901407999682739 ] ] ] } },
{ "type": "Feature", "properties": { "county": "ORANGE", "precinct": "H", "enr_desc": "Hillsborough", "winner": "Beth Bronson", "winner_votes": 141.0, "winner_share": 55.078125, "runner_up": "Earl McKee", "runner_up_votes": 115.0, "runner_up_share": 44.921875, "contest_votes": 256.0, "margin_of_victory": 10.15625, "is_tie": false, "results": [ { "candidate": "Beth Bronson", "votes": 141, "share": 55.078125 }, { "candidate": "Earl McKee", "votes": 115, "share": 44.921875 } ], "participated": true, "map_key": "ORANGE_H" }, "geometry": { "type": "Polygon", "coordinates": [ [ [ -79.114900990924056, 36.068008000102239 ], [ -79.115116990868046, 36.070439000368921 ], [ -79.111932991235122, 36.070871000343054 ], [ -79.110984991521235, 36.071915000289962 ], [ -79.111581991203892, 36.086082000224593 ], [ -79.113057991044528, 36.087024999717755 ], [ -79.101744991222546, 36.08657499989819 ], [ -79.085843991622596, 36.084144000179414 ], [ -79.079590990918263, 36.081941999881046 ], [ -79.083162991035394, 36.082363000351627 ], [ -79.088152990740667, 36.079758000423105 ], [ -79.08738099110947, 36.07634499979671 ], [ -79.08823999089519, 36.074970000442043 ], [ -79.092144991002669, 36.073622999776923 ], [ -79.087111991350255, 36.071490000320296 ], [ -79.090477990877957, 36.070272000060328 ], [ -79.099930990661164, 36.072557999626405 ], [ -79.100648991174069, 36.071539999591522 ], [ -79.099833990896784, 36.069657000361005 ], [ -79.101304991156439, 36.065569000203119 ], [ -79.107847991251759, 36.062198000174185 ], [ -79.109605990937808, 36.063914000084942 ], [ -79.11465199148769, 36.065979000084027 ], [ -79.114900990924056, 36.068008000102239 ] ] ] } },
{ "type": "Feature", "properties": { "county": "ORANGE", "precinct": "HE", "enr_desc": "Hillsborougheast", "winner": "Beth Bronson", "winner_votes": 140.0, "winner_share": 56.224899598393577, "runner_up": "Earl McKee", "runner_up_votes": 109.0, "runner_up_share": 43.775100401606423, "contest_votes": 249.0, "margin_of_victory": 12.449799196787154, "is_tie": false, "results": [ { "candidate": "Beth Bronson", "votes": 140, "share": 56.22489959839358 }, { "candidate": "Earl McKee", "votes": 109, "share": 43.77510040160642 } ], "participated": true, "map_key": "ORANGE_HE" }, "geometry": { "type": "Polygon", "coordinates": [ [ [ -79.070900991501645, 36.049036999974412 ], [ -79.074381990970465, 36.051965999793261 ], [ -79.086410991176407, 36.054848000106297 ], [ -79.090055991042149, 36.05767400031462 ], [ -79.098782991372573, 36.055710999862207 ], [ -79.112077990992034, 36.059204999875888 ], [ -79.107847991251759, 36.062198000174185 ], [ -79.101304991156439, 36.065569000203119 ], [ -79.099833990896784, 36.069657000361005 ], [ -79.100648991174069, 36.071539999591522 ], [ -79.099930990661164, 36.072557999626405 ], [ -79.090477990877957, 36.070272000060328 ], [ -79.087111991350255, 36.071490000320296 ], [ -79.092144991002669, 36.073622999776923 ], [ -79.08823999089519, 36.074970000442043 ], [ -79.08738099110947, 36.07634499979671 ], [ -79.088152990740667, 36.079758000423105 ], [ -79.083162991035394, 36.082363000351627 ], [ -79.079590990918263, 36.081941999881046 ], [ -79.068710990830127, 36.085507999721933 ], [ -79.063994990787791, 36.087955000068995 ], [ -79.062530991052014, 36.088765000114783 ], [ -79.061520991197156, 36.085187000037401 ], [ -79.059497991408207, 36.082698999975371 ], [ -79.058946991470222, 36.079337999953658 ], [ -79.063173990931531, 36.069437999975648 ], [ -79.067998990604806, 36.053343000200933 ], [ -79.070435991299391, 36.049810999990747 ], [ -79.069255991075451, 36.048812999843413 ], [ -79.069719991187895, 36.047709000241305 ], [ -79.070900991501645, 36.049036999974412 ] ] ] } },
{ "type": "Feature", "properties": { "county": null, "precinct": null, "enr_desc": "Hogan Farms", "winner": null, "winner_votes": null, "winner_share": null, "runner_up": null, "runner_up_votes": null, "runner_up_share": null, "contest_votes": null, "margin_of_victory": null, "is_tie": false, "results": null, "participated": false, "map_key": null }, "geometry": { "type": "Polygon", "coordinates": [ [ [ -79.144105991335451, 35.933725999642057 ], [ -79.141201990934064, 35.976647000258971 ], [ -79.137504991182183, 35.978934000110264 ], [ -79.135806991564451, 35.981992999912229 ], [ -79.114569991051837, 35.977826999859708 ], [ -79.112133991475019, 35.975479999662518 ], [ -79.104995990911291, 35.974413999700637 ], [ -79.106542990802765, 35.966787999943847 ], [ -79.108104990978163, 35.963338000129966 ], [ -79.107386991279654, 35.959755000247036 ], [ -79.107844990722256, 35.956382999674119 ], [ -79.107414991350467, 35.958341000023893 ], [ -79.098938990792647, 35.957856999722736 ], [ -79.098985991327382, 35.956697999929631 ], [ -79.095980990869421, 35.956466999920565 ], [ -79.094924991501202, 35.954512999721203 ], [ -79.087047990650802, 35.953814000165096 ], [ -79.089882991381316, 35.951568000144668 ], [ -79.087172991319932, 35.948366000231623 ], [ -79.086712991496441, 35.945855000384498 ], [ -79.084901991271565, 35.945482000426807 ], [ -79.084982990941342, 35.94467400037923 ], [ -79.08738299104381, 35.943840999741724 ], [ -79.085466990671137, 35.943005000115065 ], [ -79.090260991450435, 35.941357999778909 ], [ -79.098463990849453, 35.943590999938863 ], [ -79.106872990736548, 35.942309000430193 ], [ -79.109344991634558, 35.94266300021836 ], [ -79.119317990779379, 35.946872000091446 ], [ -79.130370991609752, 35.947105000127024 ], [ -79.132696991263344, 35.94451299959352 ], [ -79.136340990910213, 35.942165999748774 ], [ -79.139925990898149, 35.93653899979558 ], [ -79.144105991335451, 35.933725999642057 ] ] ] } },
{ "type": "Feature", "properties": { "county": null, "precinct": null, "enr_desc": "Kings Mill", "winner": null, "winner_votes": null, "winner_share": null, "runner_up": null, "runner_up_votes": null, "runner_up_share": null, "contest_votes": null, "margin_of_victory": null, "is_tie": false, "results": null, "participated": false, "map_key": null }, "geometry": { "type": "Polygon", "coordinates": [ [ [ -79.081937991136897, 35.860780000055748 ], [ -79.077106991552114, 35.863659999652342 ], [ -79.074236991199584, 35.86727999974692 ], [ -79.066875991503579, 35.872853999937028 ], [ -79.064446990849007, 35.878411000163617 ], [ -79.060840991324397, 35.882897000140893 ], [ -79.061368991511813, 35.889553000284977 ], [ -79.059395990712673, 35.891323999741928 ], [ -79.057438991331765, 35.893510999847983 ], [ -79.038218991326175, 35.897516000025078 ], [ -79.034846990787841, 35.899205999853137 ], [ -79.032720991052159, 35.901407999682739 ], [ -79.027455991504809, 35.899532000297945 ], [ -79.023438990685108, 35.899060000200315 ], [ -79.02371099105568, 35.896049000310519 ], [ -79.022208990869444, 35.893705999900568 ], [ -79.016402991099554, 35.892883000317809 ], [ -79.011575991632853, 35.890450000189496 ], [ -79.016304990676943, 35.863210000093503 ], [ -79.081937991136897, 35.860780000055748 ] ] ] } },
{ "type": "Feature", "properties": { "county": null, "precinct": null, "enr_desc": "North Carrboro", "winner": null, "winner_votes": null, "winner_share": null, "runner_up": null, "runner_up_votes": null, "runner_up_share": null, "contest_votes": null, "margin_of_victory": null, "is_tie": false, "results": null, "participated": false, "map_key": null }, "geometry": { "type": "Polygon", "coordinates": [ [ [ -79.072960991641025, 35.924361000319401 ], [ -79.074020990693242, 35.924380000429203 ], [ -79.074399990738968, 35.925287000423751 ], [ -79.077728990948842, 35.923599000446451 ], [ -79.081486991629774, 35.923410999754189 ], [ -79.082473990647557, 35.920844999891457 ], [ -79.08655399120606, 35.92155699956556 ], [ -79.089683991215779, 35.923367000455336 ], [ -79.093565990633167, 35.927659999611251 ], [ -79.102149991652354, 35.934240999910202 ], [ -79.103020991287934, 35.936367000074988 ], [ -79.109344991634558, 35.94266300021836 ], [ -79.106872990736548, 35.942309000430193 ], [ -79.098463990849453, 35.943590999938863 ], [ -79.090260991450435, 35.941357999778909 ], [ -79.085466990671137, 35.943005000115065 ], [ -79.083170990916642, 35.94715799957698 ], [ -79.08152099092203, 35.94721400020854 ], [ -79.081707990682503, 35.942719000058524 ], [ -79.080209991707861, 35.940001000241281 ], [ -79.076311990713791, 35.940000000447817 ], [ -79.076216991187749, 35.934702000125945 ], [ -79.073827991624398, 35.929794999979705 ], [ -79.073932990608526, 35.925682000404166 ], [ -79.072960991641025, 35.924361000319401 ] ] ] } },
{ "type": "Feature", "properties": { "county": null, "precinct": null, "enr_desc": "Northside", "winner": null, "winner_votes": null, "winner_share": null, "runner_up": null, "runner_up_votes": null, "runner_up_share": null, "contest_votes": null, "margin_of_victory": null, "is_tie": false, "results": null, "participated": false, "map_key": null }, "geometry": { "type": "Polygon", "coordinates": [ [ [ -79.059506990844824, 35.911731000172239 ], [ -79.065046991343607, 35.909642000355298 ], [ -79.06766799135751, 35.913709000193755 ], [ -79.068044990922459, 35.916097999896223 ], [ -79.064300991000934, 35.92050200016412 ], [ -79.058687991518639, 35.92316099988556 ], [ -79.055833991036309, 35.925491000433347 ], [ -79.054094991215166, 35.925084000395366 ], [ -79.055914990963274, 35.920980000289568 ], [ -79.056964990646989, 35.915189999930291 ], [ -79.055793991214486, 35.913143000126809 ], [ -79.059506990844824, 35.911731000172239 ] ] ] } },
{ "type": "Feature", "properties": { "county": "ORANGE", "precinct": "OG", "enr_desc": "Orange Grove", "winner": "Beth Bronson", "winner_votes": 270.0, "winner_share": 51.724137931034484, "runner_up": "Earl McKee", "runner_up_votes": 252.0, "runner_up_share": 48.275862068965516, "contest_votes": 522.0, "margin_of_victory": 3.448275862068968, "is_tie": false, "results": [ { "candidate": "Beth Bronson", "votes": 270, "share": 51.724137931034484 }, { "candidate": "Earl McKee", "votes": 252, "share": 48.275862068965516 } ], "participated": true, "map_key": "ORANGE_OG" }, "geometry": { "type": "Polygon", "coordinates": [ [ [ -79.263538991533892, 35.959146999977733 ], [ -79.26323299167322, 35.967297999694516 ], [ -79.26398799160448, 35.967791999907327 ], [ -79.262923991625371, 35.968668000460333 ], [ -79.264540991644992, 35.973744999779356 ], [ -79.263377991250096, 35.973714999653907 ], [ -79.261975991671974, 36.03505199967784 ], [ -79.211775991447581, 36.034171000302756 ], [ -79.137358991419305, 36.032458000082826 ], [ -79.136844991094208, 36.031708000086823 ], [ -79.141201990934064, 35.976647000258971 ], [ -79.144105991335451, 35.933725999642057 ], [ -79.144619991104918, 35.926153999591811 ], [ -79.158101990835519, 35.927352000221816 ], [ -79.18363499155025, 35.922341000361385 ], [ -79.190923990711212, 35.922637999575421 ], [ -79.20500999131977, 35.930907999616949 ], [ -79.225759991314831, 35.933741000248304 ], [ -79.232434990971768, 35.936079000304261 ], [ -79.243969991362007, 35.941751000183082 ], [ -79.263538991533892, 35.959146999977733 ] ] ] } },
{ "type": "Feature", "properties": { "county": null, "precinct": null, "enr_desc": "Owasa", "winner": null, "winner_votes": null, "winner_share": null, "runner_up": null, "runner_up_votes": null, "runner_up_share": null, "contest_votes": null, "margin_of_victory": null, "is_tie": false, "results": null, "participated": false, "map_key": null }, "geometry": { "type": "Polygon", "coordinates": [ [ [ -79.091150990842024, 35.903753999786282 ], [ -79.083441990751567, 35.906737999994363 ], [ -79.084946991711178, 35.915352000083274 ], [ -79.079579991643641, 35.913585999747397 ], [ -79.077831991240274, 35.912324000046951 ], [ -79.077834991539234, 35.909141000348662 ], [ -79.072270991644871, 35.910302999970973 ], [ -79.073077991413257, 35.901560999842019 ], [ -79.074265991384493, 35.899706999730704 ], [ -79.07744799085259, 35.900012999585392 ], [ -79.078886990622976, 35.90214999986987 ], [ -79.081331990893545, 35.902540000144093 ], [ -79.082073990939861, 35.901676999696832 ], [ -79.081067991024526, 35.898276000422001 ], [ -79.08519899168023, 35.896965999974981 ], [ -79.086640991663288, 35.901657000342901 ], [ -79.088784991450993, 35.901080000410168 ], [ -79.0906259912189, 35.90192500021012 ], [ -79.091150990842024, 35.903753999786282 ] ] ] } },
{ "type": "Feature", "properties": { "county": "ORANGE", "precinct": "PA", "enr_desc": "Patterson", "winner": "Beth Bronson", "winner_votes": 242.0, "winner_share": 63.684210526315788, "runner_up": "Earl McKee", "runner_up_votes": 138.0, "runner_up_share": 36.315789473684212, "contest_votes": 380.0, "margin_of_victory": 27.368421052631575, "is_tie": false, "results": [ { "candidate": "Beth Bronson", "votes": 242, "share": 63.68421052631579 }, { "candidate": "Earl McKee", "votes": 138, "share": 36.31578947368421 } ], "participated": true, "map_key": "ORANGE_PA" }, "geometry": { "type": "Polygon", "coordinates": [ [ [ -79.000736990886693, 35.952697000369589 ], [ -79.006031991410822, 35.956531000140508 ], [ -79.024360991470232, 35.96645099957891 ], [ -79.033726990789603, 35.969489000181738 ], [ -79.040201991057103, 35.96965600008695 ], [ -79.047200991051142, 35.967478000081705 ], [ -79.050167991134529, 35.967293999970096 ], [ -79.062605991413605, 35.971098000143982 ], [ -79.066683991573441, 35.973228000364188 ], [ -79.06919699097925, 35.975626000077327 ], [ -79.075160991264084, 35.986619999915249 ], [ -79.070142991201834, 35.995808999651722 ], [ -79.067702990773356, 35.998797999988881 ], [ -79.064436990905975, 36.00048399980863 ], [ -79.063012990887799, 36.005274999880541 ], [ -79.057982991321168, 36.009421000068379 ], [ -79.055774990955939, 36.013864999942029 ], [ -79.051847991180352, 36.016555000197869 ], [ -79.044931991169037, 36.018717999777728 ], [ -79.042467991002582, 36.021829999749976 ], [ -79.034636990897226, 36.027326999998515 ], [ -79.033185991662592, 36.030424999721617 ], [ -78.987292991026095, 36.029702000308717 ], [ -79.000736990886693, 35.952697000369589 ] ] ] } },
{ "type": "Feature", "properties": { "county": null, "precinct": null, "enr_desc": "St John", "winner": null, "winner_votes": null, "winner_share": null, "runner_up": null, "runner_up_votes": null, "runner_up_share": null, "contest_votes": null, "margin_of_victory": null, "is_tie": false, "results": null, "participated": false, "map_key": null }, "geometry": { "type": "Polygon", "coordinates": [ [ [ -79.119622990827949, 35.864186000021569 ], [ -79.131789990798708, 35.864759999705257 ], [ -79.131833990906131, 35.86530900003897 ], [ -79.148578991144021, 35.866897999832609 ], [ -79.144619991104918, 35.926153999591811 ], [ -79.144105991335451, 35.933725999642057 ], [ -79.139925990898149, 35.93653899979558 ], [ -79.136340990910213, 35.942165999748774 ], [ -79.132696991263344, 35.94451299959352 ], [ -79.130370991609752, 35.947105000127024 ], [ -79.119317990779379, 35.946872000091446 ], [ -79.109344991634558, 35.94266300021836 ], [ -79.103020991287934, 35.936367000074988 ], [ -79.102149991652354, 35.934240999910202 ], [ -79.101028990992702, 35.930895000101529 ], [ -79.113821990636026, 35.930685999905499 ], [ -79.114232990849843, 35.93170300011527 ], [ -79.114890991085261, 35.931200000014968 ], [ -79.113907991244929, 35.927360000234934 ], [ -79.115042991069799, 35.923784999902097 ], [ -79.109832991312146, 35.922359000190177 ], [ -79.109392991495355, 35.92368000029839 ], [ -79.107117991414142, 35.922992000031776 ], [ -79.10714899133626, 35.921611000353622 ], [ -79.103229990830698, 35.92055299964025 ], [ -79.10275499149779, 35.927091000124364 ], [ -79.100248990776706, 35.92670800027603 ], [ -79.09940999138297, 35.919670000373394 ], [ -79.100719991240268, 35.917862999785392 ], [ -79.099626991583492, 35.916205999914489 ], [ -79.097694990896059, 35.917010999632375 ], [ -79.094074991118191, 35.9121200002132 ], [ -79.091150990842024, 35.903753999786282 ], [ -79.0906259912189, 35.90192500021012 ], [ -79.088784991450993, 35.901080000410168 ], [ -79.086640991663288, 35.901657000342901 ], [ -79.08519899168023, 35.896965999974981 ], [ -79.086814991320054, 35.89670599987064 ], [ -79.088009991520636, 35.898789999686059 ], [ -79.089265990927501, 35.898846000230996 ], [ -79.093625990664023, 35.895444000329299 ], [ -79.093125991023527, 35.893553999745322 ], [ -79.095602991270255, 35.890157999565275 ], [ -79.095061991438897, 35.888080999995779 ], [ -79.096829991249734, 35.886454999684815 ], [ -79.095147991075834, 35.883976999615498 ], [ -79.094767991126162, 35.879834999773117 ], [ -79.096664990756295, 35.879965999710713 ], [ -79.096361991187507, 35.880675000385864 ], [ -79.105811991271466, 35.878935000099375 ], [ -79.105494991665822, 35.878029000251843 ], [ -79.106444990731504, 35.876692999950151 ], [ -79.111035991469379, 35.872657000223668 ], [ -79.113991990746058, 35.871973999931271 ], [ -79.115901991149002, 35.870412999712016 ], [ -79.11780499126472, 35.870336000358115 ], [ -79.116635991444497, 35.867396999669715 ], [ -79.116810990891949, 35.865759000334279 ], [ -79.119622990827949, 35.864186000021569 ] ] ] } },
{ "type": "Feature", "properties": { "county": "ORANGE", "precinct": "RE", "enr_desc": "Roger Eubanks", "winner": "Beth Bronson", "winner_votes": 11.0, "winner_share": 78.571428571428569, "runner_up": "Earl McKee", "runner_up_votes": 3.0, "runner_up_share": 21.428571428571427, "contest_votes": 14.0, "margin_of_victory": 57.142857142857139, "is_tie": false, "results": [ { "candidate": "Beth Bronson", "votes": 11, "share": 78.57142857142857 }, { "candidate": "Earl McKee", "votes": 3, "share": 21.428571428571427 } ], "participated": true, "map_key": "ORANGE_RE" }, "geometry": { "type": "Polygon", "coordinates": [ [ [ -79.058362991281214, 35.949431000089589 ], [ -79.065045990950139, 35.951510000084717 ], [ -79.077772990630649, 35.951961000423559 ], [ -79.08189999115767, 35.949628999603171 ], [ -79.083170990916642, 35.94715799957698 ], [ -79.085466990671137, 35.943005000115065 ], [ -79.08738299104381, 35.943840999741724 ], [ -79.084982990941342, 35.94467400037923 ], [ -79.084901991271565, 35.945482000426807 ], [ -79.086712991496441, 35.945855000384498 ], [ -79.087172991319932, 35.948366000231623 ], [ -79.089882991381316, 35.951568000144668 ], [ -79.087047990650802, 35.953814000165096 ], [ -79.094924991501202, 35.954512999721203 ], [ -79.095980990869421, 35.956466999920565 ], [ -79.098985991327382, 35.956697999929631 ], [ -79.098938990792647, 35.957856999722736 ], [ -79.107414991350467, 35.958341000023893 ], [ -79.107844990722256, 35.956382999674119 ], [ -79.107386991279654, 35.959755000247036 ], [ -79.108104990978163, 35.963338000129966 ], [ -79.106542990802765, 35.966787999943847 ], [ -79.104995990911291, 35.974413999700637 ], [ -79.0759989909713, 35.96989899977266 ], [ -79.076444991691289, 35.977265000074887 ], [ -79.075160991264084, 35.986619999915249 ], [ -79.06919699097925, 35.975626000077327 ], [ -79.066683991573441, 35.973228000364188 ], [ -79.062605991413605, 35.971098000143982 ], [ -79.059296990653053, 35.966090999949664 ], [ -79.05736899127848, 35.960866000189704 ], [ -79.058362991281214, 35.949431000089589 ] ] ] } },
{ "type": "Feature", "properties": { "county": null, "precinct": null, "enr_desc": "Ridgefield", "winner": null, "winner_votes": null, "winner_share": null, "runner_up": null, "runner_up_votes": null, "runner_up_share": null, "contest_votes": null, "margin_of_victory": null, "is_tie": false, "results": null, "participated": false, "map_key": null }, "geometry": { "type": "Polygon", "coordinates": [ [ [ -79.00438899158263, 35.931500000154386 ], [ -79.006886991350299, 35.917197000103663 ], [ -79.009105991457901, 35.918331000417872 ], [ -79.011685991007099, 35.917722000170023 ], [ -79.014704990786683, 35.918821999763814 ], [ -79.020017991026322, 35.922505000013373 ], [ -79.024881990625147, 35.924575999922986 ], [ -79.030357991615517, 35.927351999899493 ], [ -79.035068991206742, 35.927740999717855 ], [ -79.033628990850659, 35.930677000444703 ], [ -79.029451990723274, 35.935029000312824 ], [ -79.02559699063687, 35.937138000058184 ], [ -79.021903991508978, 35.939522999942859 ], [ -79.023385990969444, 35.936216000026207 ], [ -79.018908990744222, 35.932854000441672 ], [ -79.007806991691822, 35.932755999937683 ], [ -79.00438899158263, 35.931500000154386 ] ] ] } },
{ "type": "Feature", "properties": { "county": null, "precinct": null, "enr_desc": "Westwood", "winner": null, "winner_votes": null, "winner_share": null, "runner_up": null, "runner_up_votes": null, "runner_up_share": null, "contest_votes": null, "margin_of_victory": null, "is_tie": false, "results": null, "participated": false, "map_key": null }, "geometry": { "type": "Polygon", "coordinates": [ [ [ -79.075393991619848, 35.893562999953758 ], [ -79.073958990876761, 35.893710999796582 ], [ -79.073864990614084, 35.896732999727213 ], [ -79.072878991648224, 35.897252000325047 ], [ -79.074265991384493, 35.899706999730704 ], [ -79.073077991413257, 35.901560999842019 ], [ -79.069853991029305, 35.90130199984609 ], [ -79.069709991674486, 35.90393900000052 ], [ -79.070638991024296, 35.903967999672098 ], [ -79.068762991527521, 35.906085000254144 ], [ -79.063885991085868, 35.90682600044066 ], [ -79.065046991343607, 35.909642000355298 ], [ -79.059506990844824, 35.911731000172239 ], [ -79.058077990966979, 35.909268999594602 ], [ -79.054329991421085, 35.910700000376849 ], [ -79.052801991102456, 35.907970000224466 ], [ -79.053310991435524, 35.905622999662633 ], [ -79.057943990763334, 35.900955000154475 ], [ -79.057589991476149, 35.898006000358876 ], [ -79.058555991451897, 35.896167000061219 ], [ -79.057438991331765, 35.893510999847983 ], [ -79.059395990712673, 35.891323999741928 ], [ -79.061322990850286, 35.892461000203795 ], [ -79.064923991130954, 35.891641000000561 ], [ -79.075393991619848, 35.893562999953758 ] ] ] } },
{ "type": "Feature", "properties": { "county": "ORANGE", "precinct": "SM", "enr_desc": "St Marys", "winner": "Beth Bronson", "winner_votes": 152.0, "winner_share": 50.165016501650165, "runner_up": "Earl McKee", "runner_up_votes": 151.0, "runner_up_share": 49.834983498349835, "contest_votes": 303.0, "margin_of_victory": 0.33003300330032914, "is_tie": false, "results": [ { "candidate": "Beth Bronson", "votes": 152, "share": 50.165016501650165 }, { "candidate": "Earl McKee", "votes": 151, "share": 49.834983498349835 } ], "participated": true, "map_key": "ORANGE_SM" }, "geometry": { "type": "Polygon", "coordinates": [ [ [ -78.981154991651053, 36.064905000325624 ], [ -78.982499990838292, 36.066286000378383 ], [ -78.986156990593159, 36.067281000199721 ], [ -78.993037990598538, 36.066617999854536 ], [ -78.99540799154984, 36.067099999826418 ], [ -78.998854991530607, 36.070008999855837 ], [ -78.999228990902594, 36.072361999697513 ], [ -79.001911991103725, 36.073377000147964 ], [ -79.004864991663197, 36.071939000425587 ], [ -79.007792990940644, 36.069175000301136 ], [ -79.012800990636734, 36.066709999566172 ], [ -79.014133991124595, 36.068512000096867 ], [ -79.014134991176547, 36.07108099999077 ], [ -79.012802991514107, 36.072793000432583 ], [ -79.007751991114873, 36.074775999588859 ], [ -79.009250991222544, 36.077840000233394 ], [ -79.005920990960476, 36.080364000374757 ], [ -79.00514399139837, 36.082122000020462 ], [ -79.015080991458433, 36.086672000249692 ], [ -79.019966990687351, 36.086446000066104 ], [ -79.022241991665425, 36.082209999780879 ], [ -79.025683990881319, 36.08252499963821 ], [ -79.031457991366722, 36.085678000450748 ], [ -79.033234991222159, 36.085225999969587 ], [ -79.034177991603556, 36.084055000350077 ], [ -79.036342991396609, 36.083963999691584 ], [ -79.039397991681, 36.087523000074832 ], [ -79.041840991462649, 36.08806300006345 ], [ -79.042340991165801, 36.087972000166424 ], [ -79.041728991313363, 36.086215000021681 ], [ -79.047668991071774, 36.08616799955373 ], [ -79.049389990801828, 36.084680000276471 ], [ -79.05205499145913, 36.0850850003823 ], [ -79.053887991206608, 36.086931000236532 ], [ -79.061520991197156, 36.085187000037401 ], [ -79.062530991052014, 36.088765000114783 ], [ -79.063994990787791, 36.087955000068995 ], [ -79.065081991391821, 36.099514000092448 ], [ -79.066706991175806, 36.10532400039461 ], [ -79.066344990613644, 36.112772999802822 ], [ -79.067793991295474, 36.11547500032497 ], [ -79.066552991373896, 36.122483999889624 ], [ -79.066809990644842, 36.12609999989531 ], [ -79.069222991580276, 36.129476000350365 ], [ -79.069064991278623, 36.134608000161528 ], [ -78.968852991128074, 36.135197000390534 ], [ -78.981154991651053, 36.064905000325624 ] ] ] } },
{ "type": "Feature", "properties": { "county": null, "precinct": null, "enr_desc": "Town Hall", "winner": null, "winner_votes": null, "winner_share": null, "runner_up": null, "runner_up_votes": null, "runner_up_share": null, "contest_votes": null, "margin_of_victory": null, "is_tie": false, "results": null, "participated": false, "map_key": null }, "geometry": { "type": "Polygon", "coordinates": [ [ [ -79.079579991643641, 35.913585999747397 ], [ -79.07865999161713, 35.914349000182554 ], [ -79.072226990851604, 35.913837000052823 ], [ -79.072249991138392, 35.915857000301393 ], [ -79.076557991035145, 35.918386999831057 ], [ -79.078700990611338, 35.920662999795056 ], [ -79.082473990647557, 35.920844999891457 ], [ -79.081486991629774, 35.923410999754189 ], [ -79.077728990948842, 35.923599000446451 ], [ -79.074399990738968, 35.925287000423751 ], [ -79.074020990693242, 35.924380000429203 ], [ -79.072960991641025, 35.924361000319401 ], [ -79.068026991511019, 35.919527999650469 ], [ -79.068044990922459, 35.916097999896223 ], [ -79.06766799135751, 35.913709000193755 ], [ -79.065046991343607, 35.909642000355298 ], [ -79.063885991085868, 35.90682600044066 ], [ -79.068762991527521, 35.906085000254144 ], [ -79.070638991024296, 35.903967999672098 ], [ -79.069709991674486, 35.90393900000052 ], [ -79.069853991029305, 35.90130199984609 ], [ -79.073077991413257, 35.901560999842019 ], [ -79.072270991644871, 35.910302999970973 ], [ -79.077834991539234, 35.909141000348662 ], [ -79.077831991240274, 35.912324000046951 ], [ -79.079579991643641, 35.913585999747397 ] ] ] } },
{ "type": "Feature", "properties": { "county": "ORANGE", "precinct": "TO", "enr_desc": "Tolars", "winner": "Earl McKee", "winner_votes": 155.0, "winner_share": 80.310880829015545, "runner_up": "Beth Bronson", "runner_up_votes": 38.0, "runner_up_share": 19.689119170984455, "contest_votes": 193.0, "margin_of_victory": 60.62176165803109, "is_tie": false, "results": [ { "candidate": "Earl McKee", "votes": 155, "share": 80.31088082901555 }, { "candidate": "Beth Bronson", "votes": 38, "share": 19.689119170984455 } ], "participated": true, "map_key": "ORANGE_TO" }, "geometry": { "type": "Polygon", "coordinates": [ [ [ -79.069064991278623, 36.134608000161528 ], [ -79.069222991580276, 36.129476000350365 ], [ -79.075385991639479, 36.132108000409545 ], [ -79.077551991238067, 36.130308000398138 ], [ -79.081668990597066, 36.131834000078207 ], [ -79.097929990708622, 36.133772999788462 ], [ -79.107083990593338, 36.138401000214799 ], [ -79.112888991248354, 36.136710000050392 ], [ -79.120609991664523, 36.136889999980767 ], [ -79.123220990586617, 36.148801999847898 ], [ -79.129436990701265, 36.158877999775605 ], [ -79.131017991261245, 36.168668000024326 ], [ -79.135502990704737, 36.177074000339381 ], [ -79.138614991514743, 36.189753000110073 ], [ -79.142354991319849, 36.198385000047452 ], [ -79.139332990632553, 36.19911099961061 ], [ -79.137639991189928, 36.200722999671576 ], [ -79.137668991061815, 36.209206000054117 ], [ -79.135885991365868, 36.215808999781061 ], [ -79.13638499116891, 36.221151999798231 ], [ -79.134787990586929, 36.224636000252893 ], [ -79.132273990658291, 36.227406999685002 ], [ -79.130494990777564, 36.235099000024199 ], [ -79.120834990880596, 36.240087999765116 ], [ -79.116427990622469, 36.239949999662493 ], [ -79.113353990703985, 36.241334999699717 ], [ -79.065923990851658, 36.240908999687946 ], [ -79.068323990860293, 36.16091000033105 ], [ -79.066554990809692, 36.161946000343811 ], [ -79.061905991514948, 36.158958999889158 ], [ -79.060862991169643, 36.160386999780926 ], [ -79.058309990951827, 36.159829000188388 ], [ -79.061542991334747, 36.152580999660863 ], [ -79.063323991328986, 36.153334999750193 ], [ -79.068415991268566, 36.158024000302774 ], [ -79.069064991278623, 36.134608000161528 ] ] ] } },
{ "type": "Feature", "properties": { "county": null, "precinct": null, "enr_desc": "Unc", "winner": null, "winner_votes": null, "winner_share": null, "runner_up": null, "runner_up_votes": null, "runner_up_share": null, "contest_votes": null, "margin_of_victory": null, "is_tie": false, "results": null, "participated": false, "map_key": null }, "geometry": { "type": "Polygon", "coordinates": [ [ [ -79.057438991331765, 35.893510999847983 ], [ -79.058555991451897, 35.896167000061219 ], [ -79.057589991476149, 35.898006000358876 ], [ -79.057943990763334, 35.900955000154475 ], [ -79.053310991435524, 35.905622999662633 ], [ -79.052801991102456, 35.907970000224466 ], [ -79.054329991421085, 35.910700000376849 ], [ -79.058077990966979, 35.909268999594602 ], [ -79.059506990844824, 35.911731000172239 ], [ -79.055793991214486, 35.913143000126809 ], [ -79.048045991535162, 35.916109999941817 ], [ -79.046590991482731, 35.913584000314138 ], [ -79.045104991674833, 35.914134000183424 ], [ -79.045871991504697, 35.916941000251889 ], [ -79.042680991139761, 35.91685700040977 ], [ -79.040319991235634, 35.918001000111218 ], [ -79.036721990926821, 35.921724000112661 ], [ -79.035811991088877, 35.923933000033195 ], [ -79.030617990645368, 35.924675000281574 ], [ -79.030357991615517, 35.927351999899493 ], [ -79.024881990625147, 35.924575999922986 ], [ -79.026771991374602, 35.909569000331757 ], [ -79.032720991052159, 35.901407999682739 ], [ -79.034846990787841, 35.899205999853137 ], [ -79.038218991326175, 35.897516000025078 ], [ -79.057438991331765, 35.893510999847983 ] ] ] } },
{ "type": "Feature", "properties": { "county": "ORANGE", "precinct": "WC", "enr_desc": "White Cross", "winner": "Beth Bronson", "winner_votes": 141.0, "winner_share": 54.230769230769226, "runner_up": "Earl McKee", "runner_up_votes": 119.0, "runner_up_share": 45.769230769230766, "contest_votes": 260.0, "margin_of_victory": 8.4615384615384599, "is_tie": false, "results": [ { "candidate": "Beth Bronson", "votes": 141, "share": 54.230769230769226 }, { "candidate": "Earl McKee", "votes": 119, "share": 45.76923076923077 } ], "participated": true, "map_key": "ORANGE_WC" }, "geometry": { "type": "Polygon", "coordinates": [ [ [ -79.263538991533892, 35.959146999977733 ], [ -79.243969991362007, 35.941751000183082 ], [ -79.232434990971768, 35.936079000304261 ], [ -79.225759991314831, 35.933741000248304 ], [ -79.20500999131977, 35.930907999616949 ], [ -79.190923990711212, 35.922637999575421 ], [ -79.18363499155025, 35.922341000361385 ], [ -79.158101990835519, 35.927352000221816 ], [ -79.144619991104918, 35.926153999591811 ], [ -79.148578991144021, 35.866897999832609 ], [ -79.218814990893009, 35.873724999746948 ], [ -79.218815991598518, 35.875256999957955 ], [ -79.221533991615729, 35.875466999852492 ], [ -79.221934991583254, 35.874043999679706 ], [ -79.249537991150177, 35.876809999886078 ], [ -79.250826991355083, 35.879632000266554 ], [ -79.255602991439417, 35.885550999935845 ], [ -79.257945990848683, 35.891492999857107 ], [ -79.258142990968494, 35.895398999639774 ], [ -79.256530990668352, 35.900511000105723 ], [ -79.256915990699099, 35.902054999755542 ], [ -79.260418990968716, 35.905614000179298 ], [ -79.268242991415434, 35.909182000135125 ], [ -79.268433991089339, 35.910930000315112 ], [ -79.267148991431995, 35.913691000132495 ], [ -79.264026991675522, 35.914114000227983 ], [ -79.263863991647099, 35.92973000032292 ], [ -79.264470990883567, 35.931077999945849 ], [ -79.263838990883201, 35.93143500041122 ], [ -79.264378990622248, 35.933514 ], [ -79.263821991121148, 35.933439999942586 ], [ -79.264185991515774, 35.946136000030549 ], [ -79.263538991533892, 35.959146999977733 ] ] ] } },
{ "type": "Feature", "properties": { "county": null, "precinct": null, "enr_desc": "Weaver Dairy", "winner": null, "winner_votes": null, "winner_share": null, "runner_up": null, "runner_up_votes": null, "runner_up_share": null, "contest_votes": null, "margin_of_victory": null, "is_tie": false, "results": null, "participated": false, "map_key": null }, "geometry": { "type": "Polygon", "coordinates": [ [ [ -79.056944991342931, 35.939286999658627 ], [ -79.058362991281214, 35.949431000089589 ], [ -79.05736899127848, 35.960866000189704 ], [ -79.059296990653053, 35.966090999949664 ], [ -79.062605991413605, 35.971098000143982 ], [ -79.050167991134529, 35.967293999970096 ], [ -79.047200991051142, 35.967478000081705 ], [ -79.040201991057103, 35.96965600008695 ], [ -79.033726990789603, 35.969489000181738 ], [ -79.034694991372533, 35.967001000209642 ], [ -79.035376990948066, 35.966982000156626 ], [ -79.035340991331836, 35.968200999871847 ], [ -79.039838991154511, 35.968292000413285 ], [ -79.043965991437332, 35.966815999990594 ], [ -79.043579991019357, 35.963999999564933 ], [ -79.040255990821322, 35.963724999642302 ], [ -79.036307991122399, 35.961979999554856 ], [ -79.036262991412826, 35.958662000323741 ], [ -79.037898990721914, 35.957448000361801 ], [ -79.043919990816292, 35.956958000134328 ], [ -79.044731991659972, 35.956141000378736 ], [ -79.044775991325636, 35.954175999630692 ], [ -79.045851991498665, 35.954171000110712 ], [ -79.045618991210333, 35.950768000199723 ], [ -79.047198991495733, 35.948483000116212 ], [ -79.047530991674165, 35.944805000108779 ], [ -79.048668991399651, 35.942373000334804 ], [ -79.051523991518167, 35.940160999872134 ], [ -79.056944991342931, 35.939286999658627 ] ] ] } },
{ "type": "Feature", "properties": { "county": null, "precinct": null, "enr_desc": "Weaver Dairy Sat", "winner": null, "winner_votes": null, "winner_share": null, "runner_up": null, "runner_up_votes": null, "runner_up_share": null, "contest_votes": null, "margin_of_victory": null, "is_tie": false, "results": null, "participated": false, "map_key": null }, "geometry": { "type": "Polygon", "coordinates": [ [ [ -79.034694991372533, 35.967001000209642 ], [ -79.033502991153128, 35.961509000153228 ], [ -79.036307991122399, 35.961979999554856 ], [ -79.040255990821322, 35.963724999642302 ], [ -79.043579991019357, 35.963999999564933 ], [ -79.043965991437332, 35.966815999990594 ], [ -79.039838991154511, 35.968292000413285 ], [ -79.035340991331836, 35.968200999871847 ], [ -79.035376990948066, 35.966982000156626 ], [ -79.034694991372533, 35.967001000209642 ] ] ] } },
{ "type": "Feature", "properties": { "county": "ORANGE", "precinct": "WH", "enr_desc": "West Hillsborough", "winner": "Beth Bronson", "winner_votes": 159.0, "winner_share": 55.78947368421052, "runner_up": "Earl McKee", "runner_up_votes": 126.0, "runner_up_share": 44.210526315789473, "contest_votes": 285.0, "margin_of_victory": 11.578947368421048, "is_tie": false, "results": [ { "candidate": "Beth Bronson", "votes": 159, "share": 55.78947368421052 }, { "candidate": "Earl McKee", "votes": 126, "share": 44.21052631578947 } ], "participated": true, "map_key": "ORANGE_WH" }, "geometry": { "type": "Polygon", "coordinates": [ [ [ -79.114900990924056, 36.068008000102239 ], [ -79.118613990885734, 36.066876999794083 ], [ -79.120204991608048, 36.065119000263813 ], [ -79.124019991558029, 36.065149999938029 ], [ -79.127008990838874, 36.066750000331147 ], [ -79.129561991462367, 36.070085000378477 ], [ -79.130842991675905, 36.071476999859449 ], [ -79.132616991023625, 36.069867999826556 ], [ -79.134067990721235, 36.073077999591433 ], [ -79.131965990714676, 36.117874000002217 ], [ -79.130108991194206, 36.136703999863165 ], [ -79.120443990896547, 36.136375999599544 ], [ -79.103544990773685, 36.089757000126369 ], [ -79.101744991222546, 36.08657499989819 ], [ -79.113057991044528, 36.087024999717755 ], [ -79.111581991203892, 36.086082000224593 ], [ -79.110984991521235, 36.071915000289962 ], [ -79.111932991235122, 36.070871000343054 ], [ -79.115116990868046, 36.070439000368921 ], [ -79.114900990924056, 36.068008000102239 ] ] ] } },
{ "type": "Feature", "properties": { "county": "ORANGE", "precinct": "HN", "enr_desc": "Hillsborough North", "winner": "Beth Bronson", "winner_votes": 182.0, "winner_share": 53.216374269005854, "runner_up": "Earl McKee", "runner_up_votes": 160.0, "runner_up_share": 46.783625730994146, "contest_votes": 342.0, "margin_of_victory": 6.4327485380117082, "is_tie": false, "results": [ { "candidate": "Beth Bronson", "votes": 182, "share": 53.216374269005854 }, { "candidate": "Earl McKee", "votes": 160, "share": 46.783625730994146 } ], "participated": true, "map_key": "ORANGE_HN" }, "geometry": { "type": "Polygon", "coordinates": [ [ [ -79.101744991222546, 36.08657499989819 ], [ -79.103544990773685, 36.089757000126369 ], [ -79.120443990896547, 36.136375999599544 ], [ -79.120609991664523, 36.136889999980767 ], [ -79.112888991248354, 36.136710000050392 ], [ -79.107083990593338, 36.138401000214799 ], [ -79.097929990708622, 36.133772999788462 ], [ -79.081668990597066, 36.131834000078207 ], [ -79.077551991238067, 36.130308000398138 ], [ -79.075385991639479, 36.132108000409545 ], [ -79.069222991580276, 36.129476000350365 ], [ -79.066809990644842, 36.12609999989531 ], [ -79.066552991373896, 36.122483999889624 ], [ -79.067793991295474, 36.11547500032497 ], [ -79.066344990613644, 36.112772999802822 ], [ -79.066706991175806, 36.10532400039461 ], [ -79.065081991391821, 36.099514000092448 ], [ -79.063994990787791, 36.087955000068995 ], [ -79.068710990830127, 36.085507999721933 ], [ -79.079590990918263, 36.081941999881046 ], [ -79.085843991622596, 36.084144000179414 ], [ -79.101744991222546, 36.08657499989819 ] ] ] } }
]
}
