{
"type": "FeatureCollection",
"name": "pamlico_county_board_of_education_district_04_dem",
"crs": { "type": "name", "properties": { "name": "urn:ogc:def:crs:OGC:1.3:CRS84" } },
"features": [
{ "type": "Feature", "properties": { "county": null, "precinct": null, "enr_desc": "Reelsboro", "winner": null, "winner_votes": null, "winner_share": null, "runner_up": null, "runner_up_votes": null, "runner_up_share": null, "contest_votes": null, "margin_of_victory": null, "is_tie": false, "results": null, "participated": false, "map_key": null }, "geometry": { "type": "Polygon", "coordinates": [ [ [ -76.883302991262383, 35.244476999598668 ], [ -76.886440991371856, 35.241596999803377 ], [ -76.858750991716065, 35.220501999917033 ], [ -76.85658999098608, 35.18143499972512 ], [ -76.854453990812502, 35.164230000087521 ], [ -76.85454099165446, 35.151282999559811 ], [ -76.855141991288519, 35.149529999960563 ], [ -76.857830991318608, 35.148852999957825 ], [ -76.864745991336562, 35.144217000267119 ], [ -76.867452991072582, 35.140386000153441 ], [ -76.866601991275871, 35.137940999759707 ], [ -76.864587990910351, 35.136853999891933 ], [ -76.863087991485557, 35.13443599951205 ], [ -76.864670990963248, 35.132011999842895 ], [ -76.864808991630866, 35.123228999472538 ], [ -76.865454990971614, 35.121882999879602 ], [ -76.868511990952413, 35.119997999656839 ], [ -76.869741991215349, 35.11448499966226 ], [ -76.877833990795267, 35.11039600028446 ], [ -76.880287991295347, 35.105680000239374 ], [ -76.881749991214704, 35.104948999866856 ], [ -76.882736991449576, 35.102867999518978 ], [ -76.883861991245325, 35.102505999511799 ], [ -76.88784299176784, 35.104185999855076 ], [ -76.892044991379393, 35.103646999460139 ], [ -76.893227990743483, 35.104812999905029 ], [ -76.894217990939751, 35.10462600011936 ], [ -76.897703990897369, 35.09945600005809 ], [ -76.900458990991581, 35.09775899945268 ], [ -76.899056990777936, 35.093790999512002 ], [ -76.900728991388718, 35.090983000073415 ], [ -76.904920991488055, 35.089457999661043 ], [ -76.908037991219999, 35.083898999838205 ], [ -76.913091991149273, 35.080424999694607 ], [ -76.912882991209784, 35.079320000140271 ], [ -76.913990991758041, 35.078855999761601 ], [ -76.915533991780592, 35.076242000005053 ], [ -76.915821991484549, 35.071502999757939 ], [ -76.916990991048408, 35.0684999994618 ], [ -76.91959399151888, 35.065501999418366 ], [ -76.919839991226894, 35.064163999423172 ], [ -76.916993990896572, 35.058888000238355 ], [ -76.917277990874382, 35.055221999975579 ], [ -76.959282991369918, 35.029277999800705 ], [ -76.967296991735125, 35.040654999522403 ], [ -76.953237991544555, 35.051526999938226 ], [ -76.942860991449294, 35.051357999784237 ], [ -76.942775991798072, 35.052614999760621 ], [ -76.941622991173588, 35.052086999566448 ], [ -76.941969991517226, 35.052746999892243 ], [ -76.940768991037771, 35.05372599951292 ], [ -76.941057990763625, 35.057697999451428 ], [ -76.938283990865941, 35.059058000141995 ], [ -76.936148991626609, 35.061909999417878 ], [ -76.936670991505082, 35.064137999525578 ], [ -76.935860991041153, 35.065004999649538 ], [ -76.935117991508562, 35.071266000002332 ], [ -76.936982991300525, 35.07358999983181 ], [ -76.937519991728237, 35.075801999831519 ], [ -76.93363099177391, 35.077566999958833 ], [ -76.933291991603127, 35.081940999423736 ], [ -76.935952990881233, 35.083091999407976 ], [ -76.935790991640133, 35.084458999980797 ], [ -76.935007991424371, 35.084772000201255 ], [ -76.935205991436916, 35.085198000283775 ], [ -76.936383991567439, 35.084260999997788 ], [ -76.937981991194462, 35.085043999830198 ], [ -76.936418991143867, 35.08679700011421 ], [ -76.936731990718641, 35.087985000007855 ], [ -76.937762991474244, 35.088002999458702 ], [ -76.937530991704961, 35.089121999917182 ], [ -76.937856991416041, 35.088440999735489 ], [ -76.938537991037762, 35.088737999573389 ], [ -76.938371990874955, 35.090368999539002 ], [ -76.937159991257303, 35.090644000090187 ], [ -76.937811990887425, 35.090793999491865 ], [ -76.937363991001988, 35.092175000221545 ], [ -76.93850399101828, 35.093277999913056 ], [ -76.938424991495182, 35.094720999997108 ], [ -76.937675990968145, 35.097157000204838 ], [ -76.935923991348261, 35.097044999540195 ], [ -76.937731990980794, 35.098005000007028 ], [ -76.937691991486929, 35.09901400003406 ], [ -76.936831991568553, 35.098974999607705 ], [ -76.937680990917755, 35.099626999833994 ], [ -76.936828991055407, 35.101609999744092 ], [ -76.939440991045728, 35.101955999733761 ], [ -76.940227991159489, 35.103130999576592 ], [ -76.937379990829015, 35.102924999946197 ], [ -76.936579991411804, 35.103769999799155 ], [ -76.93666099153846, 35.105298999756293 ], [ -76.934488990995689, 35.105489999772495 ], [ -76.933785990769721, 35.106281999961439 ], [ -76.932820990811095, 35.105610999763599 ], [ -76.934466991600942, 35.107694000126187 ], [ -76.936233991780227, 35.108141000047034 ], [ -76.936546991220794, 35.111643999702324 ], [ -76.935871991593544, 35.111850000158093 ], [ -76.936813991683749, 35.111747999854671 ], [ -76.936624991559469, 35.112816999456662 ], [ -76.937239991766702, 35.112199999873191 ], [ -76.937875991605921, 35.112882999996465 ], [ -76.937607991482551, 35.114589999815905 ], [ -76.937076991701105, 35.115055999935365 ], [ -76.934082990895547, 35.115153000138413 ], [ -76.931522990901371, 35.115951999668702 ], [ -76.930864991723723, 35.11681900011223 ], [ -76.931261991276472, 35.117242999782654 ], [ -76.931447991523001, 35.116176999558455 ], [ -76.934200991369906, 35.115339000240269 ], [ -76.937612990759931, 35.115269999993622 ], [ -76.93789799158732, 35.114365999737394 ], [ -76.940228991708665, 35.114706000207221 ], [ -76.942079991736662, 35.115711999810422 ], [ -76.940818991292389, 35.119102999500015 ], [ -76.943545990747722, 35.121305999911058 ], [ -76.9470359914298, 35.121343999976659 ], [ -76.947873991012273, 35.124089000187524 ], [ -76.947763991303631, 35.123119000050757 ], [ -76.948734991746235, 35.123421999590803 ], [ -76.948210991447596, 35.123378000034499 ], [ -76.948070990965689, 35.124599000276994 ], [ -76.94836399087761, 35.124860000287867 ], [ -76.948138991623566, 35.125176999606033 ], [ -76.948156991568325, 35.125533999688834 ], [ -76.948398991294283, 35.125737999867084 ], [ -76.948561991174884, 35.123688999510819 ], [ -76.952113991709609, 35.125346000195989 ], [ -76.955641991457142, 35.125437999688053 ], [ -76.959141991644941, 35.127617999630679 ], [ -76.968464991569945, 35.129272999450542 ], [ -76.970771991305014, 35.131317000120923 ], [ -76.975139991416356, 35.133168999420477 ], [ -76.977346991700799, 35.135708999594584 ], [ -76.977984991138598, 35.138350999887848 ], [ -76.982017991471253, 35.141046999533593 ], [ -76.982071991075202, 35.143032999979162 ], [ -76.984900991162036, 35.145062000236166 ], [ -76.984978991404745, 35.147351000048943 ], [ -76.987336990846629, 35.151084999675426 ], [ -76.987555991155077, 35.154685999440687 ], [ -76.984919991585059, 35.155485999697447 ], [ -76.9780219915977, 35.155033999883216 ], [ -76.975926991248286, 35.155973999557176 ], [ -76.971967990785757, 35.159608000122745 ], [ -76.971260991002509, 35.161552000151389 ], [ -76.970174991200793, 35.162217999755811 ], [ -76.97175899130626, 35.166434000139496 ], [ -76.969241991701722, 35.171084000133682 ], [ -76.971375991602699, 35.175097000114775 ], [ -76.971404991158821, 35.176645999665347 ], [ -76.970287991221156, 35.177497000291019 ], [ -76.970330990866614, 35.179183999492082 ], [ -76.968166991216904, 35.17953899941277 ], [ -76.966183991674981, 35.182911999726144 ], [ -76.965732990954706, 35.188517999768052 ], [ -76.963419990937041, 35.194023000067808 ], [ -76.962929991389487, 35.197856999692718 ], [ -76.95948099114581, 35.202843000201987 ], [ -76.955520991178034, 35.205850999978225 ], [ -76.952807991124416, 35.206632999454591 ], [ -76.952408991606973, 35.207810999949103 ], [ -76.950777991711661, 35.208573000023229 ], [ -76.947056991712131, 35.209049000061057 ], [ -76.944510990960282, 35.210902999936366 ], [ -76.942628991483744, 35.213324000264066 ], [ -76.942547991754608, 35.219687999737744 ], [ -76.932589990802768, 35.230286000036912 ], [ -76.906080991086498, 35.235944999677542 ], [ -76.895918991539062, 35.253888999866831 ], [ -76.883302991262383, 35.244476999598668 ] ] ] } },
{ "type": "Feature", "properties": { "county": null, "precinct": null, "enr_desc": "Oriental", "winner": null, "winner_votes": null, "winner_share": null, "runner_up": null, "runner_up_votes": null, "runner_up_share": null, "contest_votes": null, "margin_of_victory": null, "is_tie": false, "results": null, "participated": false, "map_key": null }, "geometry": { "type": "Polygon", "coordinates": [ [ [ -76.678051991633083, 35.000869000278414 ], [ -76.702007991734803, 35.023704999808785 ], [ -76.709953991664563, 35.024629999807935 ], [ -76.715356991118412, 35.026271999679246 ], [ -76.722876991289141, 35.036817999755506 ], [ -76.726714991765036, 35.03939899958921 ], [ -76.729458991382188, 35.039933999651346 ], [ -76.729463991447531, 35.041953999740549 ], [ -76.733843991420841, 35.0457489994238 ], [ -76.735855991204673, 35.04614800003332 ], [ -76.731837991668471, 35.047943999844414 ], [ -76.721434991618594, 35.047961000266049 ], [ -76.721867991650257, 35.054163999890271 ], [ -76.725268991170566, 35.063679000264415 ], [ -76.712465991635, 35.065383999714037 ], [ -76.715232991662404, 35.07199899956597 ], [ -76.714265990960683, 35.072838000262038 ], [ -76.715147991271621, 35.075777999496758 ], [ -76.713003991725742, 35.081998999426055 ], [ -76.71329899092953, 35.085203000073996 ], [ -76.709883991063307, 35.087627999561001 ], [ -76.710024990882502, 35.090814999780292 ], [ -76.706747990734797, 35.087440999438911 ], [ -76.701693991215876, 35.084589999819151 ], [ -76.697795991590539, 35.083578999990124 ], [ -76.690178991318575, 35.084920000213536 ], [ -76.691517990912388, 35.086742999841704 ], [ -76.686107991089273, 35.088864999942118 ], [ -76.682126991354664, 35.089280999842089 ], [ -76.678489991714358, 35.087761999670576 ], [ -76.676224991439099, 35.084889000009433 ], [ -76.67048799110249, 35.086007999567251 ], [ -76.665045991200458, 35.084375999813084 ], [ -76.656559991120929, 35.088179999849068 ], [ -76.650780990896394, 35.093969999818285 ], [ -76.644598990963019, 35.112753000059449 ], [ -76.641936991498696, 35.115651999973423 ], [ -76.632900991439186, 35.118531000258926 ], [ -76.63379099077099, 35.122821999986776 ], [ -76.631250991279998, 35.126106000010473 ], [ -76.623176991604666, 35.128445999610086 ], [ -76.618125991635722, 35.125468999986659 ], [ -76.617093990992871, 35.121478999387861 ], [ -76.614515991520122, 35.118308999895277 ], [ -76.614065991421327, 35.119502000075691 ], [ -76.609229991300154, 35.123774999920236 ], [ -76.607194991446207, 35.12801899939052 ], [ -76.607844991076306, 35.133580000211197 ], [ -76.60230599130054, 35.139966999907969 ], [ -76.598857991615375, 35.140618999935541 ], [ -76.595391991402892, 35.142597999572814 ], [ -76.59363099161294, 35.146333999975795 ], [ -76.591058991461097, 35.148903000130368 ], [ -76.593451991084166, 35.158429000240666 ], [ -76.602847991788494, 35.173379000012709 ], [ -76.598344991105378, 35.175119000087271 ], [ -76.586728991090993, 35.183700999809986 ], [ -76.581721990834268, 35.186439000237819 ], [ -76.577666990801788, 35.187437999654428 ], [ -76.572209991274718, 35.187553000022859 ], [ -76.549969991193109, 35.176188999785758 ], [ -76.499651990979032, 35.152590000057835 ], [ -76.438669990772695, 35.130122999717926 ], [ -76.624650991634709, 35.03093100026706 ], [ -76.678051991633083, 35.000869000278414 ] ] ] } },
{ "type": "Feature", "properties": { "county": null, "precinct": null, "enr_desc": "Arapahoe", "winner": null, "winner_votes": null, "winner_share": null, "runner_up": null, "runner_up_votes": null, "runner_up_share": null, "contest_votes": null, "margin_of_victory": null, "is_tie": false, "results": null, "participated": false, "map_key": null }, "geometry": { "type": "Polygon", "coordinates": [ [ [ -76.678051991633083, 35.000869000278414 ], [ -76.75600299135786, 34.956150999659947 ], [ -76.761991990924727, 34.953832999511064 ], [ -76.771349990937878, 34.951392000109415 ], [ -76.780585990881988, 34.950434000228299 ], [ -76.812270991739425, 34.951285999928743 ], [ -76.827747990964852, 34.955116999540039 ], [ -76.893265990837889, 34.980284999494899 ], [ -76.901312991807814, 34.984096999888827 ], [ -76.949212991494363, 35.017459000068236 ], [ -76.953284991101839, 35.021248000065221 ], [ -76.959282991369918, 35.029277999800705 ], [ -76.917277990874382, 35.055221999975579 ], [ -76.916459991622574, 35.056001000074858 ], [ -76.913756991215038, 35.053846999777114 ], [ -76.908253991615439, 35.05547300023408 ], [ -76.904969990740867, 35.058667999896642 ], [ -76.899949991022766, 35.060285000206449 ], [ -76.898412990895082, 35.062600999778688 ], [ -76.887115991058991, 35.073206999893095 ], [ -76.883423991413835, 35.073950000003677 ], [ -76.882013991552242, 35.065720000175816 ], [ -76.880648991603593, 35.063312999840534 ], [ -76.880948991059924, 35.059084000139073 ], [ -76.876686991512301, 35.062090999894664 ], [ -76.806822991446793, 35.054245999606223 ], [ -76.735855991204673, 35.04614800003332 ], [ -76.733843991420841, 35.0457489994238 ], [ -76.729463991447531, 35.041953999740549 ], [ -76.729458991382188, 35.039933999651346 ], [ -76.726714991765036, 35.03939899958921 ], [ -76.722876991289141, 35.036817999755506 ], [ -76.715356991118412, 35.026271999679246 ], [ -76.709953991664563, 35.024629999807935 ], [ -76.702007991734803, 35.023704999808785 ], [ -76.678051991633083, 35.000869000278414 ] ] ] } },
{ "type": "Feature", "properties": { "county": "PAMLICO", "precinct": "4BR", "enr_desc": "Bay River", "winner": "Myra Stokes Carter", "winner_votes": 35.0, "winner_share": 85.365853658536579, "runner_up": "Carinna A. Smith", "runner_up_votes": 6.0, "runner_up_share": 14.634146341463413, "contest_votes": 41.0, "margin_of_victory": 70.731707317073159, "is_tie": false, "results": [ { "candidate": "Myra Stokes Carter", "votes": 35, "share": 85.36585365853658 }, { "candidate": "Carinna A. Smith", "votes": 6, "share": 14.634146341463413 } ], "participated": true, "map_key": "PAMLICO_4BR" }, "geometry": { "type": "Polygon", "coordinates": [ [ [ -76.438669990772695, 35.130122999717926 ], [ -76.499651990979032, 35.152590000057835 ], [ -76.549969991193109, 35.176188999785758 ], [ -76.572209991274718, 35.187553000022859 ], [ -76.577666990801788, 35.187437999654428 ], [ -76.581721990834268, 35.186439000237819 ], [ -76.586728991090993, 35.183700999809986 ], [ -76.598344991105378, 35.175119000087271 ], [ -76.602847991788494, 35.173379000012709 ], [ -76.624647991700883, 35.16839200016652 ], [ -76.653457991616278, 35.171051999751278 ], [ -76.659223990793421, 35.170086999767562 ], [ -76.663346991456365, 35.168161999814068 ], [ -76.676039991483137, 35.177806000243947 ], [ -76.68317499089585, 35.181352999872225 ], [ -76.685730991284458, 35.179281999749136 ], [ -76.687571990895734, 35.180308999767583 ], [ -76.688566991327036, 35.181955999488579 ], [ -76.696379991539303, 35.185805999715612 ], [ -76.684174991276137, 35.205599999726331 ], [ -76.68327999100454, 35.205537999915016 ], [ -76.665248990961175, 35.232474999484964 ], [ -76.632385991458605, 35.235602999486602 ], [ -76.61463899079331, 35.270428999517982 ], [ -76.613772991778674, 35.27094200001256 ], [ -76.61454599153258, 35.272467999895682 ], [ -76.614249991294201, 35.274784999535896 ], [ -76.612164991000739, 35.279408999779946 ], [ -76.614420990676663, 35.285409000137051 ], [ -76.614318990764318, 35.291568999923896 ], [ -76.619358991406529, 35.302284000157293 ], [ -76.616234991736022, 35.314678999596296 ], [ -76.617395990916506, 35.326832999874938 ], [ -76.617032991742889, 35.330870999638108 ], [ -76.612843990819059, 35.334822999482945 ], [ -76.604228990686764, 35.33822300001686 ], [ -76.590496991286315, 35.361857000052147 ], [ -76.52213099073758, 35.353622999532043 ], [ -76.518673990885205, 35.348001999433748 ], [ -76.485927991078867, 35.34266599948478 ], [ -76.463755990689776, 35.33813399948761 ], [ -76.454737991449363, 35.334376000118262 ], [ -76.44541799170895, 35.329264000206635 ], [ -76.430976991028515, 35.31675000023246 ], [ -76.304135990711458, 35.201453000234679 ], [ -76.438669990772695, 35.130122999717926 ] ] ] } },
{ "type": "Feature", "properties": { "county": "PAMLICO", "precinct": "3CH", "enr_desc": "Courthouse", "winner": "Myra Stokes Carter", "winner_votes": 100.0, "winner_share": 81.300813008130078, "runner_up": "Carinna A. Smith", "runner_up_votes": 23.0, "runner_up_share": 18.699186991869919, "contest_votes": 123.0, "margin_of_victory": 62.601626016260155, "is_tie": false, "results": [ { "candidate": "Myra Stokes Carter", "votes": 100, "share": 81.30081300813008 }, { "candidate": "Carinna A. Smith", "votes": 23, "share": 18.69918699186992 } ], "participated": true, "map_key": "PAMLICO_3CH" }, "geometry": { "type": "Polygon", "coordinates": [ [ [ -76.602847991788494, 35.173379000012709 ], [ -76.593451991084166, 35.158429000240666 ], [ -76.591058991461097, 35.148903000130368 ], [ -76.59363099161294, 35.146333999975795 ], [ -76.595391991402892, 35.142597999572814 ], [ -76.598857991615375, 35.140618999935541 ], [ -76.60230599130054, 35.139966999907969 ], [ -76.607844991076306, 35.133580000211197 ], [ -76.607194991446207, 35.12801899939052 ], [ -76.609229991300154, 35.123774999920236 ], [ -76.614065991421327, 35.119502000075691 ], [ -76.614515991520122, 35.118308999895277 ], [ -76.617093990992871, 35.121478999387861 ], [ -76.618125991635722, 35.125468999986659 ], [ -76.623176991604666, 35.128445999610086 ], [ -76.631250991279998, 35.126106000010473 ], [ -76.63379099077099, 35.122821999986776 ], [ -76.632900991439186, 35.118531000258926 ], [ -76.641936991498696, 35.115651999973423 ], [ -76.644598990963019, 35.112753000059449 ], [ -76.650780990896394, 35.093969999818285 ], [ -76.656559991120929, 35.088179999849068 ], [ -76.665045991200458, 35.084375999813084 ], [ -76.67048799110249, 35.086007999567251 ], [ -76.676224991439099, 35.084889000009433 ], [ -76.678489991714358, 35.087761999670576 ], [ -76.682126991354664, 35.089280999842089 ], [ -76.686107991089273, 35.088864999942118 ], [ -76.691517990912388, 35.086742999841704 ], [ -76.690178991318575, 35.084920000213536 ], [ -76.697795991590539, 35.083578999990124 ], [ -76.701693991215876, 35.084589999819151 ], [ -76.706747990734797, 35.087440999438911 ], [ -76.710024990882502, 35.090814999780292 ], [ -76.709883991063307, 35.087627999561001 ], [ -76.71329899092953, 35.085203000073996 ], [ -76.713003991725742, 35.081998999426055 ], [ -76.715147991271621, 35.075777999496758 ], [ -76.714265990960683, 35.072838000262038 ], [ -76.715232991662404, 35.07199899956597 ], [ -76.712465991635, 35.065383999714037 ], [ -76.725268991170566, 35.063679000264415 ], [ -76.721867991650257, 35.054163999890271 ], [ -76.721434991618594, 35.047961000266049 ], [ -76.731837991668471, 35.047943999844414 ], [ -76.735855991204673, 35.04614800003332 ], [ -76.806822991446793, 35.054245999606223 ], [ -76.815778990782107, 35.131961999811956 ], [ -76.814613990826416, 35.133731999418472 ], [ -76.804329990730423, 35.125529999859673 ], [ -76.805748991675458, 35.11930499949262 ], [ -76.804160991632287, 35.117930999510392 ], [ -76.803296991361606, 35.118160000109043 ], [ -76.789280990954339, 35.112755999566943 ], [ -76.780382991032283, 35.118865000093422 ], [ -76.783306991077396, 35.13448600016423 ], [ -76.784062991357274, 35.133376999431725 ], [ -76.784014991279406, 35.145139999678477 ], [ -76.791794991468365, 35.1456520001813 ], [ -76.791601991190944, 35.147726999941952 ], [ -76.797972991382636, 35.148323999742395 ], [ -76.797827991536451, 35.149282999694719 ], [ -76.801554991717751, 35.149761000204315 ], [ -76.800659991440369, 35.152000000124474 ], [ -76.801490991516076, 35.154726000055305 ], [ -76.805424991711718, 35.154957000191828 ], [ -76.805393991188978, 35.154305000051075 ], [ -76.810203990958058, 35.153814999949404 ], [ -76.810128990814775, 35.152803000256853 ], [ -76.815637991585064, 35.15198300009996 ], [ -76.819152990695969, 35.161464000081033 ], [ -76.814332991033723, 35.162587000124716 ], [ -76.805581991074192, 35.159402999609178 ], [ -76.802043991086478, 35.162301000069114 ], [ -76.816954991429512, 35.168818000271202 ], [ -76.814950990770015, 35.173350999863217 ], [ -76.817812991016822, 35.181687999743936 ], [ -76.804004991410267, 35.18572300021259 ], [ -76.804395991162721, 35.190636000099794 ], [ -76.81115799119631, 35.188880999685622 ], [ -76.813983991150593, 35.219107999448383 ], [ -76.665248990961175, 35.232474999484964 ], [ -76.68327999100454, 35.205537999915016 ], [ -76.684174991276137, 35.205599999726331 ], [ -76.696379991539303, 35.185805999715612 ], [ -76.688566991327036, 35.181955999488579 ], [ -76.687571990895734, 35.180308999767583 ], [ -76.685730991284458, 35.179281999749136 ], [ -76.68317499089585, 35.181352999872225 ], [ -76.676039991483137, 35.177806000243947 ], [ -76.663346991456365, 35.168161999814068 ], [ -76.659223990793421, 35.170086999767562 ], [ -76.653457991616278, 35.171051999751278 ], [ -76.624647991700883, 35.16839200016652 ], [ -76.602847991788494, 35.173379000012709 ] ] ] } },
{ "type": "Feature", "properties": { "county": null, "precinct": null, "enr_desc": "Crossroads", "winner": null, "winner_votes": null, "winner_share": null, "runner_up": null, "runner_up_votes": null, "runner_up_share": null, "contest_votes": null, "margin_of_victory": null, "is_tie": false, "results": null, "participated": false, "map_key": null }, "geometry": { "type": "Polygon", "coordinates": [ [ [ -76.813983991150593, 35.219107999448383 ], [ -76.81115799119631, 35.188880999685622 ], [ -76.804395991162721, 35.190636000099794 ], [ -76.804004991410267, 35.18572300021259 ], [ -76.817812991016822, 35.181687999743936 ], [ -76.814950990770015, 35.173350999863217 ], [ -76.816954991429512, 35.168818000271202 ], [ -76.802043991086478, 35.162301000069114 ], [ -76.805581991074192, 35.159402999609178 ], [ -76.814332991033723, 35.162587000124716 ], [ -76.819152990695969, 35.161464000081033 ], [ -76.815637991585064, 35.15198300009996 ], [ -76.810128990814775, 35.152803000256853 ], [ -76.810203990958058, 35.153814999949404 ], [ -76.805393991188978, 35.154305000051075 ], [ -76.805424991711718, 35.154957000191828 ], [ -76.801490991516076, 35.154726000055305 ], [ -76.800659991440369, 35.152000000124474 ], [ -76.801554991717751, 35.149761000204315 ], [ -76.797827991536451, 35.149282999694719 ], [ -76.797972991382636, 35.148323999742395 ], [ -76.791601991190944, 35.147726999941952 ], [ -76.791794991468365, 35.1456520001813 ], [ -76.784014991279406, 35.145139999678477 ], [ -76.784062991357274, 35.133376999431725 ], [ -76.783306991077396, 35.13448600016423 ], [ -76.780382991032283, 35.118865000093422 ], [ -76.789280990954339, 35.112755999566943 ], [ -76.803296991361606, 35.118160000109043 ], [ -76.804160991632287, 35.117930999510392 ], [ -76.805748991675458, 35.11930499949262 ], [ -76.804329990730423, 35.125529999859673 ], [ -76.814613990826416, 35.133731999418472 ], [ -76.815778990782107, 35.131961999811956 ], [ -76.806822991446793, 35.054245999606223 ], [ -76.876686991512301, 35.062090999894664 ], [ -76.880948991059924, 35.059084000139073 ], [ -76.880648991603593, 35.063312999840534 ], [ -76.882013991552242, 35.065720000175816 ], [ -76.883423991413835, 35.073950000003677 ], [ -76.887115991058991, 35.073206999893095 ], [ -76.898412990895082, 35.062600999778688 ], [ -76.899949991022766, 35.060285000206449 ], [ -76.904969990740867, 35.058667999896642 ], [ -76.908253991615439, 35.05547300023408 ], [ -76.913756991215038, 35.053846999777114 ], [ -76.916459991622574, 35.056001000074858 ], [ -76.917277990874382, 35.055221999975579 ], [ -76.916993990896572, 35.058888000238355 ], [ -76.919839991226894, 35.064163999423172 ], [ -76.91959399151888, 35.065501999418366 ], [ -76.916990991048408, 35.0684999994618 ], [ -76.915821991484549, 35.071502999757939 ], [ -76.915533991780592, 35.076242000005053 ], [ -76.913990991758041, 35.078855999761601 ], [ -76.912882991209784, 35.079320000140271 ], [ -76.913091991149273, 35.080424999694607 ], [ -76.908037991219999, 35.083898999838205 ], [ -76.904920991488055, 35.089457999661043 ], [ -76.900728991388718, 35.090983000073415 ], [ -76.899056990777936, 35.093790999512002 ], [ -76.900458990991581, 35.09775899945268 ], [ -76.897703990897369, 35.09945600005809 ], [ -76.894217990939751, 35.10462600011936 ], [ -76.893227990743483, 35.104812999905029 ], [ -76.892044991379393, 35.103646999460139 ], [ -76.88784299176784, 35.104185999855076 ], [ -76.883861991245325, 35.102505999511799 ], [ -76.882736991449576, 35.102867999518978 ], [ -76.881749991214704, 35.104948999866856 ], [ -76.880287991295347, 35.105680000239374 ], [ -76.877833990795267, 35.11039600028446 ], [ -76.869741991215349, 35.11448499966226 ], [ -76.868511990952413, 35.119997999656839 ], [ -76.865454990971614, 35.121882999879602 ], [ -76.864808991630866, 35.123228999472538 ], [ -76.864670990963248, 35.132011999842895 ], [ -76.863087991485557, 35.13443599951205 ], [ -76.864587990910351, 35.136853999891933 ], [ -76.866601991275871, 35.137940999759707 ], [ -76.867452991072582, 35.140386000153441 ], [ -76.864745991336562, 35.144217000267119 ], [ -76.857830991318608, 35.148852999957825 ], [ -76.855141991288519, 35.149529999960563 ], [ -76.85454099165446, 35.151282999559811 ], [ -76.854453990812502, 35.164230000087521 ], [ -76.85658999098608, 35.18143499972512 ], [ -76.858750991716065, 35.220501999917033 ], [ -76.886440991371856, 35.241596999803377 ], [ -76.883302991262383, 35.244476999598668 ], [ -76.845504991401086, 35.216059000031656 ], [ -76.813983991150593, 35.219107999448383 ] ] ] } }
]
}
