{
"type": "FeatureCollection",
"name": "pasquotank_county_sheriff_rep",
"crs": { "type": "name", "properties": { "name": "urn:ogc:def:crs:OGC:1.3:CRS84" } },
"features": [
{ "type": "Feature", "properties": { "county": "PASQUOTANK", "precinct": "EAST", "enr_desc": "East Elizabeth City", "winner": "Tommy Wooten", "winner_votes": 307, "winner_share": 69.14414414414415, "runner_up": "Juanita (Nina) Daniels", "runner_up_votes": 137, "runner_up_share": 30.855855855855857, "contest_votes": 444, "margin_of_victory": 38.288288288288292, "is_tie": false, "results": [ { "candidate": "Tommy Wooten", "votes": 307, "share": 69.14414414414415 }, { "candidate": "Juanita (Nina) Daniels", "votes": 137, "share": 30.855855855855857 } ], "participated": true, "map_key": "PASQUOTANK_EAST" }, "geometry": { "type": "Polygon", "coordinates": [ [ [ -76.250133991666701, 36.298133999386906 ], [ -76.246169990894458, 36.299485000151186 ], [ -76.237782990740413, 36.303421999547972 ], [ -76.229121991285524, 36.300957999370809 ], [ -76.223763991397206, 36.30027200016751 ], [ -76.223262990629067, 36.302153999351049 ], [ -76.217053990866347, 36.301200999523431 ], [ -76.217452990879863, 36.299373999348582 ], [ -76.216519990987436, 36.298411000146309 ], [ -76.205099991374922, 36.296909999543885 ], [ -76.201544991499219, 36.295296999598577 ], [ -76.19851099118452, 36.291764999518549 ], [ -76.196451991156025, 36.291158999961162 ], [ -76.192068990611787, 36.286906999646959 ], [ -76.189408991097594, 36.287167999401099 ], [ -76.1895569905831, 36.283788000046883 ], [ -76.188403991173757, 36.279996999783066 ], [ -76.185258991144565, 36.276541999463326 ], [ -76.181899990969683, 36.275990999766101 ], [ -76.181017990671407, 36.27258899949927 ], [ -76.191873991165409, 36.26254300012242 ], [ -76.193955990716503, 36.26328099985767 ], [ -76.19450099112251, 36.26664899938465 ], [ -76.196881990872185, 36.264462999807101 ], [ -76.199080990566543, 36.265210000101106 ], [ -76.199043991118216, 36.26686399946135 ], [ -76.199773991120352, 36.275552000038985 ], [ -76.196721991559116, 36.281380999712766 ], [ -76.200173991192841, 36.285141999497732 ], [ -76.205991991462113, 36.284826000094313 ], [ -76.205322991500964, 36.286473000176613 ], [ -76.207606990831479, 36.287185999698885 ], [ -76.208400991150683, 36.286402999575031 ], [ -76.210583991361872, 36.286955999766278 ], [ -76.209385990998726, 36.289810999390006 ], [ -76.216891990661182, 36.29045699987681 ], [ -76.217595990744258, 36.292838999529508 ], [ -76.220141991088781, 36.290984999696114 ], [ -76.222477991456586, 36.292066000068075 ], [ -76.223746991511121, 36.296536999559876 ], [ -76.237552991627609, 36.295133999724342 ], [ -76.237266991056288, 36.297716999580494 ], [ -76.250133991666701, 36.298133999386906 ] ] ] } },
{ "type": "Feature", "properties": { "county": "PASQUOTANK", "precinct": "MH", "enr_desc": "Mt  Hermon", "winner": "Tommy Wooten", "winner_votes": 505, "winner_share": 73.615160349854222, "runner_up": "Juanita (Nina) Daniels", "runner_up_votes": 181, "runner_up_share": 26.384839650145775, "contest_votes": 686, "margin_of_victory": 47.230320699708443, "is_tie": false, "results": [ { "candidate": "Tommy Wooten", "votes": 505, "share": 73.61516034985422 }, { "candidate": "Juanita (Nina) Daniels", "votes": 181, "share": 26.384839650145775 } ], "participated": true, "map_key": "PASQUOTANK_MH" }, "geometry": { "type": "Polygon", "coordinates": [ [ [ -76.286399990688281, 36.216736999487232 ], [ -76.289911990973195, 36.218200999669143 ], [ -76.289729990662408, 36.221643000097281 ], [ -76.290437990757496, 36.223460999790341 ], [ -76.293353991640629, 36.22240700011308 ], [ -76.294947991109296, 36.222998 ], [ -76.299414990894135, 36.221855999507476 ], [ -76.30057199142378, 36.222878999831217 ], [ -76.30376899150059, 36.221815999912856 ], [ -76.304722990670527, 36.224278000160183 ], [ -76.304192991294386, 36.225962999935135 ], [ -76.305066991138489, 36.225929000174794 ], [ -76.30474999099556, 36.226560999538648 ], [ -76.306038991161813, 36.227593000206724 ], [ -76.307025990610214, 36.227531999802665 ], [ -76.30711799066917, 36.230248999886456 ], [ -76.309795990951201, 36.231669999976518 ], [ -76.310284991140293, 36.231086999643431 ], [ -76.311837991419168, 36.23247500020458 ], [ -76.314673991221269, 36.232711000075739 ], [ -76.31627899109796, 36.236908999393741 ], [ -76.315994991514984, 36.238089000262143 ], [ -76.317728991419202, 36.240408999898555 ], [ -76.324793991349665, 36.240442000015648 ], [ -76.332225991364254, 36.24443799986939 ], [ -76.33729199141672, 36.240789999396078 ], [ -76.340611990717463, 36.241424999735287 ], [ -76.343535990881151, 36.243254000021651 ], [ -76.3439229911382, 36.244600999808334 ], [ -76.342778990616225, 36.245716999950808 ], [ -76.343362991142868, 36.246778999415753 ], [ -76.347448991175412, 36.249788999877367 ], [ -76.34930799166095, 36.24978400009558 ], [ -76.352077990964759, 36.251446999523253 ], [ -76.355672990586328, 36.251285999546582 ], [ -76.357539990923897, 36.252317999683839 ], [ -76.360599991501147, 36.252415000096171 ], [ -76.369592990618429, 36.255698000047424 ], [ -76.37487999073538, 36.25865399995341 ], [ -76.377938991416784, 36.269261000051429 ], [ -76.375847990623498, 36.27185799944575 ], [ -76.375811991533254, 36.274077999458648 ], [ -76.377125990869757, 36.275640000082987 ], [ -76.380227991231578, 36.275327999915064 ], [ -76.381828991313895, 36.276405999448393 ], [ -76.386459991658782, 36.283588999651236 ], [ -76.389146990752081, 36.284793999611843 ], [ -76.391944990602312, 36.287484999569642 ], [ -76.392414991014135, 36.28951600010663 ], [ -76.391789991174576, 36.290728999503131 ], [ -76.394334990856365, 36.291884000035601 ], [ -76.394923991612401, 36.293089999858424 ], [ -76.273467991388813, 36.308833000090317 ], [ -76.254473991349627, 36.309431000083144 ], [ -76.263370991161182, 36.300686999977863 ], [ -76.263375990835243, 36.299158000075444 ], [ -76.248980990966956, 36.300210999885238 ], [ -76.246169990894458, 36.299485000151186 ], [ -76.250133991666701, 36.298133999386906 ], [ -76.258081991011338, 36.295403999759777 ], [ -76.254231990681873, 36.293339000112063 ], [ -76.253641991349397, 36.290270999370897 ], [ -76.255004990742933, 36.29114499984064 ], [ -76.258086991488781, 36.289730999477655 ], [ -76.267275990929036, 36.289988999350662 ], [ -76.269737991253251, 36.289283999459151 ], [ -76.270180990814524, 36.291066000188813 ], [ -76.275548990919162, 36.289274999519336 ], [ -76.275596991477812, 36.288560999855768 ], [ -76.273008991077333, 36.287128999960601 ], [ -76.275548991429829, 36.284896999518686 ], [ -76.275976990678885, 36.285304999635244 ], [ -76.278330990697981, 36.282545999373042 ], [ -76.27537999151717, 36.280333999766718 ], [ -76.273655991343006, 36.281467999931749 ], [ -76.273533990592554, 36.283820999943778 ], [ -76.27213299129096, 36.284788999974388 ], [ -76.272234991512121, 36.283979999374438 ], [ -76.270999991079847, 36.283805999351237 ], [ -76.26989599123587, 36.285287000096766 ], [ -76.267034990660605, 36.284020999611123 ], [ -76.261937990886466, 36.285374999480837 ], [ -76.26153699111839, 36.283947999693133 ], [ -76.256387990807028, 36.283652999536429 ], [ -76.256120991095415, 36.282880000022921 ], [ -76.259927990669667, 36.280023999717095 ], [ -76.259557991657672, 36.279094999473628 ], [ -76.258028990879012, 36.279418999581623 ], [ -76.256367991316367, 36.276601000122909 ], [ -76.25421099102401, 36.278709999463679 ], [ -76.250584991286317, 36.278325000019095 ], [ -76.249258991386412, 36.282333000164243 ], [ -76.248260991256444, 36.282062999754665 ], [ -76.246710991594966, 36.284963999679604 ], [ -76.244170991556487, 36.285175999520327 ], [ -76.244332991583178, 36.286534000069217 ], [ -76.240718991236406, 36.2854629995972 ], [ -76.239939990585142, 36.283567999371286 ], [ -76.238899990892378, 36.283705999378277 ], [ -76.235879991535469, 36.281733999632003 ], [ -76.249520991010058, 36.259679000163139 ], [ -76.252776991203646, 36.252274000216836 ], [ -76.254949991342187, 36.24588699962608 ], [ -76.254267991273451, 36.238555999492647 ], [ -76.252134991318357, 36.235056000234465 ], [ -76.252319991070294, 36.232761999695299 ], [ -76.257393990665818, 36.228068999465115 ], [ -76.258936991252554, 36.222854999890714 ], [ -76.266770991280055, 36.223116999709688 ], [ -76.273368990890475, 36.218787999984087 ], [ -76.276202991233092, 36.220093999510645 ], [ -76.278162991438052, 36.217158000158513 ], [ -76.280311991008574, 36.217035999948017 ], [ -76.281246990896236, 36.218323999493812 ], [ -76.286399990688281, 36.216736999487232 ] ] ] } },
{ "type": "Feature", "properties": { "county": "PASQUOTANK", "precinct": "NIX", "enr_desc": "Nixonton", "winner": "Tommy Wooten", "winner_votes": 704, "winner_share": 81.387283236994222, "runner_up": "Juanita (Nina) Daniels", "runner_up_votes": 161, "runner_up_share": 18.612716763005778, "contest_votes": 865, "margin_of_victory": 62.774566473988443, "is_tie": false, "results": [ { "candidate": "Tommy Wooten", "votes": 704, "share": 81.38728323699422 }, { "candidate": "Juanita (Nina) Daniels", "votes": 161, "share": 18.61271676300578 } ], "participated": true, "map_key": "PASQUOTANK_NIX" }, "geometry": { "type": "Polygon", "coordinates": [ [ [ -76.243638991532222, 36.166017999762914 ], [ -76.251407991324754, 36.169488999588197 ], [ -76.259879990921689, 36.179526999512348 ], [ -76.271927991171168, 36.185722999976697 ], [ -76.273123990899023, 36.187607999796285 ], [ -76.273283991473903, 36.195178999910496 ], [ -76.279304991500155, 36.198243999989394 ], [ -76.280000991142785, 36.199367999757207 ], [ -76.28010099140441, 36.203189999917818 ], [ -76.284063991632308, 36.208047999378785 ], [ -76.286520990804135, 36.209825999842622 ], [ -76.288421991037652, 36.21326099955337 ], [ -76.28800099148495, 36.214057999630008 ], [ -76.285051991015436, 36.214722999871341 ], [ -76.285034991132648, 36.215787999483311 ], [ -76.286399990688281, 36.216736999487232 ], [ -76.281246990896236, 36.218323999493812 ], [ -76.280311991008574, 36.217035999948017 ], [ -76.278162991438052, 36.217158000158513 ], [ -76.276202991233092, 36.220093999510645 ], [ -76.273368990890475, 36.218787999984087 ], [ -76.266770991280055, 36.223116999709688 ], [ -76.258936991252554, 36.222854999890714 ], [ -76.257393990665818, 36.228068999465115 ], [ -76.252319991070294, 36.232761999695299 ], [ -76.252134991318357, 36.235056000234465 ], [ -76.254267991273451, 36.238555999492647 ], [ -76.254949991342187, 36.24588699962608 ], [ -76.252776991203646, 36.252274000216836 ], [ -76.249520991010058, 36.259679000163139 ], [ -76.235879991535469, 36.281733999632003 ], [ -76.234773990721166, 36.282766999797992 ], [ -76.230282991428027, 36.279885999878871 ], [ -76.229544991412027, 36.277791999860746 ], [ -76.227924991400911, 36.276974999562633 ], [ -76.228248990991872, 36.273158999837044 ], [ -76.225663991344433, 36.272639999821131 ], [ -76.225474990645566, 36.273635000024804 ], [ -76.224013991503199, 36.273131000225128 ], [ -76.226379990659623, 36.264711999369531 ], [ -76.221534991171708, 36.264650999620741 ], [ -76.221554991332141, 36.26245700016608 ], [ -76.21641799093274, 36.260966999986877 ], [ -76.215319991279102, 36.26381899964246 ], [ -76.216012991212295, 36.263832999416778 ], [ -76.215836990611677, 36.264422999879223 ], [ -76.21159899083149, 36.264165999571553 ], [ -76.201457991373772, 36.261625999353569 ], [ -76.200774991292121, 36.262731999958397 ], [ -76.213761990733772, 36.271840999732724 ], [ -76.211925991204268, 36.273359999435897 ], [ -76.211403990865804, 36.272327999843576 ], [ -76.209893990698319, 36.273401999473137 ], [ -76.201453991418063, 36.266880999431663 ], [ -76.199043991118216, 36.26686399946135 ], [ -76.199080990566543, 36.265210000101106 ], [ -76.196881990872185, 36.264462999807101 ], [ -76.19450099112251, 36.26664899938465 ], [ -76.193955990716503, 36.26328099985767 ], [ -76.191873991165409, 36.26254300012242 ], [ -76.181017990671407, 36.27258899949927 ], [ -76.181899990969683, 36.275990999766101 ], [ -76.185258991144565, 36.276541999463326 ], [ -76.188403991173757, 36.279996999783066 ], [ -76.1895569905831, 36.283788000046883 ], [ -76.189408991097594, 36.287167999401099 ], [ -76.192068990611787, 36.286906999646959 ], [ -76.196451991156025, 36.291158999961162 ], [ -76.183697991024786, 36.293259999851855 ], [ -76.17931399141041, 36.292953999746892 ], [ -76.177615990733159, 36.292089000147293 ], [ -76.175248991174868, 36.289046999889777 ], [ -76.17390899122114, 36.285078000066981 ], [ -76.172196990645531, 36.282712999339246 ], [ -76.163947990837343, 36.277043999913822 ], [ -76.147876991201983, 36.276637999983471 ], [ -76.14320199075658, 36.275705000104146 ], [ -76.134893991166265, 36.271666999379384 ], [ -76.124579990791034, 36.26396299973382 ], [ -76.120262991493817, 36.259243999379649 ], [ -76.105298990847018, 36.240075999530589 ], [ -76.100968991196837, 36.23015700003733 ], [ -76.121794991093083, 36.21783299970987 ], [ -76.125396991572472, 36.217337000095696 ], [ -76.135518991306157, 36.220819000209467 ], [ -76.142871990818165, 36.221094000058933 ], [ -76.151070991611377, 36.218290999691639 ], [ -76.150897991242701, 36.217285999617701 ], [ -76.148891991047506, 36.216349999899606 ], [ -76.149275990930946, 36.214526999464859 ], [ -76.152223990835921, 36.213597999379026 ], [ -76.153231991638094, 36.212395999387084 ], [ -76.156529991651482, 36.212837999658483 ], [ -76.159150991201983, 36.212143000239834 ], [ -76.159259991128579, 36.211323000005741 ], [ -76.157682991252756, 36.210638999600313 ], [ -76.158221991387776, 36.209400999998927 ], [ -76.162019991687416, 36.208808999380047 ], [ -76.164416991207077, 36.210318999748473 ], [ -76.167477991587489, 36.209166999634796 ], [ -76.167538991667882, 36.207859999362725 ], [ -76.169197991089376, 36.206580999441748 ], [ -76.170328990701321, 36.206914999789682 ], [ -76.170545991526993, 36.207988999594363 ], [ -76.17346899097079, 36.209132000197386 ], [ -76.180026991658096, 36.206963999643932 ], [ -76.211056991503924, 36.19260000013665 ], [ -76.228394991544832, 36.191352999999204 ], [ -76.22847699143702, 36.188536999541569 ], [ -76.231450990780303, 36.179972999825594 ], [ -76.232476990840453, 36.178794999642662 ], [ -76.23078399163326, 36.174599999932497 ], [ -76.231060991038206, 36.172645000175862 ], [ -76.243638991532222, 36.166017999762914 ] ] ] } },
{ "type": "Feature", "properties": { "county": "PASQUOTANK", "precinct": "NEW", "enr_desc": "Newland", "winner": "Tommy Wooten", "winner_votes": 209, "winner_share": 73.591549295774655, "runner_up": "Juanita (Nina) Daniels", "runner_up_votes": 75, "runner_up_share": 26.408450704225352, "contest_votes": 284, "margin_of_victory": 47.183098591549303, "is_tie": false, "results": [ { "candidate": "Tommy Wooten", "votes": 209, "share": 73.59154929577466 }, { "candidate": "Juanita (Nina) Daniels", "votes": 75, "share": 26.408450704225352 } ], "participated": true, "map_key": "PASQUOTANK_NEW" }, "geometry": { "type": "Polygon", "coordinates": [ [ [ -76.395587991155608, 36.297185999783508 ], [ -76.397968990847588, 36.300402000119561 ], [ -76.401729990955403, 36.301618999485314 ], [ -76.447631990854248, 36.363737999447608 ], [ -76.491404991296292, 36.46864799998594 ], [ -76.491335991215024, 36.510677000086339 ], [ -76.437285991229615, 36.467846000087313 ], [ -76.430884991274525, 36.466901999468391 ], [ -76.422709990820607, 36.464386000071286 ], [ -76.421130990904885, 36.461867999544786 ], [ -76.41737699064592, 36.460481999989248 ], [ -76.414753990925007, 36.460487999403995 ], [ -76.411726990939499, 36.458322999606942 ], [ -76.410869991188932, 36.456453999579828 ], [ -76.407822991530892, 36.455785000240276 ], [ -76.407892991355368, 36.454739999663829 ], [ -76.406989991382517, 36.454175000081896 ], [ -76.404353991104443, 36.45501900006132 ], [ -76.399599990863422, 36.454814999525865 ], [ -76.398664990864461, 36.455502999933678 ], [ -76.396816990995589, 36.454476999936851 ], [ -76.394748990693017, 36.454548999862084 ], [ -76.391988990624085, 36.452839000159095 ], [ -76.386816990745515, 36.446892000131626 ], [ -76.382472990795591, 36.447476999371553 ], [ -76.379568990756184, 36.44603199969044 ], [ -76.376551991274667, 36.445860999807991 ], [ -76.376043991168629, 36.442428999636135 ], [ -76.371144990974855, 36.441381000162536 ], [ -76.372695990974975, 36.440234000013461 ], [ -76.37209899096834, 36.439543000026845 ], [ -76.369664991556036, 36.44034599978454 ], [ -76.367353990581989, 36.439353000172154 ], [ -76.369328991241701, 36.435371999652737 ], [ -76.367466991059089, 36.43371299987507 ], [ -76.367428991528072, 36.431222000227237 ], [ -76.364216991412476, 36.429479000112096 ], [ -76.361826990902145, 36.429095999788423 ], [ -76.35691199133646, 36.426630999510657 ], [ -76.349105990774731, 36.428579000058349 ], [ -76.347409991346012, 36.428165999972826 ], [ -76.347320990582645, 36.425221999503876 ], [ -76.348343990759943, 36.423363999818065 ], [ -76.347439990643821, 36.422170000155766 ], [ -76.344595991014231, 36.421336999900468 ], [ -76.341286991434899, 36.421840000010391 ], [ -76.339729990937599, 36.424113999764259 ], [ -76.338367991147877, 36.424770999401375 ], [ -76.336978991486106, 36.424328000065842 ], [ -76.332892990963515, 36.425448000205215 ], [ -76.32957299082139, 36.423849999748747 ], [ -76.322171990604929, 36.427456000231786 ], [ -76.320573990869917, 36.426300999473263 ], [ -76.320009991577621, 36.423125000128948 ], [ -76.320437991017911, 36.421895999958664 ], [ -76.323055990869818, 36.420227999561988 ], [ -76.323064991600333, 36.417241999974102 ], [ -76.317734991239902, 36.412501999360117 ], [ -76.314635990748997, 36.410841999593941 ], [ -76.314451990931531, 36.408315999549131 ], [ -76.311664991466131, 36.407694999793691 ], [ -76.310380991587294, 36.40615499978373 ], [ -76.309847991301268, 36.404793999497294 ], [ -76.310540990890516, 36.401925999825963 ], [ -76.304506990689134, 36.400304000114915 ], [ -76.303209991389807, 36.400924999786156 ], [ -76.301846990686656, 36.400504000055378 ], [ -76.299754990942205, 36.394671999624364 ], [ -76.306778990760833, 36.387002000014377 ], [ -76.310006990611058, 36.386452999838518 ], [ -76.311790991585454, 36.387094000224323 ], [ -76.317034991491923, 36.384776999995751 ], [ -76.318500990867975, 36.383120999730387 ], [ -76.318910991214892, 36.380513000082722 ], [ -76.32018899160775, 36.378473999486779 ], [ -76.372245991326309, 36.378746000122206 ], [ -76.378134991481758, 36.324667999464303 ], [ -76.383006991447573, 36.310934999374659 ], [ -76.393124990656361, 36.306172000084885 ], [ -76.394075991191158, 36.304543000158318 ], [ -76.392199991406073, 36.303914999714117 ], [ -76.395587991155608, 36.297185999783508 ] ] ] } },
{ "type": "Feature", "properties": { "county": "PASQUOTANK", "precinct": "NORTH", "enr_desc": "North Elizabeth City", "winner": "Tommy Wooten", "winner_votes": 129, "winner_share": 65.482233502538065, "runner_up": "Juanita (Nina) Daniels", "runner_up_votes": 68, "runner_up_share": 34.517766497461928, "contest_votes": 197, "margin_of_victory": 30.964467005076138, "is_tie": false, "results": [ { "candidate": "Tommy Wooten", "votes": 129, "share": 65.48223350253807 }, { "candidate": "Juanita (Nina) Daniels", "votes": 68, "share": 34.51776649746193 } ], "participated": true, "map_key": "PASQUOTANK_NORTH" }, "geometry": { "type": "Polygon", "coordinates": [ [ [ -76.217053990866347, 36.301200999523431 ], [ -76.223262990629067, 36.302153999351049 ], [ -76.223763991397206, 36.30027200016751 ], [ -76.229121991285524, 36.300957999370809 ], [ -76.237782990740413, 36.303421999547972 ], [ -76.231037990636011, 36.306945999426382 ], [ -76.225560990999369, 36.311335000172832 ], [ -76.225430991198891, 36.311994999879161 ], [ -76.226587991226651, 36.312148999436005 ], [ -76.226383990640812, 36.313544999801387 ], [ -76.22363399090176, 36.316237999937051 ], [ -76.226497990988705, 36.318019999673012 ], [ -76.224177991671098, 36.320379999823643 ], [ -76.226024991518798, 36.32417299960273 ], [ -76.227272990626261, 36.324628999836207 ], [ -76.232509990790675, 36.322622999690999 ], [ -76.23805499155884, 36.322185999608379 ], [ -76.240433991178293, 36.324633999667796 ], [ -76.242389990778292, 36.329143000112317 ], [ -76.240635991243963, 36.332682999568526 ], [ -76.24036499076189, 36.335866000118664 ], [ -76.238284991355158, 36.335190000050765 ], [ -76.237114991595433, 36.336833999652477 ], [ -76.232928990771342, 36.335345000063903 ], [ -76.230421991028692, 36.337870999805268 ], [ -76.226431991436456, 36.336398999651031 ], [ -76.226146990970193, 36.333770999377137 ], [ -76.227406990845935, 36.333780999957092 ], [ -76.225688990713223, 36.330808999901421 ], [ -76.223994991108867, 36.331371000172872 ], [ -76.223363991002913, 36.330289999716221 ], [ -76.219357991075768, 36.33160400001416 ], [ -76.217487991605836, 36.327458999793357 ], [ -76.214997990695977, 36.326233999612796 ], [ -76.215960991154475, 36.325314000235672 ], [ -76.21456999117305, 36.326247999379511 ], [ -76.212507991305159, 36.325707999448653 ], [ -76.207588991264586, 36.326216999998216 ], [ -76.207604991346216, 36.325289999840713 ], [ -76.213479991096364, 36.322680000087907 ], [ -76.214668991444725, 36.324215000154048 ], [ -76.21622999117379, 36.324040999583666 ], [ -76.2150069914711, 36.321415999611936 ], [ -76.215430990865514, 36.31874199943735 ], [ -76.212701991450587, 36.318238999634232 ], [ -76.209246991301256, 36.315435999625706 ], [ -76.208212991376485, 36.31263899959729 ], [ -76.208430991109097, 36.310187999880782 ], [ -76.20331999090223, 36.309752999818684 ], [ -76.20384999102653, 36.306691999683075 ], [ -76.20543599083932, 36.306526999844102 ], [ -76.20811599114694, 36.308044999694737 ], [ -76.209231991545167, 36.308165999379092 ], [ -76.208758990924963, 36.307986999587186 ], [ -76.210524990777472, 36.307015000013571 ], [ -76.208975991445797, 36.305006999663178 ], [ -76.213792990569118, 36.304045999809887 ], [ -76.217053990866347, 36.301200999523431 ] ] ] } },
{ "type": "Feature", "properties": { "county": "PASQUOTANK", "precinct": "PRO", "enr_desc": "Providence", "winner": "Tommy Wooten", "winner_votes": 710, "winner_share": 78.280044101433305, "runner_up": "Juanita (Nina) Daniels", "runner_up_votes": 197, "runner_up_share": 21.719955898566703, "contest_votes": 907, "margin_of_victory": 56.560088202866602, "is_tie": false, "results": [ { "candidate": "Tommy Wooten", "votes": 710, "share": 78.2800441014333 }, { "candidate": "Juanita (Nina) Daniels", "votes": 197, "share": 21.719955898566703 } ], "participated": true, "map_key": "PASQUOTANK_PRO" }, "geometry": { "type": "Polygon", "coordinates": [ [ [ -76.237782990740413, 36.303421999547972 ], [ -76.246169990894458, 36.299485000151186 ], [ -76.248980990966956, 36.300210999885238 ], [ -76.263375990835243, 36.299158000075444 ], [ -76.263370991161182, 36.300686999977863 ], [ -76.254473991349627, 36.309431000083144 ], [ -76.273467991388813, 36.308833000090317 ], [ -76.394923991612401, 36.293089999858424 ], [ -76.394251990618528, 36.295714999904611 ], [ -76.395587991155608, 36.297185999783508 ], [ -76.392199991406073, 36.303914999714117 ], [ -76.394075991191158, 36.304543000158318 ], [ -76.393124990656361, 36.306172000084885 ], [ -76.383006991447573, 36.310934999374659 ], [ -76.378134991481758, 36.324667999464303 ], [ -76.372245991326309, 36.378746000122206 ], [ -76.32018899160775, 36.378473999486779 ], [ -76.318910991214892, 36.380513000082722 ], [ -76.318500990867975, 36.383120999730387 ], [ -76.317034991491923, 36.384776999995751 ], [ -76.311790991585454, 36.387094000224323 ], [ -76.310006990611058, 36.386452999838518 ], [ -76.306778990760833, 36.387002000014377 ], [ -76.299754990942205, 36.394671999624364 ], [ -76.292609991622925, 36.387507999585516 ], [ -76.290533990921546, 36.386775999387702 ], [ -76.288626991049853, 36.38495700013862 ], [ -76.287061991363444, 36.384899999455513 ], [ -76.285987991646579, 36.387958999599682 ], [ -76.284585990933664, 36.38898200012104 ], [ -76.281831990607301, 36.388228000110104 ], [ -76.279528990774367, 36.386259999837982 ], [ -76.273715990728348, 36.388224999927182 ], [ -76.259093991599315, 36.384456000171305 ], [ -76.257085991465701, 36.382279999665784 ], [ -76.257813991257493, 36.378048999402893 ], [ -76.259107991454115, 36.376720999761446 ], [ -76.256476990646476, 36.373674999697762 ], [ -76.257585991529552, 36.371347000123258 ], [ -76.257302991055923, 36.369993000115564 ], [ -76.259495990944131, 36.368473999448824 ], [ -76.260224991199962, 36.367006999872814 ], [ -76.256743990766751, 36.363343999609697 ], [ -76.254703990681634, 36.36282699993172 ], [ -76.250652990944019, 36.363677999488409 ], [ -76.247830990684022, 36.365330999353588 ], [ -76.243618991601906, 36.365833999381529 ], [ -76.238871991377934, 36.371143999400452 ], [ -76.236786991244031, 36.372355999398998 ], [ -76.233222990744807, 36.372745999613784 ], [ -76.231328991391337, 36.372079999694712 ], [ -76.23140699101252, 36.362074999736066 ], [ -76.227600991238418, 36.357641000064163 ], [ -76.225773991209337, 36.354140999907486 ], [ -76.227685991212212, 36.350624000236515 ], [ -76.227394990694179, 36.348330000068302 ], [ -76.225114991556296, 36.346429999871731 ], [ -76.218682991383233, 36.34516999953177 ], [ -76.214177990814278, 36.341598999968163 ], [ -76.217496990563319, 36.336085000188319 ], [ -76.218082990981486, 36.333616999850257 ], [ -76.217526991575426, 36.329806000033585 ], [ -76.21597799149194, 36.327674999361882 ], [ -76.213634990918848, 36.326859000050035 ], [ -76.204815990659327, 36.328403000150743 ], [ -76.192206990886262, 36.328139999658639 ], [ -76.187549991080857, 36.326440999738864 ], [ -76.181462991025398, 36.322380000203388 ], [ -76.181273991104078, 36.320191999401501 ], [ -76.182754991205414, 36.317212999901813 ], [ -76.187963991265789, 36.314458999895336 ], [ -76.192734990853651, 36.314378000085867 ], [ -76.196939991569792, 36.31751299960068 ], [ -76.199221991300746, 36.317532999990568 ], [ -76.201062991638494, 36.314955999852806 ], [ -76.200947991086693, 36.30561599954099 ], [ -76.203338991454942, 36.304364999551012 ], [ -76.208975991445797, 36.305006999663178 ], [ -76.210524990777472, 36.307015000013571 ], [ -76.208758990924963, 36.307986999587186 ], [ -76.209231991545167, 36.308165999379092 ], [ -76.20811599114694, 36.308044999694737 ], [ -76.20543599083932, 36.306526999844102 ], [ -76.20384999102653, 36.306691999683075 ], [ -76.20331999090223, 36.309752999818684 ], [ -76.208430991109097, 36.310187999880782 ], [ -76.208212991376485, 36.31263899959729 ], [ -76.209246991301256, 36.315435999625706 ], [ -76.212701991450587, 36.318238999634232 ], [ -76.215430990865514, 36.31874199943735 ], [ -76.2150069914711, 36.321415999611936 ], [ -76.21622999117379, 36.324040999583666 ], [ -76.214668991444725, 36.324215000154048 ], [ -76.213479991096364, 36.322680000087907 ], [ -76.207604991346216, 36.325289999840713 ], [ -76.207588991264586, 36.326216999998216 ], [ -76.212507991305159, 36.325707999448653 ], [ -76.21456999117305, 36.326247999379511 ], [ -76.215960991154475, 36.325314000235672 ], [ -76.214997990695977, 36.326233999612796 ], [ -76.217487991605836, 36.327458999793357 ], [ -76.219357991075768, 36.33160400001416 ], [ -76.223363991002913, 36.330289999716221 ], [ -76.223994991108867, 36.331371000172872 ], [ -76.225688990713223, 36.330808999901421 ], [ -76.227406990845935, 36.333780999957092 ], [ -76.226146990970193, 36.333770999377137 ], [ -76.226431991436456, 36.336398999651031 ], [ -76.230421991028692, 36.337870999805268 ], [ -76.232928990771342, 36.335345000063903 ], [ -76.237114991595433, 36.336833999652477 ], [ -76.238284991355158, 36.335190000050765 ], [ -76.24036499076189, 36.335866000118664 ], [ -76.240635991243963, 36.332682999568526 ], [ -76.242389990778292, 36.329143000112317 ], [ -76.240433991178293, 36.324633999667796 ], [ -76.23805499155884, 36.322185999608379 ], [ -76.232509990790675, 36.322622999690999 ], [ -76.227272990626261, 36.324628999836207 ], [ -76.226024991518798, 36.32417299960273 ], [ -76.224177991671098, 36.320379999823643 ], [ -76.226497990988705, 36.318019999673012 ], [ -76.22363399090176, 36.316237999937051 ], [ -76.226383990640812, 36.313544999801387 ], [ -76.226587991226651, 36.312148999436005 ], [ -76.225430991198891, 36.311994999879161 ], [ -76.225560990999369, 36.311335000172832 ], [ -76.231037990636011, 36.306945999426382 ], [ -76.237782990740413, 36.303421999547972 ] ] ] } },
{ "type": "Feature", "properties": { "county": "PASQUOTANK", "precinct": "SAL", "enr_desc": "Salem", "winner": "Tommy Wooten", "winner_votes": 285, "winner_share": 82.369942196531781, "runner_up": "Juanita (Nina) Daniels", "runner_up_votes": 61, "runner_up_share": 17.630057803468208, "contest_votes": 346, "margin_of_victory": 64.739884393063576, "is_tie": false, "results": [ { "candidate": "Tommy Wooten", "votes": 285, "share": 82.36994219653178 }, { "candidate": "Juanita (Nina) Daniels", "votes": 61, "share": 17.63005780346821 } ], "participated": true, "map_key": "PASQUOTANK_SAL" }, "geometry": { "type": "Polygon", "coordinates": [ [ [ -76.243638991532222, 36.166017999762914 ], [ -76.231060991038206, 36.172645000175862 ], [ -76.23078399163326, 36.174599999932497 ], [ -76.232476990840453, 36.178794999642662 ], [ -76.231450990780303, 36.179972999825594 ], [ -76.22847699143702, 36.188536999541569 ], [ -76.228394991544832, 36.191352999999204 ], [ -76.211056991503924, 36.19260000013665 ], [ -76.180026991658096, 36.206963999643932 ], [ -76.17346899097079, 36.209132000197386 ], [ -76.170545991526993, 36.207988999594363 ], [ -76.170328990701321, 36.206914999789682 ], [ -76.169197991089376, 36.206580999441748 ], [ -76.167538991667882, 36.207859999362725 ], [ -76.167477991587489, 36.209166999634796 ], [ -76.164416991207077, 36.210318999748473 ], [ -76.162019991687416, 36.208808999380047 ], [ -76.158221991387776, 36.209400999998927 ], [ -76.157682991252756, 36.210638999600313 ], [ -76.159259991128579, 36.211323000005741 ], [ -76.159150991201983, 36.212143000239834 ], [ -76.156529991651482, 36.212837999658483 ], [ -76.153231991638094, 36.212395999387084 ], [ -76.152223990835921, 36.213597999379026 ], [ -76.149275990930946, 36.214526999464859 ], [ -76.148891991047506, 36.216349999899606 ], [ -76.150897991242701, 36.217285999617701 ], [ -76.151070991611377, 36.218290999691639 ], [ -76.142871990818165, 36.221094000058933 ], [ -76.135518991306157, 36.220819000209467 ], [ -76.125396991572472, 36.217337000095696 ], [ -76.121794991093083, 36.21783299970987 ], [ -76.100968991196837, 36.23015700003733 ], [ -76.098269991318418, 36.227627000128905 ], [ -76.091507991529866, 36.224074999811712 ], [ -76.086396990649746, 36.222028999970796 ], [ -76.073133990870886, 36.219154999409938 ], [ -76.068604990699185, 36.216589999497522 ], [ -76.052130991687136, 36.192314999808659 ], [ -76.044469990660872, 36.178789000056646 ], [ -76.032577991675353, 36.164592000105664 ], [ -76.029389991326056, 36.158819000107691 ], [ -76.027405990621176, 36.152274999752343 ], [ -76.023603990667667, 36.127908999645641 ], [ -76.022606991036866, 36.096725000139429 ], [ -76.03014399059704, 36.093897999766746 ], [ -76.041880990745355, 36.087234999692889 ], [ -76.058216990643956, 36.080592999425981 ], [ -76.076073990682261, 36.075628999899997 ], [ -76.101064991231866, 36.069526000092409 ], [ -76.157952991671479, 36.059517000122732 ], [ -76.17739599062395, 36.109190999995377 ], [ -76.178742991238963, 36.111192999546532 ], [ -76.180366991220268, 36.113112000168854 ], [ -76.182748991557517, 36.114211999497336 ], [ -76.194667990928039, 36.117737999570672 ], [ -76.200451991332287, 36.121834999859423 ], [ -76.215506990732237, 36.13036099944388 ], [ -76.220073991213212, 36.136366999918131 ], [ -76.223803991547371, 36.139668999430363 ], [ -76.228684990992036, 36.149891999903616 ], [ -76.234885991018814, 36.155127999703552 ], [ -76.240323990951183, 36.163755999394624 ], [ -76.243638991532222, 36.166017999762914 ] ] ] } },
{ "type": "Feature", "properties": { "county": "PASQUOTANK", "precinct": "SOUTH", "enr_desc": "South Elizabeth City", "winner": "Tommy Wooten", "winner_votes": 86, "winner_share": 65.648854961832058, "runner_up": "Juanita (Nina) Daniels", "runner_up_votes": 45, "runner_up_share": 34.351145038167942, "contest_votes": 131, "margin_of_victory": 31.297709923664115, "is_tie": false, "results": [ { "candidate": "Tommy Wooten", "votes": 86, "share": 65.64885496183206 }, { "candidate": "Juanita (Nina) Daniels", "votes": 45, "share": 34.35114503816794 } ], "participated": true, "map_key": "PASQUOTANK_SOUTH" }, "geometry": { "type": "Polygon", "coordinates": [ [ [ -76.199043991118216, 36.26686399946135 ], [ -76.201453991418063, 36.266880999431663 ], [ -76.209893990698319, 36.273401999473137 ], [ -76.211403990865804, 36.272327999843576 ], [ -76.211925991204268, 36.273359999435897 ], [ -76.213761990733772, 36.271840999732724 ], [ -76.200774991292121, 36.262731999958397 ], [ -76.201457991373772, 36.261625999353569 ], [ -76.21159899083149, 36.264165999571553 ], [ -76.215836990611677, 36.264422999879223 ], [ -76.216012991212295, 36.263832999416778 ], [ -76.215319991279102, 36.26381899964246 ], [ -76.21641799093274, 36.260966999986877 ], [ -76.221554991332141, 36.26245700016608 ], [ -76.221534991171708, 36.264650999620741 ], [ -76.226379990659623, 36.264711999369531 ], [ -76.224013991503199, 36.273131000225128 ], [ -76.225474990645566, 36.273635000024804 ], [ -76.225663991344433, 36.272639999821131 ], [ -76.228248990991872, 36.273158999837044 ], [ -76.227924991400911, 36.276974999562633 ], [ -76.229544991412027, 36.277791999860746 ], [ -76.230282991428027, 36.279885999878871 ], [ -76.234773990721166, 36.282766999797992 ], [ -76.234055991441053, 36.28344100009538 ], [ -76.223474991025867, 36.281482000058524 ], [ -76.223943991486792, 36.288350999375901 ], [ -76.222477991456586, 36.292066000068075 ], [ -76.220141991088781, 36.290984999696114 ], [ -76.217595990744258, 36.292838999529508 ], [ -76.216891990661182, 36.29045699987681 ], [ -76.209385990998726, 36.289810999390006 ], [ -76.210583991361872, 36.286955999766278 ], [ -76.208400991150683, 36.286402999575031 ], [ -76.207606990831479, 36.287185999698885 ], [ -76.205322991500964, 36.286473000176613 ], [ -76.205991991462113, 36.284826000094313 ], [ -76.200173991192841, 36.285141999497732 ], [ -76.196721991559116, 36.281380999712766 ], [ -76.199773991120352, 36.275552000038985 ], [ -76.199043991118216, 36.26686399946135 ] ] ] } },
{ "type": "Feature", "properties": { "county": "PASQUOTANK", "precinct": "WEST", "enr_desc": "West Elizabeth City", "winner": "Tommy Wooten", "winner_votes": 75, "winner_share": 68.181818181818173, "runner_up": "Juanita (Nina) Daniels", "runner_up_votes": 35, "runner_up_share": 31.818181818181817, "contest_votes": 110, "margin_of_victory": 36.36363636363636, "is_tie": false, "results": [ { "candidate": "Tommy Wooten", "votes": 75, "share": 68.18181818181817 }, { "candidate": "Juanita (Nina) Daniels", "votes": 35, "share": 31.818181818181817 } ], "participated": true, "map_key": "PASQUOTANK_WEST" }, "geometry": { "type": "Polygon", "coordinates": [ [ [ -76.234773990721166, 36.282766999797992 ], [ -76.235879991535469, 36.281733999632003 ], [ -76.238899990892378, 36.283705999378277 ], [ -76.239939990585142, 36.283567999371286 ], [ -76.240718991236406, 36.2854629995972 ], [ -76.244332991583178, 36.286534000069217 ], [ -76.244170991556487, 36.285175999520327 ], [ -76.246710991594966, 36.284963999679604 ], [ -76.248260991256444, 36.282062999754665 ], [ -76.249258991386412, 36.282333000164243 ], [ -76.250584991286317, 36.278325000019095 ], [ -76.25421099102401, 36.278709999463679 ], [ -76.256367991316367, 36.276601000122909 ], [ -76.258028990879012, 36.279418999581623 ], [ -76.259557991657672, 36.279094999473628 ], [ -76.259927990669667, 36.280023999717095 ], [ -76.256120991095415, 36.282880000022921 ], [ -76.256387990807028, 36.283652999536429 ], [ -76.26153699111839, 36.283947999693133 ], [ -76.261937990886466, 36.285374999480837 ], [ -76.267034990660605, 36.284020999611123 ], [ -76.26989599123587, 36.285287000096766 ], [ -76.270999991079847, 36.283805999351237 ], [ -76.272234991512121, 36.283979999374438 ], [ -76.27213299129096, 36.284788999974388 ], [ -76.273533990592554, 36.283820999943778 ], [ -76.273655991343006, 36.281467999931749 ], [ -76.27537999151717, 36.280333999766718 ], [ -76.278330990697981, 36.282545999373042 ], [ -76.275976990678885, 36.285304999635244 ], [ -76.275548991429829, 36.284896999518686 ], [ -76.273008991077333, 36.287128999960601 ], [ -76.275596991477812, 36.288560999855768 ], [ -76.275548990919162, 36.289274999519336 ], [ -76.270180990814524, 36.291066000188813 ], [ -76.269737991253251, 36.289283999459151 ], [ -76.267275990929036, 36.289988999350662 ], [ -76.258086991488781, 36.289730999477655 ], [ -76.255004990742933, 36.29114499984064 ], [ -76.253641991349397, 36.290270999370897 ], [ -76.254231990681873, 36.293339000112063 ], [ -76.258081991011338, 36.295403999759777 ], [ -76.250133991666701, 36.298133999386906 ], [ -76.237266991056288, 36.297716999580494 ], [ -76.237552991627609, 36.295133999724342 ], [ -76.223746991511121, 36.296536999559876 ], [ -76.222477991456586, 36.292066000068075 ], [ -76.223943991486792, 36.288350999375901 ], [ -76.223474991025867, 36.281482000058524 ], [ -76.234055991441053, 36.28344100009538 ], [ -76.234773990721166, 36.282766999797992 ] ] ] } }
]
}
