{
"type": "FeatureCollection",
"name": "pender_county_board_of_commissioners_district_02_rep",
"crs": { "type": "name", "properties": { "name": "urn:ogc:def:crs:OGC:1.3:CRS84" } },
"features": [
{ "type": "Feature", "properties": { "county": "PENDER", "precinct": "CL05", "enr_desc": "Columbia", "winner": "Ryan Collins", "winner_votes": 104, "winner_share": 65.822784810126578, "runner_up": "Randy Burton", "runner_up_votes": 54, "runner_up_share": 34.177215189873415, "contest_votes": 158, "margin_of_victory": 31.645569620253163, "is_tie": false, "results": [ { "candidate": "Ryan Collins", "votes": 104, "share": 65.82278481012658 }, { "candidate": "Randy Burton", "votes": 54, "share": 34.177215189873415 } ], "participated": true, "map_key": "PENDER_CL05" }, "geometry": { "type": "Polygon", "coordinates": [ [ [ -78.233545991745075, 34.580361999539697 ], [ -78.156519991794724, 34.679070000202294 ], [ -78.11420999118269, 34.706734999769346 ], [ -78.115498991092764, 34.701819000085798 ], [ -78.115038991176164, 34.697717999671667 ], [ -78.041545991352066, 34.625186999546727 ], [ -78.031778991641175, 34.617601999744714 ], [ -78.033932991246047, 34.578634999829134 ], [ -78.035991990889571, 34.543720000362953 ], [ -78.038698991849245, 34.539279000020585 ], [ -78.038763991615127, 34.537900999930379 ], [ -78.03803299099836, 34.535710999684895 ], [ -78.028395990943778, 34.53036199999277 ], [ -78.031135990839175, 34.528303000030569 ], [ -78.031356991339976, 34.527054000318842 ], [ -78.027147990920767, 34.520335999927511 ], [ -78.029011991404815, 34.513930000341205 ], [ -78.034404991234084, 34.508140999654195 ], [ -78.039603991714515, 34.504435000037248 ], [ -78.041733990858972, 34.501574000260241 ], [ -78.042782991326817, 34.504320999621505 ], [ -78.044433991038701, 34.506120000242952 ], [ -78.04486399169879, 34.509973999803051 ], [ -78.053112991775464, 34.517594000115416 ], [ -78.056254990887936, 34.521747000316857 ], [ -78.058217991710038, 34.522954999619984 ], [ -78.065943991116129, 34.524398000372258 ], [ -78.067887991809769, 34.524108999813592 ], [ -78.064162991065388, 34.512596000365875 ], [ -78.058474991520882, 34.505010000226235 ], [ -78.063795990898768, 34.505672999931171 ], [ -78.068102991159094, 34.505058000160545 ], [ -78.078952991406496, 34.500597999637471 ], [ -78.083921991829769, 34.501449000213491 ], [ -78.091968991388143, 34.500496999770014 ], [ -78.10128699152753, 34.502596999808148 ], [ -78.107151991253772, 34.502038000305937 ], [ -78.112642991730965, 34.504121999534107 ], [ -78.107356991436049, 34.51476200031248 ], [ -78.122159991801212, 34.516278999891249 ], [ -78.123982991484937, 34.514790000040321 ], [ -78.126639991089249, 34.514855000363653 ], [ -78.126114991859041, 34.514258999690853 ], [ -78.129270990961047, 34.509408999821687 ], [ -78.129135990898277, 34.505036000138283 ], [ -78.131908991410782, 34.50588799977028 ], [ -78.134183991177764, 34.504815999969544 ], [ -78.137704990814953, 34.505210000097968 ], [ -78.14289099081634, 34.507988000198807 ], [ -78.143726991780568, 34.509638000119367 ], [ -78.149524991027434, 34.513539000245608 ], [ -78.157094991465968, 34.516459999617325 ], [ -78.159421991527623, 34.520274999572855 ], [ -78.161509991633963, 34.521964999589358 ], [ -78.162773991755103, 34.525945000218847 ], [ -78.162010991195643, 34.531237000025691 ], [ -78.163599991599142, 34.537719999729738 ], [ -78.166017991702589, 34.542146999910535 ], [ -78.171317991182121, 34.546480000125776 ], [ -78.17530699080767, 34.556299999509058 ], [ -78.233545991745075, 34.580361999539697 ] ] ] } },
{ "type": "Feature", "properties": { "county": "PENDER", "precinct": "LT18", "enr_desc": "Lower Topsail", "winner": "Ryan Collins", "winner_votes": 460, "winner_share": 58.22784810126582, "runner_up": "Randy Burton", "runner_up_votes": 330, "runner_up_share": 41.77215189873418, "contest_votes": 790, "margin_of_victory": 16.455696202531641, "is_tie": false, "results": [ { "candidate": "Ryan Collins", "votes": 460, "share": 58.22784810126582 }, { "candidate": "Randy Burton", "votes": 330, "share": 41.77215189873418 } ], "participated": true, "map_key": "PENDER_LT18" }, "geometry": { "type": "Polygon", "coordinates": [ [ [ -77.786971990965981, 34.335955999961151 ], [ -77.812662991098293, 34.359004999842952 ], [ -77.812205991137773, 34.360014000125538 ], [ -77.812944991020558, 34.360122999747809 ], [ -77.814283991551406, 34.362846000267822 ], [ -77.812094990794265, 34.365199999652063 ], [ -77.81398299100924, 34.365583999544022 ], [ -77.815113991434842, 34.367168999971341 ], [ -77.813743990973236, 34.368425999592098 ], [ -77.809857990968766, 34.368788000050131 ], [ -77.80928299090138, 34.37151699990477 ], [ -77.807864990980832, 34.373566999555017 ], [ -77.80510899155064, 34.374119999475518 ], [ -77.804728991477916, 34.376784000223381 ], [ -77.807139991696502, 34.377892000129769 ], [ -77.810505991558372, 34.381958000286886 ], [ -77.813280991229632, 34.381628999897558 ], [ -77.81396199152384, 34.382386999642755 ], [ -77.814835991159086, 34.381549000344833 ], [ -77.816898991306729, 34.382475999602612 ], [ -77.81862899164625, 34.385817000002788 ], [ -77.820826991391243, 34.384934999723555 ], [ -77.820564991058163, 34.386503000080019 ], [ -77.82299499082238, 34.389358999888636 ], [ -77.813064991347659, 34.402205999945359 ], [ -77.811923991141029, 34.403081000277027 ], [ -77.810109990905104, 34.403041999943625 ], [ -77.808900991685036, 34.404741999619283 ], [ -77.807963991142799, 34.403010999635192 ], [ -77.807007991172625, 34.402889999502406 ], [ -77.805662991640943, 34.405003999698742 ], [ -77.804676991534052, 34.405287999992133 ], [ -77.796847991124579, 34.405044999982245 ], [ -77.79416899159196, 34.406463999889766 ], [ -77.792567991109749, 34.405548000087201 ], [ -77.7918779908087, 34.405959999984496 ], [ -77.792208991091613, 34.406600999816227 ], [ -77.790910991428078, 34.406874999738456 ], [ -77.791627991148005, 34.408751999819053 ], [ -77.792511991304949, 34.40877499957044 ], [ -77.791572991210117, 34.409964999685336 ], [ -77.79226299137774, 34.411270000045157 ], [ -77.791185991776231, 34.411910999933468 ], [ -77.792537991510969, 34.415114999744162 ], [ -77.792095991299803, 34.416327999608221 ], [ -77.794443991776163, 34.417152999536512 ], [ -77.794857991497537, 34.417999000124254 ], [ -77.79601799114748, 34.417358999911528 ], [ -77.798475991150596, 34.417816999841904 ], [ -77.797370991586249, 34.418090999667598 ], [ -77.79767499127702, 34.418823999964225 ], [ -77.796017991056885, 34.419006999609095 ], [ -77.797784990820901, 34.420768999754749 ], [ -77.796900991248592, 34.421821999956492 ], [ -77.798474991176846, 34.423675999507182 ], [ -77.799164991439369, 34.426376999773822 ], [ -77.798335991670157, 34.427452000023479 ], [ -77.798998991114615, 34.428618999931153 ], [ -77.79852999080596, 34.429190999571325 ], [ -77.799385991525028, 34.429649000290183 ], [ -77.798639991384491, 34.430518999664699 ], [ -77.799936990822658, 34.431461999949406 ], [ -77.790758990938045, 34.434932999867712 ], [ -77.783105991214313, 34.43619399986428 ], [ -77.78244599105723, 34.437876000356965 ], [ -77.778584991108133, 34.43910000006985 ], [ -77.774381991585372, 34.437762999468887 ], [ -77.773472990972877, 34.437106999980045 ], [ -77.773721990930497, 34.435733999812733 ], [ -77.770821991792303, 34.434954999619826 ], [ -77.771512990816063, 34.434062000050432 ], [ -77.770573991564049, 34.432688999559211 ], [ -77.7712929913408, 34.430971999850058 ], [ -77.768724990891684, 34.429094999712717 ], [ -77.766378991035467, 34.424881999459409 ], [ -77.764004991682938, 34.423347999937619 ], [ -77.763397991275411, 34.421836999758419 ], [ -77.759696991149468, 34.421766999974608 ], [ -77.758647991260617, 34.420964999853894 ], [ -77.758177991128136, 34.421697999799818 ], [ -77.757266990911717, 34.419957999825456 ], [ -77.754448991378325, 34.420619999758678 ], [ -77.752460991524686, 34.419681000209607 ], [ -77.751852990917314, 34.420343999922864 ], [ -77.748431991353357, 34.419995999865449 ], [ -77.745725991186518, 34.420958999974367 ], [ -77.745255991342603, 34.420386999604659 ], [ -77.741472991183059, 34.420778000127207 ], [ -77.738186991665415, 34.422428000120348 ], [ -77.737966991511399, 34.423388999999474 ], [ -77.733878991071535, 34.424351999908076 ], [ -77.733105991836638, 34.425587999758754 ], [ -77.731752991690655, 34.425772000117192 ], [ -77.72755599142549, 34.42913800012338 ], [ -77.718285991180721, 34.428305999842863 ], [ -77.716312991365868, 34.426552000244534 ], [ -77.718018990858752, 34.425813000135285 ], [ -77.715611991647606, 34.422860000268706 ], [ -77.716110991856581, 34.420843000014457 ], [ -77.717917990787427, 34.419630000252198 ], [ -77.717834990782407, 34.41887799984513 ], [ -77.713612991070917, 34.411089000133273 ], [ -77.710065991378301, 34.395712999578528 ], [ -77.709984991026559, 34.390966000259731 ], [ -77.711614991307158, 34.383561000001642 ], [ -77.707367991824285, 34.371257999638303 ], [ -77.707000990990181, 34.370889000004276 ], [ -77.704291990957913, 34.373389999857977 ], [ -77.695789991228935, 34.368021000350588 ], [ -77.694115990896123, 34.36897499953799 ], [ -77.689790991667607, 34.366004000273321 ], [ -77.689055991855568, 34.364058000074976 ], [ -77.687068991053053, 34.363555999980449 ], [ -77.680513991748299, 34.359023000180088 ], [ -77.679049991208686, 34.359993000114798 ], [ -77.677609991499921, 34.35954399985512 ], [ -77.676484991295851, 34.361200999918779 ], [ -77.676006990978578, 34.359176999517295 ], [ -77.677347991360506, 34.358235999850649 ], [ -77.673182991457296, 34.360027000047694 ], [ -77.671589990974027, 34.35860999974831 ], [ -77.667180991754236, 34.358838000236972 ], [ -77.667334991546213, 34.354577000147124 ], [ -77.658423991147544, 34.351073000032287 ], [ -77.656486991555198, 34.347772999681844 ], [ -77.650301991265039, 34.347588000152555 ], [ -77.611296991338591, 34.308538999511633 ], [ -77.623578991777393, 34.303161999523738 ], [ -77.62892899118593, 34.298687000101907 ], [ -77.655828990888494, 34.273998999792077 ], [ -77.663189991076877, 34.263480999455489 ], [ -77.66845299176461, 34.258301999694204 ], [ -77.675275991212388, 34.253130000025344 ], [ -77.714690990992224, 34.29153099950706 ], [ -77.710487990991354, 34.297958000194612 ], [ -77.715189991522536, 34.299180999749893 ], [ -77.725147990957254, 34.292775000343717 ], [ -77.733275990808878, 34.294494999787304 ], [ -77.738450991283599, 34.292526999929741 ], [ -77.741266990933894, 34.295213999980824 ], [ -77.741367991483344, 34.298025999866979 ], [ -77.723110991305759, 34.320015000118943 ], [ -77.709258991857624, 34.327856000143122 ], [ -77.706756990856533, 34.330548000339761 ], [ -77.703962991002868, 34.336331999929577 ], [ -77.709277991380148, 34.33898500010379 ], [ -77.714648991492766, 34.345656000196527 ], [ -77.719266991329917, 34.349408999816482 ], [ -77.721188991126411, 34.357862999509351 ], [ -77.725701991768489, 34.35470699952964 ], [ -77.747310991080511, 34.334048000027288 ], [ -77.747936990898808, 34.335225999621336 ], [ -77.745453991703357, 34.337719999649288 ], [ -77.745839991046907, 34.341943999456035 ], [ -77.774838991525215, 34.346679999990691 ], [ -77.772889991575724, 34.341781999889172 ], [ -77.766397991154591, 34.335953999605209 ], [ -77.767984991791778, 34.332479999955019 ], [ -77.772998991260749, 34.326347999911896 ], [ -77.786971990965981, 34.335955999961151 ] ] ] } },
{ "type": "Feature", "properties": { "county": "PENDER", "precinct": "MT19", "enr_desc": "Middle Topsail", "winner": "Ryan Collins", "winner_votes": 416, "winner_share": 67.205169628432955, "runner_up": "Randy Burton", "runner_up_votes": 203, "runner_up_share": 32.794830371567045, "contest_votes": 619, "margin_of_victory": 34.41033925686591, "is_tie": false, "results": [ { "candidate": "Ryan Collins", "votes": 416, "share": 67.20516962843296 }, { "candidate": "Randy Burton", "votes": 203, "share": 32.794830371567045 } ], "participated": true, "map_key": "PENDER_MT19" }, "geometry": { "type": "Polygon", "coordinates": [ [ [ -77.716312991365868, 34.426552000244534 ], [ -77.714474991302652, 34.425515000127213 ], [ -77.709709991857395, 34.426557000309423 ], [ -77.704930991140316, 34.426534999974649 ], [ -77.704295991138579, 34.424817999954712 ], [ -77.699626991248692, 34.42312499952493 ], [ -77.693448991209621, 34.424184999724311 ], [ -77.691857991621873, 34.423193999608202 ], [ -77.690228990934571, 34.420478999499579 ], [ -77.687998991105815, 34.41454999948467 ], [ -77.686640990963994, 34.415107000334061 ], [ -77.677450991590462, 34.413197999611889 ], [ -77.677330991666949, 34.410505000184152 ], [ -77.673032991281175, 34.4092800000005 ], [ -77.672258991562984, 34.406806000168601 ], [ -77.672800991110876, 34.406266000062779 ], [ -77.669432991585836, 34.404773000287307 ], [ -77.657572991516645, 34.410500999750894 ], [ -77.656631991082506, 34.409966999906239 ], [ -77.682733991701753, 34.390449999473766 ], [ -77.67358699158352, 34.383431000323093 ], [ -77.671014991436323, 34.383377999841095 ], [ -77.666371991524073, 34.384920000063715 ], [ -77.664775991273942, 34.384451999791075 ], [ -77.663562991489002, 34.383428999824112 ], [ -77.662130991516648, 34.380070000248395 ], [ -77.653645990817381, 34.375489000083192 ], [ -77.652172991853206, 34.377202000173234 ], [ -77.649611991309612, 34.37369799990423 ], [ -77.673182991457296, 34.360027000047694 ], [ -77.677347991360506, 34.358235999850649 ], [ -77.676006990978578, 34.359176999517295 ], [ -77.676484991295851, 34.361200999918779 ], [ -77.677609991499921, 34.35954399985512 ], [ -77.679049991208686, 34.359993000114798 ], [ -77.680513991748299, 34.359023000180088 ], [ -77.687068991053053, 34.363555999980449 ], [ -77.689055991855568, 34.364058000074976 ], [ -77.689790991667607, 34.366004000273321 ], [ -77.694115990896123, 34.36897499953799 ], [ -77.695789991228935, 34.368021000350588 ], [ -77.704291990957913, 34.373389999857977 ], [ -77.707000990990181, 34.370889000004276 ], [ -77.707367991824285, 34.371257999638303 ], [ -77.711614991307158, 34.383561000001642 ], [ -77.709984991026559, 34.390966000259731 ], [ -77.710065991378301, 34.395712999578528 ], [ -77.713612991070917, 34.411089000133273 ], [ -77.717834990782407, 34.41887799984513 ], [ -77.717917990787427, 34.419630000252198 ], [ -77.716110991856581, 34.420843000014457 ], [ -77.715611991647606, 34.422860000268706 ], [ -77.718018990858752, 34.425813000135285 ], [ -77.716312991365868, 34.426552000244534 ] ] ] } },
{ "type": "Feature", "properties": { "county": "PENDER", "precinct": "SC13", "enr_desc": "Surf City", "winner": "Ryan Collins", "winner_votes": 325, "winner_share": 53.719008264462808, "runner_up": "Randy Burton", "runner_up_votes": 280, "runner_up_share": 46.280991735537192, "contest_votes": 605, "margin_of_victory": 7.4380165289256155, "is_tie": false, "results": [ { "candidate": "Ryan Collins", "votes": 325, "share": 53.71900826446281 }, { "candidate": "Randy Burton", "votes": 280, "share": 46.28099173553719 } ], "participated": true, "map_key": "PENDER_SC13" }, "geometry": { "type": "Polygon", "coordinates": [ [ [ -77.673182991457296, 34.360027000047694 ], [ -77.649611991309612, 34.37369799990423 ], [ -77.585656991082288, 34.416955999460022 ], [ -77.585905991147143, 34.418130999654572 ], [ -77.583622991119796, 34.420148000327252 ], [ -77.588045991341716, 34.42394299969672 ], [ -77.588908991505491, 34.426287000143319 ], [ -77.588190990809494, 34.430580999912564 ], [ -77.59388199160172, 34.437185999588095 ], [ -77.592262990864583, 34.44099800005624 ], [ -77.593238990928754, 34.44335400029918 ], [ -77.598986991536435, 34.446957999697744 ], [ -77.60162599128175, 34.450887000340636 ], [ -77.606737991578441, 34.454779999493844 ], [ -77.600868991234279, 34.460307000010516 ], [ -77.585792991373935, 34.466725999669265 ], [ -77.575946991722219, 34.476359000105106 ], [ -77.572365991215378, 34.476990999513831 ], [ -77.571755991391655, 34.472524999522903 ], [ -77.567521991224226, 34.469804999908838 ], [ -77.562844990993298, 34.469481000128468 ], [ -77.562997991765315, 34.470299999845267 ], [ -77.561537990870875, 34.471258000310669 ], [ -77.558336991051391, 34.469374999945273 ], [ -77.555738991531484, 34.471331999604637 ], [ -77.553360991494884, 34.471515999861218 ], [ -77.551925991282729, 34.470908000098269 ], [ -77.548658991023558, 34.466952999949093 ], [ -77.545874991038644, 34.466734999895671 ], [ -77.545166990799942, 34.465888999861058 ], [ -77.545516991128352, 34.464804000010965 ], [ -77.543519991132115, 34.465247000167416 ], [ -77.543973991429723, 34.463255000216996 ], [ -77.540979990918032, 34.464846000319035 ], [ -77.540551991105687, 34.464270999948241 ], [ -77.541504991281812, 34.463216000081047 ], [ -77.539100991329846, 34.463029999539458 ], [ -77.539459991554082, 34.461681000089577 ], [ -77.537237991064117, 34.459212999925342 ], [ -77.532169991014001, 34.457253000029318 ], [ -77.515666991327151, 34.437994999544784 ], [ -77.499688991263852, 34.416955999954574 ], [ -77.484537991602892, 34.399705000040676 ], [ -77.51616199143379, 34.382443000336671 ], [ -77.556731991562827, 34.353650999597981 ], [ -77.5948749913547, 34.323736999752249 ], [ -77.596683990813233, 34.321020000214631 ], [ -77.604707991154271, 34.313046000114028 ], [ -77.611296991338591, 34.308538999511633 ], [ -77.650301991265039, 34.347588000152555 ], [ -77.656486991555198, 34.347772999681844 ], [ -77.658423991147544, 34.351073000032287 ], [ -77.667334991546213, 34.354577000147124 ], [ -77.667180991754236, 34.358838000236972 ], [ -77.671589990974027, 34.35860999974831 ], [ -77.673182991457296, 34.360027000047694 ] ] ] } },
{ "type": "Feature", "properties": { "county": "PENDER", "precinct": "SH12", "enr_desc": "Scotts Hill", "winner": "Ryan Collins", "winner_votes": 214, "winner_share": 55.297157622739014, "runner_up": "Randy Burton", "runner_up_votes": 173, "runner_up_share": 44.702842377260978, "contest_votes": 387, "margin_of_victory": 10.594315245478036, "is_tie": false, "results": [ { "candidate": "Ryan Collins", "votes": 214, "share": 55.297157622739014 }, { "candidate": "Randy Burton", "votes": 173, "share": 44.70284237726098 } ], "participated": true, "map_key": "PENDER_SH12" }, "geometry": { "type": "Polygon", "coordinates": [ [ [ -77.786971990965981, 34.335955999961151 ], [ -77.772998991260749, 34.326347999911896 ], [ -77.767984991791778, 34.332479999955019 ], [ -77.766397991154591, 34.335953999605209 ], [ -77.772889991575724, 34.341781999889172 ], [ -77.774838991525215, 34.346679999990691 ], [ -77.745839991046907, 34.341943999456035 ], [ -77.745453991703357, 34.337719999649288 ], [ -77.747936990898808, 34.335225999621336 ], [ -77.747310991080511, 34.334048000027288 ], [ -77.725701991768489, 34.35470699952964 ], [ -77.721188991126411, 34.357862999509351 ], [ -77.719266991329917, 34.349408999816482 ], [ -77.714648991492766, 34.345656000196527 ], [ -77.709277991380148, 34.33898500010379 ], [ -77.703962991002868, 34.336331999929577 ], [ -77.706756990856533, 34.330548000339761 ], [ -77.709258991857624, 34.327856000143122 ], [ -77.723110991305759, 34.320015000118943 ], [ -77.741367991483344, 34.298025999866979 ], [ -77.740163991410782, 34.300593000195605 ], [ -77.740582991681208, 34.301289999725789 ], [ -77.744838991050827, 34.301017999455809 ], [ -77.748100991307737, 34.303562999840409 ], [ -77.751971991716147, 34.303329999950471 ], [ -77.786971990965981, 34.335955999961151 ] ] ] } },
{ "type": "Feature", "properties": { "county": "PENDER", "precinct": "SP15", "enr_desc": "Sloop Point", "winner": "Ryan Collins", "winner_votes": 308, "winner_share": 56.102003642987256, "runner_up": "Randy Burton", "runner_up_votes": 241, "runner_up_share": 43.897996357012751, "contest_votes": 549, "margin_of_victory": 12.204007285974505, "is_tie": false, "results": [ { "candidate": "Ryan Collins", "votes": 308, "share": 56.102003642987256 }, { "candidate": "Randy Burton", "votes": 241, "share": 43.89799635701275 } ], "participated": true, "map_key": "PENDER_SP15" }, "geometry": { "type": "Polygon", "coordinates": [ [ [ -77.585656991082288, 34.416955999460022 ], [ -77.587831991539872, 34.417844000193028 ], [ -77.59197299160904, 34.417830999867931 ], [ -77.591330991481826, 34.414313999551368 ], [ -77.593614991784776, 34.412697999836453 ], [ -77.595766990788277, 34.416331999685809 ], [ -77.598298990925656, 34.41519300016369 ], [ -77.600567991139172, 34.415583000278765 ], [ -77.613232990956718, 34.414080999556411 ], [ -77.613971991438575, 34.4110780003396 ], [ -77.621670991861635, 34.406312999813352 ], [ -77.628326991420622, 34.399939999737022 ], [ -77.632195991549111, 34.39901300018623 ], [ -77.634231991045539, 34.399498999476208 ], [ -77.652640991869461, 34.413873999842679 ], [ -77.647538990904224, 34.418853999803744 ], [ -77.649886991228442, 34.420867999687985 ], [ -77.657194991758033, 34.424553000052001 ], [ -77.660051991831011, 34.424772999709603 ], [ -77.667936990983861, 34.429380000285605 ], [ -77.670495991320621, 34.429634999574048 ], [ -77.684936991540781, 34.440531000041524 ], [ -77.688883991396125, 34.452761000019159 ], [ -77.699384991035615, 34.456704000231198 ], [ -77.705574990937905, 34.45736600000069 ], [ -77.710270990965853, 34.451918000297397 ], [ -77.71303299106826, 34.450383000051687 ], [ -77.714531991095896, 34.468831999795043 ], [ -77.720260991455888, 34.485494000061237 ], [ -77.720858990794355, 34.493063999452986 ], [ -77.693254991768498, 34.519226000267409 ], [ -77.677659991601544, 34.533873999880292 ], [ -77.624693991665481, 34.583518000092276 ], [ -77.621693991395844, 34.585981000171756 ], [ -77.61867899092006, 34.587086999508983 ], [ -77.576559991832539, 34.4827659997026 ], [ -77.577347991772314, 34.481499999959254 ], [ -77.576234991045453, 34.481952999804491 ], [ -77.574923991091936, 34.478681000192054 ], [ -77.576035991342053, 34.477708999966922 ], [ -77.575946991722219, 34.476359000105106 ], [ -77.585792991373935, 34.466725999669265 ], [ -77.600868991234279, 34.460307000010516 ], [ -77.606737991578441, 34.454779999493844 ], [ -77.60162599128175, 34.450887000340636 ], [ -77.598986991536435, 34.446957999697744 ], [ -77.593238990928754, 34.44335400029918 ], [ -77.592262990864583, 34.44099800005624 ], [ -77.59388199160172, 34.437185999588095 ], [ -77.588190990809494, 34.430580999912564 ], [ -77.588908991505491, 34.426287000143319 ], [ -77.588045991341716, 34.42394299969672 ], [ -77.583622991119796, 34.420148000327252 ], [ -77.585905991147143, 34.418130999654572 ], [ -77.585656991082288, 34.416955999460022 ] ] ] } },
{ "type": "Feature", "properties": { "county": "PENDER", "precinct": "UH08", "enr_desc": "Upper Holly", "winner": "Randy Burton", "winner_votes": 34, "winner_share": 55.737704918032783, "runner_up": "Ryan Collins", "runner_up_votes": 27, "runner_up_share": 44.26229508196721, "contest_votes": 61, "margin_of_victory": 11.475409836065573, "is_tie": false, "results": [ { "candidate": "Randy Burton", "votes": 34, "share": 55.73770491803278 }, { "candidate": "Ryan Collins", "votes": 27, "share": 44.26229508196721 } ], "participated": true, "map_key": "PENDER_UH08" }, "geometry": { "type": "Polygon", "coordinates": [ [ [ -77.677659991601544, 34.533873999880292 ], [ -77.680750991606601, 34.547117999518832 ], [ -77.683543991305314, 34.547049999587522 ], [ -77.68144199091239, 34.552039999524098 ], [ -77.682575991164541, 34.555472999903415 ], [ -77.679698991536441, 34.55977599971331 ], [ -77.679688991262552, 34.563591999696463 ], [ -77.680367990774073, 34.56354199975668 ], [ -77.684025990795945, 34.571351000036742 ], [ -77.68581299079429, 34.571747000161757 ], [ -77.688275991309922, 34.575753000220274 ], [ -77.691403991259591, 34.574493999600662 ], [ -77.692482991246806, 34.574906000317185 ], [ -77.691598991377319, 34.58023899952272 ], [ -77.69229099173323, 34.58200200030106 ], [ -77.695112991142025, 34.581544000135395 ], [ -77.697132990814922, 34.578590999901799 ], [ -77.699816991585891, 34.578498999523951 ], [ -77.700508990817596, 34.579734999469977 ], [ -77.698682991634797, 34.58017000007176 ], [ -77.698461991127601, 34.581428999487798 ], [ -77.699734991698492, 34.583487999938363 ], [ -77.703387991532054, 34.58364800004793 ], [ -77.705103991394651, 34.584654999562119 ], [ -77.705242991141887, 34.586211000079381 ], [ -77.706986991208041, 34.587538999685897 ], [ -77.708923991079047, 34.587835999802316 ], [ -77.710943991771998, 34.586805000008653 ], [ -77.71434899159479, 34.586667000254252 ], [ -77.721324991492835, 34.591516999903533 ], [ -77.727939991545568, 34.591240000123108 ], [ -77.729267991190824, 34.590392999866488 ], [ -77.73300499136397, 34.591719000031702 ], [ -77.735054991732625, 34.593595000235801 ], [ -77.740069991819325, 34.594784999641867 ], [ -77.742298991602979, 34.59838399958582 ], [ -77.745998991175341, 34.602030999779025 ], [ -77.750106990911888, 34.603228999838016 ], [ -77.752580990986459, 34.601724999685999 ], [ -77.75469099096631, 34.602644999599747 ], [ -77.752098990991556, 34.604731999585326 ], [ -77.752130991788775, 34.606795999794237 ], [ -77.753520991692398, 34.60787500025797 ], [ -77.753164991094948, 34.609296999499726 ], [ -77.754969990988798, 34.610217000134114 ], [ -77.756137990795736, 34.609487000261559 ], [ -77.759528991416346, 34.613113000067884 ], [ -77.762889991818881, 34.61220399988332 ], [ -77.762673991281943, 34.614290999767725 ], [ -77.763480991126286, 34.615001999934684 ], [ -77.762791991110703, 34.616126999485545 ], [ -77.764819991665661, 34.617182999653146 ], [ -77.765274991130227, 34.614053999898516 ], [ -77.764642991519011, 34.612888999556809 ], [ -77.765199991035942, 34.612249999555324 ], [ -77.767798991306961, 34.614457999989412 ], [ -77.768714990969471, 34.614289999745324 ], [ -77.769213990883969, 34.612893999508373 ], [ -77.773614991601818, 34.613077999753592 ], [ -77.778098991126882, 34.615962999798796 ], [ -77.7794829915278, 34.614499000110264 ], [ -77.780010991695178, 34.610584999481397 ], [ -77.782141991323641, 34.611523999719942 ], [ -77.782583990945113, 34.613469999856221 ], [ -77.780866991382766, 34.617611999690993 ], [ -77.781668991241432, 34.620725000258965 ], [ -77.785072991318316, 34.624112999943613 ], [ -77.789392991173486, 34.623906999623735 ], [ -77.790540991463786, 34.624755999469535 ], [ -77.786981991766652, 34.626428999774689 ], [ -77.781464991149605, 34.631581999490628 ], [ -77.787718991429458, 34.642730000330289 ], [ -77.767447990975711, 34.642496000021843 ], [ -77.767333991274043, 34.649705000162022 ], [ -77.83875999095477, 34.650350000041136 ], [ -77.8383769909926, 34.665113000307471 ], [ -77.888122991765712, 34.665062999622712 ], [ -77.88665599118184, 34.663094999850259 ], [ -77.886879990764555, 34.659661999800285 ], [ -77.884802991305378, 34.658584999532877 ], [ -77.883502991796732, 34.6562959999873 ], [ -77.887515990892553, 34.654517000236972 ], [ -77.896155990776975, 34.660360000351751 ], [ -77.911396991762487, 34.67429599951965 ], [ -77.917017991077543, 34.680421000273185 ], [ -77.917271991068986, 34.701065999906199 ], [ -77.928071991453251, 34.714422000044365 ], [ -77.928492991351419, 34.721921999722937 ], [ -77.921537991655114, 34.719746000338525 ], [ -77.680126991242076, 34.720594999912521 ], [ -77.61867899092006, 34.587086999508983 ], [ -77.621693991395844, 34.585981000171756 ], [ -77.624693991665481, 34.583518000092276 ], [ -77.677659991601544, 34.533873999880292 ] ] ] } },
{ "type": "Feature", "properties": { "county": "PENDER", "precinct": "UT14", "enr_desc": "Upper Topsail", "winner": "Ryan Collins", "winner_votes": 471, "winner_share": 69.469026548672559, "runner_up": "Randy Burton", "runner_up_votes": 207, "runner_up_share": 30.53097345132743, "contest_votes": 678, "margin_of_victory": 38.938053097345133, "is_tie": false, "results": [ { "candidate": "Ryan Collins", "votes": 471, "share": 69.46902654867256 }, { "candidate": "Randy Burton", "votes": 207, "share": 30.53097345132743 } ], "participated": true, "map_key": "PENDER_UT14" }, "geometry": { "type": "Polygon", "coordinates": [ [ [ -77.716312991365868, 34.426552000244534 ], [ -77.718285991180721, 34.428305999842863 ], [ -77.72755599142549, 34.42913800012338 ], [ -77.731752991690655, 34.425772000117192 ], [ -77.733105991836638, 34.425587999758754 ], [ -77.733878991071535, 34.424351999908076 ], [ -77.737966991511399, 34.423388999999474 ], [ -77.738186991665415, 34.422428000120348 ], [ -77.741472991183059, 34.420778000127207 ], [ -77.745255991342603, 34.420386999604659 ], [ -77.745725991186518, 34.420958999974367 ], [ -77.748431991353357, 34.419995999865449 ], [ -77.751852990917314, 34.420343999922864 ], [ -77.752460991524686, 34.419681000209607 ], [ -77.754448991378325, 34.420619999758678 ], [ -77.757266990911717, 34.419957999825456 ], [ -77.758177991128136, 34.421697999799818 ], [ -77.758647991260617, 34.420964999853894 ], [ -77.759696991149468, 34.421766999974608 ], [ -77.763397991275411, 34.421836999758419 ], [ -77.764004991682938, 34.423347999937619 ], [ -77.766378991035467, 34.424881999459409 ], [ -77.768724990891684, 34.429094999712717 ], [ -77.7712929913408, 34.430971999850058 ], [ -77.770573991564049, 34.432688999559211 ], [ -77.771512990816063, 34.434062000050432 ], [ -77.770821991792303, 34.434954999619826 ], [ -77.773721990930497, 34.435733999812733 ], [ -77.773472990972877, 34.437106999980045 ], [ -77.774381991585372, 34.437762999468887 ], [ -77.771860990912003, 34.437815000270923 ], [ -77.767622991282565, 34.439547999560908 ], [ -77.76398499137369, 34.447715000074815 ], [ -77.754134991522136, 34.455236999576222 ], [ -77.753313991842433, 34.461597999871415 ], [ -77.720858990794355, 34.493063999452986 ], [ -77.720260991455888, 34.485494000061237 ], [ -77.714531991095896, 34.468831999795043 ], [ -77.71303299106826, 34.450383000051687 ], [ -77.710270990965853, 34.451918000297397 ], [ -77.705574990937905, 34.45736600000069 ], [ -77.699384991035615, 34.456704000231198 ], [ -77.688883991396125, 34.452761000019159 ], [ -77.684936991540781, 34.440531000041524 ], [ -77.670495991320621, 34.429634999574048 ], [ -77.667936990983861, 34.429380000285605 ], [ -77.660051991831011, 34.424772999709603 ], [ -77.657194991758033, 34.424553000052001 ], [ -77.649886991228442, 34.420867999687985 ], [ -77.647538990904224, 34.418853999803744 ], [ -77.652640991869461, 34.413873999842679 ], [ -77.634231991045539, 34.399498999476208 ], [ -77.632195991549111, 34.39901300018623 ], [ -77.628326991420622, 34.399939999737022 ], [ -77.621670991861635, 34.406312999813352 ], [ -77.613971991438575, 34.4110780003396 ], [ -77.613232990956718, 34.414080999556411 ], [ -77.600567991139172, 34.415583000278765 ], [ -77.598298990925656, 34.41519300016369 ], [ -77.595766990788277, 34.416331999685809 ], [ -77.593614991784776, 34.412697999836453 ], [ -77.591330991481826, 34.414313999551368 ], [ -77.59197299160904, 34.417830999867931 ], [ -77.587831991539872, 34.417844000193028 ], [ -77.585656991082288, 34.416955999460022 ], [ -77.649611991309612, 34.37369799990423 ], [ -77.652172991853206, 34.377202000173234 ], [ -77.653645990817381, 34.375489000083192 ], [ -77.662130991516648, 34.380070000248395 ], [ -77.663562991489002, 34.383428999824112 ], [ -77.664775991273942, 34.384451999791075 ], [ -77.666371991524073, 34.384920000063715 ], [ -77.671014991436323, 34.383377999841095 ], [ -77.67358699158352, 34.383431000323093 ], [ -77.682733991701753, 34.390449999473766 ], [ -77.656631991082506, 34.409966999906239 ], [ -77.657572991516645, 34.410500999750894 ], [ -77.669432991585836, 34.404773000287307 ], [ -77.672800991110876, 34.406266000062779 ], [ -77.672258991562984, 34.406806000168601 ], [ -77.673032991281175, 34.4092800000005 ], [ -77.677330991666949, 34.410505000184152 ], [ -77.677450991590462, 34.413197999611889 ], [ -77.686640990963994, 34.415107000334061 ], [ -77.687998991105815, 34.41454999948467 ], [ -77.690228990934571, 34.420478999499579 ], [ -77.691857991621873, 34.423193999608202 ], [ -77.693448991209621, 34.424184999724311 ], [ -77.699626991248692, 34.42312499952493 ], [ -77.704295991138579, 34.424817999954712 ], [ -77.704930991140316, 34.426534999974649 ], [ -77.709709991857395, 34.426557000309423 ], [ -77.714474991302652, 34.425515000127213 ], [ -77.716312991365868, 34.426552000244534 ] ] ] } },
{ "type": "Feature", "properties": { "county": "PENDER", "precinct": "PL18", "enr_desc": "Penderlea", "winner": "Ryan Collins", "winner_votes": 288, "winner_share": 62.203023758099349, "runner_up": "Randy Burton", "runner_up_votes": 175, "runner_up_share": 37.796976241900651, "contest_votes": 463, "margin_of_victory": 24.406047516198697, "is_tie": false, "results": [ { "candidate": "Ryan Collins", "votes": 288, "share": 62.20302375809935 }, { "candidate": "Randy Burton", "votes": 175, "share": 37.79697624190065 } ], "participated": true, "map_key": "PENDER_PL18" }, "geometry": { "type": "Polygon", "coordinates": [ [ [ -78.033932991246047, 34.578634999829134 ], [ -78.031778991641175, 34.617601999744714 ], [ -78.041545991352066, 34.625186999546727 ], [ -78.115038991176164, 34.697717999671667 ], [ -78.115498991092764, 34.701819000085798 ], [ -78.11420999118269, 34.706734999769346 ], [ -78.113471991480267, 34.707219000173318 ], [ -78.114340991290774, 34.711115999916942 ], [ -78.113376990897862, 34.716216999699171 ], [ -78.114006991746379, 34.72179499998213 ], [ -78.099911990951554, 34.725830999902023 ], [ -78.096838991110815, 34.725452999849907 ], [ -78.094096990980987, 34.7240139998895 ], [ -78.091087991705393, 34.724379999543537 ], [ -78.087132991253782, 34.726068999995739 ], [ -78.081566991009055, 34.72257900004734 ], [ -78.074512991290007, 34.725280000110239 ], [ -78.070866991736906, 34.725455000337519 ], [ -78.069929991584928, 34.727042999837082 ], [ -78.066196990850827, 34.72786699987487 ], [ -78.06449399077556, 34.727096999597094 ], [ -78.062165991367024, 34.727849999846249 ], [ -78.056324990808491, 34.727019999852324 ], [ -78.054761990856719, 34.725600000168249 ], [ -78.052000991155907, 34.725120999722954 ], [ -78.045453991064079, 34.725759999723451 ], [ -78.041389991442244, 34.726759000159326 ], [ -78.040610991491903, 34.727616000139541 ], [ -78.039226991751306, 34.726142999498286 ], [ -78.036712990916968, 34.727400000010299 ], [ -78.036963991031541, 34.726129000281134 ], [ -78.03601699166046, 34.725805999871042 ], [ -78.032435991622194, 34.72754699968656 ], [ -78.031063991312436, 34.726751999613136 ], [ -78.030934991408103, 34.724951999571481 ], [ -78.029695991509001, 34.724756000148957 ], [ -78.028822991579204, 34.726777999978907 ], [ -78.026121991658471, 34.725892000247889 ], [ -78.025250991649358, 34.726319999567345 ], [ -78.023518990925268, 34.730444999491297 ], [ -78.021530991686888, 34.731015000217049 ], [ -78.021056991534053, 34.730497999667442 ], [ -78.017751990758953, 34.732321999940659 ], [ -78.01604399158424, 34.731645999650723 ], [ -78.016072991587336, 34.732556000120326 ], [ -78.014138991098946, 34.731192999741602 ], [ -78.012680990863217, 34.732630000201219 ], [ -78.009447991783418, 34.73144800035984 ], [ -78.010475991630116, 34.729800999849438 ], [ -78.009152991547595, 34.728705999813364 ], [ -78.008310991822626, 34.729194999588103 ], [ -78.00754799088925, 34.728665000310691 ], [ -78.007961990984441, 34.726254999846113 ], [ -78.005894990954943, 34.726117999926551 ], [ -78.004719991743897, 34.727016000368828 ], [ -78.002631991292247, 34.726107999482963 ], [ -78.002091991145434, 34.725151000245511 ], [ -78.003061991058388, 34.724027000209297 ], [ -77.997908991559086, 34.721758000237976 ], [ -77.995812991784021, 34.719761000083835 ], [ -77.996270991353242, 34.718449000042931 ], [ -77.994468991051079, 34.717125999734904 ], [ -77.991946990913377, 34.715979999575275 ], [ -77.987272990769938, 34.717458999894205 ], [ -77.984763990793795, 34.7148960003288 ], [ -77.983411991713012, 34.716262999502248 ], [ -77.981591990973968, 34.715927000105467 ], [ -77.981895991165118, 34.714455000052446 ], [ -77.980982991047938, 34.713890999692211 ], [ -77.978671991132742, 34.715093000372093 ], [ -77.97966799112433, 34.716061000072607 ], [ -77.979240991362531, 34.716948999963051 ], [ -77.976626991038273, 34.71654400024012 ], [ -77.976136991659004, 34.714651000198508 ], [ -77.974745990925001, 34.714493000331778 ], [ -77.973213991336195, 34.717720000339042 ], [ -77.975417991300361, 34.718546000239876 ], [ -77.972819991335427, 34.719333000337976 ], [ -77.971708991411006, 34.718844999865247 ], [ -77.970245990844745, 34.71945000033142 ], [ -77.970054991292471, 34.717735000202097 ], [ -77.96714299123002, 34.719125000211193 ], [ -77.962704991632748, 34.719138999899279 ], [ -77.961535990957017, 34.719957000181999 ], [ -77.958861991112499, 34.717376999599807 ], [ -77.95938299100078, 34.716400000168981 ], [ -77.95881299149535, 34.715863000119541 ], [ -77.956082991650675, 34.716452999910445 ], [ -77.956010991292416, 34.715145000091532 ], [ -77.95213099128901, 34.71469299997915 ], [ -77.95160699162561, 34.717860999647847 ], [ -77.949993991222883, 34.717595999818812 ], [ -77.946394991309987, 34.719109999478157 ], [ -77.944188991499985, 34.718870000216256 ], [ -77.939699991813526, 34.720058000262298 ], [ -77.940934991503724, 34.721024999668074 ], [ -77.93858199162861, 34.723352999652739 ], [ -77.937934990890511, 34.723105999707848 ], [ -77.937577991597976, 34.720230999902583 ], [ -77.935393991824014, 34.720745999769669 ], [ -77.936076991195335, 34.722137000114095 ], [ -77.935479990792345, 34.722520000078362 ], [ -77.933054991115412, 34.721994000061244 ], [ -77.930557991765951, 34.722991999926194 ], [ -77.928492991351419, 34.721921999722937 ], [ -77.928071991453251, 34.714422000044365 ], [ -77.917271991068986, 34.701065999906199 ], [ -77.917017991077543, 34.680421000273185 ], [ -77.911396991762487, 34.67429599951965 ], [ -77.896155990776975, 34.660360000351751 ], [ -77.887515990892553, 34.654517000236972 ], [ -77.876267990806312, 34.648218000333145 ], [ -77.871516991815312, 34.651146999718414 ], [ -77.870198991675878, 34.650861999684814 ], [ -77.872866991542111, 34.644834999498322 ], [ -77.877215991081727, 34.644449999686756 ], [ -77.881566991041538, 34.641909000002769 ], [ -77.882870991453288, 34.638544999919837 ], [ -77.881516991385411, 34.6365290003124 ], [ -77.878610991252771, 34.635588000332042 ], [ -77.873250991314464, 34.631689999522564 ], [ -77.872613991429404, 34.630040999984793 ], [ -77.874134991538057, 34.628116999568952 ], [ -77.870507991224031, 34.626445999776202 ], [ -77.866245991831661, 34.626035000205107 ], [ -77.866638991692994, 34.624816999909122 ], [ -77.869599991161763, 34.622859999969869 ], [ -77.870792991057399, 34.617351999798913 ], [ -77.872753991363354, 34.614386000002234 ], [ -77.876186990894297, 34.613325000034045 ], [ -77.880191991542716, 34.614802999715565 ], [ -77.88158899108555, 34.614199999963411 ], [ -77.880606991003802, 34.606603000057603 ], [ -77.892641991600414, 34.606474999762376 ], [ -77.922209990781951, 34.603513000097422 ], [ -77.992966991786844, 34.587740999615882 ], [ -78.000192990932405, 34.583938999757351 ], [ -78.017717991341357, 34.582247999538346 ], [ -78.033932991246047, 34.578634999829134 ] ] ] } },
{ "type": "Feature", "properties": { "county": "PENDER", "precinct": "BW01", "enr_desc": "Burgaw", "winner": "Ryan Collins", "winner_votes": 703, "winner_share": 76.247288503253799, "runner_up": "Randy Burton", "runner_up_votes": 219, "runner_up_share": 23.752711496746205, "contest_votes": 922, "margin_of_victory": 52.494577006507598, "is_tie": false, "results": [ { "candidate": "Ryan Collins", "votes": 703, "share": 76.2472885032538 }, { "candidate": "Randy Burton", "votes": 219, "share": 23.752711496746205 } ], "participated": true, "map_key": "PENDER_BW01" }, "geometry": { "type": "Polygon", "coordinates": [ [ [ -78.027147990920767, 34.520335999927511 ], [ -78.031356991339976, 34.527054000318842 ], [ -78.031135990839175, 34.528303000030569 ], [ -78.028395990943778, 34.53036199999277 ], [ -78.03803299099836, 34.535710999684895 ], [ -78.038763991615127, 34.537900999930379 ], [ -78.038698991849245, 34.539279000020585 ], [ -78.035991990889571, 34.543720000362953 ], [ -78.033932991246047, 34.578634999829134 ], [ -78.017717991341357, 34.582247999538346 ], [ -78.000192990932405, 34.583938999757351 ], [ -77.992966991786844, 34.587740999615882 ], [ -77.922209990781951, 34.603513000097422 ], [ -77.892641991600414, 34.606474999762376 ], [ -77.880606991003802, 34.606603000057603 ], [ -77.88158899108555, 34.614199999963411 ], [ -77.880191991542716, 34.614802999715565 ], [ -77.876186990894297, 34.613325000034045 ], [ -77.872753991363354, 34.614386000002234 ], [ -77.870792991057399, 34.617351999798913 ], [ -77.869599991161763, 34.622859999969869 ], [ -77.866638991692994, 34.624816999909122 ], [ -77.866245991831661, 34.626035000205107 ], [ -77.870507991224031, 34.626445999776202 ], [ -77.874134991538057, 34.628116999568952 ], [ -77.872613991429404, 34.630040999984793 ], [ -77.873250991314464, 34.631689999522564 ], [ -77.878610991252771, 34.635588000332042 ], [ -77.881516991385411, 34.6365290003124 ], [ -77.882870991453288, 34.638544999919837 ], [ -77.881566991041538, 34.641909000002769 ], [ -77.877215991081727, 34.644449999686756 ], [ -77.872866991542111, 34.644834999498322 ], [ -77.870198991675878, 34.650861999684814 ], [ -77.871516991815312, 34.651146999718414 ], [ -77.876267990806312, 34.648218000333145 ], [ -77.887515990892553, 34.654517000236972 ], [ -77.883502991796732, 34.6562959999873 ], [ -77.884802991305378, 34.658584999532877 ], [ -77.886879990764555, 34.659661999800285 ], [ -77.88665599118184, 34.663094999850259 ], [ -77.888122991765712, 34.665062999622712 ], [ -77.8383769909926, 34.665113000307471 ], [ -77.83875999095477, 34.650350000041136 ], [ -77.767333991274043, 34.649705000162022 ], [ -77.767447990975711, 34.642496000021843 ], [ -77.787718991429458, 34.642730000330289 ], [ -77.781464991149605, 34.631581999490628 ], [ -77.786981991766652, 34.626428999774689 ], [ -77.790540991463786, 34.624755999469535 ], [ -77.789392991173486, 34.623906999623735 ], [ -77.785072991318316, 34.624112999943613 ], [ -77.781668991241432, 34.620725000258965 ], [ -77.780866991382766, 34.617611999690993 ], [ -77.782583990945113, 34.613469999856221 ], [ -77.782141991323641, 34.611523999719942 ], [ -77.780010991695178, 34.610584999481397 ], [ -77.7794829915278, 34.614499000110264 ], [ -77.778098991126882, 34.615962999798796 ], [ -77.773614991601818, 34.613077999753592 ], [ -77.769213990883969, 34.612893999508373 ], [ -77.768714990969471, 34.614289999745324 ], [ -77.767798991306961, 34.614457999989412 ], [ -77.765199991035942, 34.612249999555324 ], [ -77.764642991519011, 34.612888999556809 ], [ -77.765274991130227, 34.614053999898516 ], [ -77.764819991665661, 34.617182999653146 ], [ -77.762791991110703, 34.616126999485545 ], [ -77.763480991126286, 34.615001999934684 ], [ -77.762673991281943, 34.614290999767725 ], [ -77.762889991818881, 34.61220399988332 ], [ -77.759528991416346, 34.613113000067884 ], [ -77.756137990795736, 34.609487000261559 ], [ -77.754969990988798, 34.610217000134114 ], [ -77.753164991094948, 34.609296999499726 ], [ -77.753520991692398, 34.60787500025797 ], [ -77.752130991788775, 34.606795999794237 ], [ -77.752098990991556, 34.604731999585326 ], [ -77.75469099096631, 34.602644999599747 ], [ -77.752580990986459, 34.601724999685999 ], [ -77.750106990911888, 34.603228999838016 ], [ -77.745998991175341, 34.602030999779025 ], [ -77.742298991602979, 34.59838399958582 ], [ -77.740069991819325, 34.594784999641867 ], [ -77.735054991732625, 34.593595000235801 ], [ -77.73300499136397, 34.591719000031702 ], [ -77.729267991190824, 34.590392999866488 ], [ -77.727939991545568, 34.591240000123108 ], [ -77.721324991492835, 34.591516999903533 ], [ -77.71434899159479, 34.586667000254252 ], [ -77.710943991771998, 34.586805000008653 ], [ -77.708923991079047, 34.587835999802316 ], [ -77.706986991208041, 34.587538999685897 ], [ -77.705242991141887, 34.586211000079381 ], [ -77.705103991394651, 34.584654999562119 ], [ -77.703387991532054, 34.58364800004793 ], [ -77.699734991698492, 34.583487999938363 ], [ -77.698461991127601, 34.581428999487798 ], [ -77.698682991634797, 34.58017000007176 ], [ -77.700508990817596, 34.579734999469977 ], [ -77.699816991585891, 34.578498999523951 ], [ -77.697132990814922, 34.578590999901799 ], [ -77.695112991142025, 34.581544000135395 ], [ -77.69229099173323, 34.58200200030106 ], [ -77.691598991377319, 34.58023899952272 ], [ -77.692482991246806, 34.574906000317185 ], [ -77.691403991259591, 34.574493999600662 ], [ -77.688275991309922, 34.575753000220274 ], [ -77.68581299079429, 34.571747000161757 ], [ -77.684025990795945, 34.571351000036742 ], [ -77.680367990774073, 34.56354199975668 ], [ -77.679688991262552, 34.563591999696463 ], [ -77.679698991536441, 34.55977599971331 ], [ -77.682575991164541, 34.555472999903415 ], [ -77.68144199091239, 34.552039999524098 ], [ -77.683543991305314, 34.547049999587522 ], [ -77.680750991606601, 34.547117999518832 ], [ -77.677659991601544, 34.533873999880292 ], [ -77.693254991768498, 34.519226000267409 ], [ -77.715042991248538, 34.524815000344937 ], [ -77.716733991241099, 34.529604000264811 ], [ -77.718559990914329, 34.530907999846299 ], [ -77.719196991091223, 34.533952000242955 ], [ -77.718588990989602, 34.535738000145265 ], [ -77.720443991154994, 34.539972000151167 ], [ -77.727832991556355, 34.545736999995484 ], [ -77.73068299164207, 34.547201000198804 ], [ -77.734057991310095, 34.547474000310437 ], [ -77.737074991263228, 34.549944999466597 ], [ -77.73957499095188, 34.549869999863112 ], [ -77.740363990802678, 34.552230000016671 ], [ -77.741749990941003, 34.55092699951151 ], [ -77.743382991241873, 34.55204800016481 ], [ -77.748941991597206, 34.550580000144429 ], [ -77.749983990897178, 34.551134000192441 ], [ -77.750208990952572, 34.552346999730943 ], [ -77.752614991029603, 34.55257699988897 ], [ -77.75468899162108, 34.554180000092522 ], [ -77.755930991044934, 34.558574999983371 ], [ -77.753052991251735, 34.560404999567083 ], [ -77.752607991003401, 34.563814999783432 ], [ -77.755645991780142, 34.571392999963138 ], [ -77.758216991485682, 34.575398999803369 ], [ -77.756776991143568, 34.577458999550281 ], [ -77.763444990931575, 34.579384000343097 ], [ -77.766514991709911, 34.582245999729935 ], [ -77.768756991204341, 34.581925999931933 ], [ -77.768729991591115, 34.57988900032673 ], [ -77.770416991293672, 34.581240000166027 ], [ -77.773128991852005, 34.580462999843775 ], [ -77.775231991800865, 34.582820999541106 ], [ -77.775009990910945, 34.584125000298307 ], [ -77.77680799157099, 34.585086999770567 ], [ -77.777390991561902, 34.584285999813346 ], [ -77.779243991253978, 34.585315999625067 ], [ -77.781375990842278, 34.583692000154116 ], [ -77.785443991417608, 34.582571000116019 ], [ -77.790036990818436, 34.58241200027404 ], [ -77.790700990819573, 34.584104999795301 ], [ -77.78870799155105, 34.588088000125353 ], [ -77.791059991557404, 34.590971999540081 ], [ -77.794889991591205, 34.59033100033686 ], [ -77.79530099179587, 34.589301000259319 ], [ -77.796622991071118, 34.590327999914606 ], [ -77.79647999086086, 34.589021999682188 ], [ -77.795006991298195, 34.588219000115132 ], [ -77.795998990803142, 34.587049999974184 ], [ -77.800215991720691, 34.589699000194528 ], [ -77.799294991273584, 34.588072000112611 ], [ -77.797212991602279, 34.587175999647386 ], [ -77.797457990997543, 34.585892999716997 ], [ -77.798947991703542, 34.585410999533536 ], [ -77.799002991040496, 34.586647000008213 ], [ -77.799777991626613, 34.587081999518944 ], [ -77.802434991321448, 34.586853000361408 ], [ -77.803237991173404, 34.588638000357498 ], [ -77.80290599154533, 34.589966000055526 ], [ -77.808550991811771, 34.589050000026809 ], [ -77.810985991508943, 34.587288000364794 ], [ -77.812148991828465, 34.585388000017645 ], [ -77.818014991154072, 34.581405000141174 ], [ -77.818594990841092, 34.578886999750381 ], [ -77.820752991676798, 34.576872999607644 ], [ -77.819286991349387, 34.576141000285752 ], [ -77.817017990763802, 34.577606000216775 ], [ -77.815993991842419, 34.575111000364551 ], [ -77.816989990894029, 34.572639000220057 ], [ -77.819368990978333, 34.570877000177951 ], [ -77.820226991479629, 34.568336000137158 ], [ -77.822550991474145, 34.568197999857844 ], [ -77.822688991444949, 34.56655000011839 ], [ -77.821111990976192, 34.564787999592824 ], [ -77.818759991438625, 34.564787999806519 ], [ -77.816213991526908, 34.5627519994907 ], [ -77.815521991066404, 34.555976999914826 ], [ -77.812644991429991, 34.552750000219937 ], [ -77.820334991636969, 34.545516999967866 ], [ -77.826805990795208, 34.542426000315743 ], [ -77.829404991376805, 34.539656000144149 ], [ -77.831533991533476, 34.534437999908505 ], [ -77.829817990848468, 34.531233999861996 ], [ -77.830887991296962, 34.524232999656576 ], [ -77.828771991041521, 34.520562000011545 ], [ -77.830502991352276, 34.517065999873516 ], [ -77.831137991815609, 34.511570000107561 ], [ -77.831668991067161, 34.510537000310293 ], [ -77.834265991664921, 34.510222000328149 ], [ -77.838763990930531, 34.514519000167837 ], [ -77.840212991218834, 34.514511999958629 ], [ -77.840532991721076, 34.512747999724802 ], [ -77.836661991854498, 34.507603999748923 ], [ -77.83815099150118, 34.507621000239745 ], [ -77.841462991482544, 34.509999000141065 ], [ -77.841636991213576, 34.507365999680836 ], [ -77.845050991490965, 34.501624999941896 ], [ -77.842741991831218, 34.499167999651043 ], [ -77.846128991528644, 34.49866199983758 ], [ -77.845005990895743, 34.497627999988545 ], [ -77.842260991759034, 34.497492999672907 ], [ -77.842962991707168, 34.495647000032839 ], [ -77.842423991806939, 34.493559999685218 ], [ -77.841085990920121, 34.494338999926136 ], [ -77.840215991241905, 34.493635999918666 ], [ -77.838796991260125, 34.489777000144528 ], [ -77.839752990996118, 34.488570999470177 ], [ -77.836929991484126, 34.486153999826264 ], [ -77.836866991568442, 34.480634999877182 ], [ -77.834912990822374, 34.479455999653545 ], [ -77.835282991691756, 34.478492999869189 ], [ -77.839235991107472, 34.477258000297262 ], [ -77.839447991812833, 34.4736569996019 ], [ -77.841222991777599, 34.471696999791845 ], [ -77.837978991636319, 34.467371000287443 ], [ -77.839099991198935, 34.46565499971387 ], [ -77.841094990884812, 34.465097999900536 ], [ -77.84071199143817, 34.467651999827176 ], [ -77.844070991564649, 34.468116999624925 ], [ -77.844501991161124, 34.469395000013492 ], [ -77.860356991754671, 34.473803999567863 ], [ -77.872888991580254, 34.479658999791852 ], [ -77.875064991226509, 34.478877000227463 ], [ -77.876053991485634, 34.481663000231144 ], [ -77.878829991475556, 34.484270000368419 ], [ -77.881364991384274, 34.488630999922108 ], [ -77.881357991768922, 34.493285000340123 ], [ -77.884886990863734, 34.494800000045977 ], [ -77.896768991215794, 34.494158999684302 ], [ -77.901591991023253, 34.49067399966939 ], [ -77.905898991293995, 34.488909999633343 ], [ -77.999712991779305, 34.508198999499633 ], [ -78.027147990920767, 34.520335999927511 ] ] ] } },
{ "type": "Feature", "properties": { "county": "PENDER", "precinct": "RP21", "enr_desc": "Rocky Point", "winner": "Ryan Collins", "winner_votes": 507, "winner_share": 59.022118742724096, "runner_up": "Randy Burton", "runner_up_votes": 352, "runner_up_share": 40.977881257275897, "contest_votes": 859, "margin_of_victory": 18.0442374854482, "is_tie": false, "results": [ { "candidate": "Ryan Collins", "votes": 507, "share": 59.022118742724096 }, { "candidate": "Randy Burton", "votes": 352, "share": 40.9778812572759 } ], "participated": true, "map_key": "PENDER_RP21" }, "geometry": { "type": "Polygon", "coordinates": [ [ [ -77.967541991176802, 34.37906399967288 ], [ -77.968597991513874, 34.384382999492736 ], [ -77.975322991514489, 34.388992999561566 ], [ -77.977173991762896, 34.391075000026966 ], [ -77.981110991160676, 34.391250999514355 ], [ -77.982230991185091, 34.393229999862079 ], [ -77.993123991396573, 34.391000000283846 ], [ -77.994055991742187, 34.387914999952535 ], [ -77.99379199098334, 34.385755999629581 ], [ -77.999712991262186, 34.38690699973008 ], [ -78.003481991158381, 34.384302999506346 ], [ -78.004854991159391, 34.38474899971024 ], [ -78.005326990813288, 34.386098999744306 ], [ -78.008848991347634, 34.388989000229699 ], [ -78.008953990790388, 34.391055999706325 ], [ -78.010855991246615, 34.390980999579845 ], [ -78.011796991204335, 34.393028999953152 ], [ -78.012643991803913, 34.392712000332573 ], [ -78.012258991129443, 34.390418000011934 ], [ -78.013062991544132, 34.389504000064207 ], [ -78.014982991682402, 34.39154299982809 ], [ -78.017353990988354, 34.392164999961693 ], [ -78.016885990899155, 34.393403999841404 ], [ -78.017535991344616, 34.39432899997032 ], [ -78.019057991120647, 34.392482999963903 ], [ -78.022030991151283, 34.392132999614958 ], [ -78.021418990844495, 34.393241999911645 ], [ -78.0231839909125, 34.394295999903861 ], [ -78.02171099164859, 34.396069000183978 ], [ -78.022135991543763, 34.397258000242942 ], [ -78.024004991553298, 34.398594000376853 ], [ -78.026368991441885, 34.39896600012414 ], [ -78.027770991018485, 34.400419999639212 ], [ -78.029172991688142, 34.407014999847441 ], [ -78.0319549909578, 34.408211999724884 ], [ -78.030733991425649, 34.409083000003989 ], [ -78.03344699089358, 34.409489999649054 ], [ -78.034745991371054, 34.410619999615705 ], [ -78.034466991751756, 34.411369000130719 ], [ -78.032822991500865, 34.410841000003508 ], [ -78.031888991198656, 34.412100999575742 ], [ -78.033467991239689, 34.414380000153834 ], [ -78.032359990852527, 34.417615999887218 ], [ -78.02614699162126, 34.424356999579523 ], [ -78.029542991636163, 34.427470000199392 ], [ -78.028740991566053, 34.429254999882254 ], [ -78.031031991358532, 34.432596999639927 ], [ -78.030478991272375, 34.434908999621001 ], [ -78.031112991137022, 34.436305000077091 ], [ -78.026719991686761, 34.438386000029467 ], [ -78.026083990856932, 34.440010999936575 ], [ -78.028236991463359, 34.444406000355144 ], [ -78.032683991010501, 34.446215000161423 ], [ -78.033593991532399, 34.449854000382416 ], [ -78.035637991683743, 34.450701999932157 ], [ -78.042209990784798, 34.457636999477238 ], [ -78.042981991114729, 34.462488999882261 ], [ -78.040577991084518, 34.465234000172757 ], [ -78.040189991790413, 34.468850000041115 ], [ -78.042011991387866, 34.474320999948134 ], [ -78.043973991686883, 34.476609999832981 ], [ -78.043889991488513, 34.480432000279812 ], [ -78.04159399183132, 34.487799999545331 ], [ -78.03747299177914, 34.491758999786754 ], [ -78.036559990983747, 34.49450499988086 ], [ -78.037414991077426, 34.497052000098144 ], [ -78.040779991271023, 34.499806999940731 ], [ -78.041733990858972, 34.501574000260241 ], [ -78.039603991714515, 34.504435000037248 ], [ -78.034404991234084, 34.508140999654195 ], [ -78.029011991404815, 34.513930000341205 ], [ -78.027147990920767, 34.520335999927511 ], [ -77.999712991779305, 34.508198999499633 ], [ -77.905898991293995, 34.488909999633343 ], [ -77.901591991023253, 34.49067399966939 ], [ -77.896768991215794, 34.494158999684302 ], [ -77.884886990863734, 34.494800000045977 ], [ -77.881357991768922, 34.493285000340123 ], [ -77.881364991384274, 34.488630999922108 ], [ -77.878829991475556, 34.484270000368419 ], [ -77.876053991485634, 34.481663000231144 ], [ -77.875064991226509, 34.478877000227463 ], [ -77.872888991580254, 34.479658999791852 ], [ -77.860356991754671, 34.473803999567863 ], [ -77.844501991161124, 34.469395000013492 ], [ -77.844070991564649, 34.468116999624925 ], [ -77.84071199143817, 34.467651999827176 ], [ -77.841094990884812, 34.465097999900536 ], [ -77.839099991198935, 34.46565499971387 ], [ -77.837978991636319, 34.467371000287443 ], [ -77.841222991777599, 34.471696999791845 ], [ -77.839447991812833, 34.4736569996019 ], [ -77.839235991107472, 34.477258000297262 ], [ -77.835282991691756, 34.478492999869189 ], [ -77.834912990822374, 34.479455999653545 ], [ -77.836866991568442, 34.480634999877182 ], [ -77.836929991484126, 34.486153999826264 ], [ -77.839752990996118, 34.488570999470177 ], [ -77.838796991260125, 34.489777000144528 ], [ -77.840215991241905, 34.493635999918666 ], [ -77.841085990920121, 34.494338999926136 ], [ -77.842423991806939, 34.493559999685218 ], [ -77.842962991707168, 34.495647000032839 ], [ -77.842260991759034, 34.497492999672907 ], [ -77.845005990895743, 34.497627999988545 ], [ -77.846128991528644, 34.49866199983758 ], [ -77.842741991831218, 34.499167999651043 ], [ -77.845050991490965, 34.501624999941896 ], [ -77.841636991213576, 34.507365999680836 ], [ -77.841462991482544, 34.509999000141065 ], [ -77.83815099150118, 34.507621000239745 ], [ -77.836661991854498, 34.507603999748923 ], [ -77.840532991721076, 34.512747999724802 ], [ -77.840212991218834, 34.514511999958629 ], [ -77.838763990930531, 34.514519000167837 ], [ -77.834265991664921, 34.510222000328149 ], [ -77.831668991067161, 34.510537000310293 ], [ -77.831137991815609, 34.511570000107561 ], [ -77.830502991352276, 34.517065999873516 ], [ -77.828771991041521, 34.520562000011545 ], [ -77.830887991296962, 34.524232999656576 ], [ -77.829817990848468, 34.531233999861996 ], [ -77.831533991533476, 34.534437999908505 ], [ -77.829404991376805, 34.539656000144149 ], [ -77.826805990795208, 34.542426000315743 ], [ -77.820334991636969, 34.545516999967866 ], [ -77.812644991429991, 34.552750000219937 ], [ -77.815521991066404, 34.555976999914826 ], [ -77.816213991526908, 34.5627519994907 ], [ -77.818759991438625, 34.564787999806519 ], [ -77.821111990976192, 34.564787999592824 ], [ -77.822688991444949, 34.56655000011839 ], [ -77.822550991474145, 34.568197999857844 ], [ -77.820226991479629, 34.568336000137158 ], [ -77.819368990978333, 34.570877000177951 ], [ -77.816989990894029, 34.572639000220057 ], [ -77.815993991842419, 34.575111000364551 ], [ -77.817017990763802, 34.577606000216775 ], [ -77.819286991349387, 34.576141000285752 ], [ -77.820752991676798, 34.576872999607644 ], [ -77.818594990841092, 34.578886999750381 ], [ -77.818014991154072, 34.581405000141174 ], [ -77.812148991828465, 34.585388000017645 ], [ -77.810985991508943, 34.587288000364794 ], [ -77.808550991811771, 34.589050000026809 ], [ -77.80290599154533, 34.589966000055526 ], [ -77.803237991173404, 34.588638000357498 ], [ -77.802434991321448, 34.586853000361408 ], [ -77.799777991626613, 34.587081999518944 ], [ -77.799002991040496, 34.586647000008213 ], [ -77.798947991703542, 34.585410999533536 ], [ -77.797457990997543, 34.585892999716997 ], [ -77.797212991602279, 34.587175999647386 ], [ -77.799294991273584, 34.588072000112611 ], [ -77.800215991720691, 34.589699000194528 ], [ -77.795998990803142, 34.587049999974184 ], [ -77.795006991298195, 34.588219000115132 ], [ -77.79647999086086, 34.589021999682188 ], [ -77.796622991071118, 34.590327999914606 ], [ -77.79530099179587, 34.589301000259319 ], [ -77.794889991591205, 34.59033100033686 ], [ -77.791059991557404, 34.590971999540081 ], [ -77.78870799155105, 34.588088000125353 ], [ -77.790700990819573, 34.584104999795301 ], [ -77.790036990818436, 34.58241200027404 ], [ -77.785443991417608, 34.582571000116019 ], [ -77.781375990842278, 34.583692000154116 ], [ -77.779243991253978, 34.585315999625067 ], [ -77.777390991561902, 34.584285999813346 ], [ -77.77680799157099, 34.585086999770567 ], [ -77.775009990910945, 34.584125000298307 ], [ -77.775231991800865, 34.582820999541106 ], [ -77.773128991852005, 34.580462999843775 ], [ -77.770416991293672, 34.581240000166027 ], [ -77.768729991591115, 34.57988900032673 ], [ -77.768756991204341, 34.581925999931933 ], [ -77.766514991709911, 34.582245999729935 ], [ -77.763444990931575, 34.579384000343097 ], [ -77.756776991143568, 34.577458999550281 ], [ -77.758216991485682, 34.575398999803369 ], [ -77.755645991780142, 34.571392999963138 ], [ -77.752607991003401, 34.563814999783432 ], [ -77.753052991251735, 34.560404999567083 ], [ -77.755930991044934, 34.558574999983371 ], [ -77.75468899162108, 34.554180000092522 ], [ -77.752614991029603, 34.55257699988897 ], [ -77.750208990952572, 34.552346999730943 ], [ -77.749983990897178, 34.551134000192441 ], [ -77.748941991597206, 34.550580000144429 ], [ -77.743382991241873, 34.55204800016481 ], [ -77.741749990941003, 34.55092699951151 ], [ -77.740363990802678, 34.552230000016671 ], [ -77.73957499095188, 34.549869999863112 ], [ -77.737074991263228, 34.549944999466597 ], [ -77.734057991310095, 34.547474000310437 ], [ -77.73068299164207, 34.547201000198804 ], [ -77.727832991556355, 34.545736999995484 ], [ -77.720443991154994, 34.539972000151167 ], [ -77.718588990989602, 34.535738000145265 ], [ -77.719196991091223, 34.533952000242955 ], [ -77.718559990914329, 34.530907999846299 ], [ -77.716733991241099, 34.529604000264811 ], [ -77.715042991248538, 34.524815000344937 ], [ -77.693254991768498, 34.519226000267409 ], [ -77.720858990794355, 34.493063999452986 ], [ -77.753313991842433, 34.461597999871415 ], [ -77.754134991522136, 34.455236999576222 ], [ -77.76398499137369, 34.447715000074815 ], [ -77.767622991282565, 34.439547999560908 ], [ -77.771860990912003, 34.437815000270923 ], [ -77.774381991585372, 34.437762999468887 ], [ -77.778584991108133, 34.43910000006985 ], [ -77.78244599105723, 34.437876000356965 ], [ -77.783105991214313, 34.43619399986428 ], [ -77.790758990938045, 34.434932999867712 ], [ -77.799936990822658, 34.431461999949406 ], [ -77.798639991384491, 34.430518999664699 ], [ -77.799385991525028, 34.429649000290183 ], [ -77.79852999080596, 34.429190999571325 ], [ -77.798998991114615, 34.428618999931153 ], [ -77.798335991670157, 34.427452000023479 ], [ -77.799164991439369, 34.426376999773822 ], [ -77.798474991176846, 34.423675999507182 ], [ -77.796900991248592, 34.421821999956492 ], [ -77.797784990820901, 34.420768999754749 ], [ -77.796017991056885, 34.419006999609095 ], [ -77.79767499127702, 34.418823999964225 ], [ -77.797370991586249, 34.418090999667598 ], [ -77.798475991150596, 34.417816999841904 ], [ -77.79601799114748, 34.417358999911528 ], [ -77.794857991497537, 34.417999000124254 ], [ -77.794443991776163, 34.417152999536512 ], [ -77.792095991299803, 34.416327999608221 ], [ -77.792537991510969, 34.415114999744162 ], [ -77.791185991776231, 34.411910999933468 ], [ -77.79226299137774, 34.411270000045157 ], [ -77.791572991210117, 34.409964999685336 ], [ -77.792511991304949, 34.40877499957044 ], [ -77.791627991148005, 34.408751999819053 ], [ -77.790910991428078, 34.406874999738456 ], [ -77.792208991091613, 34.406600999816227 ], [ -77.7918779908087, 34.405959999984496 ], [ -77.792567991109749, 34.405548000087201 ], [ -77.79416899159196, 34.406463999889766 ], [ -77.796847991124579, 34.405044999982245 ], [ -77.804676991534052, 34.405287999992133 ], [ -77.805662991640943, 34.405003999698742 ], [ -77.807007991172625, 34.402889999502406 ], [ -77.807963991142799, 34.403010999635192 ], [ -77.808900991685036, 34.404741999619283 ], [ -77.810109990905104, 34.403041999943625 ], [ -77.811923991141029, 34.403081000277027 ], [ -77.813064991347659, 34.402205999945359 ], [ -77.82299499082238, 34.389358999888636 ], [ -77.825021991286164, 34.387596000042578 ], [ -77.831548991743858, 34.386366000142914 ], [ -77.836631991347545, 34.383479000008002 ], [ -77.843804990793572, 34.380860999670652 ], [ -77.858641990961786, 34.379695000090145 ], [ -77.871465991255391, 34.373332000068054 ], [ -77.879899990995852, 34.366282000241029 ], [ -77.88703999122697, 34.364242999522247 ], [ -77.895773991334394, 34.363813000278938 ], [ -77.898473991842536, 34.365243999541434 ], [ -77.899964991422607, 34.367758000316528 ], [ -77.899352991443195, 34.375167999640638 ], [ -77.900604991796925, 34.37795500033176 ], [ -77.902189991576279, 34.377930000083119 ], [ -77.907219991608372, 34.375251999759399 ], [ -77.91707899163309, 34.375725999791925 ], [ -77.918492991752814, 34.374839999565701 ], [ -77.922332990821602, 34.367672000021869 ], [ -77.928780991335117, 34.361543999702498 ], [ -77.930780990823678, 34.361132000272626 ], [ -77.931818991454193, 34.36172500035152 ], [ -77.93046999085233, 34.365439000206827 ], [ -77.931000991555365, 34.367728000131692 ], [ -77.932620991597574, 34.368007999916912 ], [ -77.934077991110314, 34.367015999479669 ], [ -77.935101991640437, 34.364391999492916 ], [ -77.933229990936098, 34.359271999701555 ], [ -77.934989991796144, 34.358024000053774 ], [ -77.938518991428765, 34.359593999640929 ], [ -77.940893991218573, 34.362680000241433 ], [ -77.941229991321308, 34.364616000255644 ], [ -77.939261991837341, 34.367975999904615 ], [ -77.939901991418409, 34.369832000093837 ], [ -77.94906999121477, 34.371495999904482 ], [ -77.950061990901091, 34.370456000111353 ], [ -77.949981990909137, 34.365464000103174 ], [ -77.950653991427032, 34.364519999543724 ], [ -77.951773990805648, 34.364711999982113 ], [ -77.953758991030085, 34.366647999752374 ], [ -77.958542991038939, 34.369176000192262 ], [ -77.96142299169928, 34.372551999867696 ], [ -77.961325991446358, 34.374669000375874 ], [ -77.95878699147768, 34.379120000270667 ], [ -77.959880991794364, 34.382306000168469 ], [ -77.962193991227423, 34.382854999655649 ], [ -77.967541991176802, 34.37906399967288 ] ] ] } },
{ "type": "Feature", "properties": { "county": "PENDER", "precinct": "MC07", "enr_desc": "Malpass Corner", "winner": "Ryan Collins", "winner_votes": 198, "winner_share": 63.258785942492011, "runner_up": "Randy Burton", "runner_up_votes": 115, "runner_up_share": 36.741214057507989, "contest_votes": 313, "margin_of_victory": 26.517571884984022, "is_tie": false, "results": [ { "candidate": "Ryan Collins", "votes": 198, "share": 63.25878594249201 }, { "candidate": "Randy Burton", "votes": 115, "share": 36.74121405750799 } ], "participated": true, "map_key": "PENDER_MC07" }, "geometry": { "type": "Polygon", "coordinates": [ [ [ -78.233545991745075, 34.580361999539697 ], [ -78.17530699080767, 34.556299999509058 ], [ -78.171317991182121, 34.546480000125776 ], [ -78.166017991702589, 34.542146999910535 ], [ -78.163599991599142, 34.537719999729738 ], [ -78.162010991195643, 34.531237000025691 ], [ -78.162773991755103, 34.525945000218847 ], [ -78.161509991633963, 34.521964999589358 ], [ -78.159421991527623, 34.520274999572855 ], [ -78.157094991465968, 34.516459999617325 ], [ -78.149524991027434, 34.513539000245608 ], [ -78.143726991780568, 34.509638000119367 ], [ -78.14289099081634, 34.507988000198807 ], [ -78.137704990814953, 34.505210000097968 ], [ -78.134183991177764, 34.504815999969544 ], [ -78.131908991410782, 34.50588799977028 ], [ -78.129135990898277, 34.505036000138283 ], [ -78.129270990961047, 34.509408999821687 ], [ -78.126114991859041, 34.514258999690853 ], [ -78.126639991089249, 34.514855000363653 ], [ -78.123982991484937, 34.514790000040321 ], [ -78.122159991801212, 34.516278999891249 ], [ -78.107356991436049, 34.51476200031248 ], [ -78.112642991730965, 34.504121999534107 ], [ -78.107151991253772, 34.502038000305937 ], [ -78.10128699152753, 34.502596999808148 ], [ -78.091968991388143, 34.500496999770014 ], [ -78.083921991829769, 34.501449000213491 ], [ -78.078952991406496, 34.500597999637471 ], [ -78.068102991159094, 34.505058000160545 ], [ -78.063795990898768, 34.505672999931171 ], [ -78.058474991520882, 34.505010000226235 ], [ -78.064162991065388, 34.512596000365875 ], [ -78.067887991809769, 34.524108999813592 ], [ -78.065943991116129, 34.524398000372258 ], [ -78.058217991710038, 34.522954999619984 ], [ -78.056254990887936, 34.521747000316857 ], [ -78.053112991775464, 34.517594000115416 ], [ -78.04486399169879, 34.509973999803051 ], [ -78.044433991038701, 34.506120000242952 ], [ -78.042782991326817, 34.504320999621505 ], [ -78.041733990858972, 34.501574000260241 ], [ -78.040779991271023, 34.499806999940731 ], [ -78.037414991077426, 34.497052000098144 ], [ -78.036559990983747, 34.49450499988086 ], [ -78.03747299177914, 34.491758999786754 ], [ -78.04159399183132, 34.487799999545331 ], [ -78.043889991488513, 34.480432000279812 ], [ -78.043973991686883, 34.476609999832981 ], [ -78.042011991387866, 34.474320999948134 ], [ -78.040189991790413, 34.468850000041115 ], [ -78.040577991084518, 34.465234000172757 ], [ -78.042981991114729, 34.462488999882261 ], [ -78.042209990784798, 34.457636999477238 ], [ -78.035637991683743, 34.450701999932157 ], [ -78.033593991532399, 34.449854000382416 ], [ -78.032683991010501, 34.446215000161423 ], [ -78.028236991463359, 34.444406000355144 ], [ -78.026083990856932, 34.440010999936575 ], [ -78.026719991686761, 34.438386000029467 ], [ -78.031112991137022, 34.436305000077091 ], [ -78.030478991272375, 34.434908999621001 ], [ -78.031031991358532, 34.432596999639927 ], [ -78.028740991566053, 34.429254999882254 ], [ -78.029542991636163, 34.427470000199392 ], [ -78.02614699162126, 34.424356999579523 ], [ -78.032359990852527, 34.417615999887218 ], [ -78.033467991239689, 34.414380000153834 ], [ -78.031888991198656, 34.412100999575742 ], [ -78.032822991500865, 34.410841000003508 ], [ -78.034466991751756, 34.411369000130719 ], [ -78.034745991371054, 34.410619999615705 ], [ -78.03344699089358, 34.409489999649054 ], [ -78.030733991425649, 34.409083000003989 ], [ -78.0319549909578, 34.408211999724884 ], [ -78.029172991688142, 34.407014999847441 ], [ -78.027770991018485, 34.400419999639212 ], [ -78.026368991441885, 34.39896600012414 ], [ -78.024004991553298, 34.398594000376853 ], [ -78.022135991543763, 34.397258000242942 ], [ -78.02171099164859, 34.396069000183978 ], [ -78.0231839909125, 34.394295999903861 ], [ -78.021418990844495, 34.393241999911645 ], [ -78.022030991151283, 34.392132999614958 ], [ -78.019057991120647, 34.392482999963903 ], [ -78.017535991344616, 34.39432899997032 ], [ -78.016885990899155, 34.393403999841404 ], [ -78.017353990988354, 34.392164999961693 ], [ -78.014982991682402, 34.39154299982809 ], [ -78.013062991544132, 34.389504000064207 ], [ -78.012258991129443, 34.390418000011934 ], [ -78.012643991803913, 34.392712000332573 ], [ -78.011796991204335, 34.393028999953152 ], [ -78.010855991246615, 34.390980999579845 ], [ -78.008953990790388, 34.391055999706325 ], [ -78.008848991347634, 34.388989000229699 ], [ -78.005326990813288, 34.386098999744306 ], [ -78.004854991159391, 34.38474899971024 ], [ -78.003481991158381, 34.384302999506346 ], [ -77.999712991262186, 34.38690699973008 ], [ -77.99379199098334, 34.385755999629581 ], [ -77.994055991742187, 34.387914999952535 ], [ -77.993123991396573, 34.391000000283846 ], [ -77.982230991185091, 34.393229999862079 ], [ -77.981110991160676, 34.391250999514355 ], [ -77.977173991762896, 34.391075000026966 ], [ -77.975322991514489, 34.388992999561566 ], [ -77.968597991513874, 34.384382999492736 ], [ -77.967541991176802, 34.37906399967288 ], [ -77.97026799087547, 34.377714999906487 ], [ -77.973327991393973, 34.37375199981733 ], [ -77.975552991810417, 34.372344000066917 ], [ -77.983921991545543, 34.373079999922147 ], [ -77.98611399106592, 34.372536999986899 ], [ -77.98766599187762, 34.371143999500923 ], [ -77.988354990950867, 34.368040999637827 ], [ -77.988099991638251, 34.363881000231316 ], [ -77.987332991705671, 34.362937000082511 ], [ -77.980436991614411, 34.361065000244686 ], [ -77.978357991097241, 34.358920999588712 ], [ -77.97803499147615, 34.356952000064119 ], [ -77.979517991808763, 34.355583999649319 ], [ -77.985996991363322, 34.353471000025941 ], [ -77.987688991008994, 34.351891999855596 ], [ -77.994129991144106, 34.342635000242552 ], [ -77.994298991152775, 34.339493999657037 ], [ -77.993201991024733, 34.336827999943772 ], [ -78.030739991454411, 34.331755000239028 ], [ -78.033892991118606, 34.330149000306569 ], [ -78.037690991491715, 34.33244499961468 ], [ -78.042304991698444, 34.33031199958053 ], [ -78.047257991301151, 34.330742999571619 ], [ -78.047135991182103, 34.335439000118299 ], [ -78.047965991623641, 34.33613099984462 ], [ -78.053968991049047, 34.335584999725313 ], [ -78.052293991472155, 34.33948400021135 ], [ -78.059060991696143, 34.345149000201339 ], [ -78.059812991161749, 34.344835999765849 ], [ -78.05999899180901, 34.34096799979995 ], [ -78.058819991306066, 34.338717999502443 ], [ -78.059734991854, 34.337563000065153 ], [ -78.062115991218334, 34.337553999720932 ], [ -78.065242991277316, 34.338893000077256 ], [ -78.073647991752637, 34.337770999851479 ], [ -78.077777991366844, 34.338506000137841 ], [ -78.078668991374528, 34.339232999610985 ], [ -78.078546991237161, 34.340233000004609 ], [ -78.075004991374087, 34.344311999591341 ], [ -78.074608991018721, 34.347206000179739 ], [ -78.075589991194633, 34.349049999509027 ], [ -78.079701991226685, 34.351976000356998 ], [ -78.078706991421228, 34.353589999708767 ], [ -78.079125991375562, 34.354164999800766 ], [ -78.081053991649611, 34.353950999504903 ], [ -78.084793991682972, 34.351362000138316 ], [ -78.086097991807947, 34.351385000222521 ], [ -78.092805991600187, 34.352382000204358 ], [ -78.093650991851149, 34.353283000015125 ], [ -78.093449991773113, 34.354963999798763 ], [ -78.094767991242691, 34.355986000059204 ], [ -78.103422991572998, 34.355223999651457 ], [ -78.106793991397666, 34.358105999638738 ], [ -78.113040991774724, 34.360209999988406 ], [ -78.11393399127661, 34.361314999549343 ], [ -78.112767991715771, 34.363119999676734 ], [ -78.113388991685525, 34.364449000311907 ], [ -78.117370991748558, 34.364598999827663 ], [ -78.120726991142689, 34.368001999643752 ], [ -78.122082991100413, 34.368376000197863 ], [ -78.131981991820652, 34.366663000102683 ], [ -78.133066991511228, 34.367107999582259 ], [ -78.136314991548559, 34.371730000147615 ], [ -78.140734991135773, 34.369145999975288 ], [ -78.139427991173548, 34.366230000244826 ], [ -78.140058991294509, 34.365131000386519 ], [ -78.143073990900731, 34.364482999923851 ], [ -78.148447991809945, 34.367006999927852 ], [ -78.153480991431067, 34.365586999984096 ], [ -78.156495991864816, 34.362358999715752 ], [ -78.158541990990642, 34.357458000297015 ], [ -78.169188991342907, 34.357043000347076 ], [ -78.171886991162381, 34.354992999993634 ], [ -78.174691991876145, 34.351245999531052 ], [ -78.177188991843579, 34.354476000317746 ], [ -78.179272991682311, 34.355277999982533 ], [ -78.183997991312452, 34.353747000335147 ], [ -78.192887991672748, 34.352674999723043 ], [ -78.202531991115791, 34.353305999664251 ], [ -78.210193991075599, 34.35795999954081 ], [ -78.21174999173887, 34.362603999615089 ], [ -78.209959991548828, 34.367671000273901 ], [ -78.210594990817413, 34.368794999631767 ], [ -78.220117991019421, 34.371418000004283 ], [ -78.224779991754232, 34.373502999659614 ], [ -78.227891991249734, 34.376198999651919 ], [ -78.228027991760925, 34.378323000034761 ], [ -78.228796991045314, 34.378927999831518 ], [ -78.230274990971594, 34.378289999596156 ], [ -78.231164991562665, 34.375613999496849 ], [ -78.232676990843714, 34.373970999709023 ], [ -78.235155991661031, 34.374228000120596 ], [ -78.236137991723069, 34.375769999601772 ], [ -78.236709991042559, 34.380447999836278 ], [ -78.24287999180423, 34.384289999805475 ], [ -78.245599991161598, 34.385087000383955 ], [ -78.244999991311374, 34.389922999802337 ], [ -78.246615991015972, 34.393312999591238 ], [ -78.247791991374115, 34.3938679998409 ], [ -78.250943991156461, 34.391247999916352 ], [ -78.25263099180691, 34.391208000173521 ], [ -78.25608499173623, 34.399468999846114 ], [ -78.176500991371157, 34.465356000330523 ], [ -78.17792899089369, 34.46622100021424 ], [ -78.180018991436995, 34.465786000189084 ], [ -78.180168991539915, 34.467421000112324 ], [ -78.182160991498549, 34.469840999718343 ], [ -78.185079991525484, 34.467807999567647 ], [ -78.187552991431048, 34.46910200037987 ], [ -78.189755991059059, 34.469260000011019 ], [ -78.18931499087266, 34.471703999593224 ], [ -78.191155990847321, 34.473412000290047 ], [ -78.203514991294455, 34.475990999777459 ], [ -78.206541991055857, 34.480492000146263 ], [ -78.205382991553563, 34.482586999884468 ], [ -78.207048991587357, 34.483520000311458 ], [ -78.20865599138061, 34.486501000255693 ], [ -78.207098991761811, 34.486962000140011 ], [ -78.207344991771421, 34.487701000073613 ], [ -78.209606991104593, 34.48760199998997 ], [ -78.212076991217899, 34.486063000013587 ], [ -78.212748991201536, 34.486623999775667 ], [ -78.211717991524765, 34.487847999744581 ], [ -78.212833991217849, 34.488760000184897 ], [ -78.215154991394712, 34.48737899967869 ], [ -78.217196991659819, 34.487356999992656 ], [ -78.218528990830677, 34.489675000000496 ], [ -78.220740990943199, 34.490932000152554 ], [ -78.222318991640762, 34.493182999926461 ], [ -78.224093990770868, 34.492873000072997 ], [ -78.224127991116191, 34.491654000093796 ], [ -78.223289991376689, 34.490990000143384 ], [ -78.223807991118775, 34.490562999592399 ], [ -78.236556990865338, 34.492991999909229 ], [ -78.237409991203052, 34.494373000071597 ], [ -78.237118991240365, 34.496125999817465 ], [ -78.239204991070594, 34.496698000389756 ], [ -78.238674991704428, 34.49790700006826 ], [ -78.243492990924977, 34.500822999580791 ], [ -78.245574991782206, 34.499870999738633 ], [ -78.245843991432352, 34.50115400015325 ], [ -78.249645991585396, 34.502741999599287 ], [ -78.250707990873366, 34.503555999856815 ], [ -78.250843991674074, 34.504800999614012 ], [ -78.252375991362143, 34.504656999625126 ], [ -78.252089991803444, 34.5062149995358 ], [ -78.255305991259647, 34.508112000193677 ], [ -78.254296991186607, 34.511629999952227 ], [ -78.253018991254578, 34.511607999552503 ], [ -78.252501991318411, 34.510029000301323 ], [ -78.25123599105055, 34.510628000241375 ], [ -78.252540990924231, 34.513403999628324 ], [ -78.255797991449512, 34.51366099971019 ], [ -78.256503991101496, 34.517230999508435 ], [ -78.255953991341258, 34.518525000066539 ], [ -78.254098991289837, 34.519594999906104 ], [ -78.254281991385497, 34.520249000295657 ], [ -78.25719299099984, 34.519477999838024 ], [ -78.264552991690152, 34.52015600022051 ], [ -78.264493991243626, 34.522396999917412 ], [ -78.263002991447905, 34.524443999686873 ], [ -78.265631991843392, 34.526825000216981 ], [ -78.262954991773185, 34.528784999771297 ], [ -78.267508990984396, 34.530211999685299 ], [ -78.270313991478531, 34.532250000012276 ], [ -78.269974991716978, 34.535660000123571 ], [ -78.27253599084969, 34.537977999513849 ], [ -78.260087991562116, 34.54602899955561 ], [ -78.233545991745075, 34.580361999539697 ] ] ] } }
]
}
