{
"type": "FeatureCollection",
"name": "perquimans_county_board_of_education",
"crs": { "type": "name", "properties": { "name": "urn:ogc:def:crs:OGC:1.3:CRS84" } },
"features": [
{ "type": "Feature", "properties": { "county": "PERQUIMANS", "precinct": "BELVID", "enr_desc": "Belvidere", "winner": "Matt Winslow", "winner_votes": 65, "winner_share": 45.138888888888893, "runner_up": "Kristy Corprew", "runner_up_votes": 44, "runner_up_share": 30.555555555555557, "contest_votes": 144, "margin_of_victory": 14.583333333333336, "is_tie": false, "results": [ { "candidate": "Matt Winslow", "votes": 65, "share": 45.13888888888889 }, { "candidate": "Kristy Corprew", "votes": 44, "share": 30.555555555555557 }, { "candidate": "Annie White", "votes": 34, "share": 23.61111111111111 }, { "candidate": "Write-In (Miscellaneous)", "votes": 1, "share": 0.6944444444444444 } ], "participated": true, "map_key": "PERQUIMANS_BELVID" }, "geometry": { "type": "Polygon", "coordinates": [ [ [ -76.509276991006459, 36.238772999382057 ], [ -76.513726991398599, 36.241306999559754 ], [ -76.520961991158856, 36.242362000064553 ], [ -76.522966991383569, 36.24394299971928 ], [ -76.525369991116804, 36.243898000155689 ], [ -76.529833991423345, 36.246164999611842 ], [ -76.534978991210011, 36.244494999823615 ], [ -76.540292991341758, 36.245686999380595 ], [ -76.543567991114514, 36.243964999845431 ], [ -76.546405991398956, 36.241152000010466 ], [ -76.561347990947496, 36.23607199999843 ], [ -76.561488991422351, 36.233072999877528 ], [ -76.564130990691879, 36.229343999981879 ], [ -76.564546991609276, 36.226710999825841 ], [ -76.566263990947917, 36.224994999685094 ], [ -76.569196990916168, 36.224264000136756 ], [ -76.57091199154118, 36.221790999733884 ], [ -76.571719990990587, 36.218104999980426 ], [ -76.574174991343497, 36.215769000015158 ], [ -76.578313991153053, 36.21446100017377 ], [ -76.581772990807849, 36.214389999386576 ], [ -76.585194991667734, 36.212357999966649 ], [ -76.586397991340348, 36.213413999556238 ], [ -76.590106991142108, 36.238861999649423 ], [ -76.588158991033524, 36.241785999947552 ], [ -76.588197991013203, 36.245165000010743 ], [ -76.587078991329989, 36.248919999551411 ], [ -76.582540991320357, 36.250896999602055 ], [ -76.57265499083843, 36.257934000075061 ], [ -76.571499990850299, 36.267186999740993 ], [ -76.56833299103539, 36.273838000156431 ], [ -76.567585991333857, 36.277392999479488 ], [ -76.568005991070279, 36.287341999563111 ], [ -76.565522991225308, 36.293555999507674 ], [ -76.567530990827748, 36.298396999969299 ], [ -76.567559991611503, 36.304645000039038 ], [ -76.568716991430961, 36.30957000006552 ], [ -76.567616990671681, 36.315227999859488 ], [ -76.561683991003505, 36.322386999774885 ], [ -76.563476990980561, 36.325925999596969 ], [ -76.55977299150743, 36.336131999584254 ], [ -76.561241991496189, 36.344935999451657 ], [ -76.559570990611348, 36.34844300004017 ], [ -76.559645991438359, 36.351055999677037 ], [ -76.556880991265004, 36.355204000005564 ], [ -76.547716991204155, 36.356274999412726 ], [ -76.519846991099953, 36.314518999390607 ], [ -76.507262991414692, 36.294217999523177 ], [ -76.486545990649745, 36.265762999547007 ], [ -76.492488991333843, 36.25073699988446 ], [ -76.497537991213051, 36.243818000180454 ], [ -76.504174990622317, 36.239540000145247 ], [ -76.509276991006459, 36.238772999382057 ] ] ] } },
{ "type": "Feature", "properties": { "county": "PERQUIMANS", "precinct": "BETHEL", "enr_desc": "Bethel", "winner": "Kristy Corprew", "winner_votes": 274, "winner_share": 42.679127725856695, "runner_up": "Matt Winslow", "runner_up_votes": 206, "runner_up_share": 32.087227414330215, "contest_votes": 642, "margin_of_victory": 10.59190031152648, "is_tie": false, "results": [ { "candidate": "Kristy Corprew", "votes": 274, "share": 42.679127725856695 }, { "candidate": "Matt Winslow", "votes": 206, "share": 32.087227414330215 }, { "candidate": "Annie White", "votes": 159, "share": 24.766355140186917 }, { "candidate": "Write-In (Miscellaneous)", "votes": 3, "share": 0.46728971962616817 } ], "participated": true, "map_key": "PERQUIMANS_BETHEL" }, "geometry": { "type": "Polygon", "coordinates": [ [ [ -76.179832991030381, 36.049763000019787 ], [ -76.209925991070605, 36.042026999683785 ], [ -76.229782991033588, 36.040664999533085 ], [ -76.283838991202629, 36.03136499944079 ], [ -76.333653991644255, 36.019871999961126 ], [ -76.342900991677098, 36.019035999671118 ], [ -76.356252991411168, 36.019690999613225 ], [ -76.366869990855719, 36.021700999431353 ], [ -76.381395991598652, 36.026228999727955 ], [ -76.387119991590509, 36.026907999420935 ], [ -76.396793991649929, 36.026442999911488 ], [ -76.402956990626819, 36.072867000024743 ], [ -76.403881991159949, 36.074050999950259 ], [ -76.412372990761995, 36.075395999880186 ], [ -76.430259991138939, 36.075047999830595 ], [ -76.437279990953556, 36.07702699988409 ], [ -76.445590991537486, 36.07590300006531 ], [ -76.448587990638998, 36.079993999461379 ], [ -76.453031991219049, 36.079227999462525 ], [ -76.455053991269793, 36.07995699988227 ], [ -76.461045990731719, 36.087657999957401 ], [ -76.462555991184615, 36.088622999910257 ], [ -76.473065991617858, 36.08978399938924 ], [ -76.475836991110313, 36.090973999869838 ], [ -76.478788991336003, 36.093553999661843 ], [ -76.480593990976885, 36.093159000087979 ], [ -76.490349991552733, 36.085282999801628 ], [ -76.492004990697481, 36.084759999461006 ], [ -76.492987991274717, 36.086007999710489 ], [ -76.494616991424522, 36.084516999983094 ], [ -76.499832991530198, 36.085472000129144 ], [ -76.501923990931616, 36.086918999697204 ], [ -76.506961990867097, 36.088386999599877 ], [ -76.510251991338833, 36.09365900026431 ], [ -76.517531991251516, 36.097400999497722 ], [ -76.528774991579809, 36.095728999412266 ], [ -76.534081990729149, 36.096690000079072 ], [ -76.539063990895272, 36.094572000236248 ], [ -76.544184990656817, 36.096397999391066 ], [ -76.536110991022724, 36.098124999552702 ], [ -76.533343991074148, 36.099632999940454 ], [ -76.493353991428137, 36.133243999835749 ], [ -76.484856990878484, 36.155978999589991 ], [ -76.482134991087534, 36.161310999930954 ], [ -76.473865991356234, 36.167240999785236 ], [ -76.472288991160497, 36.17067999993791 ], [ -76.467598991507415, 36.167522000232559 ], [ -76.466544991602873, 36.168015999754324 ], [ -76.461028990935915, 36.174555999952659 ], [ -76.456656991040333, 36.18367099989198 ], [ -76.456772990690013, 36.185416000244743 ], [ -76.457561991449808, 36.185810000130331 ], [ -76.455679991237602, 36.18952099976692 ], [ -76.420586990700514, 36.166515999440783 ], [ -76.396986990710587, 36.149141000204558 ], [ -76.384667990612584, 36.137841000099883 ], [ -76.374658991689969, 36.13147299983634 ], [ -76.368897991427062, 36.129471999844867 ], [ -76.358847991526545, 36.127436999388038 ], [ -76.333292991383743, 36.1251589998664 ], [ -76.310805990846845, 36.114570000121041 ], [ -76.276706990818482, 36.100092999479003 ], [ -76.179832991030381, 36.049763000019787 ] ] ] } },
{ "type": "Feature", "properties": { "county": "PERQUIMANS", "precinct": "EAST H", "enr_desc": "East Hertford", "winner": "Annie White", "winner_votes": 71, "winner_share": 47.651006711409394, "runner_up": "Matt Winslow", "runner_up_votes": 39, "runner_up_share": 26.174496644295303, "contest_votes": 149, "margin_of_victory": 21.476510067114091, "is_tie": false, "results": [ { "candidate": "Annie White", "votes": 71, "share": 47.651006711409394 }, { "candidate": "Matt Winslow", "votes": 39, "share": 26.174496644295303 }, { "candidate": "Kristy Corprew", "votes": 38, "share": 25.503355704697988 }, { "candidate": "Write-In (Miscellaneous)", "votes": 1, "share": 0.6711409395973155 } ], "participated": true, "map_key": "PERQUIMANS_EAST H" }, "geometry": { "type": "Polygon", "coordinates": [ [ [ -76.544184990656817, 36.096397999391066 ], [ -76.547536991293953, 36.099189999485908 ], [ -76.559777990814538, 36.101096000147997 ], [ -76.566386990985706, 36.104481999788824 ], [ -76.476653991199655, 36.18665900013162 ], [ -76.467951990900133, 36.206580999713353 ], [ -76.467000991455151, 36.205469999611822 ], [ -76.467378990739689, 36.20177699989285 ], [ -76.470578991388848, 36.193544999909044 ], [ -76.470227991356253, 36.192296999760622 ], [ -76.46744399114516, 36.191790999559011 ], [ -76.464903991435563, 36.195186999571149 ], [ -76.463373991524776, 36.195434999900371 ], [ -76.455679991237602, 36.18952099976692 ], [ -76.457561991449808, 36.185810000130331 ], [ -76.456772990690013, 36.185416000244743 ], [ -76.456656991040333, 36.18367099989198 ], [ -76.461028990935915, 36.174555999952659 ], [ -76.466544991602873, 36.168015999754324 ], [ -76.467598991507415, 36.167522000232559 ], [ -76.472288991160497, 36.17067999993791 ], [ -76.473865991356234, 36.167240999785236 ], [ -76.482134991087534, 36.161310999930954 ], [ -76.484856990878484, 36.155978999589991 ], [ -76.493353991428137, 36.133243999835749 ], [ -76.533343991074148, 36.099632999940454 ], [ -76.536110991022724, 36.098124999552702 ], [ -76.544184990656817, 36.096397999391066 ] ] ] } },
{ "type": "Feature", "properties": { "county": "PERQUIMANS", "precinct": "NICANO", "enr_desc": "Nicanor", "winner": "Matt Winslow", "winner_votes": 32, "winner_share": 58.18181818181818, "runner_up": "Annie White", "runner_up_votes": 13, "runner_up_share": 23.636363636363637, "contest_votes": 55, "margin_of_victory": 34.545454545454547, "is_tie": false, "results": [ { "candidate": "Matt Winslow", "votes": 32, "share": 58.18181818181818 }, { "candidate": "Annie White", "votes": 13, "share": 23.636363636363637 }, { "candidate": "Kristy Corprew", "votes": 10, "share": 18.181818181818183 }, { "candidate": "Write-In (Miscellaneous)", "votes": 0, "share": 0.0 } ], "participated": true, "map_key": "PERQUIMANS_NICANO" }, "geometry": { "type": "Polygon", "coordinates": [ [ [ -76.486545990649745, 36.265762999547007 ], [ -76.507262991414692, 36.294217999523177 ], [ -76.519846991099953, 36.314518999390607 ], [ -76.547716991204155, 36.356274999412726 ], [ -76.539028991369719, 36.357312999907798 ], [ -76.453710991102525, 36.378091999389021 ], [ -76.447601991548552, 36.363685999828817 ], [ -76.401729990955403, 36.301618999485314 ], [ -76.397968990847588, 36.300402000119561 ], [ -76.39466499076083, 36.296807999974597 ], [ -76.394251990618528, 36.295714999904611 ], [ -76.395107991475726, 36.292609999826176 ], [ -76.393602991144718, 36.291620999968565 ], [ -76.397537990753904, 36.288197999999447 ], [ -76.405909990569626, 36.288972999848596 ], [ -76.485096990683928, 36.269736999466318 ], [ -76.486545990649745, 36.265762999547007 ] ] ] } },
{ "type": "Feature", "properties": { "county": "PERQUIMANS", "precinct": "NEW HO", "enr_desc": "New Hope", "winner": "Kristy Corprew", "winner_votes": 222, "winner_share": 43.02325581395349, "runner_up": "Matt Winslow", "runner_up_votes": 184, "runner_up_share": 35.65891472868217, "contest_votes": 516, "margin_of_victory": 7.3643410852713203, "is_tie": false, "results": [ { "candidate": "Kristy Corprew", "votes": 222, "share": 43.02325581395349 }, { "candidate": "Matt Winslow", "votes": 184, "share": 35.65891472868217 }, { "candidate": "Annie White", "votes": 109, "share": 21.124031007751938 }, { "candidate": "Write-In (Miscellaneous)", "votes": 1, "share": 0.1937984496124031 } ], "participated": true, "map_key": "PERQUIMANS_NEW HO" }, "geometry": { "type": "Polygon", "coordinates": [ [ [ -76.179832991030381, 36.049763000019787 ], [ -76.276706990818482, 36.100092999479003 ], [ -76.310805990846845, 36.114570000121041 ], [ -76.333292991383743, 36.1251589998664 ], [ -76.358847991526545, 36.127436999388038 ], [ -76.368897991427062, 36.129471999844867 ], [ -76.374658991689969, 36.13147299983634 ], [ -76.384667990612584, 36.137841000099883 ], [ -76.396986990710587, 36.149141000204558 ], [ -76.391913990751505, 36.174066999763021 ], [ -76.390627991047637, 36.17513099957764 ], [ -76.390384991248695, 36.178404999461115 ], [ -76.391140991614648, 36.17969199940039 ], [ -76.390811991138051, 36.182407999714073 ], [ -76.391745990686118, 36.186017999920978 ], [ -76.393128990571668, 36.188766000225506 ], [ -76.3939189916224, 36.193276999726635 ], [ -76.39521599129003, 36.195223000008461 ], [ -76.394846991357156, 36.19794699957442 ], [ -76.395889990764914, 36.2011529997881 ], [ -76.39114399155558, 36.201747000149517 ], [ -76.385715991268313, 36.208498999385597 ], [ -76.384187990643824, 36.21309999976323 ], [ -76.380794990675554, 36.217265999966315 ], [ -76.376554991599747, 36.218705999941939 ], [ -76.37166199125771, 36.223793999750903 ], [ -76.363862991595198, 36.22507499980847 ], [ -76.362524991012918, 36.226828999527847 ], [ -76.350678991119636, 36.229197999815888 ], [ -76.343724991409275, 36.233323999993353 ], [ -76.33048499117929, 36.243969999855885 ], [ -76.328822991099941, 36.242065999787137 ], [ -76.324793991349665, 36.240442000015648 ], [ -76.317229990856561, 36.24016999977821 ], [ -76.315805990886687, 36.237583000244115 ], [ -76.31627899109796, 36.236908999393741 ], [ -76.314673991221269, 36.232711000075739 ], [ -76.311837991419168, 36.23247500020458 ], [ -76.310284991140293, 36.231086999643431 ], [ -76.309795990951201, 36.231669999976518 ], [ -76.307180991184921, 36.230318999964204 ], [ -76.307025990610214, 36.227531999802665 ], [ -76.306038991161813, 36.227593000206724 ], [ -76.30474999099556, 36.226560999538648 ], [ -76.305066991138489, 36.225929000174794 ], [ -76.304192991294386, 36.225962999935135 ], [ -76.304722990670527, 36.224278000160183 ], [ -76.303649991058251, 36.221728999973124 ], [ -76.30057199142378, 36.222878999831217 ], [ -76.299414990894135, 36.221855999507476 ], [ -76.290243990868646, 36.223357999642644 ], [ -76.289911990973195, 36.218200999669143 ], [ -76.287518991441232, 36.217653000054774 ], [ -76.285034991132648, 36.215787999483311 ], [ -76.285149990591563, 36.21460300014882 ], [ -76.288410990938502, 36.213579999830664 ], [ -76.28698499123719, 36.21053599962049 ], [ -76.28010099140441, 36.203189999917818 ], [ -76.280000991142785, 36.199367999757207 ], [ -76.279304991500155, 36.198243999989394 ], [ -76.273283991473903, 36.195178999910496 ], [ -76.273123990899023, 36.187607999796285 ], [ -76.271927991171168, 36.185722999976697 ], [ -76.259879990921689, 36.179526999512348 ], [ -76.251407991324754, 36.169488999588197 ], [ -76.243872990977607, 36.166176999946707 ], [ -76.240323990951183, 36.163755999394624 ], [ -76.234885991018814, 36.155127999703552 ], [ -76.228684990992036, 36.149891999903616 ], [ -76.223803991547371, 36.139668999430363 ], [ -76.220073991213212, 36.136366999918131 ], [ -76.215506990732237, 36.13036099944388 ], [ -76.200451991332287, 36.121834999859423 ], [ -76.194667990928039, 36.117737999570672 ], [ -76.182748991557517, 36.114211999497336 ], [ -76.180366991220268, 36.113112000168854 ], [ -76.178742991238963, 36.111192999546532 ], [ -76.17739599062395, 36.109190999995377 ], [ -76.157952991671479, 36.059517000122732 ], [ -76.163653991426287, 36.057565999973761 ], [ -76.179832991030381, 36.049763000019787 ] ] ] } },
{ "type": "Feature", "properties": { "county": "PERQUIMANS", "precinct": "PARKVI", "enr_desc": "Parkville", "winner": "Kristy Corprew", "winner_votes": 128, "winner_share": 37.869822485207102, "runner_up": "Annie White", "runner_up_votes": 108, "runner_up_share": 31.952662721893493, "contest_votes": 338, "margin_of_victory": 5.9171597633136095, "is_tie": false, "results": [ { "candidate": "Kristy Corprew", "votes": 128, "share": 37.8698224852071 }, { "candidate": "Annie White", "votes": 108, "share": 31.952662721893493 }, { "candidate": "Matt Winslow", "votes": 101, "share": 29.88165680473373 }, { "candidate": "Write-In (Miscellaneous)", "votes": 1, "share": 0.2958579881656805 } ], "participated": true, "map_key": "PERQUIMANS_PARKVI" }, "geometry": { "type": "Polygon", "coordinates": [ [ [ -76.467951990900133, 36.206580999713353 ], [ -76.468910990581207, 36.206811999789132 ], [ -76.471542990906144, 36.205160000078962 ], [ -76.474948991425691, 36.205406999603738 ], [ -76.476090991296488, 36.209677000103596 ], [ -76.476101991247319, 36.214254999433834 ], [ -76.476848990961429, 36.21608199957921 ], [ -76.479237990662753, 36.217373999731187 ], [ -76.480286990804302, 36.217185999850258 ], [ -76.483138991175153, 36.213574999600986 ], [ -76.484608990935428, 36.214142999833527 ], [ -76.486324991425505, 36.216232999722379 ], [ -76.49006599113271, 36.215814999611169 ], [ -76.490424990804286, 36.210611999799802 ], [ -76.492166991239387, 36.209584999504607 ], [ -76.49402299112225, 36.209795999400406 ], [ -76.49841899068565, 36.212154999608728 ], [ -76.49905199127663, 36.217523999763429 ], [ -76.503819991444075, 36.217399000055622 ], [ -76.508225991216406, 36.218690000039992 ], [ -76.508669991287434, 36.22044099989099 ], [ -76.509921991275121, 36.221167000113198 ], [ -76.508402991371653, 36.224118000004736 ], [ -76.505972991685894, 36.225044999412468 ], [ -76.500061991213045, 36.224841999748655 ], [ -76.49666499067385, 36.229707999464871 ], [ -76.498768991248681, 36.230899000151837 ], [ -76.501462991186898, 36.230713000066352 ], [ -76.503310991543685, 36.231889999545047 ], [ -76.50833599134792, 36.23230299983819 ], [ -76.509446990642601, 36.2341249995985 ], [ -76.509276991006459, 36.238772999382057 ], [ -76.504174990622317, 36.239540000145247 ], [ -76.497537991213051, 36.243818000180454 ], [ -76.492488991333843, 36.25073699988446 ], [ -76.486545990649745, 36.265762999547007 ], [ -76.485096990683928, 36.269736999466318 ], [ -76.405909990569626, 36.288972999848596 ], [ -76.397537990753904, 36.288197999999447 ], [ -76.393602991144718, 36.291620999968565 ], [ -76.391789991174576, 36.290728999503131 ], [ -76.392414991014135, 36.28951600010663 ], [ -76.391944990602312, 36.287484999569642 ], [ -76.389146990752081, 36.284793999611843 ], [ -76.386459991658782, 36.283588999651236 ], [ -76.381828991313895, 36.276405999448393 ], [ -76.380227991231578, 36.275327999915064 ], [ -76.377125990869757, 36.275640000082987 ], [ -76.375811991533254, 36.274077999458648 ], [ -76.375847990623498, 36.27185799944575 ], [ -76.377938991416784, 36.269261000051429 ], [ -76.37487999073538, 36.25865399995341 ], [ -76.369592990618429, 36.255698000047424 ], [ -76.360599991501147, 36.252415000096171 ], [ -76.357539990923897, 36.252317999683839 ], [ -76.355672990586328, 36.251285999546582 ], [ -76.352077990964759, 36.251446999523253 ], [ -76.34930799166095, 36.24978400009558 ], [ -76.347448991175412, 36.249788999877367 ], [ -76.343362991142868, 36.246778999415753 ], [ -76.342778990616225, 36.245716999950808 ], [ -76.3439229911382, 36.244600999808334 ], [ -76.343535990881151, 36.243254000021651 ], [ -76.340611990717463, 36.241424999735287 ], [ -76.33729199141672, 36.240789999396078 ], [ -76.334810990669538, 36.242028999715281 ], [ -76.332544990954972, 36.244413999521107 ], [ -76.33048499117929, 36.243969999855885 ], [ -76.343724991409275, 36.233323999993353 ], [ -76.350678991119636, 36.229197999815888 ], [ -76.362524991012918, 36.226828999527847 ], [ -76.363862991595198, 36.22507499980847 ], [ -76.37166199125771, 36.223793999750903 ], [ -76.376554991599747, 36.218705999941939 ], [ -76.380794990675554, 36.217265999966315 ], [ -76.384187990643824, 36.21309999976323 ], [ -76.385715991268313, 36.208498999385597 ], [ -76.39114399155558, 36.201747000149517 ], [ -76.395889990764914, 36.2011529997881 ], [ -76.394846991357156, 36.19794699957442 ], [ -76.39521599129003, 36.195223000008461 ], [ -76.3939189916224, 36.193276999726635 ], [ -76.393128990571668, 36.188766000225506 ], [ -76.391745990686118, 36.186017999920978 ], [ -76.390811991138051, 36.182407999714073 ], [ -76.391140991614648, 36.17969199940039 ], [ -76.390384991248695, 36.178404999461115 ], [ -76.390627991047637, 36.17513099957764 ], [ -76.391913990751505, 36.174066999763021 ], [ -76.396986990710587, 36.149141000204558 ], [ -76.420586990700514, 36.166515999440783 ], [ -76.455679991237602, 36.18952099976692 ], [ -76.463373991524776, 36.195434999900371 ], [ -76.464903991435563, 36.195186999571149 ], [ -76.46744399114516, 36.191790999559011 ], [ -76.470227991356253, 36.192296999760622 ], [ -76.470578991388848, 36.193544999909044 ], [ -76.467378990739689, 36.20177699989285 ], [ -76.467000991455151, 36.205469999611822 ], [ -76.467951990900133, 36.206580999713353 ] ] ] } },
{ "type": "Feature", "properties": { "county": "PERQUIMANS", "precinct": "WEST H", "enr_desc": "West Hertford", "winner": "Matt Winslow", "winner_votes": 43, "winner_share": 36.752136752136757, "runner_up": "Annie White", "runner_up_votes": 39, "runner_up_share": 33.333333333333329, "contest_votes": 117, "margin_of_victory": 3.418803418803428, "is_tie": false, "results": [ { "candidate": "Matt Winslow", "votes": 43, "share": 36.75213675213676 }, { "candidate": "Annie White", "votes": 39, "share": 33.33333333333333 }, { "candidate": "Kristy Corprew", "votes": 34, "share": 29.059829059829063 }, { "candidate": "Write-In (Miscellaneous)", "votes": 1, "share": 0.8547008547008548 } ], "participated": true, "map_key": "PERQUIMANS_WEST H" }, "geometry": { "type": "Polygon", "coordinates": [ [ [ -76.566386990985706, 36.104481999788824 ], [ -76.570849991293287, 36.10787999990481 ], [ -76.573072991484636, 36.111756999569238 ], [ -76.586397991340348, 36.213413999556238 ], [ -76.585194991667734, 36.212357999966649 ], [ -76.581772990807849, 36.214389999386576 ], [ -76.578313991153053, 36.21446100017377 ], [ -76.574174991343497, 36.215769000015158 ], [ -76.571719990990587, 36.218104999980426 ], [ -76.57091199154118, 36.221790999733884 ], [ -76.569196990916168, 36.224264000136756 ], [ -76.566263990947917, 36.224994999685094 ], [ -76.564546991609276, 36.226710999825841 ], [ -76.564130990691879, 36.229343999981879 ], [ -76.561488991422351, 36.233072999877528 ], [ -76.561347990947496, 36.23607199999843 ], [ -76.546405991398956, 36.241152000010466 ], [ -76.543567991114514, 36.243964999845431 ], [ -76.540292991341758, 36.245686999380595 ], [ -76.534978991210011, 36.244494999823615 ], [ -76.529833991423345, 36.246164999611842 ], [ -76.525369991116804, 36.243898000155689 ], [ -76.522966991383569, 36.24394299971928 ], [ -76.520961991158856, 36.242362000064553 ], [ -76.513726991398599, 36.241306999559754 ], [ -76.509276991006459, 36.238772999382057 ], [ -76.509446990642601, 36.2341249995985 ], [ -76.50833599134792, 36.23230299983819 ], [ -76.503310991543685, 36.231889999545047 ], [ -76.501462991186898, 36.230713000066352 ], [ -76.498768991248681, 36.230899000151837 ], [ -76.49666499067385, 36.229707999464871 ], [ -76.500061991213045, 36.224841999748655 ], [ -76.505972991685894, 36.225044999412468 ], [ -76.508402991371653, 36.224118000004736 ], [ -76.509921991275121, 36.221167000113198 ], [ -76.508669991287434, 36.22044099989099 ], [ -76.508225991216406, 36.218690000039992 ], [ -76.503819991444075, 36.217399000055622 ], [ -76.49905199127663, 36.217523999763429 ], [ -76.49841899068565, 36.212154999608728 ], [ -76.49402299112225, 36.209795999400406 ], [ -76.492166991239387, 36.209584999504607 ], [ -76.490424990804286, 36.210611999799802 ], [ -76.49006599113271, 36.215814999611169 ], [ -76.486324991425505, 36.216232999722379 ], [ -76.484608990935428, 36.214142999833527 ], [ -76.483138991175153, 36.213574999600986 ], [ -76.480286990804302, 36.217185999850258 ], [ -76.479237990662753, 36.217373999731187 ], [ -76.476848990961429, 36.21608199957921 ], [ -76.476101991247319, 36.214254999433834 ], [ -76.476090991296488, 36.209677000103596 ], [ -76.474948991425691, 36.205406999603738 ], [ -76.471542990906144, 36.205160000078962 ], [ -76.468910990581207, 36.206811999789132 ], [ -76.467951990900133, 36.206580999713353 ], [ -76.476653991199655, 36.18665900013162 ], [ -76.566386990985706, 36.104481999788824 ] ] ] } }
]
}
