{
"type": "FeatureCollection",
"name": "person_county_sheriff_rep",
"crs": { "type": "name", "properties": { "name": "urn:ogc:def:crs:OGC:1.3:CRS84" } },
"features": [
{ "type": "Feature", "properties": { "county": "PERSON", "precinct": "ALVI", "enr_desc": "Allensville", "winner": "Jason (Skeet) Wilborn", "winner_votes": 142, "winner_share": 63.392857142857139, "runner_up": "Todd (T.O.) Dunn", "runner_up_votes": 82, "runner_up_share": 36.607142857142854, "contest_votes": 224, "margin_of_victory": 26.785714285714285, "is_tie": false, "results": [ { "candidate": "Jason (Skeet) Wilborn", "votes": 142, "share": 63.39285714285714 }, { "candidate": "Todd (T.O.) Dunn", "votes": 82, "share": 36.607142857142854 } ], "participated": true, "map_key": "PERSON_ALVI" }, "geometry": { "type": "Polygon", "coordinates": [ [ [ -78.799794991112705, 36.34108200033851 ], [ -78.916088990705859, 36.342679000417448 ], [ -78.916088999616861, 36.342679000423608 ], [ -78.919024990753385, 36.387524999804398 ], [ -78.922713991323349, 36.443783000181377 ], [ -78.877882990602401, 36.445207000432283 ], [ -78.797098990814604, 36.44766100021473 ], [ -78.799794991112705, 36.34108200033851 ] ] ] } },
{ "type": "Feature", "properties": { "county": "PERSON", "precinct": "CUCL", "enr_desc": "Cunningham/Chub Lake", "winner": "Jason (Skeet) Wilborn", "winner_votes": 153, "winner_share": 61.943319838056674, "runner_up": "Todd (T.O.) Dunn", "runner_up_votes": 94, "runner_up_share": 38.056680161943319, "contest_votes": 247, "margin_of_victory": 23.886639676113354, "is_tie": false, "results": [ { "candidate": "Jason (Skeet) Wilborn", "votes": 153, "share": 61.943319838056674 }, { "candidate": "Todd (T.O.) Dunn", "votes": 94, "share": 38.05668016194332 } ], "participated": true, "map_key": "PERSON_CUCL" }, "geometry": { "type": "Polygon", "coordinates": [ [ [ -78.977963991471086, 36.444797999569552 ], [ -78.992468991280916, 36.444712999959798 ], [ -79.036255991660781, 36.443914000208835 ], [ -79.143178990833903, 36.446747000039196 ], [ -79.138319991258768, 36.541974999872686 ], [ -78.964528991120929, 36.542179000185151 ], [ -78.964700991241514, 36.541031999983787 ], [ -78.966990991270691, 36.540867999768928 ], [ -78.968294990561091, 36.539600999893253 ], [ -78.968081990608582, 36.535872999862384 ], [ -78.969093990597472, 36.531537999719994 ], [ -78.971698991464962, 36.526774000353164 ], [ -78.974607991497052, 36.525289999614216 ], [ -78.97706399064468, 36.525838000229967 ], [ -78.980283991371223, 36.523481000218133 ], [ -78.979730990721492, 36.522508999803421 ], [ -78.980791990733422, 36.520729000444263 ], [ -78.984670991374557, 36.518633999981404 ], [ -78.986852990857656, 36.515892000020067 ], [ -78.987276991098128, 36.506133999820072 ], [ -78.986732991349498, 36.504278000208863 ], [ -78.987934991296427, 36.502906000268482 ], [ -78.985238991250043, 36.499484999795996 ], [ -78.980518991030138, 36.489461000185784 ], [ -78.979228990670833, 36.48036899973723 ], [ -78.979975991534161, 36.478386000027321 ], [ -78.979688990876625, 36.475847999979862 ], [ -78.980687991412438, 36.474084000148657 ], [ -78.978999990672548, 36.472869999905612 ], [ -78.9781959908305, 36.469553000304018 ], [ -78.978603990725489, 36.468300000167751 ], [ -78.980235991328726, 36.468183999662216 ], [ -78.980800990845566, 36.469074000299358 ], [ -78.982466991412807, 36.4684640002016 ], [ -78.981663990890283, 36.466080000410969 ], [ -78.982695990557474, 36.465041000388403 ], [ -78.978601991047711, 36.464618999866509 ], [ -78.977784991560128, 36.462454999653758 ], [ -78.9745539916197, 36.462280000218797 ], [ -78.973764990673459, 36.461093999615464 ], [ -78.974844990869087, 36.459226000209966 ], [ -78.973178991419829, 36.45823199980979 ], [ -78.973552991320005, 36.457413000276851 ], [ -78.976013991303162, 36.457352000254453 ], [ -78.974802991440129, 36.456166000273932 ], [ -78.975985991155639, 36.454873999793975 ], [ -78.976011990897774, 36.45318800015044 ], [ -78.974175991599637, 36.452286999969488 ], [ -78.975630991086234, 36.450808999659429 ], [ -78.974867991596412, 36.449144999741584 ], [ -78.977688991126627, 36.447535000312513 ], [ -78.977963991471086, 36.444797999569552 ] ] ] } },
{ "type": "Feature", "properties": { "county": "PERSON", "precinct": "HLWY", "enr_desc": "Holloway", "winner": "Jason (Skeet) Wilborn", "winner_votes": 113, "winner_share": 62.087912087912088, "runner_up": "Todd (T.O.) Dunn", "runner_up_votes": 69, "runner_up_share": 37.912087912087912, "contest_votes": 182, "margin_of_victory": 24.175824175824175, "is_tie": false, "results": [ { "candidate": "Jason (Skeet) Wilborn", "votes": 113, "share": 62.08791208791209 }, { "candidate": "Todd (T.O.) Dunn", "votes": 69, "share": 37.91208791208791 } ], "participated": true, "map_key": "PERSON_HLWY" }, "geometry": { "type": "Polygon", "coordinates": [ [ [ -78.871662991439834, 36.542015000065 ], [ -78.796273991627828, 36.541740999789972 ], [ -78.79484499154951, 36.526438999647347 ], [ -78.797098990814604, 36.44766100021473 ], [ -78.877882990602401, 36.445207000432283 ], [ -78.880524990910786, 36.447768000392138 ], [ -78.880345990660089, 36.452327000089959 ], [ -78.882479991557787, 36.453625999552813 ], [ -78.882040991529422, 36.455249999973695 ], [ -78.879722991458877, 36.455686999636583 ], [ -78.878886991553358, 36.458315999929795 ], [ -78.879891990671965, 36.46676099989692 ], [ -78.88394899132328, 36.47114000031722 ], [ -78.882452991286186, 36.479784000165495 ], [ -78.882037991398022, 36.491101000074501 ], [ -78.88347999160105, 36.492664999883516 ], [ -78.882333990957321, 36.497929999703572 ], [ -78.883258990848219, 36.502798000393355 ], [ -78.874440990772342, 36.510795000406333 ], [ -78.870992990696294, 36.516385999896357 ], [ -78.870293991148642, 36.521980000385099 ], [ -78.874474991107562, 36.537383999945682 ], [ -78.871662991439834, 36.542015000065 ] ] ] } },
{ "type": "Feature", "properties": { "county": "PERSON", "precinct": "MTTZ", "enr_desc": "Mt Tirzah", "winner": "Jason (Skeet) Wilborn", "winner_votes": 163, "winner_share": 56.597222222222221, "runner_up": "Todd (T.O.) Dunn", "runner_up_votes": 125, "runner_up_share": 43.402777777777779, "contest_votes": 288, "margin_of_victory": 13.194444444444443, "is_tie": false, "results": [ { "candidate": "Jason (Skeet) Wilborn", "votes": 163, "share": 56.59722222222222 }, { "candidate": "Todd (T.O.) Dunn", "votes": 125, "share": 43.40277777777778 } ], "participated": true, "map_key": "PERSON_MTTZ" }, "geometry": { "type": "Polygon", "coordinates": [ [ [ -78.916088990705859, 36.342679000417448 ], [ -78.799794991112705, 36.34108200033851 ], [ -78.802334991156684, 36.235794000434026 ], [ -78.918202990680442, 36.238689999947617 ], [ -78.917524991391019, 36.291947000154451 ], [ -78.915170990665644, 36.332719999710307 ], [ -78.916088990705859, 36.342679000417448 ] ] ] } },
{ "type": "Feature", "properties": { "county": "PERSON", "precinct": "OLHI", "enr_desc": "Olive Hill", "winner": "Jason (Skeet) Wilborn", "winner_votes": 168, "winner_share": 61.090909090909093, "runner_up": "Todd (T.O.) Dunn", "runner_up_votes": 107, "runner_up_share": 38.909090909090907, "contest_votes": 275, "margin_of_victory": 22.181818181818187, "is_tie": false, "results": [ { "candidate": "Jason (Skeet) Wilborn", "votes": 168, "share": 61.09090909090909 }, { "candidate": "Todd (T.O.) Dunn", "votes": 107, "share": 38.90909090909091 } ], "participated": true, "map_key": "PERSON_OLHI" }, "geometry": { "type": "Polygon", "coordinates": [ [ [ -79.143178990833903, 36.446747000039196 ], [ -79.036255991660781, 36.443914000208835 ], [ -79.036568991103721, 36.344173999905685 ], [ -79.036569000014907, 36.344173999903028 ], [ -79.08206199144314, 36.344198999689119 ], [ -79.083518990865286, 36.346794000301202 ], [ -79.082780991579767, 36.3543430001696 ], [ -79.09011599090725, 36.357659999797377 ], [ -79.092981990942832, 36.361847999558456 ], [ -79.096489990804372, 36.362397000307489 ], [ -79.096967991567368, 36.363771000059749 ], [ -79.100742990806339, 36.363907000427041 ], [ -79.106728991657945, 36.366749000304466 ], [ -79.108368991263447, 36.368359999951295 ], [ -79.113224991320877, 36.368772000096762 ], [ -79.113954991536644, 36.370665999870639 ], [ -79.11268799069903, 36.372501999592082 ], [ -79.113152991432628, 36.373618000390493 ], [ -79.114136991471355, 36.373085999834622 ], [ -79.115071991333451, 36.370816000182586 ], [ -79.118664990829785, 36.371020999705443 ], [ -79.118869991371227, 36.37022400002575 ], [ -79.117969990799622, 36.369561000148238 ], [ -79.118241991458603, 36.367506000013833 ], [ -79.122482991221489, 36.3664459998257 ], [ -79.123515990633962, 36.368055999684103 ], [ -79.12498299105485, 36.368062000342604 ], [ -79.127214991525307, 36.363272999791377 ], [ -79.132577991534674, 36.359061999920513 ], [ -79.132829990978934, 36.357787000117312 ], [ -79.13397799135187, 36.357737999722325 ], [ -79.135058991559362, 36.35655699978534 ], [ -79.138522990682375, 36.356690999736053 ], [ -79.139208991093568, 36.356120000420042 ], [ -79.138626990849261, 36.353926999861962 ], [ -79.141004990797612, 36.351626000377543 ], [ -79.148455991393831, 36.348202999628313 ], [ -79.143178990833903, 36.446747000039196 ] ] ] } },
{ "type": "Feature", "properties": { "county": "PERSON", "precinct": "PNTH", "enr_desc": "Piedmont North", "winner": "Jason (Skeet) Wilborn", "winner_votes": 189, "winner_share": 63.0, "runner_up": "Todd (T.O.) Dunn", "runner_up_votes": 111, "runner_up_share": 37.0, "contest_votes": 300, "margin_of_victory": 26.0, "is_tie": false, "results": [ { "candidate": "Jason (Skeet) Wilborn", "votes": 189, "share": 63.0 }, { "candidate": "Todd (T.O.) Dunn", "votes": 111, "share": 37.0 } ], "participated": true, "map_key": "PERSON_PNTH" }, "geometry": { "type": "Polygon", "coordinates": [ [ [ -78.919024990753385, 36.387524999804398 ], [ -78.922393990692441, 36.388134000444239 ], [ -78.925782990645757, 36.391005000421487 ], [ -78.929745991331828, 36.391265000278906 ], [ -78.931699991293812, 36.392214999968772 ], [ -78.945308991365934, 36.392283000437558 ], [ -78.951795990658994, 36.393353999631209 ], [ -78.963710991036251, 36.391873000231975 ], [ -78.971159991500386, 36.393783000010139 ], [ -78.982033991009985, 36.393765999677697 ], [ -78.984362990621023, 36.395087000230653 ], [ -78.985825991641377, 36.397795000084052 ], [ -78.987435991513649, 36.397189999992015 ], [ -78.992138991596221, 36.403973999834356 ], [ -78.993853990793397, 36.407847000367305 ], [ -78.999498991156173, 36.412246000306688 ], [ -79.000479991117047, 36.414078000058673 ], [ -78.999660990803292, 36.425392999779326 ], [ -78.995171991146833, 36.433140000080066 ], [ -78.994396991558432, 36.438255000217879 ], [ -78.992385990903728, 36.442532999744529 ], [ -78.992468991280916, 36.444712999959798 ], [ -78.977963991471086, 36.444797999569552 ], [ -78.922713991323349, 36.443783000181377 ], [ -78.919024990753385, 36.387524999804398 ] ] ] } },
{ "type": "Feature", "properties": { "county": "PERSON", "precinct": "SWST", "enr_desc": "South West", "winner": "Jason (Skeet) Wilborn", "winner_votes": 171, "winner_share": 62.637362637362635, "runner_up": "Todd (T.O.) Dunn", "runner_up_votes": 102, "runner_up_share": 37.362637362637365, "contest_votes": 273, "margin_of_victory": 25.27472527472527, "is_tie": false, "results": [ { "candidate": "Jason (Skeet) Wilborn", "votes": 171, "share": 62.637362637362635 }, { "candidate": "Todd (T.O.) Dunn", "votes": 102, "share": 37.362637362637365 } ], "participated": true, "map_key": "PERSON_SWST" }, "geometry": { "type": "Polygon", "coordinates": [ [ [ -79.148455991393831, 36.348202999628313 ], [ -79.141004990797612, 36.351626000377543 ], [ -79.138626990849261, 36.353926999861962 ], [ -79.139208991093568, 36.356120000420042 ], [ -79.138522990682375, 36.356690999736053 ], [ -79.135058991559362, 36.35655699978534 ], [ -79.13397799135187, 36.357737999722325 ], [ -79.132829990978934, 36.357787000117312 ], [ -79.132577991534674, 36.359061999920513 ], [ -79.127214991525307, 36.363272999791377 ], [ -79.12498299105485, 36.368062000342604 ], [ -79.123515990633962, 36.368055999684103 ], [ -79.122482991221489, 36.3664459998257 ], [ -79.118241991458603, 36.367506000013833 ], [ -79.117969990799622, 36.369561000148238 ], [ -79.118869991371227, 36.37022400002575 ], [ -79.118664990829785, 36.371020999705443 ], [ -79.115071991333451, 36.370816000182586 ], [ -79.114136991471355, 36.373085999834622 ], [ -79.113152991432628, 36.373618000390493 ], [ -79.11268799069903, 36.372501999592082 ], [ -79.113954991536644, 36.370665999870639 ], [ -79.113224991320877, 36.368772000096762 ], [ -79.108368991263447, 36.368359999951295 ], [ -79.106728991657945, 36.366749000304466 ], [ -79.100742990806339, 36.363907000427041 ], [ -79.096967991567368, 36.363771000059749 ], [ -79.096489990804372, 36.362397000307489 ], [ -79.092981990942832, 36.361847999558456 ], [ -79.09011599090725, 36.357659999797377 ], [ -79.082780991579767, 36.3543430001696 ], [ -79.083518990865286, 36.346794000301202 ], [ -79.08206199144314, 36.344198999689119 ], [ -79.036569000014907, 36.344173999903028 ], [ -79.036568991103721, 36.344173999905685 ], [ -79.035291991574695, 36.240423999563333 ], [ -79.15399699161037, 36.241875000371962 ], [ -79.148455991393831, 36.348202999628313 ] ] ] } },
{ "type": "Feature", "properties": { "county": "PERSON", "precinct": "WDSD", "enr_desc": "Woodsdale", "winner": "Jason (Skeet) Wilborn", "winner_votes": 67, "winner_share": 60.909090909090914, "runner_up": "Todd (T.O.) Dunn", "runner_up_votes": 43, "runner_up_share": 39.090909090909093, "contest_votes": 110, "margin_of_victory": 21.81818181818182, "is_tie": false, "results": [ { "candidate": "Jason (Skeet) Wilborn", "votes": 67, "share": 60.909090909090914 }, { "candidate": "Todd (T.O.) Dunn", "votes": 43, "share": 39.09090909090909 } ], "participated": true, "map_key": "PERSON_WDSD" }, "geometry": { "type": "Polygon", "coordinates": [ [ [ -78.977963991471086, 36.444797999569552 ], [ -78.977688991126627, 36.447535000312513 ], [ -78.974867991596412, 36.449144999741584 ], [ -78.975630991086234, 36.450808999659429 ], [ -78.974175991599637, 36.452286999969488 ], [ -78.976011990897774, 36.45318800015044 ], [ -78.975985991155639, 36.454873999793975 ], [ -78.974802991440129, 36.456166000273932 ], [ -78.976013991303162, 36.457352000254453 ], [ -78.973552991320005, 36.457413000276851 ], [ -78.973178991419829, 36.45823199980979 ], [ -78.974844990869087, 36.459226000209966 ], [ -78.973764990673459, 36.461093999615464 ], [ -78.9745539916197, 36.462280000218797 ], [ -78.977784991560128, 36.462454999653758 ], [ -78.978601991047711, 36.464618999866509 ], [ -78.982695990557474, 36.465041000388403 ], [ -78.981663990890283, 36.466080000410969 ], [ -78.982466991412807, 36.4684640002016 ], [ -78.980800990845566, 36.469074000299358 ], [ -78.980235991328726, 36.468183999662216 ], [ -78.978603990725489, 36.468300000167751 ], [ -78.9781959908305, 36.469553000304018 ], [ -78.978999990672548, 36.472869999905612 ], [ -78.980687991412438, 36.474084000148657 ], [ -78.979688990876625, 36.475847999979862 ], [ -78.979975991534161, 36.478386000027321 ], [ -78.979228990670833, 36.48036899973723 ], [ -78.980518991030138, 36.489461000185784 ], [ -78.985238991250043, 36.499484999795996 ], [ -78.987934991296427, 36.502906000268482 ], [ -78.986732991349498, 36.504278000208863 ], [ -78.987276991098128, 36.506133999820072 ], [ -78.986852990857656, 36.515892000020067 ], [ -78.984670991374557, 36.518633999981404 ], [ -78.980791990733422, 36.520729000444263 ], [ -78.979730990721492, 36.522508999803421 ], [ -78.980283991371223, 36.523481000218133 ], [ -78.97706399064468, 36.525838000229967 ], [ -78.974607991497052, 36.525289999614216 ], [ -78.971698991464962, 36.526774000353164 ], [ -78.969093990597472, 36.531537999719994 ], [ -78.968081990608582, 36.535872999862384 ], [ -78.968294990561091, 36.539600999893253 ], [ -78.966990991270691, 36.540867999768928 ], [ -78.964700991241514, 36.541031999983787 ], [ -78.964528991120929, 36.542179000185151 ], [ -78.871662991439834, 36.542015000065 ], [ -78.874474991107562, 36.537383999945682 ], [ -78.870293991148642, 36.521980000385099 ], [ -78.870992990696294, 36.516385999896357 ], [ -78.874440990772342, 36.510795000406333 ], [ -78.883258990848219, 36.502798000393355 ], [ -78.882333990957321, 36.497929999703572 ], [ -78.88347999160105, 36.492664999883516 ], [ -78.882037991398022, 36.491101000074501 ], [ -78.882452991286186, 36.479784000165495 ], [ -78.88394899132328, 36.47114000031722 ], [ -78.879891990671965, 36.46676099989692 ], [ -78.878886991553358, 36.458315999929795 ], [ -78.879722991458877, 36.455686999636583 ], [ -78.882040991529422, 36.455249999973695 ], [ -78.882479991557787, 36.453625999552813 ], [ -78.880345990660089, 36.452327000089959 ], [ -78.880524990910786, 36.447768000392138 ], [ -78.877882990602401, 36.445207000432283 ], [ -78.922713991323349, 36.443783000181377 ], [ -78.977963991471086, 36.444797999569552 ] ] ] } },
{ "type": "Feature", "properties": { "county": "PERSON", "precinct": "FLHE", "enr_desc": "Flat River", "winner": "Jason (Skeet) Wilborn", "winner_votes": 413, "winner_share": 63.73456790123457, "runner_up": "Todd (T.O.) Dunn", "runner_up_votes": 235, "runner_up_share": 36.26543209876543, "contest_votes": 648, "margin_of_victory": 27.46913580246914, "is_tie": false, "results": [ { "candidate": "Jason (Skeet) Wilborn", "votes": 413, "share": 63.73456790123457 }, { "candidate": "Todd (T.O.) Dunn", "votes": 235, "share": 36.26543209876543 } ], "participated": true, "map_key": "PERSON_FLHE" }, "geometry": { "type": "Polygon", "coordinates": [ [ [ -78.916088999616861, 36.342679000423608 ], [ -78.916088990705859, 36.342679000417448 ], [ -78.915170999575508, 36.332719999716439 ], [ -78.917525000296394, 36.291947000160427 ], [ -78.91820320474136, 36.238689534180772 ], [ -79.035276453988004, 36.240424219418713 ], [ -79.036569000014907, 36.344173999903028 ], [ -78.993249000178992, 36.342729999597971 ], [ -78.981273000119387, 36.334719999816542 ], [ -78.976386000134653, 36.336060000435246 ], [ -78.976369999934562, 36.333333000429114 ], [ -78.974934999769374, 36.333370999596177 ], [ -78.974871999823307, 36.331757999948053 ], [ -78.967370999710951, 36.330064000080249 ], [ -78.967686000205632, 36.332470000365632 ], [ -78.963601000283319, 36.337359999694797 ], [ -78.967468999685593, 36.340471999823315 ], [ -78.964568999947971, 36.343517999808071 ], [ -78.950600000150899, 36.343805999863235 ], [ -78.93324400005892, 36.342578000068357 ], [ -78.916088999616861, 36.342679000423608 ] ] ] } },
{ "type": "Feature", "properties": { "county": "PERSON", "precinct": "RCOB", "enr_desc": "Roxboro Central", "winner": "Jason (Skeet) Wilborn", "winner_votes": 278, "winner_share": 68.304668304668297, "runner_up": "Todd (T.O.) Dunn", "runner_up_votes": 129, "runner_up_share": 31.695331695331696, "contest_votes": 407, "margin_of_victory": 36.609336609336601, "is_tie": false, "results": [ { "candidate": "Jason (Skeet) Wilborn", "votes": 278, "share": 68.3046683046683 }, { "candidate": "Todd (T.O.) Dunn", "votes": 129, "share": 31.695331695331696 } ], "participated": true, "map_key": "PERSON_RCOB" }, "geometry": { "type": "Polygon", "coordinates": [ [ [ -78.984970109164763, 36.396169419097589 ], [ -78.987809131747142, 36.393461580347378 ], [ -78.988687554257481, 36.390272723595317 ], [ -78.987070775933105, 36.384075197720946 ], [ -78.982722664940752, 36.376890570000981 ], [ -78.981980000049646, 36.337867000249489 ], [ -78.981273000119387, 36.334719999816542 ], [ -78.993249000178992, 36.342729999597971 ], [ -79.036568991103721, 36.344173999905685 ], [ -79.036569000014907, 36.344173999903028 ], [ -79.036256037791773, 36.443902559100287 ], [ -78.992468758362094, 36.444711117576766 ], [ -78.992364782696441, 36.442631218719583 ], [ -78.994397381854867, 36.438255339045149 ], [ -78.995171840606744, 36.433139961327178 ], [ -78.999661424546247, 36.425393098901019 ], [ -79.000466400210598, 36.413955598206343 ], [ -78.999499223040303, 36.412246379671352 ], [ -78.993853725469776, 36.407847085958828 ], [ -78.992138617034158, 36.403974151196067 ], [ -78.987436007137219, 36.397189880146215 ], [ -78.985825957121037, 36.39779481084733 ], [ -78.984970109164763, 36.396169419097589 ] ] ] } },
{ "type": "Feature", "properties": { "county": "PERSON", "precinct": "ROXL", "enr_desc": "Roxboro 4", "winner": "Jason (Skeet) Wilborn", "winner_votes": 94, "winner_share": 58.75, "runner_up": "Todd (T.O.) Dunn", "runner_up_votes": 66, "runner_up_share": 41.25, "contest_votes": 160, "margin_of_victory": 17.5, "is_tie": false, "results": [ { "candidate": "Jason (Skeet) Wilborn", "votes": 94, "share": 58.75 }, { "candidate": "Todd (T.O.) Dunn", "votes": 66, "share": 41.25 } ], "participated": true, "map_key": "PERSON_ROXL" }, "geometry": { "type": "Polygon", "coordinates": [ [ [ -78.919024990753385, 36.387524999804398 ], [ -78.916088999616861, 36.342679000423608 ], [ -78.93324400005892, 36.342578000068357 ], [ -78.950600000150899, 36.343805999863235 ], [ -78.964568999947971, 36.343517999808071 ], [ -78.967468999685593, 36.340471999823315 ], [ -78.963601000283319, 36.337359999694797 ], [ -78.967686000205632, 36.332470000365632 ], [ -78.967370999710951, 36.330064000080249 ], [ -78.974871999823307, 36.331757999948053 ], [ -78.974934999769374, 36.333370999596177 ], [ -78.976369999934562, 36.333333000429114 ], [ -78.976386000134653, 36.336060000435246 ], [ -78.981273000119387, 36.334719999816542 ], [ -78.981980000049646, 36.337867000249489 ], [ -78.982722664940752, 36.376890570000981 ], [ -78.987070775933105, 36.384075197720946 ], [ -78.988687554257481, 36.390272723595317 ], [ -78.987809131747142, 36.393461580347378 ], [ -78.984970109164763, 36.396169419097589 ], [ -78.982033999926614, 36.393765999679005 ], [ -78.971160000417029, 36.393783000012263 ], [ -78.963710999952681, 36.391873000234632 ], [ -78.951795999575637, 36.393353999634755 ], [ -78.945309000282464, 36.392283000441523 ], [ -78.931700000210313, 36.392214999973717 ], [ -78.929746000248187, 36.391265000284022 ], [ -78.925782999562088, 36.391005000426851 ], [ -78.922393999608445, 36.388134000449881 ], [ -78.919024990753385, 36.387524999804398 ] ] ] } }
]
}
