{
"type": "FeatureCollection",
"name": "polk_county_sheriff_rep",
"crs": { "type": "name", "properties": { "name": "urn:ogc:def:crs:OGC:1.3:CRS84" } },
"features": [
{ "type": "Feature", "properties": { "county": "POLK", "precinct": "CG05", "enr_desc": "Coopers Gap", "winner": "Clayton Price", "winner_votes": 103, "winner_share": 38.289962825278813, "runner_up": "Keith Henderson", "runner_up_votes": 84, "runner_up_share": 31.226765799256505, "contest_votes": 269, "margin_of_victory": 7.0631970260223085, "is_tie": false, "results": [ { "candidate": "Clayton Price", "votes": 103, "share": 38.28996282527881 }, { "candidate": "Keith Henderson", "votes": 84, "share": 31.226765799256505 }, { "candidate": "Tim Wright", "votes": 82, "share": 30.483271375464682 } ], "participated": true, "map_key": "POLK_CG05" }, "geometry": { "type": "Polygon", "coordinates": [ [ [ -82.089482991506287, 35.359686000109107 ], [ -82.091371991028495, 35.357708000355053 ], [ -82.10244999116162, 35.353959000634752 ], [ -82.103591991661006, 35.352872000314072 ], [ -82.103617991249834, 35.351502000093852 ], [ -82.105520991431959, 35.351403000484083 ], [ -82.107469991173616, 35.349575000675706 ], [ -82.109001991051315, 35.346108000316057 ], [ -82.108479991162852, 35.345035000510087 ], [ -82.110341991209751, 35.343196000155196 ], [ -82.111839991246612, 35.337702000241784 ], [ -82.113299991749315, 35.338056000278449 ], [ -82.120354991054256, 35.343271999833583 ], [ -82.121902991397178, 35.343261000346153 ], [ -82.123252991481891, 35.341058000258919 ], [ -82.12444799166326, 35.341044999980795 ], [ -82.126760990844303, 35.344306999866809 ], [ -82.128226991254706, 35.34454200005586 ], [ -82.12943999147187, 35.342027000665531 ], [ -82.126231991094997, 35.340306999926568 ], [ -82.128226991682098, 35.338328000343715 ], [ -82.131803991029898, 35.338206000252377 ], [ -82.132814990852637, 35.333040000302297 ], [ -82.134236991294841, 35.332251000429586 ], [ -82.135405991119157, 35.333220000280022 ], [ -82.134685991079053, 35.335447000659741 ], [ -82.135380990908544, 35.335818000026201 ], [ -82.144394990895165, 35.334356000341081 ], [ -82.152217991207024, 35.331306999978459 ], [ -82.156376991120283, 35.33457999999294 ], [ -82.159137991563426, 35.334689000419608 ], [ -82.163116991112659, 35.333533999965148 ], [ -82.16930599161266, 35.333542000571676 ], [ -82.171081991424984, 35.336352000655324 ], [ -82.169708991543743, 35.338718999956221 ], [ -82.172456991598295, 35.340379000365054 ], [ -82.172066990696422, 35.343511999798451 ], [ -82.176343991777884, 35.344414000330801 ], [ -82.178987991624609, 35.344184000251261 ], [ -82.179989990738235, 35.343363000096055 ], [ -82.182430991322718, 35.33906400043189 ], [ -82.182546991656707, 35.336946000311016 ], [ -82.184439991454056, 35.333196000178539 ], [ -82.187363991702981, 35.335467000011676 ], [ -82.187971990802012, 35.337016000671845 ], [ -82.189395991567025, 35.337395000053718 ], [ -82.190692991152531, 35.336953000591564 ], [ -82.192233991110413, 35.333754000002905 ], [ -82.193068991185896, 35.333730000195231 ], [ -82.195615990849063, 35.336522000020153 ], [ -82.197097990977099, 35.336733000223404 ], [ -82.202635991325025, 35.333061000407071 ], [ -82.203496991250859, 35.334570000671761 ], [ -82.202733990899532, 35.3374070002099 ], [ -82.210464990943379, 35.336357000555246 ], [ -82.21195299126201, 35.338744000565875 ], [ -82.216879991521139, 35.3355720004324 ], [ -82.226752991712416, 35.334529000149523 ], [ -82.232948990771135, 35.330850000513799 ], [ -82.235314990999754, 35.330912000587247 ], [ -82.239066991097687, 35.329509999947717 ], [ -82.240678990944701, 35.326305000418152 ], [ -82.242868991200979, 35.324864000564183 ], [ -82.246518991457336, 35.32377600015699 ], [ -82.250887991743056, 35.324386999803046 ], [ -82.252056991639549, 35.323874000626269 ], [ -82.252259991268204, 35.323248000085769 ], [ -82.248477991056347, 35.319887999886724 ], [ -82.248938991566973, 35.317089000385614 ], [ -82.248409991433746, 35.31605200033615 ], [ -82.252990990944426, 35.316976999797511 ], [ -82.2612899907203, 35.312244000194937 ], [ -82.262080990939182, 35.310097000175453 ], [ -82.260653991521338, 35.307077000604174 ], [ -82.263542991569182, 35.30231400055623 ], [ -82.26692099150246, 35.301924000057213 ], [ -82.270595991455835, 35.30614799991703 ], [ -82.273480991132388, 35.306810999994269 ], [ -82.275309991538791, 35.305616000190618 ], [ -82.276662991029326, 35.302344000644794 ], [ -82.279138991781693, 35.301342000651275 ], [ -82.293612990706933, 35.307371000627477 ], [ -82.294744990720005, 35.309053000146434 ], [ -82.302276991390315, 35.312963000391427 ], [ -82.302338991487005, 35.314262000584009 ], [ -82.301102990955599, 35.315437000195246 ], [ -82.299835990964397, 35.318974000660702 ], [ -82.302595991294325, 35.32185800062976 ], [ -82.301507991704284, 35.323720000224512 ], [ -82.302380991094793, 35.325508000648838 ], [ -82.305680991329723, 35.326818000095145 ], [ -82.305264991319106, 35.33263000004829 ], [ -82.303419991087566, 35.333575000636316 ], [ -82.302474991779818, 35.335218000308686 ], [ -82.298141991368837, 35.335910000364215 ], [ -82.297973991095844, 35.339729999968462 ], [ -82.295645991429993, 35.342196999864363 ], [ -82.294182990692278, 35.346912999812631 ], [ -82.290029991678423, 35.351754000047613 ], [ -82.290007991574853, 35.353837000320155 ], [ -82.288129990824913, 35.354588999963291 ], [ -82.286458991335337, 35.357188999934273 ], [ -82.284707991312445, 35.357765000077947 ], [ -82.279874991623814, 35.364930999797551 ], [ -82.281282991088943, 35.366333000406023 ], [ -82.281248991185606, 35.367823000598605 ], [ -82.275114991151455, 35.376690000044206 ], [ -82.273547990868309, 35.376911000555801 ], [ -82.261462990879892, 35.388449000422611 ], [ -82.261304990734843, 35.393198000195078 ], [ -82.25925799073535, 35.393366999987876 ], [ -82.257342991722041, 35.396186000070536 ], [ -82.251616991437729, 35.398199999846767 ], [ -82.249067991087756, 35.400058000089821 ], [ -82.243560990944374, 35.40080699998898 ], [ -82.239114990937793, 35.402557000228427 ], [ -82.236223991062687, 35.400727999924349 ], [ -82.234110991765121, 35.400356000656522 ], [ -82.228475991525201, 35.396004000131484 ], [ -82.220542990767186, 35.394636000403295 ], [ -82.214397991374099, 35.39817100039933 ], [ -82.209017991246839, 35.397669000331469 ], [ -82.205550991739869, 35.401166000002803 ], [ -82.205684990824267, 35.402984000125677 ], [ -82.204551991314446, 35.403630000027391 ], [ -82.197147991412393, 35.402207000538695 ], [ -82.196465990850115, 35.399012000558002 ], [ -82.194109991429571, 35.397352000328901 ], [ -82.192435991702538, 35.397324999970387 ], [ -82.190002990994074, 35.399342000542603 ], [ -82.185149991569006, 35.396619000666369 ], [ -82.183575991603718, 35.400107000117039 ], [ -82.18085999079004, 35.40278200030469 ], [ -82.177116991694191, 35.403213999891307 ], [ -82.176116991765753, 35.404780000048625 ], [ -82.173216991238448, 35.405580000086111 ], [ -82.171364991123511, 35.409508000190606 ], [ -82.166516991290607, 35.407718000607559 ], [ -82.160037990819561, 35.409354000059224 ], [ -82.156601990796375, 35.407780999918657 ], [ -82.15313899108412, 35.408074999795851 ], [ -82.151534991090472, 35.407581000517467 ], [ -82.14252399129775, 35.400527999909841 ], [ -82.141735991240978, 35.39914200023243 ], [ -82.131668991164901, 35.395642000156307 ], [ -82.129208990855602, 35.396852000560763 ], [ -82.127805991392734, 35.396320000123033 ], [ -82.1259429910763, 35.394461000315914 ], [ -82.122914990803508, 35.393267000037369 ], [ -82.120127991433904, 35.388201999801545 ], [ -82.115200990673301, 35.387388000167697 ], [ -82.114125990855939, 35.385548000251319 ], [ -82.109417990872672, 35.383315999807834 ], [ -82.107628991752364, 35.380984000653683 ], [ -82.108092991207556, 35.377750000130192 ], [ -82.106246990888678, 35.37485000055527 ], [ -82.10563399175247, 35.367662999783995 ], [ -82.102056991266423, 35.366209000245405 ], [ -82.10028699107977, 35.369769000077738 ], [ -82.098694991522493, 35.370594000025996 ], [ -82.097509991532135, 35.370059000190672 ], [ -82.090832990865664, 35.360274000554533 ], [ -82.089482991506287, 35.359686000109107 ] ] ] } },
{ "type": "Feature", "properties": { "county": "POLK", "precinct": "CL07", "enr_desc": "Columbus-1", "winner": "Tim Wright", "winner_votes": 59, "winner_share": 42.753623188405797, "runner_up": "Keith Henderson", "runner_up_votes": 45, "runner_up_share": 32.608695652173914, "contest_votes": 138, "margin_of_victory": 10.144927536231883, "is_tie": false, "results": [ { "candidate": "Tim Wright", "votes": 59, "share": 42.7536231884058 }, { "candidate": "Keith Henderson", "votes": 45, "share": 32.608695652173914 }, { "candidate": "Clayton Price", "votes": 34, "share": 24.637681159420293 } ], "participated": true, "map_key": "POLK_CL07" }, "geometry": { "type": "Polygon", "coordinates": [ [ [ -82.225705991261506, 35.236083999829859 ], [ -82.230532991385573, 35.23171800018202 ], [ -82.232673990713238, 35.237796999957396 ], [ -82.233462990732662, 35.246320000396842 ], [ -82.243802991316258, 35.266116000620357 ], [ -82.235519991571081, 35.269845999777445 ], [ -82.232705991196454, 35.274899000081184 ], [ -82.222725991733583, 35.280439000017431 ], [ -82.216175991157854, 35.282773000634151 ], [ -82.210873991053504, 35.283055000313048 ], [ -82.206340991450574, 35.28826600043265 ], [ -82.200319990960594, 35.290659000363121 ], [ -82.19755899105283, 35.290812000198166 ], [ -82.193838990781401, 35.293196999857571 ], [ -82.156168991234168, 35.282759000369431 ], [ -82.147709991584222, 35.277600000205936 ], [ -82.144790991733032, 35.28006400038263 ], [ -82.13992899169962, 35.281596999853051 ], [ -82.137385991738142, 35.281084000281744 ], [ -82.133601991452551, 35.282464000266977 ], [ -82.129174991607002, 35.282711000420498 ], [ -82.122344991720823, 35.281844000539365 ], [ -82.119354991295353, 35.283801000177483 ], [ -82.118341991738561, 35.285627000421819 ], [ -82.108226990744313, 35.287349999942073 ], [ -82.100973991467626, 35.286826000146966 ], [ -82.094842991120956, 35.289774000129434 ], [ -82.089614991272441, 35.289912999909916 ], [ -82.087475991580519, 35.288100000547722 ], [ -82.084966991784412, 35.287833000499965 ], [ -82.082138990840704, 35.285633000510572 ], [ -82.078987991624857, 35.28642200004775 ], [ -82.079895990983616, 35.283532000150281 ], [ -82.079215991153603, 35.281719000304719 ], [ -82.080711990724581, 35.281482000142745 ], [ -82.078959991670999, 35.279303000349131 ], [ -82.07948799106498, 35.274914000141486 ], [ -82.078418991464844, 35.272654000219859 ], [ -82.0826439909941, 35.269386000515048 ], [ -82.082601990884214, 35.26715600067962 ], [ -82.088783990715655, 35.266777000138354 ], [ -82.088101990993664, 35.264342999897522 ], [ -82.095790991037248, 35.256549999810325 ], [ -82.098940991390293, 35.255275000427453 ], [ -82.096776990851467, 35.253441000555561 ], [ -82.101071990761014, 35.254374999870606 ], [ -82.103848991386769, 35.253535000573926 ], [ -82.107682991696251, 35.250945000344309 ], [ -82.109554991477111, 35.25074899978226 ], [ -82.112828990751723, 35.251527000160472 ], [ -82.118487990783464, 35.255610000098102 ], [ -82.122606991449345, 35.255354000180049 ], [ -82.127039991116277, 35.249933000280073 ], [ -82.130640990806953, 35.24862000034846 ], [ -82.133232991039293, 35.245889000291257 ], [ -82.134312991270264, 35.243636000533364 ], [ -82.134854991602481, 35.237469000103452 ], [ -82.135992990736781, 35.236564000404151 ], [ -82.140587991606296, 35.237817000297817 ], [ -82.147972991349462, 35.238162000504417 ], [ -82.152080991359199, 35.239786999926771 ], [ -82.159325990744577, 35.240426999955417 ], [ -82.164818991441592, 35.242071000407329 ], [ -82.167919991465496, 35.241475000217946 ], [ -82.170913991460196, 35.242773000479389 ], [ -82.174576990907738, 35.242819000689458 ], [ -82.175882990763284, 35.245739000528559 ], [ -82.178500991167596, 35.248119000110314 ], [ -82.181537991656725, 35.247340000264998 ], [ -82.186693990788385, 35.248826000325799 ], [ -82.190746990894667, 35.248222000627443 ], [ -82.197538991511649, 35.252901999922507 ], [ -82.203570990834081, 35.248510000127212 ], [ -82.206757991393047, 35.244599000464994 ], [ -82.210756990698457, 35.242570999872498 ], [ -82.221958990721689, 35.239943000067917 ], [ -82.225705991261506, 35.236083999829859 ] ] ] } },
{ "type": "Feature", "properties": { "county": "POLK", "precinct": "CL08", "enr_desc": "Columbus-2", "winner": "Tim Wright", "winner_votes": 113, "winner_share": 60.752688172043015, "runner_up": "Clayton Price", "runner_up_votes": 44, "runner_up_share": 23.655913978494624, "contest_votes": 186, "margin_of_victory": 37.096774193548391, "is_tie": false, "results": [ { "candidate": "Tim Wright", "votes": 113, "share": 60.752688172043015 }, { "candidate": "Clayton Price", "votes": 44, "share": 23.655913978494624 }, { "candidate": "Keith Henderson", "votes": 29, "share": 15.591397849462366 } ], "participated": true, "map_key": "POLK_CL08" }, "geometry": { "type": "Polygon", "coordinates": [ [ [ -82.139015991601156, 35.193071000157303 ], [ -82.199662990828642, 35.195241000490604 ], [ -82.209509991123724, 35.232946000327168 ], [ -82.212693991518066, 35.235917999960748 ], [ -82.214732991110623, 35.236541000391696 ], [ -82.217805990957174, 35.234037000288602 ], [ -82.225705991261506, 35.236083999829859 ], [ -82.221958990721689, 35.239943000067917 ], [ -82.210756990698457, 35.242570999872498 ], [ -82.206757991393047, 35.244599000464994 ], [ -82.203570990834081, 35.248510000127212 ], [ -82.197538991511649, 35.252901999922507 ], [ -82.190746990894667, 35.248222000627443 ], [ -82.186693990788385, 35.248826000325799 ], [ -82.181537991656725, 35.247340000264998 ], [ -82.178500991167596, 35.248119000110314 ], [ -82.175882990763284, 35.245739000528559 ], [ -82.174576990907738, 35.242819000689458 ], [ -82.170913991460196, 35.242773000479389 ], [ -82.167919991465496, 35.241475000217946 ], [ -82.164818991441592, 35.242071000407329 ], [ -82.159325990744577, 35.240426999955417 ], [ -82.152080991359199, 35.239786999926771 ], [ -82.147972991349462, 35.238162000504417 ], [ -82.140587991606296, 35.237817000297817 ], [ -82.135992990736781, 35.236564000404151 ], [ -82.134854991602481, 35.237469000103452 ], [ -82.134312991270264, 35.243636000533364 ], [ -82.133232991039293, 35.245889000291257 ], [ -82.130640990806953, 35.24862000034846 ], [ -82.127039991116277, 35.249933000280073 ], [ -82.122606991449345, 35.255354000180049 ], [ -82.118487990783464, 35.255610000098102 ], [ -82.112828990751723, 35.251527000160472 ], [ -82.109554991477111, 35.25074899978226 ], [ -82.107682991696251, 35.250945000344309 ], [ -82.103848991386769, 35.253535000573926 ], [ -82.101071990761014, 35.254374999870606 ], [ -82.096776990851467, 35.253441000555561 ], [ -82.098940991390293, 35.255275000427453 ], [ -82.095790991037248, 35.256549999810325 ], [ -82.088101990993664, 35.264342999897522 ], [ -82.088783990715655, 35.266777000138354 ], [ -82.082601990884214, 35.26715600067962 ], [ -82.082317991689777, 35.265950000432646 ], [ -82.078859991283394, 35.262233000504629 ], [ -82.077930991090511, 35.25902099991481 ], [ -82.077996991648661, 35.257536000360638 ], [ -82.079986991507027, 35.255253000466276 ], [ -82.079697991592965, 35.254464000056366 ], [ -82.082372991046896, 35.251879999928995 ], [ -82.086271990855963, 35.24967200013154 ], [ -82.088882991701425, 35.244503000083348 ], [ -82.100117991424185, 35.231957999787873 ], [ -82.103451991098268, 35.226174999806283 ], [ -82.106011991372753, 35.223512000578168 ], [ -82.110111991593925, 35.223038999878767 ], [ -82.112116991764026, 35.219738000283357 ], [ -82.116450991018425, 35.216614000672777 ], [ -82.11742399112039, 35.214754999979718 ], [ -82.121609991108741, 35.213595000577449 ], [ -82.125806990881841, 35.210836999999316 ], [ -82.129287991510978, 35.203478000591424 ], [ -82.1349239914382, 35.198567999882904 ], [ -82.139015991601156, 35.193071000157303 ] ] ] } },
{ "type": "Feature", "properties": { "county": "POLK", "precinct": "GC09", "enr_desc": "Green Creek", "winner": "Tim Wright", "winner_votes": 107, "winner_share": 48.198198198198199, "runner_up": "Keith Henderson", "runner_up_votes": 59, "runner_up_share": 26.576576576576578, "contest_votes": 222, "margin_of_victory": 21.621621621621621, "is_tie": false, "results": [ { "candidate": "Tim Wright", "votes": 107, "share": 48.1981981981982 }, { "candidate": "Keith Henderson", "votes": 59, "share": 26.576576576576578 }, { "candidate": "Clayton Price", "votes": 56, "share": 25.225225225225223 } ], "participated": true, "map_key": "POLK_GC09" }, "geometry": { "type": "Polygon", "coordinates": [ [ [ -82.139015991601156, 35.193071000157303 ], [ -82.1349239914382, 35.198567999882904 ], [ -82.129287991510978, 35.203478000591424 ], [ -82.125806990881841, 35.210836999999316 ], [ -82.121609991108741, 35.213595000577449 ], [ -82.11742399112039, 35.214754999979718 ], [ -82.116450991018425, 35.216614000672777 ], [ -82.112116991764026, 35.219738000283357 ], [ -82.110111991593925, 35.223038999878767 ], [ -82.106011991372753, 35.223512000578168 ], [ -82.103451991098268, 35.226174999806283 ], [ -82.100117991424185, 35.231957999787873 ], [ -82.088882991701425, 35.244503000083348 ], [ -82.086271990855963, 35.24967200013154 ], [ -82.082372991046896, 35.251879999928995 ], [ -82.079697991592965, 35.254464000056366 ], [ -82.079986991507027, 35.255253000466276 ], [ -82.077996991648661, 35.257536000360638 ], [ -82.077930991090511, 35.25902099991481 ], [ -82.078859991283394, 35.262233000504629 ], [ -82.082317991689777, 35.265950000432646 ], [ -82.082601990884214, 35.26715600067962 ], [ -82.0826439909941, 35.269386000515048 ], [ -82.078418991464844, 35.272654000219859 ], [ -82.07948799106498, 35.274914000141486 ], [ -82.078959991670999, 35.279303000349131 ], [ -82.080711990724581, 35.281482000142745 ], [ -82.079215991153603, 35.281719000304719 ], [ -82.079895990983616, 35.283532000150281 ], [ -82.078987991624857, 35.28642200004775 ], [ -82.075584991692438, 35.288990999862989 ], [ -82.075668991181644, 35.291067999776331 ], [ -82.071307990987876, 35.2902630005402 ], [ -82.063366990854149, 35.301825999828274 ], [ -82.060075991401064, 35.305090000254054 ], [ -82.059924991255599, 35.306172000197265 ], [ -82.05855299083008, 35.306108000596168 ], [ -82.057134991284343, 35.307638000336411 ], [ -82.055339991391406, 35.311145000150091 ], [ -82.044222991753344, 35.313331000436165 ], [ -82.040039991006211, 35.316348000310406 ], [ -82.033953991126012, 35.310434000303424 ], [ -82.031004991390432, 35.308729000587405 ], [ -82.029710990941368, 35.305255999890171 ], [ -82.029516991589588, 35.301502000113054 ], [ -82.024896991215101, 35.299949000148032 ], [ -82.022994991201315, 35.298203000454073 ], [ -82.016756991118186, 35.299151999830663 ], [ -82.016900991534726, 35.296995000628108 ], [ -82.01518999163558, 35.292406000259795 ], [ -82.010510990914966, 35.289692000239441 ], [ -82.008653991757328, 35.286730999893557 ], [ -82.005714990929434, 35.284116999811388 ], [ -82.000816991734965, 35.282756000040713 ], [ -81.999687990827894, 35.280630999942197 ], [ -81.999429991569315, 35.276182000473078 ], [ -81.995763990808641, 35.270649999905963 ], [ -81.987841991490868, 35.26581600004755 ], [ -81.983809991149329, 35.265044000467654 ], [ -81.982507990710261, 35.263371000587739 ], [ -81.977621990995658, 35.263350000472087 ], [ -81.973133991523014, 35.25947700063567 ], [ -81.969167990844852, 35.258135000353491 ], [ -81.968397991177255, 35.250888000410647 ], [ -81.967309991126925, 35.249609000288523 ], [ -81.963868991752278, 35.249450000069409 ], [ -81.965326991615257, 35.244600000505145 ], [ -81.965678991258372, 35.231062000609363 ], [ -81.962805991448306, 35.226860000188729 ], [ -81.967705991014384, 35.219827000527715 ], [ -81.970881991547529, 35.211589000575316 ], [ -81.969572991133674, 35.209462000016543 ], [ -81.971044991274653, 35.2055150006343 ], [ -81.969349991122129, 35.187205999895575 ], [ -82.108431990753303, 35.191364000420464 ], [ -82.139015991601156, 35.193071000157303 ] ] ] } },
{ "type": "Feature", "properties": { "county": "POLK", "precinct": "SA04", "enr_desc": "Saluda", "winner": "Tim Wright", "winner_votes": 92, "winner_share": 55.757575757575765, "runner_up": "Clayton Price", "runner_up_votes": 48, "runner_up_share": 29.09090909090909, "contest_votes": 165, "margin_of_victory": 26.666666666666675, "is_tie": false, "results": [ { "candidate": "Tim Wright", "votes": 92, "share": 55.757575757575765 }, { "candidate": "Clayton Price", "votes": 48, "share": 29.09090909090909 }, { "candidate": "Keith Henderson", "votes": 25, "share": 15.151515151515152 } ], "participated": true, "map_key": "POLK_SA04" }, "geometry": { "type": "Polygon", "coordinates": [ [ [ -82.305680991329723, 35.326818000095145 ], [ -82.302380991094793, 35.325508000648838 ], [ -82.301507991704284, 35.323720000224512 ], [ -82.302595991294325, 35.32185800062976 ], [ -82.299835990964397, 35.318974000660702 ], [ -82.301102990955599, 35.315437000195246 ], [ -82.302338991487005, 35.314262000584009 ], [ -82.302276991390315, 35.312963000391427 ], [ -82.294744990720005, 35.309053000146434 ], [ -82.293612990706933, 35.307371000627477 ], [ -82.279138991781693, 35.301342000651275 ], [ -82.274798991187581, 35.286146999988034 ], [ -82.269687991795763, 35.286384000577897 ], [ -82.266735991503126, 35.288183000011436 ], [ -82.266399991111598, 35.289845000555601 ], [ -82.264214990709306, 35.290664000268755 ], [ -82.260294991702608, 35.287430999803306 ], [ -82.257266991712555, 35.288269999946138 ], [ -82.25558499107099, 35.2877390000695 ], [ -82.25474499161237, 35.286401999925189 ], [ -82.253355991319566, 35.286498000102846 ], [ -82.250840991468209, 35.274963000677744 ], [ -82.243802991316258, 35.266116000620357 ], [ -82.256434990885325, 35.253061000611247 ], [ -82.273234991443474, 35.231804999903588 ], [ -82.283762991164849, 35.230826999917923 ], [ -82.308760991266837, 35.223243000408033 ], [ -82.31244099151489, 35.221485999841278 ], [ -82.313538991534756, 35.191056000207496 ], [ -82.316221991247431, 35.190157000508364 ], [ -82.318856990816656, 35.187258000436067 ], [ -82.32417599139842, 35.185082000267037 ], [ -82.329937991351215, 35.186775999992292 ], [ -82.330820990960291, 35.18960000053638 ], [ -82.33367899159812, 35.190838000410757 ], [ -82.335322991430132, 35.189762000288333 ], [ -82.337202990797024, 35.190224000427044 ], [ -82.339022991258631, 35.188558000054307 ], [ -82.340077991529384, 35.189683000481558 ], [ -82.34125099138862, 35.189715999907854 ], [ -82.341128991789844, 35.191936000196776 ], [ -82.342798990978494, 35.192197000076597 ], [ -82.344415990823592, 35.193688000156435 ], [ -82.34613399122091, 35.192889000465598 ], [ -82.350385991133379, 35.192918000682546 ], [ -82.351451990824998, 35.190378999904183 ], [ -82.352694990715847, 35.190153000678016 ], [ -82.35375399154286, 35.190967000466308 ], [ -82.350930990840666, 35.228288000216445 ], [ -82.359255991190068, 35.22832500013169 ], [ -82.359151991310824, 35.244489000489317 ], [ -82.349652991684351, 35.244305000496553 ], [ -82.345999991593146, 35.286293999825382 ], [ -82.344050991317246, 35.288113999790021 ], [ -82.341825991467672, 35.288613999815119 ], [ -82.341169990695761, 35.291478000157959 ], [ -82.337717991104654, 35.294370000344948 ], [ -82.337946991132682, 35.296540000438938 ], [ -82.336391991429252, 35.296722000050707 ], [ -82.333436991097173, 35.30082900002742 ], [ -82.330460991243342, 35.30270300004441 ], [ -82.330400991720438, 35.306253000628253 ], [ -82.329502991597124, 35.30763300044589 ], [ -82.326573991196099, 35.30923800049478 ], [ -82.318829991385698, 35.307947000360102 ], [ -82.318145991242403, 35.306661000054831 ], [ -82.316476991761405, 35.308255000136803 ], [ -82.314189990869821, 35.311810999801736 ], [ -82.314223991481839, 35.312960000668014 ], [ -82.310428991194996, 35.314708000485858 ], [ -82.311749991370831, 35.317258000271529 ], [ -82.311280991205706, 35.320093999999308 ], [ -82.309301991135627, 35.320445000489514 ], [ -82.307984991316317, 35.322122999860035 ], [ -82.308141991348847, 35.326991000025977 ], [ -82.305680991329723, 35.326818000095145 ] ] ] } },
{ "type": "Feature", "properties": { "county": "POLK", "precinct": "TR123", "enr_desc": "Tryon", "winner": "Tim Wright", "winner_votes": 116, "winner_share": 63.387978142076506, "runner_up": "Keith Henderson", "runner_up_votes": 36, "runner_up_share": 19.672131147540984, "contest_votes": 183, "margin_of_victory": 43.715846994535525, "is_tie": false, "results": [ { "candidate": "Tim Wright", "votes": 116, "share": 63.387978142076506 }, { "candidate": "Keith Henderson", "votes": 36, "share": 19.672131147540984 }, { "candidate": "Clayton Price", "votes": 31, "share": 16.939890710382514 } ], "participated": true, "map_key": "POLK_TR123" }, "geometry": { "type": "Polygon", "coordinates": [ [ [ -82.313538991534756, 35.191056000207496 ], [ -82.31244099151489, 35.221485999841278 ], [ -82.308760991266837, 35.223243000408033 ], [ -82.283762991164849, 35.230826999917923 ], [ -82.273234991443474, 35.231804999903588 ], [ -82.256434990885325, 35.253061000611247 ], [ -82.243802991316258, 35.266116000620357 ], [ -82.233462990732662, 35.246320000396842 ], [ -82.232673990713238, 35.237796999957396 ], [ -82.230532991385573, 35.23171800018202 ], [ -82.225705991261506, 35.236083999829859 ], [ -82.217805990957174, 35.234037000288602 ], [ -82.214732991110623, 35.236541000391696 ], [ -82.212693991518066, 35.235917999960748 ], [ -82.209509991123724, 35.232946000327168 ], [ -82.199662990828642, 35.195241000490604 ], [ -82.291079991420432, 35.200085000146899 ], [ -82.294159991757667, 35.195411000231935 ], [ -82.302236990889114, 35.192971000430475 ], [ -82.306122991478162, 35.193269999965402 ], [ -82.313538991534756, 35.191056000207496 ] ] ] } },
{ "type": "Feature", "properties": { "county": "POLK", "precinct": "WO06", "enr_desc": "White Oak", "winner": "Tim Wright", "winner_votes": 79, "winner_share": 38.349514563106794, "runner_up": "Keith Henderson", "runner_up_votes": 68, "runner_up_share": 33.009708737864081, "contest_votes": 206, "margin_of_victory": 5.3398058252427134, "is_tie": false, "results": [ { "candidate": "Tim Wright", "votes": 79, "share": 38.349514563106794 }, { "candidate": "Keith Henderson", "votes": 68, "share": 33.00970873786408 }, { "candidate": "Clayton Price", "votes": 59, "share": 28.640776699029125 } ], "participated": true, "map_key": "POLK_WO06" }, "geometry": { "type": "Polygon", "coordinates": [ [ [ -82.243802991316258, 35.266116000620357 ], [ -82.250840991468209, 35.274963000677744 ], [ -82.253355991319566, 35.286498000102846 ], [ -82.25474499161237, 35.286401999925189 ], [ -82.25558499107099, 35.2877390000695 ], [ -82.257266991712555, 35.288269999946138 ], [ -82.260294991702608, 35.287430999803306 ], [ -82.264214990709306, 35.290664000268755 ], [ -82.266399991111598, 35.289845000555601 ], [ -82.266735991503126, 35.288183000011436 ], [ -82.269687991795763, 35.286384000577897 ], [ -82.274798991187581, 35.286146999988034 ], [ -82.279138991781693, 35.301342000651275 ], [ -82.276662991029326, 35.302344000644794 ], [ -82.275309991538791, 35.305616000190618 ], [ -82.273480991132388, 35.306810999994269 ], [ -82.270595991455835, 35.30614799991703 ], [ -82.26692099150246, 35.301924000057213 ], [ -82.263542991569182, 35.30231400055623 ], [ -82.260653991521338, 35.307077000604174 ], [ -82.262080990939182, 35.310097000175453 ], [ -82.2612899907203, 35.312244000194937 ], [ -82.252990990944426, 35.316976999797511 ], [ -82.248409991433746, 35.31605200033615 ], [ -82.248938991566973, 35.317089000385614 ], [ -82.248477991056347, 35.319887999886724 ], [ -82.252259991268204, 35.323248000085769 ], [ -82.252056991639549, 35.323874000626269 ], [ -82.250887991743056, 35.324386999803046 ], [ -82.246518991457336, 35.32377600015699 ], [ -82.242868991200979, 35.324864000564183 ], [ -82.240678990944701, 35.326305000418152 ], [ -82.239066991097687, 35.329509999947717 ], [ -82.235314990999754, 35.330912000587247 ], [ -82.232948990771135, 35.330850000513799 ], [ -82.226752991712416, 35.334529000149523 ], [ -82.216879991521139, 35.3355720004324 ], [ -82.21195299126201, 35.338744000565875 ], [ -82.210464990943379, 35.336357000555246 ], [ -82.202733990899532, 35.3374070002099 ], [ -82.203496991250859, 35.334570000671761 ], [ -82.202635991325025, 35.333061000407071 ], [ -82.197097990977099, 35.336733000223404 ], [ -82.195615990849063, 35.336522000020153 ], [ -82.193068991185896, 35.333730000195231 ], [ -82.192233991110413, 35.333754000002905 ], [ -82.190692991152531, 35.336953000591564 ], [ -82.189395991567025, 35.337395000053718 ], [ -82.187971990802012, 35.337016000671845 ], [ -82.187363991702981, 35.335467000011676 ], [ -82.184439991454056, 35.333196000178539 ], [ -82.182546991656707, 35.336946000311016 ], [ -82.182430991322718, 35.33906400043189 ], [ -82.179989990738235, 35.343363000096055 ], [ -82.178987991624609, 35.344184000251261 ], [ -82.176343991777884, 35.344414000330801 ], [ -82.172066990696422, 35.343511999798451 ], [ -82.172456991598295, 35.340379000365054 ], [ -82.169708991543743, 35.338718999956221 ], [ -82.171081991424984, 35.336352000655324 ], [ -82.16930599161266, 35.333542000571676 ], [ -82.163116991112659, 35.333533999965148 ], [ -82.159137991563426, 35.334689000419608 ], [ -82.156376991120283, 35.33457999999294 ], [ -82.152217991207024, 35.331306999978459 ], [ -82.144394990895165, 35.334356000341081 ], [ -82.135380990908544, 35.335818000026201 ], [ -82.134685991079053, 35.335447000659741 ], [ -82.135405991119157, 35.333220000280022 ], [ -82.134236991294841, 35.332251000429586 ], [ -82.132814990852637, 35.333040000302297 ], [ -82.131803991029898, 35.338206000252377 ], [ -82.128226991682098, 35.338328000343715 ], [ -82.126231991094997, 35.340306999926568 ], [ -82.12943999147187, 35.342027000665531 ], [ -82.128226991254706, 35.34454200005586 ], [ -82.126760990844303, 35.344306999866809 ], [ -82.12444799166326, 35.341044999980795 ], [ -82.123252991481891, 35.341058000258919 ], [ -82.121902991397178, 35.343261000346153 ], [ -82.120354991054256, 35.343271999833583 ], [ -82.113299991749315, 35.338056000278449 ], [ -82.111839991246612, 35.337702000241784 ], [ -82.110341991209751, 35.343196000155196 ], [ -82.108479991162852, 35.345035000510087 ], [ -82.109001991051315, 35.346108000316057 ], [ -82.107469991173616, 35.349575000675706 ], [ -82.105520991431959, 35.351403000484083 ], [ -82.103617991249834, 35.351502000093852 ], [ -82.103591991661006, 35.352872000314072 ], [ -82.10244999116162, 35.353959000634752 ], [ -82.091371991028495, 35.357708000355053 ], [ -82.089482991506287, 35.359686000109107 ], [ -82.088437991635431, 35.358671000583726 ], [ -82.088318991054223, 35.355289000153789 ], [ -82.084785991505854, 35.353304000145926 ], [ -82.081185991353308, 35.353671000343304 ], [ -82.079661991729239, 35.352977999869374 ], [ -82.07961899146413, 35.346642000232777 ], [ -82.076219991565424, 35.341156000472836 ], [ -82.070940991455046, 35.338144000385192 ], [ -82.067968991391211, 35.339219000214555 ], [ -82.064441991304477, 35.334462000618366 ], [ -82.061476990665611, 35.334813999835838 ], [ -82.058559991449584, 35.337084000604257 ], [ -82.053983990988897, 35.335425000453284 ], [ -82.051423991519314, 35.32909300004404 ], [ -82.0472019909663, 35.327459000065048 ], [ -82.0482119906859, 35.325386999889666 ], [ -82.046705991042217, 35.321251000374005 ], [ -82.045817991599804, 35.320540999902988 ], [ -82.04381799139685, 35.320834000497044 ], [ -82.040039991006211, 35.316348000310406 ], [ -82.044222991753344, 35.313331000436165 ], [ -82.055339991391406, 35.311145000150091 ], [ -82.057134991284343, 35.307638000336411 ], [ -82.05855299083008, 35.306108000596168 ], [ -82.059924991255599, 35.306172000197265 ], [ -82.060075991401064, 35.305090000254054 ], [ -82.063366990854149, 35.301825999828274 ], [ -82.071307990987876, 35.2902630005402 ], [ -82.075668991181644, 35.291067999776331 ], [ -82.075584991692438, 35.288990999862989 ], [ -82.078987991624857, 35.28642200004775 ], [ -82.082138990840704, 35.285633000510572 ], [ -82.084966991784412, 35.287833000499965 ], [ -82.087475991580519, 35.288100000547722 ], [ -82.089614991272441, 35.289912999909916 ], [ -82.094842991120956, 35.289774000129434 ], [ -82.100973991467626, 35.286826000146966 ], [ -82.108226990744313, 35.287349999942073 ], [ -82.118341991738561, 35.285627000421819 ], [ -82.119354991295353, 35.283801000177483 ], [ -82.122344991720823, 35.281844000539365 ], [ -82.129174991607002, 35.282711000420498 ], [ -82.133601991452551, 35.282464000266977 ], [ -82.137385991738142, 35.281084000281744 ], [ -82.13992899169962, 35.281596999853051 ], [ -82.144790991733032, 35.28006400038263 ], [ -82.147709991584222, 35.277600000205936 ], [ -82.156168991234168, 35.282759000369431 ], [ -82.193838990781401, 35.293196999857571 ], [ -82.19755899105283, 35.290812000198166 ], [ -82.200319990960594, 35.290659000363121 ], [ -82.206340991450574, 35.28826600043265 ], [ -82.210873991053504, 35.283055000313048 ], [ -82.216175991157854, 35.282773000634151 ], [ -82.222725991733583, 35.280439000017431 ], [ -82.232705991196454, 35.274899000081184 ], [ -82.235519991571081, 35.269845999777445 ], [ -82.243802991316258, 35.266116000620357 ] ] ] } }
]
}
