{
"type": "FeatureCollection",
"name": "rockingham_county_sheriff_rep",
"crs": { "type": "name", "properties": { "name": "urn:ogc:def:crs:OGC:1.3:CRS84" } },
"features": [
{ "type": "Feature", "properties": { "county": "ROCKINGHAM", "precinct": "LI-1", "enr_desc": "Lincoln-1", "winner": "Brian Harbour", "winner_votes": 474, "winner_share": 45.014245014245013, "runner_up": "Billy Parker", "runner_up_votes": 324, "runner_up_share": 30.76923076923077, "contest_votes": 1053, "margin_of_victory": 14.245014245014243, "is_tie": false, "results": [ { "candidate": "Brian Harbour", "votes": 474, "share": 45.01424501424501 }, { "candidate": "Billy Parker", "votes": 324, "share": 30.76923076923077 }, { "candidate": "Darren Wright", "votes": 255, "share": 24.216524216524217 } ], "participated": true, "map_key": "ROCKINGHAM_LI-1" }, "geometry": { "type": "Polygon", "coordinates": [ [ [ -79.671716, 36.394915 ], [ -79.66826, 36.397908 ], [ -79.66902, 36.403273 ], [ -79.673093, 36.407965 ], [ -79.6794, 36.409736 ], [ -79.680371, 36.415548 ], [ -79.685422, 36.42075 ], [ -79.685779, 36.42319 ], [ -79.681916, 36.426702 ], [ -79.667052, 36.429889 ], [ -79.662933, 36.433789 ], [ -79.663064, 36.435458 ], [ -79.664824, 36.436663 ], [ -79.675217, 36.436986 ], [ -79.676875, 36.438365 ], [ -79.678832, 36.441982 ], [ -79.68426, 36.444515 ], [ -79.690381, 36.44975 ], [ -79.688348, 36.45555 ], [ -79.68017, 36.457374 ], [ -79.679002, 36.46122 ], [ -79.679552, 36.462935 ], [ -79.684645, 36.464901 ], [ -79.687671, 36.468255 ], [ -79.688796, 36.476678 ], [ -79.69215, 36.481813 ], [ -79.690707, 36.486346 ], [ -79.685607, 36.489145 ], [ -79.683664, 36.491053 ], [ -79.680125, 36.492262 ], [ -79.681405, 36.498649 ], [ -79.669151, 36.495326 ], [ -79.660747, 36.49861 ], [ -79.653548, 36.50015 ], [ -79.65178, 36.504317 ], [ -79.652128, 36.511631 ], [ -79.651243, 36.514934 ], [ -79.648439, 36.518227 ], [ -79.645905, 36.520288 ], [ -79.64187, 36.521889 ], [ -79.634631, 36.519116 ], [ -79.624715, 36.519779 ], [ -79.622491, 36.521883 ], [ -79.617412, 36.535517 ], [ -79.611245, 36.540249 ], [ -79.604774, 36.541553 ], [ -79.513638, 36.540902 ], [ -79.522531, 36.399088 ], [ -79.535948, 36.39797 ], [ -79.55053, 36.393417 ], [ -79.564275, 36.392316 ], [ -79.572966, 36.395825 ], [ -79.575244, 36.400263 ], [ -79.581692, 36.402647 ], [ -79.580035, 36.403658 ], [ -79.580209, 36.406791 ], [ -79.584758, 36.407862 ], [ -79.58893, 36.40997 ], [ -79.590982, 36.409904 ], [ -79.59482, 36.407684 ], [ -79.596368, 36.405646 ], [ -79.600037, 36.393473 ], [ -79.602529, 36.388874 ], [ -79.607068, 36.384284 ], [ -79.618708, 36.376159 ], [ -79.627585, 36.360256 ], [ -79.634418, 36.361493 ], [ -79.638187, 36.363025 ], [ -79.648676, 36.372654 ], [ -79.657156, 36.376903 ], [ -79.652186, 36.384289 ], [ -79.64315, 36.391208 ], [ -79.636312, 36.394042 ], [ -79.638839, 36.397175 ], [ -79.670606, 36.393251 ], [ -79.671716, 36.394915 ] ] ] } },
{ "type": "Feature", "properties": { "county": "ROCKINGHAM", "precinct": "DR", "enr_desc": "Draper", "winner": "Darren Wright", "winner_votes": 174, "winner_share": 43.828715365239297, "runner_up": "Billy Parker", "runner_up_votes": 130, "runner_up_share": 32.7455919395466, "contest_votes": 397, "margin_of_victory": 11.083123425692698, "is_tie": false, "results": [ { "candidate": "Darren Wright", "votes": 174, "share": 43.8287153652393 }, { "candidate": "Billy Parker", "votes": 130, "share": 32.7455919395466 }, { "candidate": "Brian Harbour", "votes": 93, "share": 23.425692695214106 } ], "participated": true, "map_key": "ROCKINGHAM_DR" }, "geometry": { "type": "Polygon", "coordinates": [ [ [ -79.731892, 36.542027 ], [ -79.604774, 36.541553 ], [ -79.611245, 36.540249 ], [ -79.617412, 36.535517 ], [ -79.622491, 36.521883 ], [ -79.624715, 36.519779 ], [ -79.634631, 36.519116 ], [ -79.64187, 36.521889 ], [ -79.645905, 36.520288 ], [ -79.648439, 36.518227 ], [ -79.651243, 36.514934 ], [ -79.652128, 36.511631 ], [ -79.65178, 36.504317 ], [ -79.653548, 36.50015 ], [ -79.660747, 36.49861 ], [ -79.669151, 36.495326 ], [ -79.681405, 36.498649 ], [ -79.685559, 36.497084 ], [ -79.694039, 36.489867 ], [ -79.697822, 36.490133 ], [ -79.70206, 36.491983 ], [ -79.705479, 36.492452 ], [ -79.710073, 36.491941 ], [ -79.712288, 36.490595 ], [ -79.714724, 36.487505 ], [ -79.725269, 36.483329 ], [ -79.722069, 36.484921 ], [ -79.721942, 36.486374 ], [ -79.718576, 36.487942 ], [ -79.713058, 36.494013 ], [ -79.7126, 36.49608 ], [ -79.714318, 36.500129 ], [ -79.715163, 36.504862 ], [ -79.719228, 36.508263 ], [ -79.71975, 36.512004 ], [ -79.717061, 36.513875 ], [ -79.722832, 36.51434 ], [ -79.725247, 36.520078 ], [ -79.733167, 36.525746 ], [ -79.735523, 36.526636 ], [ -79.73226, 36.532003 ], [ -79.729531, 36.534511 ], [ -79.731892, 36.542027 ] ] ] } },
{ "type": "Feature", "properties": { "county": "ROCKINGHAM", "precinct": "RC", "enr_desc": "Rock Central", "winner": "Billy Parker", "winner_votes": 567, "winner_share": 40.791366906474821, "runner_up": "Darren Wright", "runner_up_votes": 461, "runner_up_share": 33.165467625899282, "contest_votes": 1390, "margin_of_victory": 7.6258992805755383, "is_tie": false, "results": [ { "candidate": "Billy Parker", "votes": 567, "share": 40.79136690647482 }, { "candidate": "Darren Wright", "votes": 461, "share": 33.16546762589928 }, { "candidate": "Brian Harbour", "votes": 362, "share": 26.0431654676259 } ], "participated": true, "map_key": "ROCKINGHAM_RC" }, "geometry": { "type": "Polygon", "coordinates": [ [ [ -79.80269, 36.343514 ], [ -79.807711, 36.346913 ], [ -79.815312, 36.344447 ], [ -79.820476, 36.344496 ], [ -79.818435, 36.353111 ], [ -79.813201, 36.364523 ], [ -79.807268, 36.370178 ], [ -79.807406, 36.372484 ], [ -79.811914, 36.38313 ], [ -79.808734, 36.387633 ], [ -79.807887, 36.393421 ], [ -79.801723, 36.3971 ], [ -79.79201, 36.396576 ], [ -79.794101, 36.399339 ], [ -79.803699, 36.40095 ], [ -79.808137, 36.405629 ], [ -79.810809, 36.406453 ], [ -79.814192, 36.406326 ], [ -79.816859, 36.407511 ], [ -79.821869, 36.406587 ], [ -79.827123, 36.410663 ], [ -79.826292, 36.411758 ], [ -79.827449, 36.418857 ], [ -79.827164, 36.422245 ], [ -79.823818, 36.425724 ], [ -79.820049, 36.427829 ], [ -79.808346, 36.429677 ], [ -79.789734, 36.426848 ], [ -79.788096, 36.427005 ], [ -79.786672, 36.428448 ], [ -79.786528, 36.430601 ], [ -79.789868, 36.434083 ], [ -79.798, 36.433586 ], [ -79.807065, 36.435675 ], [ -79.809273, 36.438309 ], [ -79.815581, 36.451707 ], [ -79.814472, 36.456286 ], [ -79.799446, 36.460215 ], [ -79.797744, 36.461702 ], [ -79.796209, 36.465891 ], [ -79.791362, 36.469265 ], [ -79.785586, 36.461476 ], [ -79.781947, 36.459741 ], [ -79.778254, 36.459358 ], [ -79.753403, 36.467867 ], [ -79.745332, 36.468923 ], [ -79.745551, 36.470911 ], [ -79.740208, 36.47075 ], [ -79.735572, 36.473238 ], [ -79.73619, 36.473931 ], [ -79.725269, 36.483329 ], [ -79.714724, 36.487505 ], [ -79.712288, 36.490595 ], [ -79.710073, 36.491941 ], [ -79.705479, 36.492452 ], [ -79.70206, 36.491983 ], [ -79.697822, 36.490133 ], [ -79.694039, 36.489867 ], [ -79.685559, 36.497084 ], [ -79.681405, 36.498649 ], [ -79.680125, 36.492262 ], [ -79.683664, 36.491053 ], [ -79.685607, 36.489145 ], [ -79.690707, 36.486346 ], [ -79.69215, 36.481813 ], [ -79.688796, 36.476678 ], [ -79.687671, 36.468255 ], [ -79.684645, 36.464901 ], [ -79.679552, 36.462935 ], [ -79.679002, 36.46122 ], [ -79.68017, 36.457374 ], [ -79.688348, 36.45555 ], [ -79.690381, 36.44975 ], [ -79.68426, 36.444515 ], [ -79.678832, 36.441982 ], [ -79.676875, 36.438365 ], [ -79.675217, 36.436986 ], [ -79.664824, 36.436663 ], [ -79.663064, 36.435458 ], [ -79.662933, 36.433789 ], [ -79.667052, 36.429889 ], [ -79.681916, 36.426702 ], [ -79.685779, 36.42319 ], [ -79.685422, 36.42075 ], [ -79.680371, 36.415548 ], [ -79.6794, 36.409736 ], [ -79.673093, 36.407965 ], [ -79.66902, 36.403273 ], [ -79.66826, 36.397908 ], [ -79.671716, 36.394915 ], [ -79.674158, 36.398551 ], [ -79.675757, 36.399464 ], [ -79.680179, 36.397431 ], [ -79.681964, 36.395763 ], [ -79.686264, 36.396615 ], [ -79.694772, 36.393398 ], [ -79.693598, 36.389534 ], [ -79.690974, 36.386651 ], [ -79.694902, 36.379948 ], [ -79.69655, 36.381819 ], [ -79.702113, 36.382681 ], [ -79.712311, 36.380318 ], [ -79.721456, 36.380455 ], [ -79.725584, 36.378784 ], [ -79.728665, 36.375697 ], [ -79.733189, 36.37458 ], [ -79.73501, 36.372852 ], [ -79.735689, 36.371194 ], [ -79.735598, 36.363209 ], [ -79.739607, 36.357411 ], [ -79.746872, 36.353688 ], [ -79.750533, 36.353701 ], [ -79.759121, 36.35029 ], [ -79.76816, 36.34241 ], [ -79.771342, 36.344913 ], [ -79.779908, 36.346629 ], [ -79.786297, 36.345756 ], [ -79.78929, 36.344123 ], [ -79.79751, 36.34517 ], [ -79.80269, 36.343514 ] ] ] } },
{ "type": "Feature", "properties": { "county": "ROCKINGHAM", "precinct": "WS-1", "enr_desc": "Western-1", "winner": "Billy Parker", "winner_votes": 551, "winner_share": 51.495327102803735, "runner_up": "Darren Wright", "runner_up_votes": 344, "runner_up_share": 32.149532710280376, "contest_votes": 1070, "margin_of_victory": 19.345794392523359, "is_tie": false, "results": [ { "candidate": "Billy Parker", "votes": 551, "share": 51.495327102803735 }, { "candidate": "Darren Wright", "votes": 344, "share": 32.149532710280376 }, { "candidate": "Brian Harbour", "votes": 175, "share": 16.355140186915886 } ], "participated": true, "map_key": "ROCKINGHAM_WS-1" }, "geometry": { "type": "Polygon", "coordinates": [ [ [ -79.99223, 36.542426 ], [ -79.992405, 36.540663 ], [ -79.989425, 36.540527 ], [ -79.988516, 36.539543 ], [ -79.991091, 36.534641 ], [ -79.990029, 36.526468 ], [ -79.990619, 36.522277 ], [ -79.991863, 36.519414 ], [ -79.996082, 36.514808 ], [ -79.996532, 36.512517 ], [ -79.991907, 36.511469 ], [ -79.988789, 36.512571 ], [ -79.983454, 36.511133 ], [ -79.977019, 36.513268 ], [ -79.974635, 36.512309 ], [ -79.974037, 36.510798 ], [ -79.974765, 36.503196 ], [ -79.966837, 36.499228 ], [ -79.966893, 36.498152 ], [ -79.969159, 36.496181 ], [ -79.969413, 36.495059 ], [ -79.967645, 36.486725 ], [ -79.964436, 36.481668 ], [ -79.963667, 36.47876 ], [ -79.952831, 36.473272 ], [ -79.946845, 36.467849 ], [ -79.944942, 36.463042 ], [ -79.939239, 36.456793 ], [ -79.934987, 36.455445 ], [ -79.937902, 36.45004 ], [ -79.942608, 36.452144 ], [ -79.946264, 36.451753 ], [ -79.945865, 36.448822 ], [ -79.943054, 36.443328 ], [ -79.939372, 36.440712 ], [ -79.936799, 36.436471 ], [ -79.935625, 36.436623 ], [ -79.935399, 36.437402 ], [ -79.933018, 36.437174 ], [ -79.933302, 36.438433 ], [ -79.93197, 36.43825 ], [ -79.932368, 36.439944 ], [ -79.930292, 36.440376 ], [ -79.929789, 36.428718 ], [ -79.936877, 36.421235 ], [ -79.938075, 36.418528 ], [ -79.937518, 36.406195 ], [ -79.940797, 36.392888 ], [ -79.941186, 36.378298 ], [ -79.94255, 36.373602 ], [ -79.945674, 36.373778 ], [ -79.946721, 36.374672 ], [ -79.945864, 36.375259 ], [ -79.946643, 36.376038 ], [ -79.945376, 36.376567 ], [ -79.950302, 36.380019 ], [ -79.952397, 36.38294 ], [ -79.955554, 36.381951 ], [ -79.956208, 36.380394 ], [ -79.959241, 36.379663 ], [ -79.963628, 36.377086 ], [ -79.972537, 36.376515 ], [ -79.977804, 36.374546 ], [ -79.981941, 36.369165 ], [ -79.984399, 36.369623 ], [ -79.989767, 36.373644 ], [ -79.994474, 36.374787 ], [ -79.996654, 36.37356 ], [ -79.998014, 36.370193 ], [ -80.00204, 36.365375 ], [ -80.00731, 36.362177 ], [ -80.009012, 36.359775 ], [ -80.015919, 36.360334 ], [ -80.019603, 36.357866 ], [ -80.024253, 36.352718 ], [ -80.025188, 36.351055 ], [ -80.024899, 36.349696 ], [ -80.016059, 36.347124 ], [ -80.019774, 36.341602 ], [ -80.022676, 36.340877 ], [ -80.025251, 36.344417 ], [ -80.027049, 36.345379 ], [ -80.03273, 36.344982 ], [ -80.027339, 36.54248 ], [ -79.99223, 36.542426 ] ] ] } },
{ "type": "Feature", "properties": { "county": "ROCKINGHAM", "precinct": "ST", "enr_desc": "Stoneville", "winner": "Darren Wright", "winner_votes": 489, "winner_share": 42.484795829713292, "runner_up": "Billy Parker", "runner_up_votes": 466, "runner_up_share": 40.48653344917463, "contest_votes": 1151, "margin_of_victory": 1.9982623805386623, "is_tie": false, "results": [ { "candidate": "Darren Wright", "votes": 489, "share": 42.48479582971329 }, { "candidate": "Billy Parker", "votes": 466, "share": 40.48653344917463 }, { "candidate": "Brian Harbour", "votes": 196, "share": 17.02867072111208 } ], "participated": true, "map_key": "ROCKINGHAM_ST" }, "geometry": { "type": "Polygon", "coordinates": [ [ [ -79.99223, 36.542426 ], [ -79.829182, 36.542472 ], [ -79.832428, 36.505878 ], [ -79.825016, 36.503129 ], [ -79.81659, 36.497052 ], [ -79.811795, 36.497553 ], [ -79.811416, 36.490176 ], [ -79.813358, 36.48438 ], [ -79.812432, 36.480105 ], [ -79.814001, 36.475404 ], [ -79.813797, 36.473643 ], [ -79.808993, 36.474334 ], [ -79.807, 36.473801 ], [ -79.80562, 36.472621 ], [ -79.806748, 36.472355 ], [ -79.806721, 36.470729 ], [ -79.804427, 36.468484 ], [ -79.801961, 36.468253 ], [ -79.796884, 36.4707 ], [ -79.795384, 36.469073 ], [ -79.793284, 36.470491 ], [ -79.791362, 36.469265 ], [ -79.796209, 36.465891 ], [ -79.797744, 36.461702 ], [ -79.799446, 36.460215 ], [ -79.814472, 36.456286 ], [ -79.815581, 36.451707 ], [ -79.809273, 36.438309 ], [ -79.807065, 36.435675 ], [ -79.798, 36.433586 ], [ -79.789868, 36.434083 ], [ -79.786528, 36.430601 ], [ -79.786672, 36.428448 ], [ -79.788096, 36.427005 ], [ -79.789734, 36.426848 ], [ -79.808346, 36.429677 ], [ -79.820049, 36.427829 ], [ -79.823818, 36.425724 ], [ -79.827164, 36.422245 ], [ -79.827449, 36.418857 ], [ -79.826292, 36.411758 ], [ -79.827123, 36.410663 ], [ -79.830581, 36.41417 ], [ -79.84193, 36.416222 ], [ -79.846359, 36.416011 ], [ -79.851783, 36.413942 ], [ -79.858238, 36.409937 ], [ -79.861145, 36.409184 ], [ -79.864189, 36.4108 ], [ -79.868183, 36.410964 ], [ -79.873794, 36.414067 ], [ -79.877769, 36.414273 ], [ -79.878368, 36.417926 ], [ -79.88117, 36.420048 ], [ -79.87995, 36.426857 ], [ -79.882479, 36.430484 ], [ -79.882074, 36.433108 ], [ -79.882815, 36.435347 ], [ -79.888555, 36.441748 ], [ -79.891089, 36.442898 ], [ -79.895397, 36.442853 ], [ -79.899693, 36.445714 ], [ -79.900721, 36.4501 ], [ -79.904856, 36.448792 ], [ -79.90732, 36.445219 ], [ -79.912023, 36.443203 ], [ -79.924351, 36.44281 ], [ -79.925993, 36.441275 ], [ -79.930292, 36.440376 ], [ -79.932368, 36.439944 ], [ -79.93197, 36.43825 ], [ -79.933302, 36.438433 ], [ -79.933018, 36.437174 ], [ -79.935399, 36.437402 ], [ -79.935625, 36.436623 ], [ -79.936799, 36.436471 ], [ -79.939372, 36.440712 ], [ -79.943054, 36.443328 ], [ -79.945865, 36.448822 ], [ -79.946264, 36.451753 ], [ -79.942608, 36.452144 ], [ -79.937902, 36.45004 ], [ -79.934987, 36.455445 ], [ -79.939239, 36.456793 ], [ -79.944942, 36.463042 ], [ -79.946845, 36.467849 ], [ -79.952831, 36.473272 ], [ -79.963667, 36.47876 ], [ -79.964436, 36.481668 ], [ -79.967645, 36.486725 ], [ -79.969413, 36.495059 ], [ -79.969159, 36.496181 ], [ -79.966893, 36.498152 ], [ -79.966837, 36.499228 ], [ -79.974765, 36.503196 ], [ -79.974037, 36.510798 ], [ -79.974635, 36.512309 ], [ -79.977019, 36.513268 ], [ -79.983454, 36.511133 ], [ -79.988789, 36.512571 ], [ -79.991907, 36.511469 ], [ -79.996532, 36.512517 ], [ -79.996082, 36.514808 ], [ -79.991863, 36.519414 ], [ -79.990619, 36.522277 ], [ -79.990029, 36.526468 ], [ -79.991091, 36.534641 ], [ -79.988516, 36.539543 ], [ -79.989425, 36.540527 ], [ -79.992405, 36.540663 ], [ -79.99223, 36.542426 ] ] ] } },
{ "type": "Feature", "properties": { "county": "ROCKINGHAM", "precinct": "RE-1", "enr_desc": "Reidsville-1", "winner": "Billy Parker", "winner_votes": 332, "winner_share": 45.541838134430726, "runner_up": "Darren Wright", "runner_up_votes": 245, "runner_up_share": 33.607681755829901, "contest_votes": 729, "margin_of_victory": 11.934156378600825, "is_tie": false, "results": [ { "candidate": "Billy Parker", "votes": 332, "share": 45.541838134430726 }, { "candidate": "Darren Wright", "votes": 245, "share": 33.6076817558299 }, { "candidate": "Brian Harbour", "votes": 152, "share": 20.85048010973937 } ], "participated": true, "map_key": "ROCKINGHAM_RE-1" }, "geometry": { "type": "Polygon", "coordinates": [ [ [ -79.697697, 36.333585 ], [ -79.697018, 36.336961 ], [ -79.699377, 36.338423 ], [ -79.700828, 36.337887 ], [ -79.701272, 36.338401 ], [ -79.701371, 36.343069 ], [ -79.700378, 36.343067 ], [ -79.700125, 36.346675 ], [ -79.706209, 36.346982 ], [ -79.706487, 36.350214 ], [ -79.710832, 36.351206 ], [ -79.718245, 36.348869 ], [ -79.721684, 36.349282 ], [ -79.727697, 36.348283 ], [ -79.73122, 36.349929 ], [ -79.736006, 36.350115 ], [ -79.740787, 36.353579 ], [ -79.746872, 36.353688 ], [ -79.739607, 36.357411 ], [ -79.735598, 36.363209 ], [ -79.735689, 36.371194 ], [ -79.73501, 36.372852 ], [ -79.733189, 36.37458 ], [ -79.728665, 36.375697 ], [ -79.725584, 36.378784 ], [ -79.721456, 36.380455 ], [ -79.712311, 36.380318 ], [ -79.702113, 36.382681 ], [ -79.69655, 36.381819 ], [ -79.694902, 36.379948 ], [ -79.690974, 36.386651 ], [ -79.693598, 36.389534 ], [ -79.694772, 36.393398 ], [ -79.686264, 36.396615 ], [ -79.681964, 36.395763 ], [ -79.680179, 36.397431 ], [ -79.675757, 36.399464 ], [ -79.674158, 36.398551 ], [ -79.671716, 36.394915 ], [ -79.670606, 36.393251 ], [ -79.638839, 36.397175 ], [ -79.636312, 36.394042 ], [ -79.64315, 36.391208 ], [ -79.652186, 36.384289 ], [ -79.657156, 36.376903 ], [ -79.648676, 36.372654 ], [ -79.638187, 36.363025 ], [ -79.634418, 36.361493 ], [ -79.627585, 36.360256 ], [ -79.637973, 36.342789 ], [ -79.641043, 36.336783 ], [ -79.651805, 36.336277 ], [ -79.653607, 36.343486 ], [ -79.653007, 36.345143 ], [ -79.660039, 36.344112 ], [ -79.666586, 36.347218 ], [ -79.672116, 36.345812 ], [ -79.67302, 36.346957 ], [ -79.677978, 36.347489 ], [ -79.679898, 36.349424 ], [ -79.679966, 36.352958 ], [ -79.68258, 36.352199 ], [ -79.685723, 36.353666 ], [ -79.687436, 36.353586 ], [ -79.692813, 36.35211 ], [ -79.693231, 36.336652 ], [ -79.692694, 36.33412 ], [ -79.697697, 36.333585 ] ] ] } },
{ "type": "Feature", "properties": { "county": "ROCKINGHAM", "precinct": "WI", "enr_desc": "Williamsburg", "winner": "Billy Parker", "winner_votes": 398, "winner_share": 52.506596306068602, "runner_up": "Darren Wright", "runner_up_votes": 207, "runner_up_share": 27.308707124010557, "contest_votes": 758, "margin_of_victory": 25.197889182058045, "is_tie": false, "results": [ { "candidate": "Billy Parker", "votes": 398, "share": 52.5065963060686 }, { "candidate": "Darren Wright", "votes": 207, "share": 27.308707124010557 }, { "candidate": "Brian Harbour", "votes": 153, "share": 20.184696569920842 } ], "participated": true, "map_key": "ROCKINGHAM_WI" }, "geometry": { "type": "Polygon", "coordinates": [ [ [ -79.682841, 36.245486 ], [ -79.679042, 36.248097 ], [ -79.671697, 36.250781 ], [ -79.670903, 36.252282 ], [ -79.668779, 36.253611 ], [ -79.66776, 36.258112 ], [ -79.663893, 36.259545 ], [ -79.662223, 36.261902 ], [ -79.659019, 36.264149 ], [ -79.655844, 36.264923 ], [ -79.654982, 36.265835 ], [ -79.65393, 36.265054 ], [ -79.652223, 36.265279 ], [ -79.651916, 36.269558 ], [ -79.649406, 36.273492 ], [ -79.649858, 36.276785 ], [ -79.650697, 36.279536 ], [ -79.648698, 36.28038 ], [ -79.645371, 36.285843 ], [ -79.642599, 36.28839 ], [ -79.648865, 36.291969 ], [ -79.645074, 36.301018 ], [ -79.64522, 36.307946 ], [ -79.646838, 36.311652 ], [ -79.630482, 36.313569 ], [ -79.628771, 36.319996 ], [ -79.624543, 36.320482 ], [ -79.624423, 36.319857 ], [ -79.621566, 36.31978 ], [ -79.621445, 36.32103 ], [ -79.618652, 36.320638 ], [ -79.619258, 36.319574 ], [ -79.618493, 36.319507 ], [ -79.61847, 36.320356 ], [ -79.61711, 36.32025 ], [ -79.617093, 36.320914 ], [ -79.613483, 36.321101 ], [ -79.613084, 36.32426 ], [ -79.610823, 36.325865 ], [ -79.610958, 36.327964 ], [ -79.612954, 36.328077 ], [ -79.616035, 36.330131 ], [ -79.612811, 36.341095 ], [ -79.612093, 36.346863 ], [ -79.608841, 36.351075 ], [ -79.608415, 36.353112 ], [ -79.609292, 36.35335 ], [ -79.612114, 36.351251 ], [ -79.619375, 36.351215 ], [ -79.620996, 36.348708 ], [ -79.623089, 36.348872 ], [ -79.63129, 36.345383 ], [ -79.63521, 36.345314 ], [ -79.637973, 36.342789 ], [ -79.627585, 36.360256 ], [ -79.618708, 36.376159 ], [ -79.607068, 36.384284 ], [ -79.602529, 36.388874 ], [ -79.600037, 36.393473 ], [ -79.596368, 36.405646 ], [ -79.59482, 36.407684 ], [ -79.590982, 36.409904 ], [ -79.58893, 36.40997 ], [ -79.584758, 36.407862 ], [ -79.580209, 36.406791 ], [ -79.580035, 36.403658 ], [ -79.581692, 36.402647 ], [ -79.575244, 36.400263 ], [ -79.572966, 36.395825 ], [ -79.564275, 36.392316 ], [ -79.55053, 36.393417 ], [ -79.535948, 36.39797 ], [ -79.522531, 36.399088 ], [ -79.53241, 36.241463 ], [ -79.682841, 36.245486 ] ] ] } },
{ "type": "Feature", "properties": { "county": "ROCKINGHAM", "precinct": "RE-2", "enr_desc": "Reidsville-2", "winner": "Billy Parker", "winner_votes": 447, "winner_share": 50.281214848143982, "runner_up": "Darren Wright", "runner_up_votes": 276, "runner_up_share": 31.046119235095617, "contest_votes": 889, "margin_of_victory": 19.235095613048365, "is_tie": false, "results": [ { "candidate": "Billy Parker", "votes": 447, "share": 50.28121484814398 }, { "candidate": "Darren Wright", "votes": 276, "share": 31.046119235095617 }, { "candidate": "Brian Harbour", "votes": 166, "share": 18.672665916760405 } ], "participated": true, "map_key": "ROCKINGHAM_RE-2" }, "geometry": { "type": "Polygon", "coordinates": [ [ [ -79.697697, 36.333585 ], [ -79.692694, 36.33412 ], [ -79.693231, 36.336652 ], [ -79.692813, 36.35211 ], [ -79.687436, 36.353586 ], [ -79.685723, 36.353666 ], [ -79.68258, 36.352199 ], [ -79.679966, 36.352958 ], [ -79.679898, 36.349424 ], [ -79.677978, 36.347489 ], [ -79.67302, 36.346957 ], [ -79.672116, 36.345812 ], [ -79.666586, 36.347218 ], [ -79.660039, 36.344112 ], [ -79.653007, 36.345143 ], [ -79.653607, 36.343486 ], [ -79.651805, 36.336277 ], [ -79.641043, 36.336783 ], [ -79.637973, 36.342789 ], [ -79.63521, 36.345314 ], [ -79.63129, 36.345383 ], [ -79.623089, 36.348872 ], [ -79.620996, 36.348708 ], [ -79.619375, 36.351215 ], [ -79.612114, 36.351251 ], [ -79.609292, 36.35335 ], [ -79.608415, 36.353112 ], [ -79.608841, 36.351075 ], [ -79.612093, 36.346863 ], [ -79.612811, 36.341095 ], [ -79.616035, 36.330131 ], [ -79.612954, 36.328077 ], [ -79.610958, 36.327964 ], [ -79.610823, 36.325865 ], [ -79.613084, 36.32426 ], [ -79.613483, 36.321101 ], [ -79.617093, 36.320914 ], [ -79.61711, 36.32025 ], [ -79.61847, 36.320356 ], [ -79.618493, 36.319507 ], [ -79.619258, 36.319574 ], [ -79.618652, 36.320638 ], [ -79.621445, 36.32103 ], [ -79.621566, 36.31978 ], [ -79.624423, 36.319857 ], [ -79.624543, 36.320482 ], [ -79.628771, 36.319996 ], [ -79.630482, 36.313569 ], [ -79.646838, 36.311652 ], [ -79.64522, 36.307946 ], [ -79.645074, 36.301018 ], [ -79.648865, 36.291969 ], [ -79.642599, 36.28839 ], [ -79.645371, 36.285843 ], [ -79.648698, 36.28038 ], [ -79.650697, 36.279536 ], [ -79.649858, 36.276785 ], [ -79.653606, 36.278198 ], [ -79.656455, 36.280172 ], [ -79.656774, 36.281172 ], [ -79.658314, 36.281101 ], [ -79.660764, 36.283179 ], [ -79.665179, 36.28323 ], [ -79.674888, 36.285306 ], [ -79.678707, 36.28644 ], [ -79.682358, 36.290385 ], [ -79.69483, 36.292206 ], [ -79.702771, 36.295226 ], [ -79.710335, 36.30086 ], [ -79.712118, 36.30103 ], [ -79.712864, 36.30354 ], [ -79.711305, 36.308101 ], [ -79.711885, 36.310051 ], [ -79.710928, 36.310658 ], [ -79.709435, 36.314168 ], [ -79.709239, 36.318596 ], [ -79.703896, 36.320779 ], [ -79.702266, 36.320438 ], [ -79.700521, 36.322225 ], [ -79.699788, 36.324208 ], [ -79.70095, 36.327588 ], [ -79.700407, 36.330517 ], [ -79.701053, 36.332572 ], [ -79.700726, 36.333284 ], [ -79.697697, 36.333585 ] ] ] } },
{ "type": "Feature", "properties": { "county": "ROCKINGHAM", "precinct": "MO", "enr_desc": "Monroeton", "winner": "Billy Parker", "winner_votes": 487, "winner_share": 50.206185567010309, "runner_up": "Darren Wright", "runner_up_votes": 303, "runner_up_share": 31.237113402061855, "contest_votes": 970, "margin_of_victory": 18.969072164948454, "is_tie": false, "results": [ { "candidate": "Billy Parker", "votes": 487, "share": 50.20618556701031 }, { "candidate": "Darren Wright", "votes": 303, "share": 31.237113402061855 }, { "candidate": "Brian Harbour", "votes": 180, "share": 18.556701030927837 } ], "participated": true, "map_key": "ROCKINGHAM_MO" }, "geometry": { "type": "Polygon", "coordinates": [ [ [ -79.808885, 36.249513 ], [ -79.808393, 36.252086 ], [ -79.804882, 36.255869 ], [ -79.800816, 36.258473 ], [ -79.798041, 36.264653 ], [ -79.793173, 36.267317 ], [ -79.791035, 36.269681 ], [ -79.789086, 36.273739 ], [ -79.808574, 36.277646 ], [ -79.826591, 36.273335 ], [ -79.826787, 36.284617 ], [ -79.82216, 36.284764 ], [ -79.821148, 36.28594 ], [ -79.817239, 36.287171 ], [ -79.816058, 36.288985 ], [ -79.81259, 36.289924 ], [ -79.8087, 36.292403 ], [ -79.80572, 36.292633 ], [ -79.808503, 36.294881 ], [ -79.811314, 36.294815 ], [ -79.812855, 36.295711 ], [ -79.822396, 36.29715 ], [ -79.821865, 36.299634 ], [ -79.820196, 36.301803 ], [ -79.814846, 36.304173 ], [ -79.807529, 36.309424 ], [ -79.806737, 36.318976 ], [ -79.80922, 36.321136 ], [ -79.811301, 36.330051 ], [ -79.805464, 36.33613 ], [ -79.805315, 36.339165 ], [ -79.80269, 36.343514 ], [ -79.79751, 36.34517 ], [ -79.78929, 36.344123 ], [ -79.786297, 36.345756 ], [ -79.779908, 36.346629 ], [ -79.771342, 36.344913 ], [ -79.76816, 36.34241 ], [ -79.759121, 36.35029 ], [ -79.750533, 36.353701 ], [ -79.746872, 36.353688 ], [ -79.740787, 36.353579 ], [ -79.736006, 36.350115 ], [ -79.73122, 36.349929 ], [ -79.727697, 36.348283 ], [ -79.721684, 36.349282 ], [ -79.718245, 36.348869 ], [ -79.710832, 36.351206 ], [ -79.706487, 36.350214 ], [ -79.706209, 36.346982 ], [ -79.700125, 36.346675 ], [ -79.700378, 36.343067 ], [ -79.701371, 36.343069 ], [ -79.701272, 36.338401 ], [ -79.700828, 36.337887 ], [ -79.699377, 36.338423 ], [ -79.697018, 36.336961 ], [ -79.697697, 36.333585 ], [ -79.700726, 36.333284 ], [ -79.701053, 36.332572 ], [ -79.700407, 36.330517 ], [ -79.70095, 36.327588 ], [ -79.699788, 36.324208 ], [ -79.700521, 36.322225 ], [ -79.702266, 36.320438 ], [ -79.703896, 36.320779 ], [ -79.709239, 36.318596 ], [ -79.709435, 36.314168 ], [ -79.710928, 36.310658 ], [ -79.711885, 36.310051 ], [ -79.711305, 36.308101 ], [ -79.712864, 36.30354 ], [ -79.712118, 36.30103 ], [ -79.710335, 36.30086 ], [ -79.702771, 36.295226 ], [ -79.69483, 36.292206 ], [ -79.682358, 36.290385 ], [ -79.678707, 36.28644 ], [ -79.674888, 36.285306 ], [ -79.665179, 36.28323 ], [ -79.660764, 36.283179 ], [ -79.658314, 36.281101 ], [ -79.656774, 36.281172 ], [ -79.656455, 36.280172 ], [ -79.653606, 36.278198 ], [ -79.649858, 36.276785 ], [ -79.649406, 36.273492 ], [ -79.651916, 36.269558 ], [ -79.652223, 36.265279 ], [ -79.65393, 36.265054 ], [ -79.654982, 36.265835 ], [ -79.655844, 36.264923 ], [ -79.659019, 36.264149 ], [ -79.662223, 36.261902 ], [ -79.663893, 36.259545 ], [ -79.66776, 36.258112 ], [ -79.668779, 36.253611 ], [ -79.670903, 36.252282 ], [ -79.671697, 36.250781 ], [ -79.679042, 36.248097 ], [ -79.682841, 36.245486 ], [ -79.808885, 36.249513 ] ] ] } },
{ "type": "Feature", "properties": { "county": "ROCKINGHAM", "precinct": "ED", "enr_desc": "Eden", "winner": "Darren Wright", "winner_votes": 636, "winner_share": 49.494163424124515, "runner_up": "Billy Parker", "runner_up_votes": 428, "runner_up_share": 33.307392996108945, "contest_votes": 1285, "margin_of_victory": 16.186770428015571, "is_tie": false, "results": [ { "candidate": "Darren Wright", "votes": 636, "share": 49.494163424124515 }, { "candidate": "Billy Parker", "votes": 428, "share": 33.307392996108945 }, { "candidate": "Brian Harbour", "votes": 221, "share": 17.198443579766536 } ], "participated": true, "map_key": "ROCKINGHAM_ED" }, "geometry": { "type": "Polygon", "coordinates": [ [ [ -79.829182, 36.542472 ], [ -79.775078, 36.542242 ], [ -79.775528, 36.541298 ], [ -79.774166, 36.538953 ], [ -79.775372, 36.535739 ], [ -79.778509, 36.533393 ], [ -79.77852, 36.529389 ], [ -79.777173, 36.524291 ], [ -79.775899, 36.523294 ], [ -79.775953, 36.513604 ], [ -79.775221, 36.51276 ], [ -79.771921, 36.512105 ], [ -79.76564, 36.513269 ], [ -79.762949, 36.510395 ], [ -79.760839, 36.512405 ], [ -79.759633, 36.512599 ], [ -79.759114, 36.507223 ], [ -79.760215, 36.505605 ], [ -79.757435, 36.504011 ], [ -79.754939, 36.498339 ], [ -79.7519, 36.495387 ], [ -79.750241, 36.488312 ], [ -79.75123, 36.480837 ], [ -79.750298, 36.477032 ], [ -79.749254, 36.474479 ], [ -79.74545, 36.471841 ], [ -79.745551, 36.470911 ], [ -79.745332, 36.468923 ], [ -79.753403, 36.467867 ], [ -79.778254, 36.459358 ], [ -79.781947, 36.459741 ], [ -79.785586, 36.461476 ], [ -79.791362, 36.469265 ], [ -79.793284, 36.470491 ], [ -79.795384, 36.469073 ], [ -79.796884, 36.4707 ], [ -79.801961, 36.468253 ], [ -79.804427, 36.468484 ], [ -79.806721, 36.470729 ], [ -79.806748, 36.472355 ], [ -79.80562, 36.472621 ], [ -79.807, 36.473801 ], [ -79.808993, 36.474334 ], [ -79.813797, 36.473643 ], [ -79.814001, 36.475404 ], [ -79.812432, 36.480105 ], [ -79.813358, 36.48438 ], [ -79.811416, 36.490176 ], [ -79.811795, 36.497553 ], [ -79.81659, 36.497052 ], [ -79.825016, 36.503129 ], [ -79.832428, 36.505878 ], [ -79.829182, 36.542472 ] ] ] } },
{ "type": "Feature", "properties": { "county": "ROCKINGHAM", "precinct": "HO-1", "enr_desc": "Hogans-1", "winner": "Billy Parker", "winner_votes": 406, "winner_share": 48.974668275030162, "runner_up": "Darren Wright", "runner_up_votes": 262, "runner_up_share": 31.604342581423399, "contest_votes": 829, "margin_of_victory": 17.370325693606762, "is_tie": false, "results": [ { "candidate": "Billy Parker", "votes": 406, "share": 48.97466827503016 }, { "candidate": "Darren Wright", "votes": 262, "share": 31.6043425814234 }, { "candidate": "Brian Harbour", "votes": 161, "share": 19.420989143546443 } ], "participated": true, "map_key": "ROCKINGHAM_HO-1" }, "geometry": { "type": "Polygon", "coordinates": [ [ [ -79.94255, 36.373602 ], [ -79.941186, 36.378298 ], [ -79.940797, 36.392888 ], [ -79.937518, 36.406195 ], [ -79.938075, 36.418528 ], [ -79.936877, 36.421235 ], [ -79.929789, 36.428718 ], [ -79.930292, 36.440376 ], [ -79.925993, 36.441275 ], [ -79.924351, 36.44281 ], [ -79.912023, 36.443203 ], [ -79.90732, 36.445219 ], [ -79.904856, 36.448792 ], [ -79.900721, 36.4501 ], [ -79.899693, 36.445714 ], [ -79.895397, 36.442853 ], [ -79.891089, 36.442898 ], [ -79.888555, 36.441748 ], [ -79.882815, 36.435347 ], [ -79.882074, 36.433108 ], [ -79.882479, 36.430484 ], [ -79.87995, 36.426857 ], [ -79.88117, 36.420048 ], [ -79.878368, 36.417926 ], [ -79.877769, 36.414273 ], [ -79.873794, 36.414067 ], [ -79.868183, 36.410964 ], [ -79.864189, 36.4108 ], [ -79.861145, 36.409184 ], [ -79.858238, 36.409937 ], [ -79.851783, 36.413942 ], [ -79.846359, 36.416011 ], [ -79.84193, 36.416222 ], [ -79.830581, 36.41417 ], [ -79.827123, 36.410663 ], [ -79.821869, 36.406587 ], [ -79.816859, 36.407511 ], [ -79.814192, 36.406326 ], [ -79.810809, 36.406453 ], [ -79.808137, 36.405629 ], [ -79.803699, 36.40095 ], [ -79.794101, 36.399339 ], [ -79.79201, 36.396576 ], [ -79.801723, 36.3971 ], [ -79.807887, 36.393421 ], [ -79.811373, 36.390288 ], [ -79.824358, 36.385612 ], [ -79.836152, 36.377706 ], [ -79.848469, 36.376487 ], [ -79.854752, 36.377796 ], [ -79.857152, 36.376116 ], [ -79.859742, 36.370415 ], [ -79.865314, 36.364458 ], [ -79.86941, 36.36664 ], [ -79.870684, 36.365518 ], [ -79.875101, 36.364373 ], [ -79.879177, 36.364396 ], [ -79.878469, 36.361557 ], [ -79.879149, 36.360595 ], [ -79.885716, 36.357481 ], [ -79.883621, 36.355214 ], [ -79.885178, 36.354161 ], [ -79.883423, 36.352352 ], [ -79.885659, 36.35194 ], [ -79.886989, 36.350451 ], [ -79.88447, 36.347795 ], [ -79.886564, 36.346971 ], [ -79.885431, 36.345254 ], [ -79.886138, 36.340606 ], [ -79.8944, 36.332522 ], [ -79.894627, 36.330805 ], [ -79.89341, 36.33037 ], [ -79.892758, 36.328492 ], [ -79.893465, 36.326592 ], [ -79.897115, 36.323569 ], [ -79.899181, 36.325034 ], [ -79.900991, 36.322652 ], [ -79.902321, 36.324461 ], [ -79.903281, 36.319079 ], [ -79.905657, 36.316743 ], [ -79.907864, 36.317819 ], [ -79.908487, 36.319009 ], [ -79.911373, 36.31878 ], [ -79.913634, 36.313467 ], [ -79.918498, 36.309527 ], [ -79.919432, 36.309778 ], [ -79.922734, 36.307788 ], [ -79.921539, 36.306791 ], [ -79.918417, 36.306159 ], [ -79.917272, 36.304988 ], [ -79.916982, 36.298684 ], [ -79.914087, 36.291428 ], [ -79.906041, 36.278982 ], [ -79.909861, 36.272819 ], [ -79.915296, 36.273926 ], [ -79.920637, 36.271343 ], [ -79.923744, 36.267821 ], [ -79.930528, 36.267521 ], [ -79.935802, 36.268404 ], [ -79.941666, 36.272755 ], [ -79.943218, 36.275334 ], [ -79.94001, 36.284477 ], [ -79.940075, 36.292639 ], [ -79.942141, 36.31142 ], [ -79.946835, 36.328799 ], [ -79.943567, 36.34014 ], [ -79.946538, 36.355876 ], [ -79.94255, 36.373602 ] ] ] } },
{ "type": "Feature", "properties": { "county": "ROCKINGHAM", "precinct": "NB", "enr_desc": "New Bethel", "winner": "Billy Parker", "winner_votes": 503, "winner_share": 53.059071729957807, "runner_up": "Darren Wright", "runner_up_votes": 238, "runner_up_share": 25.105485232067508, "contest_votes": 948, "margin_of_victory": 27.953586497890299, "is_tie": false, "results": [ { "candidate": "Billy Parker", "votes": 503, "share": 53.05907172995781 }, { "candidate": "Darren Wright", "votes": 238, "share": 25.105485232067508 }, { "candidate": "Brian Harbour", "votes": 207, "share": 21.835443037974684 } ], "participated": true, "map_key": "ROCKINGHAM_NB" }, "geometry": { "type": "Polygon", "coordinates": [ [ [ -79.92309, 36.253916 ], [ -79.930528, 36.267521 ], [ -79.923744, 36.267821 ], [ -79.920637, 36.271343 ], [ -79.915296, 36.273926 ], [ -79.909861, 36.272819 ], [ -79.906041, 36.278982 ], [ -79.914087, 36.291428 ], [ -79.916982, 36.298684 ], [ -79.917272, 36.304988 ], [ -79.918417, 36.306159 ], [ -79.921539, 36.306791 ], [ -79.922734, 36.307788 ], [ -79.919432, 36.309778 ], [ -79.918498, 36.309527 ], [ -79.913634, 36.313467 ], [ -79.911373, 36.31878 ], [ -79.908487, 36.319009 ], [ -79.907864, 36.317819 ], [ -79.905657, 36.316743 ], [ -79.903281, 36.319079 ], [ -79.902321, 36.324461 ], [ -79.900991, 36.322652 ], [ -79.899181, 36.325034 ], [ -79.897115, 36.323569 ], [ -79.893465, 36.326592 ], [ -79.892758, 36.328492 ], [ -79.89341, 36.33037 ], [ -79.894627, 36.330805 ], [ -79.8944, 36.332522 ], [ -79.886138, 36.340606 ], [ -79.885431, 36.345254 ], [ -79.886564, 36.346971 ], [ -79.88447, 36.347795 ], [ -79.886989, 36.350451 ], [ -79.885659, 36.35194 ], [ -79.883423, 36.352352 ], [ -79.885178, 36.354161 ], [ -79.883621, 36.355214 ], [ -79.885716, 36.357481 ], [ -79.879149, 36.360595 ], [ -79.878469, 36.361557 ], [ -79.879177, 36.364396 ], [ -79.875101, 36.364373 ], [ -79.870684, 36.365518 ], [ -79.86941, 36.36664 ], [ -79.865314, 36.364458 ], [ -79.859742, 36.370415 ], [ -79.857152, 36.376116 ], [ -79.854752, 36.377796 ], [ -79.848469, 36.376487 ], [ -79.836152, 36.377706 ], [ -79.824358, 36.385612 ], [ -79.811373, 36.390288 ], [ -79.807887, 36.393421 ], [ -79.808734, 36.387633 ], [ -79.811914, 36.38313 ], [ -79.807406, 36.372484 ], [ -79.807268, 36.370178 ], [ -79.813201, 36.364523 ], [ -79.818435, 36.353111 ], [ -79.820476, 36.344496 ], [ -79.815312, 36.344447 ], [ -79.807711, 36.346913 ], [ -79.80269, 36.343514 ], [ -79.805315, 36.339165 ], [ -79.805464, 36.33613 ], [ -79.811301, 36.330051 ], [ -79.80922, 36.321136 ], [ -79.806737, 36.318976 ], [ -79.807529, 36.309424 ], [ -79.814846, 36.304173 ], [ -79.820196, 36.301803 ], [ -79.821865, 36.299634 ], [ -79.822396, 36.29715 ], [ -79.812855, 36.295711 ], [ -79.811314, 36.294815 ], [ -79.808503, 36.294881 ], [ -79.80572, 36.292633 ], [ -79.8087, 36.292403 ], [ -79.81259, 36.289924 ], [ -79.816058, 36.288985 ], [ -79.817239, 36.287171 ], [ -79.821148, 36.28594 ], [ -79.82216, 36.284764 ], [ -79.826787, 36.284617 ], [ -79.826591, 36.273335 ], [ -79.808574, 36.277646 ], [ -79.789086, 36.273739 ], [ -79.791035, 36.269681 ], [ -79.793173, 36.267317 ], [ -79.798041, 36.264653 ], [ -79.800816, 36.258473 ], [ -79.804882, 36.255869 ], [ -79.808393, 36.252086 ], [ -79.808885, 36.249513 ], [ -79.92309, 36.253916 ] ] ] } },
{ "type": "Feature", "properties": { "county": "ROCKINGHAM", "precinct": "HU-1", "enr_desc": "Huntsville-1", "winner": "Billy Parker", "winner_votes": 451, "winner_share": 45.973496432212031, "runner_up": "Darren Wright", "runner_up_votes": 328, "runner_up_share": 33.435270132517843, "contest_votes": 981, "margin_of_victory": 12.538226299694188, "is_tie": false, "results": [ { "candidate": "Billy Parker", "votes": 451, "share": 45.97349643221203 }, { "candidate": "Darren Wright", "votes": 328, "share": 33.43527013251784 }, { "candidate": "Brian Harbour", "votes": 202, "share": 20.59123343527013 } ], "participated": true, "map_key": "ROCKINGHAM_HU-1" }, "geometry": { "type": "Polygon", "coordinates": [ [ [ -80.03273, 36.344982 ], [ -80.027049, 36.345379 ], [ -80.025251, 36.344417 ], [ -80.022676, 36.340877 ], [ -80.019774, 36.341602 ], [ -80.016059, 36.347124 ], [ -80.024899, 36.349696 ], [ -80.025188, 36.351055 ], [ -80.024253, 36.352718 ], [ -80.019603, 36.357866 ], [ -80.015919, 36.360334 ], [ -80.009012, 36.359775 ], [ -80.00731, 36.362177 ], [ -80.00204, 36.365375 ], [ -79.998014, 36.370193 ], [ -79.996654, 36.37356 ], [ -79.994474, 36.374787 ], [ -79.989767, 36.373644 ], [ -79.984399, 36.369623 ], [ -79.981941, 36.369165 ], [ -79.977804, 36.374546 ], [ -79.972537, 36.376515 ], [ -79.963628, 36.377086 ], [ -79.959241, 36.379663 ], [ -79.956208, 36.380394 ], [ -79.955554, 36.381951 ], [ -79.952397, 36.38294 ], [ -79.950302, 36.380019 ], [ -79.945376, 36.376567 ], [ -79.946643, 36.376038 ], [ -79.945864, 36.375259 ], [ -79.946721, 36.374672 ], [ -79.945674, 36.373778 ], [ -79.94255, 36.373602 ], [ -79.946538, 36.355876 ], [ -79.943567, 36.34014 ], [ -79.946835, 36.328799 ], [ -79.942141, 36.31142 ], [ -79.940075, 36.292639 ], [ -79.94001, 36.284477 ], [ -79.943218, 36.275334 ], [ -79.941666, 36.272755 ], [ -79.935802, 36.268404 ], [ -79.930528, 36.267521 ], [ -79.92309, 36.253916 ], [ -80.035119, 36.257184 ], [ -80.03273, 36.344982 ] ] ] } },
{ "type": "Feature", "properties": { "county": "ROCKINGHAM", "precinct": "EC", "enr_desc": "Eden Central", "winner": "Darren Wright", "winner_votes": 464, "winner_share": 50.053937432578209, "runner_up": "Billy Parker", "runner_up_votes": 294, "runner_up_share": 31.715210355987054, "contest_votes": 927, "margin_of_victory": 18.338727076591155, "is_tie": false, "results": [ { "candidate": "Darren Wright", "votes": 464, "share": 50.05393743257821 }, { "candidate": "Billy Parker", "votes": 294, "share": 31.715210355987054 }, { "candidate": "Brian Harbour", "votes": 169, "share": 18.230852211434737 } ], "participated": true, "map_key": "ROCKINGHAM_EC" }, "geometry": { "type": "Polygon", "coordinates": [ [ [ -79.775078, 36.542242 ], [ -79.731892, 36.542027 ], [ -79.729531, 36.534511 ], [ -79.73226, 36.532003 ], [ -79.735523, 36.526636 ], [ -79.733167, 36.525746 ], [ -79.725247, 36.520078 ], [ -79.722832, 36.51434 ], [ -79.717061, 36.513875 ], [ -79.71975, 36.512004 ], [ -79.719228, 36.508263 ], [ -79.715163, 36.504862 ], [ -79.714318, 36.500129 ], [ -79.7126, 36.49608 ], [ -79.713058, 36.494013 ], [ -79.718576, 36.487942 ], [ -79.721942, 36.486374 ], [ -79.722069, 36.484921 ], [ -79.725269, 36.483329 ], [ -79.73619, 36.473931 ], [ -79.735572, 36.473238 ], [ -79.740208, 36.47075 ], [ -79.745551, 36.470911 ], [ -79.74545, 36.471841 ], [ -79.749254, 36.474479 ], [ -79.750298, 36.477032 ], [ -79.75123, 36.480837 ], [ -79.750241, 36.488312 ], [ -79.7519, 36.495387 ], [ -79.754939, 36.498339 ], [ -79.757435, 36.504011 ], [ -79.760215, 36.505605 ], [ -79.759114, 36.507223 ], [ -79.759633, 36.512599 ], [ -79.760839, 36.512405 ], [ -79.762949, 36.510395 ], [ -79.76564, 36.513269 ], [ -79.771921, 36.512105 ], [ -79.775221, 36.51276 ], [ -79.775953, 36.513604 ], [ -79.775899, 36.523294 ], [ -79.777173, 36.524291 ], [ -79.77852, 36.529389 ], [ -79.778509, 36.533393 ], [ -79.775372, 36.535739 ], [ -79.774166, 36.538953 ], [ -79.775528, 36.541298 ], [ -79.775078, 36.542242 ] ] ] } }
]
}
