{
"type": "FeatureCollection",
"name": "rutherford_county_sheriff_rep",
"crs": { "type": "name", "properties": { "name": "urn:ogc:def:crs:OGC:1.3:CRS84" } },
"features": [
{ "type": "Feature", "properties": { "county": "RUTHERFORD", "precinct": "03A", "enr_desc": "Bostic-Sunshine", "winner": "Aaron Ellenburg", "winner_votes": 436, "winner_share": 80.890538033395174, "runner_up": "Jamie Dunn", "runner_up_votes": 78, "runner_up_share": 14.471243042671613, "contest_votes": 539, "margin_of_victory": 66.419294990723557, "is_tie": false, "results": [ { "candidate": "Aaron Ellenburg", "votes": 436, "share": 80.89053803339517 }, { "candidate": "Jamie Dunn", "votes": 78, "share": 14.471243042671613 }, { "candidate": "Jason Ray Wease", "votes": 25, "share": 4.638218923933209 } ], "participated": true, "map_key": "RUTHERFORD_03A" }, "geometry": { "type": "Polygon", "coordinates": [ [ [ -81.859894991299683, 35.377223000354022 ], [ -81.855913991114932, 35.376956999967298 ], [ -81.850685991086422, 35.378079000030326 ], [ -81.852210991011489, 35.380884999873437 ], [ -81.852440990786718, 35.383097000339113 ], [ -81.851233991103612, 35.386171000357486 ], [ -81.846970990844284, 35.409888000327292 ], [ -81.845629991231064, 35.413718000012153 ], [ -81.847697991150412, 35.417799000042429 ], [ -81.85656299089456, 35.426083000283455 ], [ -81.858954991428533, 35.434752000294388 ], [ -81.863432990834411, 35.440412000060981 ], [ -81.85654199093031, 35.443021000642858 ], [ -81.854555991737101, 35.444791000291666 ], [ -81.852071991567868, 35.444399999983027 ], [ -81.852758991398048, 35.44851400028098 ], [ -81.851200991366341, 35.458730999872074 ], [ -81.849022991525004, 35.46087599999894 ], [ -81.849242990738915, 35.46650000019433 ], [ -81.85155999112466, 35.470065000266075 ], [ -81.851912991298889, 35.475625000276338 ], [ -81.854072990698953, 35.482330000193784 ], [ -81.853030991220521, 35.484271000204465 ], [ -81.855959991298619, 35.485385000505396 ], [ -81.854838990798626, 35.488306999816601 ], [ -81.855688991330183, 35.491735000314144 ], [ -81.854815991525342, 35.499262999972373 ], [ -81.856851990987337, 35.50423200034809 ], [ -81.854746990680283, 35.517168999869234 ], [ -81.856211990755, 35.529721999772711 ], [ -81.856653991273689, 35.542187000244283 ], [ -81.842673990691011, 35.542261999818763 ], [ -81.834959991253996, 35.500283000619817 ], [ -81.833092991604119, 35.500287000538727 ], [ -81.832516990953337, 35.497016999913789 ], [ -81.82695899143917, 35.497021000463576 ], [ -81.827176991617051, 35.490167000549775 ], [ -81.834238991138193, 35.483807000291741 ], [ -81.83215099127888, 35.475963000610278 ], [ -81.786657990680681, 35.474808000604625 ], [ -81.783869990989501, 35.471578999782082 ], [ -81.782115990936219, 35.465030000627102 ], [ -81.774197991444197, 35.464031000339546 ], [ -81.774926991197589, 35.464938000387555 ], [ -81.771620991236844, 35.462896000536723 ], [ -81.769221991101475, 35.459651999906754 ], [ -81.767438991422821, 35.458974999992485 ], [ -81.767375991172443, 35.456479000509177 ], [ -81.769777991049196, 35.455216000415113 ], [ -81.770732991692554, 35.456210999934676 ], [ -81.771837991234094, 35.455333999911737 ], [ -81.776836991087094, 35.456721000034875 ], [ -81.778289991707354, 35.454166999903187 ], [ -81.781110991206646, 35.452365000650602 ], [ -81.786510991671619, 35.445169999826362 ], [ -81.785100991399844, 35.440041000618166 ], [ -81.783314990724818, 35.43873400052302 ], [ -81.788153991721899, 35.436530000613637 ], [ -81.790059990681186, 35.432969999915628 ], [ -81.790321991257656, 35.430349000112258 ], [ -81.788790991374881, 35.428217000317545 ], [ -81.788589990811701, 35.425515000145232 ], [ -81.783780990771703, 35.423563000537875 ], [ -81.783026991549931, 35.421569000513344 ], [ -81.780665990998415, 35.419794000653376 ], [ -81.775968991266552, 35.414079000063367 ], [ -81.796520991142401, 35.400232999792415 ], [ -81.814394991005855, 35.402361999901409 ], [ -81.816099991320911, 35.393044000202735 ], [ -81.815308991680951, 35.390036000412415 ], [ -81.814482990820096, 35.375097000170868 ], [ -81.813335991572472, 35.37511100031255 ], [ -81.813034991327442, 35.373646000648968 ], [ -81.815605990799639, 35.373112000329343 ], [ -81.816262991705486, 35.370347000302345 ], [ -81.819523991425271, 35.368450999818485 ], [ -81.819791991547376, 35.366560000316497 ], [ -81.824642990929632, 35.36212400028235 ], [ -81.825440991622656, 35.359931000418172 ], [ -81.824876991703263, 35.35788000008143 ], [ -81.826847991560825, 35.355927000604417 ], [ -81.823293991536787, 35.34862400019329 ], [ -81.819583991565565, 35.345859000256148 ], [ -81.821054991465886, 35.341833000258006 ], [ -81.826750991061886, 35.339818000600893 ], [ -81.831033991317057, 35.332846000087251 ], [ -81.832761991320098, 35.332750000303548 ], [ -81.839642990981559, 35.333644000450541 ], [ -81.84025999160751, 35.334979000484473 ], [ -81.83843499152033, 35.337790000134952 ], [ -81.839783991756249, 35.339940000544892 ], [ -81.844969991063053, 35.339808000000509 ], [ -81.846363990903683, 35.340518999943178 ], [ -81.846709991692805, 35.344680000138744 ], [ -81.844009991692715, 35.348330000498585 ], [ -81.848265990924943, 35.348768000439186 ], [ -81.846591990756664, 35.350375999956654 ], [ -81.845750990950123, 35.354647000397954 ], [ -81.855071990842973, 35.356423000521467 ], [ -81.856120991187822, 35.358501000512881 ], [ -81.857626991250783, 35.359334000318562 ], [ -81.857481991103839, 35.360834000507424 ], [ -81.855934991281345, 35.36191200062742 ], [ -81.85542999073715, 35.364381000645444 ], [ -81.85199499108397, 35.369175000502409 ], [ -81.858570991489231, 35.374974000451346 ], [ -81.859894991299683, 35.377223000354022 ] ] ] } },
{ "type": "Feature", "properties": { "county": "RUTHERFORD", "precinct": "04A", "enr_desc": "Camp Creek-Mt Vernon", "winner": "Aaron Ellenburg", "winner_votes": 465, "winner_share": 84.854014598540147, "runner_up": "Jamie Dunn", "runner_up_votes": 61, "runner_up_share": 11.131386861313869, "contest_votes": 548, "margin_of_victory": 73.722627737226276, "is_tie": false, "results": [ { "candidate": "Aaron Ellenburg", "votes": 465, "share": 84.85401459854015 }, { "candidate": "Jamie Dunn", "votes": 61, "share": 11.13138686131387 }, { "candidate": "Jason Ray Wease", "votes": 22, "share": 4.014598540145985 } ], "participated": true, "map_key": "RUTHERFORD_04A" }, "geometry": { "type": "Polygon", "coordinates": [ [ [ -81.859894991299683, 35.377223000354022 ], [ -81.864749990942471, 35.376816000040449 ], [ -81.865727990774914, 35.380782000578279 ], [ -81.866260990898624, 35.381672999801083 ], [ -81.871905991493932, 35.383638000554043 ], [ -81.877917991102493, 35.381710000567232 ], [ -81.882043991200632, 35.382658000181372 ], [ -81.887900991574995, 35.381068999984954 ], [ -81.887396991086348, 35.383398999775672 ], [ -81.902628991492307, 35.384992000396664 ], [ -81.906723990810491, 35.386732999959591 ], [ -81.905631991240341, 35.389113000605441 ], [ -81.906752991672036, 35.390279000272564 ], [ -81.909369990904366, 35.38940000049115 ], [ -81.910846991017053, 35.389987999997622 ], [ -81.911773991506379, 35.389218999910696 ], [ -81.913517990769705, 35.391726000511113 ], [ -81.916396991311032, 35.393330999935181 ], [ -81.915536991039374, 35.395040000076939 ], [ -81.916435991024827, 35.397750000118528 ], [ -81.91913499146429, 35.397091000282352 ], [ -81.920074991204146, 35.395623999772546 ], [ -81.921504991214718, 35.395430999880062 ], [ -81.923537991691973, 35.397185000307317 ], [ -81.926054991726701, 35.396630000079654 ], [ -81.929417990806343, 35.399587000081851 ], [ -81.930779991705649, 35.401830000044832 ], [ -81.936747991651899, 35.405403000448423 ], [ -81.940660991145094, 35.409951000653173 ], [ -81.938965991516326, 35.41123000059401 ], [ -81.938309991483123, 35.413289000491361 ], [ -81.939463990865363, 35.417020000513126 ], [ -81.94199999127278, 35.419824000268434 ], [ -81.919850990747079, 35.431976000545298 ], [ -81.923896991306876, 35.435640000376075 ], [ -81.92797499073518, 35.43723200022206 ], [ -81.937159990854937, 35.444237999976302 ], [ -81.94758199155315, 35.450876000328435 ], [ -81.965705991685866, 35.458967000210251 ], [ -81.981460990741155, 35.459741999850955 ], [ -81.98496699130051, 35.461632000454841 ], [ -81.986700990930501, 35.46160300065872 ], [ -81.988060991061005, 35.466879999854072 ], [ -81.991285991033607, 35.466532000201141 ], [ -81.994450991744088, 35.468806000412762 ], [ -81.995381991141173, 35.473884000641767 ], [ -81.997930991119375, 35.477652999991086 ], [ -81.997463991189164, 35.480571999952097 ], [ -81.996026990963998, 35.483310000511146 ], [ -81.993253991700939, 35.486064999984393 ], [ -81.992898990970062, 35.487720000628165 ], [ -81.996077991297042, 35.497007000451966 ], [ -81.997354990687612, 35.497687000039448 ], [ -81.997805991511854, 35.499177000056122 ], [ -81.99677799161654, 35.50121100024392 ], [ -81.997236990803103, 35.504960000134247 ], [ -81.998872991332689, 35.507091000561005 ], [ -82.001004991076826, 35.508003000568465 ], [ -82.00098299093743, 35.511759000600136 ], [ -82.004933991490987, 35.51395900048405 ], [ -82.00688899160167, 35.516488000040717 ], [ -82.008588991402277, 35.51685200011346 ], [ -82.015483991437961, 35.521713000249015 ], [ -82.017820990813817, 35.5265840003119 ], [ -81.997289990863919, 35.546630000110042 ], [ -81.992814991633139, 35.543052000234177 ], [ -81.986251991059618, 35.540709000480469 ], [ -81.985517991068249, 35.539929000185481 ], [ -81.986208990936518, 35.538076000441983 ], [ -81.985564991055071, 35.537302999841458 ], [ -81.979434990951731, 35.532923000280377 ], [ -81.976488991070084, 35.529533000401003 ], [ -81.975587991272931, 35.529732000637686 ], [ -81.967618990767534, 35.526007000366114 ], [ -81.957325991767462, 35.527774000547289 ], [ -81.933120991578249, 35.536074000279839 ], [ -81.924050991000982, 35.534020999774796 ], [ -81.921187990957321, 35.535178999917242 ], [ -81.920898991547574, 35.533660999940388 ], [ -81.904953991738296, 35.541917000383563 ], [ -81.856653991273689, 35.542187000244283 ], [ -81.856211990755, 35.529721999772711 ], [ -81.854746990680283, 35.517168999869234 ], [ -81.856851990987337, 35.50423200034809 ], [ -81.854815991525342, 35.499262999972373 ], [ -81.855688991330183, 35.491735000314144 ], [ -81.854838990798626, 35.488306999816601 ], [ -81.855959991298619, 35.485385000505396 ], [ -81.853030991220521, 35.484271000204465 ], [ -81.854072990698953, 35.482330000193784 ], [ -81.851912991298889, 35.475625000276338 ], [ -81.85155999112466, 35.470065000266075 ], [ -81.849242990738915, 35.46650000019433 ], [ -81.849022991525004, 35.46087599999894 ], [ -81.851200991366341, 35.458730999872074 ], [ -81.852758991398048, 35.44851400028098 ], [ -81.852071991567868, 35.444399999983027 ], [ -81.854555991737101, 35.444791000291666 ], [ -81.85654199093031, 35.443021000642858 ], [ -81.863432990834411, 35.440412000060981 ], [ -81.858954991428533, 35.434752000294388 ], [ -81.85656299089456, 35.426083000283455 ], [ -81.847697991150412, 35.417799000042429 ], [ -81.845629991231064, 35.413718000012153 ], [ -81.846970990844284, 35.409888000327292 ], [ -81.851233991103612, 35.386171000357486 ], [ -81.852440990786718, 35.383097000339113 ], [ -81.852210991011489, 35.380884999873437 ], [ -81.850685991086422, 35.378079000030326 ], [ -81.855913991114932, 35.376956999967298 ], [ -81.859894991299683, 35.377223000354022 ] ] ] } },
{ "type": "Feature", "properties": { "county": "RUTHERFORD", "precinct": "05A", "enr_desc": "Caroleen-Cliffside", "winner": "Aaron Ellenburg", "winner_votes": 315, "winner_share": 70.469798657718115, "runner_up": "Jamie Dunn", "runner_up_votes": 102, "runner_up_share": 22.818791946308725, "contest_votes": 447, "margin_of_victory": 47.651006711409394, "is_tie": false, "results": [ { "candidate": "Aaron Ellenburg", "votes": 315, "share": 70.46979865771812 }, { "candidate": "Jamie Dunn", "votes": 102, "share": 22.818791946308725 }, { "candidate": "Jason Ray Wease", "votes": 30, "share": 6.7114093959731544 } ], "participated": true, "map_key": "RUTHERFORD_05A" }, "geometry": { "type": "Polygon", "coordinates": [ [ [ -81.857837991584233, 35.183508000559875 ], [ -81.850444990746027, 35.188057999894589 ], [ -81.84777199104299, 35.193270000317909 ], [ -81.845877991131331, 35.194834999880911 ], [ -81.850308991294725, 35.201107000169799 ], [ -81.846338990898573, 35.201962999926984 ], [ -81.845092991486069, 35.20408900001997 ], [ -81.840534991046866, 35.205706000194866 ], [ -81.837292991103382, 35.20603600041818 ], [ -81.830525991136241, 35.208686999841248 ], [ -81.81903799151327, 35.204691000340794 ], [ -81.815530991721019, 35.209326000531469 ], [ -81.810993990711651, 35.211306000230181 ], [ -81.808062991363542, 35.213805999783609 ], [ -81.805547991471812, 35.21335600010368 ], [ -81.801465991196437, 35.209535000107742 ], [ -81.799868991760476, 35.209454000429204 ], [ -81.794240991428453, 35.215031000528249 ], [ -81.784668990809436, 35.216990999808438 ], [ -81.781201991343224, 35.215910999931722 ], [ -81.778803990713755, 35.216277999771208 ], [ -81.780424991705047, 35.218453000192461 ], [ -81.780378991789888, 35.220316000564345 ], [ -81.774275991647897, 35.224804000558294 ], [ -81.781283991418221, 35.230024000483844 ], [ -81.787312991134698, 35.236026000302338 ], [ -81.794026990783109, 35.239084000582764 ], [ -81.795138991113006, 35.241857000119737 ], [ -81.795383991660756, 35.247675999947802 ], [ -81.7929189914624, 35.249796000318682 ], [ -81.792603991634863, 35.251022000085001 ], [ -81.795143991554113, 35.2552580004308 ], [ -81.795874991240964, 35.258640000128793 ], [ -81.79756399110552, 35.257422000224167 ], [ -81.799000990752532, 35.259044000409553 ], [ -81.803571991105557, 35.261058999790208 ], [ -81.804029991428806, 35.262775999901905 ], [ -81.813869991324211, 35.262872999919118 ], [ -81.820145990692083, 35.264423000075496 ], [ -81.831356990875207, 35.274509999971151 ], [ -81.824747991050373, 35.280463000207476 ], [ -81.819792991767784, 35.281729999943913 ], [ -81.820681991383921, 35.290962000500194 ], [ -81.806575990855578, 35.305447999934124 ], [ -81.804691991475011, 35.305551000483909 ], [ -81.801268990744461, 35.303943000400302 ], [ -81.799911991060597, 35.305441000312236 ], [ -81.797129991167978, 35.305682000322435 ], [ -81.796181991338173, 35.30379600057411 ], [ -81.793216990876545, 35.302135000220744 ], [ -81.794841991539741, 35.299441000425453 ], [ -81.796096991157924, 35.300171000297389 ], [ -81.796391991245741, 35.302068000174984 ], [ -81.799556991491627, 35.301096999795661 ], [ -81.800772991267721, 35.29795500025903 ], [ -81.799670990702552, 35.295689000534352 ], [ -81.79986499130014, 35.293163000617426 ], [ -81.793857991223788, 35.293373000551789 ], [ -81.78214199118483, 35.283863000250548 ], [ -81.776142990909108, 35.285306999771642 ], [ -81.776170990822479, 35.278762000628426 ], [ -81.774000990689629, 35.272842999900803 ], [ -81.760416991654637, 35.268263000321646 ], [ -81.746630991780521, 35.266677000467475 ], [ -81.746495991041371, 35.264795999824152 ], [ -81.743241991408709, 35.25999900026499 ], [ -81.75954099161531, 35.222646000623364 ], [ -81.768101991038279, 35.180611000077761 ], [ -81.857837991584233, 35.183508000559875 ] ] ] } },
{ "type": "Feature", "properties": { "county": "RUTHERFORD", "precinct": "06A", "enr_desc": "Chimney Rock", "winner": "Aaron Ellenburg", "winner_votes": 291, "winner_share": 81.512605042016801, "runner_up": "Jamie Dunn", "runner_up_votes": 51, "runner_up_share": 14.285714285714285, "contest_votes": 357, "margin_of_victory": 67.22689075630251, "is_tie": false, "results": [ { "candidate": "Aaron Ellenburg", "votes": 291, "share": 81.5126050420168 }, { "candidate": "Jamie Dunn", "votes": 51, "share": 14.285714285714285 }, { "candidate": "Jason Ray Wease", "votes": 15, "share": 4.201680672268908 } ], "participated": true, "map_key": "RUTHERFORD_06A" }, "geometry": { "type": "Polygon", "coordinates": [ [ [ -82.155492991479932, 35.520643000495518 ], [ -82.152804991173539, 35.50583100033019 ], [ -82.153208990897838, 35.503723000190952 ], [ -82.142745991382085, 35.500212999996968 ], [ -82.139956991063499, 35.500618999914458 ], [ -82.138718990929803, 35.502042000515523 ], [ -82.135115990939838, 35.503112000565608 ], [ -82.130061991083593, 35.502872999835631 ], [ -82.129276990902525, 35.501312000613332 ], [ -82.12272099119393, 35.496634000178439 ], [ -82.12128699106114, 35.493430999823993 ], [ -82.121411991339059, 35.490490000593645 ], [ -82.120294991555625, 35.488121999910767 ], [ -82.119171990861375, 35.487518000611097 ], [ -82.115583991177331, 35.487987000580006 ], [ -82.11500599176135, 35.487514000165163 ], [ -82.115669991375299, 35.486481000227421 ], [ -82.114614991035396, 35.486047000516699 ], [ -82.113116991730777, 35.486344000528192 ], [ -82.112421990726702, 35.487848999821658 ], [ -82.107874990737727, 35.485587999980353 ], [ -82.10851799100017, 35.481931000670087 ], [ -82.103478991641069, 35.479226000454112 ], [ -82.10277499113829, 35.478090000027294 ], [ -82.105005991038311, 35.478167000641172 ], [ -82.105446990939456, 35.477411000341746 ], [ -82.104656991400944, 35.475933000637554 ], [ -82.109525990780639, 35.474214000547256 ], [ -82.106492991098634, 35.470903000018353 ], [ -82.106029990689308, 35.468419999969349 ], [ -82.106525991235344, 35.467482000337014 ], [ -82.110490991748733, 35.465515000375774 ], [ -82.112106991239557, 35.462535000043516 ], [ -82.108458991398649, 35.460696000539954 ], [ -82.105588990707048, 35.456922000207257 ], [ -82.108247991597253, 35.455900000391843 ], [ -82.109139990775603, 35.454705000041173 ], [ -82.111960991160217, 35.449115000423319 ], [ -82.112109991575281, 35.447074000233485 ], [ -82.114144991446395, 35.446267000435554 ], [ -82.115075991363497, 35.443542000128268 ], [ -82.114728991732676, 35.442833000351101 ], [ -82.111684990720576, 35.444242000524127 ], [ -82.108519991314211, 35.441791000359899 ], [ -82.109501991754058, 35.438954000062722 ], [ -82.111178991729389, 35.43768099989363 ], [ -82.111499991432382, 35.435190000483296 ], [ -82.109441991657548, 35.432202000385871 ], [ -82.113545990726408, 35.429906000029831 ], [ -82.118118990870911, 35.432650000150602 ], [ -82.120255991513233, 35.432632000087203 ], [ -82.120617991656403, 35.432007000048557 ], [ -82.119629990704894, 35.429795000475885 ], [ -82.120910990931236, 35.427454000624486 ], [ -82.116392991696728, 35.427353000464493 ], [ -82.113262991328455, 35.423840000087743 ], [ -82.111164991035906, 35.423742000466568 ], [ -82.110766990976131, 35.419949000580807 ], [ -82.108508991609909, 35.415693000286971 ], [ -82.108474991316257, 35.412926999815042 ], [ -82.105881991174286, 35.409821000148703 ], [ -82.101741990905296, 35.401730000198441 ], [ -82.114371990969403, 35.389258000438645 ], [ -82.115166990874002, 35.387361000615094 ], [ -82.120127991433904, 35.388201999801545 ], [ -82.122914990803508, 35.393267000037369 ], [ -82.1259429910763, 35.394461000315914 ], [ -82.127915990849402, 35.396379999998082 ], [ -82.129208990855602, 35.396852000560763 ], [ -82.131668991164901, 35.395642000156307 ], [ -82.140436991682805, 35.398602000643791 ], [ -82.151534991090472, 35.407581000517467 ], [ -82.154453991030579, 35.408274000446518 ], [ -82.156748990944294, 35.407809000282391 ], [ -82.159632991087008, 35.409333000438217 ], [ -82.166296990944915, 35.40771100027532 ], [ -82.171364991123511, 35.409508000190606 ], [ -82.173216991238448, 35.405580000086111 ], [ -82.176116991765753, 35.404780000048625 ], [ -82.177116991694191, 35.403213999891307 ], [ -82.18085999079004, 35.40278200030469 ], [ -82.183575991603718, 35.400107000117039 ], [ -82.185149991569006, 35.396619000666369 ], [ -82.190002990994074, 35.399342000542603 ], [ -82.192435991702538, 35.397324999970387 ], [ -82.194109991429571, 35.397352000328901 ], [ -82.196465990850115, 35.399012000558002 ], [ -82.197147991412393, 35.402207000538695 ], [ -82.204551991314446, 35.403630000027391 ], [ -82.205684990824267, 35.402984000125677 ], [ -82.205550991739869, 35.401166000002803 ], [ -82.209017991246839, 35.397669000331469 ], [ -82.214397991374099, 35.39817100039933 ], [ -82.220542990767186, 35.394636000403295 ], [ -82.228475991525201, 35.396004000131484 ], [ -82.234110991765121, 35.400356000656522 ], [ -82.236223991062687, 35.400727999924349 ], [ -82.239114990937793, 35.402557000228427 ], [ -82.243560990944374, 35.40080699998898 ], [ -82.249067991087756, 35.400058000089821 ], [ -82.251616991437729, 35.398199999846767 ], [ -82.255832991086905, 35.397070000091823 ], [ -82.257511991027769, 35.396043000042283 ], [ -82.259035990771295, 35.393526000451516 ], [ -82.260519991584943, 35.393100000434501 ], [ -82.261304990734843, 35.393198000195078 ], [ -82.264202991705432, 35.396985999947105 ], [ -82.270201990922459, 35.400461000379686 ], [ -82.268513991279661, 35.406214000604429 ], [ -82.272606990828891, 35.409667999875268 ], [ -82.273308991018922, 35.414625000399809 ], [ -82.27271299152288, 35.418840000262612 ], [ -82.275802991534306, 35.423282000048943 ], [ -82.273422990821018, 35.430707000691029 ], [ -82.276146990724939, 35.437143000655261 ], [ -82.279026991441825, 35.438545000355198 ], [ -82.280502991192563, 35.442536000073233 ], [ -82.280145991342764, 35.444976000107502 ], [ -82.279231991098357, 35.446876999975736 ], [ -82.276295991019992, 35.448921000662075 ], [ -82.265794991149846, 35.467818000641067 ], [ -82.251436991241761, 35.460685000467357 ], [ -82.242499991098057, 35.467838000187498 ], [ -82.224335991465779, 35.49826900020765 ], [ -82.224102990701979, 35.500364000428803 ], [ -82.227191991201479, 35.504700000030923 ], [ -82.23112299149355, 35.506624000136362 ], [ -82.233334990942808, 35.509629000021711 ], [ -82.233842991627938, 35.511615000002934 ], [ -82.232977990850344, 35.513657000149024 ], [ -82.233615990703086, 35.515407000611056 ], [ -82.232817991463051, 35.517262000324621 ], [ -82.233884991086583, 35.5185300000539 ], [ -82.233202991675043, 35.519401999840376 ], [ -82.220514991609363, 35.520025000143576 ], [ -82.169048990893643, 35.527811000214541 ], [ -82.155492991479932, 35.520643000495518 ] ] ] } },
{ "type": "Feature", "properties": { "county": "RUTHERFORD", "precinct": "09A", "enr_desc": "Danieltown-Sulphur Springs", "winner": "Aaron Ellenburg", "winner_votes": 581, "winner_share": 79.480164158686733, "runner_up": "Jamie Dunn", "runner_up_votes": 123, "runner_up_share": 16.82626538987688, "contest_votes": 731, "margin_of_victory": 62.653898768809853, "is_tie": false, "results": [ { "candidate": "Aaron Ellenburg", "votes": 581, "share": 79.48016415868673 }, { "candidate": "Jamie Dunn", "votes": 123, "share": 16.82626538987688 }, { "candidate": "Jason Ray Wease", "votes": 27, "share": 3.6935704514363885 } ], "participated": true, "map_key": "RUTHERFORD_09A" }, "geometry": { "type": "Polygon", "coordinates": [ [ [ -81.963868991752278, 35.249450000069409 ], [ -81.959773990776611, 35.247050999978022 ], [ -81.959390990699021, 35.249144000440289 ], [ -81.957043991622385, 35.252017999987686 ], [ -81.957524990755189, 35.254352000491913 ], [ -81.959721991533584, 35.255703999906544 ], [ -81.960924991240617, 35.259438000583721 ], [ -81.96192699085033, 35.259436000594789 ], [ -81.962152990775394, 35.262597999930129 ], [ -81.954565990913082, 35.270252000427561 ], [ -81.945315990697637, 35.284423000383818 ], [ -81.943015990779401, 35.295390000602509 ], [ -81.938675990802366, 35.30497500023926 ], [ -81.938811991019094, 35.313798999925439 ], [ -81.935278991559187, 35.317526000047074 ], [ -81.936201991035617, 35.320629000478291 ], [ -81.935020990691058, 35.323232999961668 ], [ -81.929374991306915, 35.321419000304495 ], [ -81.927484991351008, 35.319438000056778 ], [ -81.923579991648353, 35.318388000638102 ], [ -81.921702991725439, 35.315642000334968 ], [ -81.913850990766619, 35.314086000448199 ], [ -81.913200990793953, 35.312783000077815 ], [ -81.913871991730147, 35.311118000520246 ], [ -81.913000991598324, 35.307479000013643 ], [ -81.913497991108329, 35.305989000618624 ], [ -81.911399991419231, 35.304950000381254 ], [ -81.909099991477547, 35.304785000565296 ], [ -81.908770990905268, 35.306142000079838 ], [ -81.908035991108605, 35.30615100056238 ], [ -81.907139990687782, 35.310855999984923 ], [ -81.907433990743598, 35.313526000481922 ], [ -81.901506991620465, 35.313003999952485 ], [ -81.900301990946474, 35.314069000302105 ], [ -81.898442991598969, 35.311817999893563 ], [ -81.894338990740295, 35.310893000275719 ], [ -81.892636991513513, 35.308715999949243 ], [ -81.892650990752472, 35.307496000636171 ], [ -81.887892990803849, 35.30370700025982 ], [ -81.885480991253317, 35.300600000217386 ], [ -81.885125990916478, 35.299798000185433 ], [ -81.886059991758188, 35.298451000259092 ], [ -81.884016990973919, 35.294439000504113 ], [ -81.883233990722871, 35.292239000065621 ], [ -81.880350991222599, 35.29265599977537 ], [ -81.877120991637184, 35.290663999878177 ], [ -81.874652991243593, 35.286765000585532 ], [ -81.875710991402897, 35.285651000264025 ], [ -81.875262991037246, 35.283479000587384 ], [ -81.876029991518635, 35.279703999796652 ], [ -81.878243991208905, 35.277527999766015 ], [ -81.877094990708827, 35.276902000208374 ], [ -81.874824990957777, 35.275854000134736 ], [ -81.871519991688729, 35.266378999800935 ], [ -81.868283991238286, 35.265815000521961 ], [ -81.868186991023293, 35.262269999849863 ], [ -81.863486991394268, 35.25767100037146 ], [ -81.863002991337666, 35.256165000162262 ], [ -81.863530991392821, 35.252746000517071 ], [ -81.865672991772826, 35.250283000019017 ], [ -81.866650990858389, 35.250117000160543 ], [ -81.868812991615926, 35.243016999866491 ], [ -81.868050990774137, 35.236371999806181 ], [ -81.864651990724283, 35.233505000569146 ], [ -81.864650991125842, 35.232443999797873 ], [ -81.866592990988963, 35.23124500031323 ], [ -81.866048990854196, 35.228491000353287 ], [ -81.867004990847448, 35.226457000618197 ], [ -81.865322991656328, 35.22487000011099 ], [ -81.865259991422334, 35.221241999953143 ], [ -81.862839991014894, 35.218704000175151 ], [ -81.859773990764154, 35.220711000267585 ], [ -81.853442991619048, 35.218345000609773 ], [ -81.849129990712171, 35.218038999929682 ], [ -81.845798991063148, 35.213905999994118 ], [ -81.848128991556976, 35.213108999952553 ], [ -81.84783899161161, 35.208766000354849 ], [ -81.847088990736879, 35.208607000616261 ], [ -81.846158991593995, 35.210020000174147 ], [ -81.842086991003796, 35.20974700051655 ], [ -81.840853991706609, 35.208257000583856 ], [ -81.842004990933958, 35.206987000041458 ], [ -81.840534991046866, 35.205706000194866 ], [ -81.845092991486069, 35.20408900001997 ], [ -81.846338990898573, 35.201962999926984 ], [ -81.850308991294725, 35.201107000169799 ], [ -81.845877991131331, 35.194834999880911 ], [ -81.84777199104299, 35.193270000317909 ], [ -81.850444990746027, 35.188057999894589 ], [ -81.857837991584233, 35.183508000559875 ], [ -81.96934799167839, 35.187217000456378 ], [ -81.971044991274653, 35.2055150006343 ], [ -81.969572991133674, 35.209462000016543 ], [ -81.970881991547529, 35.211589000575316 ], [ -81.967705991014384, 35.219827000527715 ], [ -81.962805991448306, 35.226860000188729 ], [ -81.965678991258372, 35.231062000609363 ], [ -81.965326991615257, 35.244600000505145 ], [ -81.963868991752278, 35.249450000069409 ] ] ] } },
{ "type": "Feature", "properties": { "county": "RUTHERFORD", "precinct": "10A", "enr_desc": "Duncan Creek-Golden Valley", "winner": "Aaron Ellenburg", "winner_votes": 279, "winner_share": 81.818181818181827, "runner_up": "Jamie Dunn", "runner_up_votes": 40, "runner_up_share": 11.730205278592376, "contest_votes": 341, "margin_of_victory": 70.087976539589448, "is_tie": false, "results": [ { "candidate": "Aaron Ellenburg", "votes": 279, "share": 81.81818181818183 }, { "candidate": "Jamie Dunn", "votes": 40, "share": 11.730205278592376 }, { "candidate": "Jason Ray Wease", "votes": 22, "share": 6.451612903225806 } ], "participated": true, "map_key": "RUTHERFORD_10A" }, "geometry": { "type": "Polygon", "coordinates": [ [ [ -81.842673990691011, 35.542261999818763 ], [ -81.843743991285919, 35.544034000244288 ], [ -81.843915991183025, 35.546337000597397 ], [ -81.842360990888338, 35.549731000407476 ], [ -81.841112991277825, 35.550406999918785 ], [ -81.840972990848314, 35.554148999900256 ], [ -81.839466990664093, 35.555990999996006 ], [ -81.836595990659887, 35.557734000252843 ], [ -81.834705990867747, 35.557883000187054 ], [ -81.833165990703435, 35.559345000144191 ], [ -81.834161991486596, 35.560426999940965 ], [ -81.833819991506871, 35.562857000217839 ], [ -81.831796991594643, 35.566024000061098 ], [ -81.82949499122671, 35.567684000246061 ], [ -81.829449991564132, 35.571847000099758 ], [ -81.828186990990687, 35.574102000381679 ], [ -81.825809990867072, 35.574093000565675 ], [ -81.8241219914254, 35.574983000208348 ], [ -81.824036991568207, 35.576910000019865 ], [ -81.822618990880514, 35.578581000633022 ], [ -81.822267991675474, 35.580434000011735 ], [ -81.819247991038822, 35.579149000114512 ], [ -81.818491991251292, 35.577980000108823 ], [ -81.816238991385745, 35.578522000185039 ], [ -81.814102990657929, 35.580390999873089 ], [ -81.810119991605603, 35.581319000625861 ], [ -81.805662990910832, 35.580160000659539 ], [ -81.804146991104801, 35.578433999925252 ], [ -81.80283799147233, 35.578165000089491 ], [ -81.798782991343899, 35.579968000477798 ], [ -81.797447990890973, 35.583196000513368 ], [ -81.796032990746212, 35.58455500016322 ], [ -81.796480991355565, 35.589318999851692 ], [ -81.795744991242827, 35.591537000076173 ], [ -81.794057991752013, 35.593239000377714 ], [ -81.787416990722321, 35.594235000195916 ], [ -81.783013991533338, 35.591960999859587 ], [ -81.772181991399577, 35.592623000314823 ], [ -81.77153599133986, 35.594636000087263 ], [ -81.768894991307889, 35.59565800019962 ], [ -81.768013990929944, 35.597224000366388 ], [ -81.771906990924563, 35.602110999966264 ], [ -81.768335990876295, 35.602946999856236 ], [ -81.766120990884559, 35.60699400036598 ], [ -81.75736099096207, 35.609417000011803 ], [ -81.753406991701922, 35.613588000034696 ], [ -81.750413990848145, 35.611764000611011 ], [ -81.746822991703908, 35.605689000609381 ], [ -81.739005991666431, 35.60418700037836 ], [ -81.737142990928348, 35.601908000309258 ], [ -81.734271991094346, 35.602713000501012 ], [ -81.732970991365349, 35.601778000069807 ], [ -81.731787991724829, 35.601991000037863 ], [ -81.72170099068525, 35.606307999829134 ], [ -81.717286991621535, 35.604578999809959 ], [ -81.715835991519143, 35.602947999841057 ], [ -81.716706990724532, 35.600926000351947 ], [ -81.715839991418278, 35.601694000388427 ], [ -81.715205991012922, 35.601143000363635 ], [ -81.717506990851206, 35.598831000046523 ], [ -81.715976990960968, 35.598019999902284 ], [ -81.71677099083513, 35.595983999866263 ], [ -81.715590991541674, 35.596301000187637 ], [ -81.716325991031937, 35.595011999769724 ], [ -81.712044990925293, 35.591945000196937 ], [ -81.712137990908928, 35.589266999945352 ], [ -81.710745991424488, 35.589044999841114 ], [ -81.709205991072508, 35.58989299979995 ], [ -81.70906399141758, 35.588409000463308 ], [ -81.706896990818791, 35.585201000111219 ], [ -81.706884990784033, 35.582841000437021 ], [ -81.705652991154395, 35.581214000382701 ], [ -81.704465991473143, 35.581306000490628 ], [ -81.704397991619288, 35.582365000471114 ], [ -81.70333999117905, 35.581528000281402 ], [ -81.702586991757599, 35.583332000608479 ], [ -81.701833991245238, 35.581673000260345 ], [ -81.697502991016194, 35.578802999760661 ], [ -81.695774990882953, 35.579834000640908 ], [ -81.692537990874669, 35.578894999915029 ], [ -81.691988990664939, 35.580041000074651 ], [ -81.692166990836043, 35.546119000633105 ], [ -81.700970991452579, 35.400655999882552 ], [ -81.705617991574741, 35.406100000386502 ], [ -81.715984991384857, 35.407213000498245 ], [ -81.730654991657588, 35.411022999880565 ], [ -81.769620991369933, 35.412175999930938 ], [ -81.775097990800333, 35.413261000381617 ], [ -81.775968991266552, 35.414079000063367 ], [ -81.780665990998415, 35.419794000653376 ], [ -81.783026991549931, 35.421569000513344 ], [ -81.783780990771703, 35.423563000537875 ], [ -81.788589990811701, 35.425515000145232 ], [ -81.788790991374881, 35.428217000317545 ], [ -81.790321991257656, 35.430349000112258 ], [ -81.790059990681186, 35.432969999915628 ], [ -81.788153991721899, 35.436530000613637 ], [ -81.783314990724818, 35.43873400052302 ], [ -81.785100991399844, 35.440041000618166 ], [ -81.786510991671619, 35.445169999826362 ], [ -81.781110991206646, 35.452365000650602 ], [ -81.778289991707354, 35.454166999903187 ], [ -81.776836991087094, 35.456721000034875 ], [ -81.771837991234094, 35.455333999911737 ], [ -81.770732991692554, 35.456210999934676 ], [ -81.769777991049196, 35.455216000415113 ], [ -81.767375991172443, 35.456479000509177 ], [ -81.767438991422821, 35.458974999992485 ], [ -81.769221991101475, 35.459651999906754 ], [ -81.771620991236844, 35.462896000536723 ], [ -81.774926991197589, 35.464938000387555 ], [ -81.774197991444197, 35.464031000339546 ], [ -81.782115990936219, 35.465030000627102 ], [ -81.783869990989501, 35.471578999782082 ], [ -81.786657990680681, 35.474808000604625 ], [ -81.83215099127888, 35.475963000610278 ], [ -81.834238991138193, 35.483807000291741 ], [ -81.827176991617051, 35.490167000549775 ], [ -81.82695899143917, 35.497021000463576 ], [ -81.832516990953337, 35.497016999913789 ], [ -81.833092991604119, 35.500287000538727 ], [ -81.834959991253996, 35.500283000619817 ], [ -81.842673990691011, 35.542261999818763 ] ] ] } },
{ "type": "Feature", "properties": { "county": "RUTHERFORD", "precinct": "11", "enr_desc": "Ellenboro", "winner": "Aaron Ellenburg", "winner_votes": 860, "winner_share": 77.477477477477478, "runner_up": "Jamie Dunn", "runner_up_votes": 199, "runner_up_share": 17.927927927927929, "contest_votes": 1110, "margin_of_victory": 59.549549549549553, "is_tie": false, "results": [ { "candidate": "Aaron Ellenburg", "votes": 860, "share": 77.47747747747748 }, { "candidate": "Jamie Dunn", "votes": 199, "share": 17.92792792792793 }, { "candidate": "Jason Ray Wease", "votes": 51, "share": 4.594594594594595 } ], "participated": true, "map_key": "RUTHERFORD_11" }, "geometry": { "type": "Polygon", "coordinates": [ [ [ -81.743241991408709, 35.25999900026499 ], [ -81.746495991041371, 35.264795999824152 ], [ -81.746630991780521, 35.266677000467475 ], [ -81.760416991654637, 35.268263000321646 ], [ -81.774000990689629, 35.272842999900803 ], [ -81.776170990822479, 35.278762000628426 ], [ -81.776142990909108, 35.285306999771642 ], [ -81.78214199118483, 35.283863000250548 ], [ -81.793857991223788, 35.293373000551789 ], [ -81.79986499130014, 35.293163000617426 ], [ -81.799670990702552, 35.295689000534352 ], [ -81.800772991267721, 35.29795500025903 ], [ -81.799556991491627, 35.301096999795661 ], [ -81.796391991245741, 35.302068000174984 ], [ -81.796096991157924, 35.300171000297389 ], [ -81.794841991539741, 35.299441000425453 ], [ -81.793216990876545, 35.302135000220744 ], [ -81.796181991338173, 35.30379600057411 ], [ -81.797129991167978, 35.305682000322435 ], [ -81.799911991060597, 35.305441000312236 ], [ -81.801268990744461, 35.303943000400302 ], [ -81.804691991475011, 35.305551000483909 ], [ -81.806575990855578, 35.305447999934124 ], [ -81.806358991785004, 35.308534000425084 ], [ -81.806793990814384, 35.31303400000192 ], [ -81.807710991677624, 35.312928000121232 ], [ -81.807749991588196, 35.311816000286932 ], [ -81.809596991565428, 35.310518999882092 ], [ -81.811176990818836, 35.310710000064951 ], [ -81.81063299094464, 35.313861000190151 ], [ -81.81135399115648, 35.315285000590691 ], [ -81.813839991155646, 35.315911999829098 ], [ -81.814920991251569, 35.317091000533154 ], [ -81.818979991279221, 35.316498000266158 ], [ -81.823120990728299, 35.320758000223016 ], [ -81.827461990868869, 35.319620999909013 ], [ -81.827427991778521, 35.32196600036675 ], [ -81.832088991153483, 35.32947300062925 ], [ -81.832761991320098, 35.332750000303548 ], [ -81.831033991317057, 35.332846000087251 ], [ -81.826750991061886, 35.339818000600893 ], [ -81.821054991465886, 35.341833000258006 ], [ -81.819583991565565, 35.345859000256148 ], [ -81.823293991536787, 35.34862400019329 ], [ -81.826847991560825, 35.355927000604417 ], [ -81.824876991703263, 35.35788000008143 ], [ -81.825440991622656, 35.359931000418172 ], [ -81.824642990929632, 35.36212400028235 ], [ -81.819791991547376, 35.366560000316497 ], [ -81.819523991425271, 35.368450999818485 ], [ -81.816262991705486, 35.370347000302345 ], [ -81.815605990799639, 35.373112000329343 ], [ -81.813034991327442, 35.373646000648968 ], [ -81.813335991572472, 35.37511100031255 ], [ -81.814482990820096, 35.375097000170868 ], [ -81.815308991680951, 35.390036000412415 ], [ -81.816099991320911, 35.393044000202735 ], [ -81.814394991005855, 35.402361999901409 ], [ -81.796520991142401, 35.400232999792415 ], [ -81.775968991266552, 35.414079000063367 ], [ -81.775097990800333, 35.413261000381617 ], [ -81.769620991369933, 35.412175999930938 ], [ -81.730654991657588, 35.411022999880565 ], [ -81.715984991384857, 35.407213000498245 ], [ -81.705617991574741, 35.406100000386502 ], [ -81.700970991452579, 35.400655999882552 ], [ -81.702852991658702, 35.357304000150883 ], [ -81.743241991408709, 35.25999900026499 ] ] ] } },
{ "type": "Feature", "properties": { "county": "RUTHERFORD", "precinct": "13", "enr_desc": "Forest City  1", "winner": "Aaron Ellenburg", "winner_votes": 543, "winner_share": 81.654135338345867, "runner_up": "Jamie Dunn", "runner_up_votes": 103, "runner_up_share": 15.488721804511279, "contest_votes": 665, "margin_of_victory": 66.165413533834595, "is_tie": false, "results": [ { "candidate": "Aaron Ellenburg", "votes": 543, "share": 81.65413533834587 }, { "candidate": "Jamie Dunn", "votes": 103, "share": 15.488721804511279 }, { "candidate": "Jason Ray Wease", "votes": 19, "share": 2.857142857142857 } ], "participated": true, "map_key": "RUTHERFORD_13" }, "geometry": { "type": "Polygon", "coordinates": [ [ [ -81.880453991433242, 35.311760000335468 ], [ -81.878875991025566, 35.307586999778707 ], [ -81.875935991445715, 35.303108999973112 ], [ -81.878942991672943, 35.301770000449963 ], [ -81.879464991118667, 35.296670000520614 ], [ -81.882122991128014, 35.294755000307418 ], [ -81.884016990973919, 35.294439000504113 ], [ -81.886059991758188, 35.298451000259092 ], [ -81.885125990916478, 35.299798000185433 ], [ -81.885480991253317, 35.300600000217386 ], [ -81.887892990803849, 35.30370700025982 ], [ -81.892650990752472, 35.307496000636171 ], [ -81.892636991513513, 35.308715999949243 ], [ -81.894338990740295, 35.310893000275719 ], [ -81.898442991598969, 35.311817999893563 ], [ -81.900301990946474, 35.314069000302105 ], [ -81.901506991620465, 35.313003999952485 ], [ -81.907433990743598, 35.313526000481922 ], [ -81.909707990900372, 35.320998000489048 ], [ -81.919394991203433, 35.327668000308726 ], [ -81.921298991184784, 35.331830999959251 ], [ -81.919551991006855, 35.342067000332442 ], [ -81.905570990917724, 35.339777999873299 ], [ -81.904766991577318, 35.34078700038183 ], [ -81.905456991321259, 35.343114999903513 ], [ -81.90507399107176, 35.345198999989726 ], [ -81.910963991580047, 35.345199000408499 ], [ -81.910945990743613, 35.350504000575484 ], [ -81.906713990846555, 35.350411000412734 ], [ -81.905922991667467, 35.366843000551647 ], [ -81.900959991322225, 35.368721000434221 ], [ -81.899897990695493, 35.367574999793753 ], [ -81.898360991228657, 35.368635000326201 ], [ -81.898129991624586, 35.369776000301293 ], [ -81.900459990974127, 35.369948999870445 ], [ -81.902066991237561, 35.369075999918387 ], [ -81.907016991740065, 35.37809899987684 ], [ -81.903381991130232, 35.377372000502589 ], [ -81.902033991226915, 35.375447999995387 ], [ -81.899214990833642, 35.375409000387492 ], [ -81.897986991224712, 35.37682100019051 ], [ -81.89364499079737, 35.376028000041529 ], [ -81.892053991120832, 35.376989000126287 ], [ -81.892066991378655, 35.379089000056979 ], [ -81.889740991503317, 35.380376000150441 ], [ -81.888399991690065, 35.379745999822156 ], [ -81.887900991574995, 35.381068999984954 ], [ -81.882043991200632, 35.382658000181372 ], [ -81.877917991102493, 35.381710000567232 ], [ -81.871905991493932, 35.383638000554043 ], [ -81.866260990898624, 35.381672999801083 ], [ -81.865727990774914, 35.380782000578279 ], [ -81.876511991734858, 35.374161000373007 ], [ -81.868617991718352, 35.371531999946136 ], [ -81.861757991429059, 35.3662450004961 ], [ -81.860769991684165, 35.363275000045562 ], [ -81.862375991543843, 35.35709900056672 ], [ -81.860963991747909, 35.353020000005252 ], [ -81.865300991461652, 35.345779999758157 ], [ -81.871911990932773, 35.341826999857119 ], [ -81.874063990956415, 35.338834999837388 ], [ -81.868174991593349, 35.33463600062364 ], [ -81.870521991010932, 35.32845100036684 ], [ -81.872479991511597, 35.32570400040283 ], [ -81.879802990929889, 35.320644000286642 ], [ -81.881983991323622, 35.316874999772658 ], [ -81.885153991197242, 35.313497000403295 ], [ -81.882738991607681, 35.311971999767756 ], [ -81.880453991433242, 35.311760000335468 ] ] ] } },
{ "type": "Feature", "properties": { "county": "RUTHERFORD", "precinct": "14", "enr_desc": "Forest City  2", "winner": "Aaron Ellenburg", "winner_votes": 346, "winner_share": 80.278422273781899, "runner_up": "Jamie Dunn", "runner_up_votes": 71, "runner_up_share": 16.473317865429234, "contest_votes": 431, "margin_of_victory": 63.805104408352662, "is_tie": false, "results": [ { "candidate": "Aaron Ellenburg", "votes": 346, "share": 80.2784222737819 }, { "candidate": "Jamie Dunn", "votes": 71, "share": 16.473317865429234 }, { "candidate": "Jason Ray Wease", "votes": 14, "share": 3.248259860788863 } ], "participated": true, "map_key": "RUTHERFORD_14" }, "geometry": { "type": "Polygon", "coordinates": [ [ [ -81.880453991433242, 35.311760000335468 ], [ -81.882738991607681, 35.311971999767756 ], [ -81.885153991197242, 35.313497000403295 ], [ -81.881983991323622, 35.316874999772658 ], [ -81.879802990929889, 35.320644000286642 ], [ -81.872479991511597, 35.32570400040283 ], [ -81.870521991010932, 35.32845100036684 ], [ -81.868174991593349, 35.33463600062364 ], [ -81.874063990956415, 35.338834999837388 ], [ -81.871911990932773, 35.341826999857119 ], [ -81.865300991461652, 35.345779999758157 ], [ -81.860963991747909, 35.353020000005252 ], [ -81.862375991543843, 35.35709900056672 ], [ -81.860769991684165, 35.363275000045562 ], [ -81.861757991429059, 35.3662450004961 ], [ -81.868617991718352, 35.371531999946136 ], [ -81.876511991734858, 35.374161000373007 ], [ -81.865727990774914, 35.380782000578279 ], [ -81.864749990942471, 35.376816000040449 ], [ -81.859894991299683, 35.377223000354022 ], [ -81.858570991489231, 35.374974000451346 ], [ -81.85199499108397, 35.369175000502409 ], [ -81.85542999073715, 35.364381000645444 ], [ -81.855934991281345, 35.36191200062742 ], [ -81.857481991103839, 35.360834000507424 ], [ -81.857626991250783, 35.359334000318562 ], [ -81.856120991187822, 35.358501000512881 ], [ -81.855071990842973, 35.356423000521467 ], [ -81.845750990950123, 35.354647000397954 ], [ -81.846591990756664, 35.350375999956654 ], [ -81.848265990924943, 35.348768000439186 ], [ -81.844009991692715, 35.348330000498585 ], [ -81.846709991692805, 35.344680000138744 ], [ -81.846363990903683, 35.340518999943178 ], [ -81.844969991063053, 35.339808000000509 ], [ -81.839783991756249, 35.339940000544892 ], [ -81.83843499152033, 35.337790000134952 ], [ -81.84025999160751, 35.334979000484473 ], [ -81.839642990981559, 35.333644000450541 ], [ -81.832761991320098, 35.332750000303548 ], [ -81.832088991153483, 35.32947300062925 ], [ -81.827427991778521, 35.32196600036675 ], [ -81.827461990868869, 35.319620999909013 ], [ -81.823120990728299, 35.320758000223016 ], [ -81.818979991279221, 35.316498000266158 ], [ -81.814920991251569, 35.317091000533154 ], [ -81.813839991155646, 35.315911999829098 ], [ -81.81135399115648, 35.315285000590691 ], [ -81.81063299094464, 35.313861000190151 ], [ -81.811176990818836, 35.310710000064951 ], [ -81.809596991565428, 35.310518999882092 ], [ -81.807749991588196, 35.311816000286932 ], [ -81.807710991677624, 35.312928000121232 ], [ -81.806793990814384, 35.31303400000192 ], [ -81.806358991785004, 35.308534000425084 ], [ -81.816144990675085, 35.306676999853437 ], [ -81.827608990716698, 35.300785000567139 ], [ -81.829292991211105, 35.302141000476915 ], [ -81.831950990854338, 35.306550999906818 ], [ -81.833936991173758, 35.307572000203898 ], [ -81.836249991348552, 35.306493000585796 ], [ -81.840243991149507, 35.306537000282525 ], [ -81.845995991228989, 35.311174000424842 ], [ -81.848514990703919, 35.311970000133805 ], [ -81.847290990721788, 35.315571000355625 ], [ -81.856802991666669, 35.315662000531127 ], [ -81.880453991433242, 35.311760000335468 ] ] ] } },
{ "type": "Feature", "properties": { "county": "RUTHERFORD", "precinct": "16A", "enr_desc": "Gilkey-Morgan", "winner": "Aaron Ellenburg", "winner_votes": 640, "winner_share": 86.956521739130437, "runner_up": "Jamie Dunn", "runner_up_votes": 84, "runner_up_share": 11.413043478260869, "contest_votes": 736, "margin_of_victory": 75.543478260869563, "is_tie": false, "results": [ { "candidate": "Aaron Ellenburg", "votes": 640, "share": 86.95652173913044 }, { "candidate": "Jamie Dunn", "votes": 84, "share": 11.41304347826087 }, { "candidate": "Jason Ray Wease", "votes": 12, "share": 1.6304347826086956 } ], "participated": true, "map_key": "RUTHERFORD_16A" }, "geometry": { "type": "Polygon", "coordinates": [ [ [ -82.105588990707048, 35.456922000207257 ], [ -82.108458991398649, 35.460696000539954 ], [ -82.112106991239557, 35.462535000043516 ], [ -82.110490991748733, 35.465515000375774 ], [ -82.106525991235344, 35.467482000337014 ], [ -82.106029990689308, 35.468419999969349 ], [ -82.106492991098634, 35.470903000018353 ], [ -82.109525990780639, 35.474214000547256 ], [ -82.104656991400944, 35.475933000637554 ], [ -82.105446990939456, 35.477411000341746 ], [ -82.105005991038311, 35.478167000641172 ], [ -82.10277499113829, 35.478090000027294 ], [ -82.103478991641069, 35.479226000454112 ], [ -82.10851799100017, 35.481931000670087 ], [ -82.107874990737727, 35.485587999980353 ], [ -82.112421990726702, 35.487848999821658 ], [ -82.113116991730777, 35.486344000528192 ], [ -82.114614991035396, 35.486047000516699 ], [ -82.115669991375299, 35.486481000227421 ], [ -82.11500599176135, 35.487514000165163 ], [ -82.115583991177331, 35.487987000580006 ], [ -82.119171990861375, 35.487518000611097 ], [ -82.120294991555625, 35.488121999910767 ], [ -82.121411991339059, 35.490490000593645 ], [ -82.12128699106114, 35.493430999823993 ], [ -82.12272099119393, 35.496634000178439 ], [ -82.129276990902525, 35.501312000613332 ], [ -82.130061991083593, 35.502872999835631 ], [ -82.135115990939838, 35.503112000565608 ], [ -82.138718990929803, 35.502042000515523 ], [ -82.139956991063499, 35.500618999914458 ], [ -82.142745991382085, 35.500212999996968 ], [ -82.153208990897838, 35.503723000190952 ], [ -82.152804991173539, 35.50583100033019 ], [ -82.155492991479932, 35.520643000495518 ], [ -82.150537991266916, 35.518002000419415 ], [ -82.095765991478729, 35.53166600029418 ], [ -82.082620990765221, 35.533400999983492 ], [ -82.039842990864372, 35.532704000346769 ], [ -82.024499990734284, 35.537361000562981 ], [ -82.022131990930347, 35.537320999857521 ], [ -82.019675991069008, 35.54153699979409 ], [ -82.016252991223126, 35.542909000380803 ], [ -82.01299499085296, 35.547706000391777 ], [ -82.005642991528461, 35.549775000536812 ], [ -82.002782991545757, 35.551847000242113 ], [ -81.999396990730574, 35.549450000668969 ], [ -81.997289990863919, 35.546630000110042 ], [ -82.017820990813817, 35.5265840003119 ], [ -82.015483991437961, 35.521713000249015 ], [ -82.008588991402277, 35.51685200011346 ], [ -82.00688899160167, 35.516488000040717 ], [ -82.004933991490987, 35.51395900048405 ], [ -82.00098299093743, 35.511759000600136 ], [ -82.001004991076826, 35.508003000568465 ], [ -81.998872991332689, 35.507091000561005 ], [ -81.997236990803103, 35.504960000134247 ], [ -81.99677799161654, 35.50121100024392 ], [ -81.997805991511854, 35.499177000056122 ], [ -81.997354990687612, 35.497687000039448 ], [ -81.996077991297042, 35.497007000451966 ], [ -81.992898990970062, 35.487720000628165 ], [ -81.993253991700939, 35.486064999984393 ], [ -81.996026990963998, 35.483310000511146 ], [ -81.997463991189164, 35.480571999952097 ], [ -81.997930991119375, 35.477652999991086 ], [ -81.995381991141173, 35.473884000641767 ], [ -81.994450991744088, 35.468806000412762 ], [ -81.991285991033607, 35.466532000201141 ], [ -81.988060991061005, 35.466879999854072 ], [ -81.986700990930501, 35.46160300065872 ], [ -81.98496699130051, 35.461632000454841 ], [ -81.981460990741155, 35.459741999850955 ], [ -81.965705991685866, 35.458967000210251 ], [ -81.94758199155315, 35.450876000328435 ], [ -81.937159990854937, 35.444237999976302 ], [ -81.92797499073518, 35.43723200022206 ], [ -81.923896991306876, 35.435640000376075 ], [ -81.919850990747079, 35.431976000545298 ], [ -81.94199999127278, 35.419824000268434 ], [ -81.939463990865363, 35.417020000513126 ], [ -81.938309991483123, 35.413289000491361 ], [ -81.938965991516326, 35.41123000059401 ], [ -81.940660991145094, 35.409951000653173 ], [ -81.944616991051205, 35.41237700048142 ], [ -81.966111990835969, 35.412736000332501 ], [ -81.969109991648693, 35.410304999880935 ], [ -81.969098990915867, 35.40770500009431 ], [ -81.979731991192409, 35.400327000495736 ], [ -81.983559991005805, 35.405144000076035 ], [ -81.984318991473302, 35.403239000428243 ], [ -81.988782990928584, 35.403744999833563 ], [ -82.017551991080921, 35.403750000106264 ], [ -82.018432991352526, 35.410388000659154 ], [ -82.017827990947936, 35.422637999829682 ], [ -82.0199379912777, 35.430510000337648 ], [ -82.023555991538174, 35.432986999975 ], [ -82.033611991465094, 35.434159999915153 ], [ -82.040927991201073, 35.455072000252635 ], [ -82.063286991502949, 35.444118000262108 ], [ -82.067548990693012, 35.451084000376667 ], [ -82.067999991395283, 35.453250000249803 ], [ -82.071250990692334, 35.457556999888325 ], [ -82.076741991348314, 35.460663000382667 ], [ -82.082119991293482, 35.467231999798202 ], [ -82.09147099124759, 35.47117900050192 ], [ -82.090269991552859, 35.468906000378695 ], [ -82.091270991648869, 35.467616000075964 ], [ -82.092962991112515, 35.467455000013075 ], [ -82.095236990662428, 35.469024999943514 ], [ -82.096429991612467, 35.468155000067476 ], [ -82.097816991242794, 35.468679999878724 ], [ -82.100594991175342, 35.465541000201995 ], [ -82.102256990797855, 35.465052000437638 ], [ -82.102382991040059, 35.460443000384608 ], [ -82.103373990808137, 35.458465999912399 ], [ -82.105588990707048, 35.456922000207257 ] ] ] } },
{ "type": "Feature", "properties": { "county": "RUTHERFORD", "precinct": "18", "enr_desc": "Green Hill", "winner": "Aaron Ellenburg", "winner_votes": 429, "winner_share": 81.870229007633583, "runner_up": "Jamie Dunn", "runner_up_votes": 76, "runner_up_share": 14.503816793893129, "contest_votes": 524, "margin_of_victory": 67.36641221374046, "is_tie": false, "results": [ { "candidate": "Aaron Ellenburg", "votes": 429, "share": 81.87022900763358 }, { "candidate": "Jamie Dunn", "votes": 76, "share": 14.50381679389313 }, { "candidate": "Jason Ray Wease", "votes": 19, "share": 3.6259541984732824 } ], "participated": true, "map_key": "RUTHERFORD_18" }, "geometry": { "type": "Polygon", "coordinates": [ [ [ -82.115166990874002, 35.387361000615094 ], [ -82.114371990969403, 35.389258000438645 ], [ -82.101741990905296, 35.401730000198441 ], [ -82.105881991174286, 35.409821000148703 ], [ -82.108474991316257, 35.412926999815042 ], [ -82.108508991609909, 35.415693000286971 ], [ -82.110766990976131, 35.419949000580807 ], [ -82.111164991035906, 35.423742000466568 ], [ -82.113262991328455, 35.423840000087743 ], [ -82.116392991696728, 35.427353000464493 ], [ -82.120910990931236, 35.427454000624486 ], [ -82.119629990704894, 35.429795000475885 ], [ -82.120617991656403, 35.432007000048557 ], [ -82.120255991513233, 35.432632000087203 ], [ -82.118118990870911, 35.432650000150602 ], [ -82.113545990726408, 35.429906000029831 ], [ -82.109441991657548, 35.432202000385871 ], [ -82.111499991432382, 35.435190000483296 ], [ -82.111178991729389, 35.43768099989363 ], [ -82.109501991754058, 35.438954000062722 ], [ -82.108519991314211, 35.441791000359899 ], [ -82.111684990720576, 35.444242000524127 ], [ -82.114728991732676, 35.442833000351101 ], [ -82.115075991363497, 35.443542000128268 ], [ -82.114144991446395, 35.446267000435554 ], [ -82.112109991575281, 35.447074000233485 ], [ -82.111960991160217, 35.449115000423319 ], [ -82.109139990775603, 35.454705000041173 ], [ -82.108247991597253, 35.455900000391843 ], [ -82.105588990707048, 35.456922000207257 ], [ -82.103373990808137, 35.458465999912399 ], [ -82.102382991040059, 35.460443000384608 ], [ -82.102256990797855, 35.465052000437638 ], [ -82.100594991175342, 35.465541000201995 ], [ -82.097816991242794, 35.468679999878724 ], [ -82.096429991612467, 35.468155000067476 ], [ -82.095236990662428, 35.469024999943514 ], [ -82.092962991112515, 35.467455000013075 ], [ -82.091270991648869, 35.467616000075964 ], [ -82.090269991552859, 35.468906000378695 ], [ -82.09147099124759, 35.47117900050192 ], [ -82.082119991293482, 35.467231999798202 ], [ -82.076741991348314, 35.460663000382667 ], [ -82.071250990692334, 35.457556999888325 ], [ -82.067999991395283, 35.453250000249803 ], [ -82.067548990693012, 35.451084000376667 ], [ -82.063286991502949, 35.444118000262108 ], [ -82.040927991201073, 35.455072000252635 ], [ -82.033611991465094, 35.434159999915153 ], [ -82.023555991538174, 35.432986999975 ], [ -82.0199379912777, 35.430510000337648 ], [ -82.017827990947936, 35.422637999829682 ], [ -82.018432991352526, 35.410388000659154 ], [ -82.017551991080921, 35.403750000106264 ], [ -81.988782990928584, 35.403744999833563 ], [ -81.986159991081294, 35.399423000472929 ], [ -81.981083991691875, 35.398854000070905 ], [ -81.984782990772985, 35.396659999967646 ], [ -81.986066991404641, 35.393768000034093 ], [ -81.99145699082105, 35.393414999871517 ], [ -81.997802991567156, 35.389732000341887 ], [ -81.996874991722038, 35.388743000549965 ], [ -81.999179990861521, 35.386169000497524 ], [ -81.999103991228864, 35.382714000575788 ], [ -82.001168991681013, 35.381845000158187 ], [ -82.00194899145977, 35.379988000112903 ], [ -81.997095990844329, 35.375924000439234 ], [ -81.99730599138735, 35.372339000035844 ], [ -81.996018991417742, 35.37279000045281 ], [ -81.994282991235863, 35.371567000198425 ], [ -81.996664991345114, 35.369721000324965 ], [ -82.005952991285298, 35.370508000125291 ], [ -82.006316990874211, 35.369540000515165 ], [ -82.005430991524392, 35.367876000245751 ], [ -82.004670991600065, 35.368083000049722 ], [ -82.005772990768804, 35.365268000388205 ], [ -81.999766991285455, 35.36213100014232 ], [ -82.000701991163325, 35.357935000347183 ], [ -82.003077991503346, 35.357547000343772 ], [ -82.003474991061935, 35.354550000123218 ], [ -82.008047990787901, 35.355213000474841 ], [ -82.008305991072675, 35.354307000099922 ], [ -82.005639990810536, 35.353060000277722 ], [ -82.011331991160972, 35.340774000378062 ], [ -82.013912991183943, 35.338865999847826 ], [ -82.014102991288283, 35.336733000146609 ], [ -82.021460991414841, 35.330108000387661 ], [ -82.024173991630704, 35.330709000066683 ], [ -82.026217991249069, 35.329087000335065 ], [ -82.028504991104739, 35.328770000064189 ], [ -82.02860099105952, 35.327517000043414 ], [ -82.027505990692816, 35.325905000399032 ], [ -82.02520699134682, 35.325233999845715 ], [ -82.025063991350763, 35.323085000114624 ], [ -82.024184990719704, 35.322256999977036 ], [ -82.025058990872921, 35.32025700009207 ], [ -82.028534991517034, 35.318362000212169 ], [ -82.03806699099998, 35.318151999891235 ], [ -82.040437991395549, 35.317180000172733 ], [ -82.04381799139685, 35.320834000497044 ], [ -82.045817991599804, 35.320540999902988 ], [ -82.046705991042217, 35.321251000374005 ], [ -82.0482119906859, 35.325386999889666 ], [ -82.0472019909663, 35.327459000065048 ], [ -82.051423991519314, 35.32909300004404 ], [ -82.053983990988897, 35.335425000453284 ], [ -82.058559991449584, 35.337084000604257 ], [ -82.061476990665611, 35.334813999835838 ], [ -82.064441991304477, 35.334462000618366 ], [ -82.067968991391211, 35.339219000214555 ], [ -82.070940991455046, 35.338144000385192 ], [ -82.076219991565424, 35.341156000472836 ], [ -82.07961899146413, 35.346642000232777 ], [ -82.079661991729239, 35.352977999869374 ], [ -82.081185991353308, 35.353671000343304 ], [ -82.084785991505854, 35.353304000145926 ], [ -82.088318991054223, 35.355289000153789 ], [ -82.088545991329354, 35.358903000089079 ], [ -82.090832990865664, 35.360274000554533 ], [ -82.097127991004996, 35.369837999958762 ], [ -82.098694991522493, 35.370594000025996 ], [ -82.10028699107977, 35.369769000077738 ], [ -82.102056991266423, 35.366209000245405 ], [ -82.105243990794094, 35.367214000241795 ], [ -82.10589799128725, 35.36807999992304 ], [ -82.106246990888678, 35.37485000055527 ], [ -82.108078990922635, 35.377665000644477 ], [ -82.107669991377392, 35.381114999890272 ], [ -82.109489991562825, 35.383366999770118 ], [ -82.114125990855939, 35.385548000251319 ], [ -82.115166990874002, 35.387361000615094 ] ] ] } },
{ "type": "Feature", "properties": { "county": "RUTHERFORD", "precinct": "19", "enr_desc": "Haynes", "winner": "Aaron Ellenburg", "winner_votes": 280, "winner_share": 73.878627968337724, "runner_up": "Jamie Dunn", "runner_up_votes": 80, "runner_up_share": 21.108179419525065, "contest_votes": 379, "margin_of_victory": 52.770448548812659, "is_tie": false, "results": [ { "candidate": "Aaron Ellenburg", "votes": 280, "share": 73.87862796833772 }, { "candidate": "Jamie Dunn", "votes": 80, "share": 21.108179419525065 }, { "candidate": "Jason Ray Wease", "votes": 19, "share": 5.013192612137203 } ], "participated": true, "map_key": "RUTHERFORD_19" }, "geometry": { "type": "Polygon", "coordinates": [ [ [ -81.840534991046866, 35.205706000194866 ], [ -81.842004990933958, 35.206987000041458 ], [ -81.840853991706609, 35.208257000583856 ], [ -81.842086991003796, 35.20974700051655 ], [ -81.846158991593995, 35.210020000174147 ], [ -81.847088990736879, 35.208607000616261 ], [ -81.84783899161161, 35.208766000354849 ], [ -81.848128991556976, 35.213108999952553 ], [ -81.845798991063148, 35.213905999994118 ], [ -81.849129990712171, 35.218038999929682 ], [ -81.853442991619048, 35.218345000609773 ], [ -81.859773990764154, 35.220711000267585 ], [ -81.862839991014894, 35.218704000175151 ], [ -81.865259991422334, 35.221241999953143 ], [ -81.865322991656328, 35.22487000011099 ], [ -81.867004990847448, 35.226457000618197 ], [ -81.866048990854196, 35.228491000353287 ], [ -81.866592990988963, 35.23124500031323 ], [ -81.864650991125842, 35.232443999797873 ], [ -81.864651990724283, 35.233505000569146 ], [ -81.868050990774137, 35.236371999806181 ], [ -81.868812991615926, 35.243016999866491 ], [ -81.866650990858389, 35.250117000160543 ], [ -81.865672991772826, 35.250283000019017 ], [ -81.863530991392821, 35.252746000517071 ], [ -81.863002991337666, 35.256165000162262 ], [ -81.863486991394268, 35.25767100037146 ], [ -81.868186991023293, 35.262269999849863 ], [ -81.868283991238286, 35.265815000521961 ], [ -81.871519991688729, 35.266378999800935 ], [ -81.874824990957777, 35.275854000134736 ], [ -81.877094990708827, 35.276902000208374 ], [ -81.87484799119683, 35.278078000495569 ], [ -81.869767991282302, 35.278406000646847 ], [ -81.857278991053036, 35.275126000657814 ], [ -81.843389991168507, 35.273658000396495 ], [ -81.831356990875207, 35.274509999971151 ], [ -81.820145990692083, 35.264423000075496 ], [ -81.813869991324211, 35.262872999919118 ], [ -81.804029991428806, 35.262775999901905 ], [ -81.803571991105557, 35.261058999790208 ], [ -81.799000990752532, 35.259044000409553 ], [ -81.79756399110552, 35.257422000224167 ], [ -81.795874991240964, 35.258640000128793 ], [ -81.795143991554113, 35.2552580004308 ], [ -81.792603991634863, 35.251022000085001 ], [ -81.7929189914624, 35.249796000318682 ], [ -81.795383991660756, 35.247675999947802 ], [ -81.795138991113006, 35.241857000119737 ], [ -81.794026990783109, 35.239084000582764 ], [ -81.787312991134698, 35.236026000302338 ], [ -81.781283991418221, 35.230024000483844 ], [ -81.774275991647897, 35.224804000558294 ], [ -81.780378991789888, 35.220316000564345 ], [ -81.780424991705047, 35.218453000192461 ], [ -81.778803990713755, 35.216277999771208 ], [ -81.781201991343224, 35.215910999931722 ], [ -81.784668990809436, 35.216990999808438 ], [ -81.794240991428453, 35.215031000528249 ], [ -81.799868991760476, 35.209454000429204 ], [ -81.801465991196437, 35.209535000107742 ], [ -81.805547991471812, 35.21335600010368 ], [ -81.808062991363542, 35.213805999783609 ], [ -81.810993990711651, 35.211306000230181 ], [ -81.815530991721019, 35.209326000531469 ], [ -81.81903799151327, 35.204691000340794 ], [ -81.830525991136241, 35.208686999841248 ], [ -81.837292991103382, 35.20603600041818 ], [ -81.840534991046866, 35.205706000194866 ] ] ] } },
{ "type": "Feature", "properties": { "county": "RUTHERFORD", "precinct": "27", "enr_desc": "Rutherfordton  1", "winner": "Aaron Ellenburg", "winner_votes": 685, "winner_share": 86.818757921419518, "runner_up": "Jamie Dunn", "runner_up_votes": 74, "runner_up_share": 9.3789607097591894, "contest_votes": 789, "margin_of_victory": 77.439797211660334, "is_tie": false, "results": [ { "candidate": "Aaron Ellenburg", "votes": 685, "share": 86.81875792141952 }, { "candidate": "Jamie Dunn", "votes": 74, "share": 9.37896070975919 }, { "candidate": "Jason Ray Wease", "votes": 30, "share": 3.802281368821293 } ], "participated": true, "map_key": "RUTHERFORD_27" }, "geometry": { "type": "Polygon", "coordinates": [ [ [ -82.005639990810536, 35.353060000277722 ], [ -82.008305991072675, 35.354307000099922 ], [ -82.008047990787901, 35.355213000474841 ], [ -82.003474991061935, 35.354550000123218 ], [ -82.003077991503346, 35.357547000343772 ], [ -82.000701991163325, 35.357935000347183 ], [ -81.999766991285455, 35.36213100014232 ], [ -82.005772990768804, 35.365268000388205 ], [ -82.004670991600065, 35.368083000049722 ], [ -82.005430991524392, 35.367876000245751 ], [ -82.006316990874211, 35.369540000515165 ], [ -82.005952991285298, 35.370508000125291 ], [ -81.996664991345114, 35.369721000324965 ], [ -81.994282991235863, 35.371567000198425 ], [ -81.996018991417742, 35.37279000045281 ], [ -81.99730599138735, 35.372339000035844 ], [ -81.997095990844329, 35.375924000439234 ], [ -82.00194899145977, 35.379988000112903 ], [ -82.001168991681013, 35.381845000158187 ], [ -81.999103991228864, 35.382714000575788 ], [ -81.999179990861521, 35.386169000497524 ], [ -81.996874991722038, 35.388743000549965 ], [ -81.997802991567156, 35.389732000341887 ], [ -81.99145699082105, 35.393414999871517 ], [ -81.986066991404641, 35.393768000034093 ], [ -81.984782990772985, 35.396659999967646 ], [ -81.981083991691875, 35.398854000070905 ], [ -81.986159991081294, 35.399423000472929 ], [ -81.988782990928584, 35.403744999833563 ], [ -81.984318991473302, 35.403239000428243 ], [ -81.983559991005805, 35.405144000076035 ], [ -81.979731991192409, 35.400327000495736 ], [ -81.969098990915867, 35.40770500009431 ], [ -81.967168991722502, 35.404557999985485 ], [ -81.959242991215945, 35.397840000291019 ], [ -81.952721990965657, 35.389931000460187 ], [ -81.955061990751673, 35.383191999961653 ], [ -81.956636991398327, 35.382497000388298 ], [ -81.955788991299897, 35.372998000058693 ], [ -81.963352990950597, 35.345674000018832 ], [ -81.962898991070688, 35.340648000424551 ], [ -81.958194991324319, 35.331936000510467 ], [ -81.955240991342023, 35.329735000496626 ], [ -81.951204991540706, 35.328201000123265 ], [ -81.985840991406874, 35.338725000332104 ], [ -81.9854069909033, 35.339420000221189 ], [ -81.987484991050437, 35.344924000476752 ], [ -81.987131991419986, 35.347902000570933 ], [ -81.994449990819248, 35.351017999852544 ], [ -81.999124991631533, 35.349312000023168 ], [ -82.002042991588837, 35.349107999995262 ], [ -82.002988991249907, 35.352509000081781 ], [ -82.005639990810536, 35.353060000277722 ] ] ] } },
{ "type": "Feature", "properties": { "county": "RUTHERFORD", "precinct": "29", "enr_desc": "Sandy Mush", "winner": "Aaron Ellenburg", "winner_votes": 296, "winner_share": 76.883116883116884, "runner_up": "Jamie Dunn", "runner_up_votes": 77, "runner_up_share": 20.0, "contest_votes": 385, "margin_of_victory": 56.883116883116884, "is_tie": false, "results": [ { "candidate": "Aaron Ellenburg", "votes": 296, "share": 76.88311688311688 }, { "candidate": "Jamie Dunn", "votes": 77, "share": 20.0 }, { "candidate": "Jason Ray Wease", "votes": 12, "share": 3.116883116883117 } ], "participated": true, "map_key": "RUTHERFORD_29" }, "geometry": { "type": "Polygon", "coordinates": [ [ [ -81.831356990875207, 35.274509999971151 ], [ -81.843389991168507, 35.273658000396495 ], [ -81.857278991053036, 35.275126000657814 ], [ -81.869767991282302, 35.278406000646847 ], [ -81.87484799119683, 35.278078000495569 ], [ -81.877094990708827, 35.276902000208374 ], [ -81.878243991208905, 35.277527999766015 ], [ -81.876029991518635, 35.279703999796652 ], [ -81.875262991037246, 35.283479000587384 ], [ -81.875710991402897, 35.285651000264025 ], [ -81.874652991243593, 35.286765000585532 ], [ -81.877120991637184, 35.290663999878177 ], [ -81.880350991222599, 35.29265599977537 ], [ -81.883233990722871, 35.292239000065621 ], [ -81.884016990973919, 35.294439000504113 ], [ -81.882122991128014, 35.294755000307418 ], [ -81.879464991118667, 35.296670000520614 ], [ -81.878942991672943, 35.301770000449963 ], [ -81.875935991445715, 35.303108999973112 ], [ -81.878875991025566, 35.307586999778707 ], [ -81.880453991433242, 35.311760000335468 ], [ -81.856802991666669, 35.315662000531127 ], [ -81.847290990721788, 35.315571000355625 ], [ -81.848514990703919, 35.311970000133805 ], [ -81.845995991228989, 35.311174000424842 ], [ -81.840243991149507, 35.306537000282525 ], [ -81.836249991348552, 35.306493000585796 ], [ -81.833936991173758, 35.307572000203898 ], [ -81.831950990854338, 35.306550999906818 ], [ -81.829292991211105, 35.302141000476915 ], [ -81.827608990716698, 35.300785000567139 ], [ -81.816144990675085, 35.306676999853437 ], [ -81.806358991785004, 35.308534000425084 ], [ -81.806575990855578, 35.305447999934124 ], [ -81.820681991383921, 35.290962000500194 ], [ -81.819792991767784, 35.281729999943913 ], [ -81.824747991050373, 35.280463000207476 ], [ -81.831356990875207, 35.274509999971151 ] ] ] } },
{ "type": "Feature", "properties": { "county": "RUTHERFORD", "precinct": "28", "enr_desc": "Rutherfordton  2", "winner": "Aaron Ellenburg", "winner_votes": 324, "winner_share": 89.502762430939228, "runner_up": "Jamie Dunn", "runner_up_votes": 28, "runner_up_share": 7.7348066298342539, "contest_votes": 362, "margin_of_victory": 81.767955801104975, "is_tie": false, "results": [ { "candidate": "Aaron Ellenburg", "votes": 324, "share": 89.50276243093923 }, { "candidate": "Jamie Dunn", "votes": 28, "share": 7.734806629834254 }, { "candidate": "Jason Ray Wease", "votes": 10, "share": 2.7624309392265194 } ], "participated": true, "map_key": "RUTHERFORD_28" }, "geometry": { "type": "Polygon", "coordinates": [ [ [ -81.962898991070688, 35.340648000424551 ], [ -81.963352990950597, 35.345674000018832 ], [ -81.955788991299897, 35.372998000058693 ], [ -81.956636991398327, 35.382497000388298 ], [ -81.955061990751673, 35.383191999961653 ], [ -81.952721990965657, 35.389931000460187 ], [ -81.959242991215945, 35.397840000291019 ], [ -81.967168991722502, 35.404557999985485 ], [ -81.969098990915867, 35.40770500009431 ], [ -81.969109991648693, 35.410304999880935 ], [ -81.966111990835969, 35.412736000332501 ], [ -81.944616991051205, 35.41237700048142 ], [ -81.940660991145094, 35.409951000653173 ], [ -81.936747991651899, 35.405403000448423 ], [ -81.930779991705649, 35.401830000044832 ], [ -81.929417990806343, 35.399587000081851 ], [ -81.926054991726701, 35.396630000079654 ], [ -81.923537991691973, 35.397185000307317 ], [ -81.921504991214718, 35.395430999880062 ], [ -81.920074991204146, 35.395623999772546 ], [ -81.91913499146429, 35.397091000282352 ], [ -81.916435991024827, 35.397750000118528 ], [ -81.915536991039374, 35.395040000076939 ], [ -81.916396991311032, 35.393330999935181 ], [ -81.913517990769705, 35.391726000511113 ], [ -81.911773991506379, 35.389218999910696 ], [ -81.910846991017053, 35.389987999997622 ], [ -81.909369990904366, 35.38940000049115 ], [ -81.906752991672036, 35.390279000272564 ], [ -81.905631991240341, 35.389113000605441 ], [ -81.906723990810491, 35.386732999959591 ], [ -81.902628991492307, 35.384992000396664 ], [ -81.887396991086348, 35.383398999775672 ], [ -81.887900991574995, 35.381068999984954 ], [ -81.888399991690065, 35.379745999822156 ], [ -81.889740991503317, 35.380376000150441 ], [ -81.892066991378655, 35.379089000056979 ], [ -81.892053991120832, 35.376989000126287 ], [ -81.89364499079737, 35.376028000041529 ], [ -81.897986991224712, 35.37682100019051 ], [ -81.899214990833642, 35.375409000387492 ], [ -81.902033991226915, 35.375447999995387 ], [ -81.903381991130232, 35.377372000502589 ], [ -81.907016991740065, 35.37809899987684 ], [ -81.910286991075338, 35.378473000607819 ], [ -81.911259991018341, 35.380357999908121 ], [ -81.912803990938912, 35.379946000646882 ], [ -81.913259991021476, 35.378611000209879 ], [ -81.917131990772191, 35.379650999933574 ], [ -81.91710499137983, 35.3818299997642 ], [ -81.920598990985539, 35.384094999908427 ], [ -81.923600991221804, 35.383532000490717 ], [ -81.926943991130571, 35.378781000628599 ], [ -81.930214991726288, 35.379394999845807 ], [ -81.931860991193773, 35.381505000490918 ], [ -81.933260991078782, 35.380435999835136 ], [ -81.932587991159792, 35.379086000277404 ], [ -81.933415991124619, 35.378715000425053 ], [ -81.933189991554542, 35.377839000392804 ], [ -81.92888799108843, 35.377043000610101 ], [ -81.930983991168063, 35.376237999957631 ], [ -81.93249999176922, 35.373977000286608 ], [ -81.94158999175454, 35.374677000123818 ], [ -81.942136990771502, 35.365600000591044 ], [ -81.939917991512587, 35.362951999886761 ], [ -81.941420991352643, 35.360657000046686 ], [ -81.94257899156959, 35.361161000488387 ], [ -81.944003991262122, 35.357378000349755 ], [ -81.943744991051361, 35.354694000298672 ], [ -81.945250991528468, 35.353323000162789 ], [ -81.946065991383549, 35.351009000582103 ], [ -81.949753991122847, 35.347527999833218 ], [ -81.948857991528172, 35.34560300014769 ], [ -81.946507991127902, 35.346147000219062 ], [ -81.949285991637808, 35.345094999786724 ], [ -81.952674990690994, 35.342382000308028 ], [ -81.952061990995702, 35.341417999871311 ], [ -81.954752990941373, 35.336640999948138 ], [ -81.958552991403778, 35.334556000148538 ], [ -81.95828399146383, 35.336709000505273 ], [ -81.956400991641573, 35.339635000504053 ], [ -81.961636991573357, 35.341143999921769 ], [ -81.962898991070688, 35.340648000424551 ] ] ] } },
{ "type": "Feature", "properties": { "county": "RUTHERFORD", "precinct": "30", "enr_desc": "Spindale", "winner": "Aaron Ellenburg", "winner_votes": 380, "winner_share": 78.028747433264883, "runner_up": "Jamie Dunn", "runner_up_votes": 76, "runner_up_share": 15.605749486652979, "contest_votes": 487, "margin_of_victory": 62.4229979466119, "is_tie": false, "results": [ { "candidate": "Aaron Ellenburg", "votes": 380, "share": 78.02874743326488 }, { "candidate": "Jamie Dunn", "votes": 76, "share": 15.605749486652979 }, { "candidate": "Jason Ray Wease", "votes": 31, "share": 6.365503080082135 } ], "participated": true, "map_key": "RUTHERFORD_30" }, "geometry": { "type": "Polygon", "coordinates": [ [ [ -81.907433990743598, 35.313526000481922 ], [ -81.907139990687782, 35.310855999984923 ], [ -81.908035991108605, 35.30615100056238 ], [ -81.908770990905268, 35.306142000079838 ], [ -81.909099991477547, 35.304785000565296 ], [ -81.911399991419231, 35.304950000381254 ], [ -81.913497991108329, 35.305989000618624 ], [ -81.913000991598324, 35.307479000013643 ], [ -81.913871991730147, 35.311118000520246 ], [ -81.913200990793953, 35.312783000077815 ], [ -81.913850990766619, 35.314086000448199 ], [ -81.921702991725439, 35.315642000334968 ], [ -81.923579991648353, 35.318388000638102 ], [ -81.927484991351008, 35.319438000056778 ], [ -81.929374991306915, 35.321419000304495 ], [ -81.935020990691058, 35.323232999961668 ], [ -81.937880991025821, 35.324702000613456 ], [ -81.951204991540706, 35.328201000123265 ], [ -81.955240991342023, 35.329735000496626 ], [ -81.958194991324319, 35.331936000510467 ], [ -81.962898991070688, 35.340648000424551 ], [ -81.961636991573357, 35.341143999921769 ], [ -81.956400991641573, 35.339635000504053 ], [ -81.95828399146383, 35.336709000505273 ], [ -81.958552991403778, 35.334556000148538 ], [ -81.954752990941373, 35.336640999948138 ], [ -81.952061990995702, 35.341417999871311 ], [ -81.952674990690994, 35.342382000308028 ], [ -81.949285991637808, 35.345094999786724 ], [ -81.946507991127902, 35.346147000219062 ], [ -81.948857991528172, 35.34560300014769 ], [ -81.949753991122847, 35.347527999833218 ], [ -81.946065991383549, 35.351009000582103 ], [ -81.945250991528468, 35.353323000162789 ], [ -81.943744991051361, 35.354694000298672 ], [ -81.944003991262122, 35.357378000349755 ], [ -81.94257899156959, 35.361161000488387 ], [ -81.941420991352643, 35.360657000046686 ], [ -81.939917991512587, 35.362951999886761 ], [ -81.942136990771502, 35.365600000591044 ], [ -81.94158999175454, 35.374677000123818 ], [ -81.93249999176922, 35.373977000286608 ], [ -81.930983991168063, 35.376237999957631 ], [ -81.92888799108843, 35.377043000610101 ], [ -81.933189991554542, 35.377839000392804 ], [ -81.933415991124619, 35.378715000425053 ], [ -81.932587991159792, 35.379086000277404 ], [ -81.933260991078782, 35.380435999835136 ], [ -81.931860991193773, 35.381505000490918 ], [ -81.930214991726288, 35.379394999845807 ], [ -81.926943991130571, 35.378781000628599 ], [ -81.923600991221804, 35.383532000490717 ], [ -81.920598990985539, 35.384094999908427 ], [ -81.91710499137983, 35.3818299997642 ], [ -81.917131990772191, 35.379650999933574 ], [ -81.913259991021476, 35.378611000209879 ], [ -81.912803990938912, 35.379946000646882 ], [ -81.911259991018341, 35.380357999908121 ], [ -81.910286991075338, 35.378473000607819 ], [ -81.907016991740065, 35.37809899987684 ], [ -81.902066991237561, 35.369075999918387 ], [ -81.900459990974127, 35.369948999870445 ], [ -81.898129991624586, 35.369776000301293 ], [ -81.898360991228657, 35.368635000326201 ], [ -81.899897990695493, 35.367574999793753 ], [ -81.900959991322225, 35.368721000434221 ], [ -81.905922991667467, 35.366843000551647 ], [ -81.906713990846555, 35.350411000412734 ], [ -81.910945990743613, 35.350504000575484 ], [ -81.910963991580047, 35.345199000408499 ], [ -81.90507399107176, 35.345198999989726 ], [ -81.905456991321259, 35.343114999903513 ], [ -81.904766991577318, 35.34078700038183 ], [ -81.905570990917724, 35.339777999873299 ], [ -81.919551991006855, 35.342067000332442 ], [ -81.921298991184784, 35.331830999959251 ], [ -81.919394991203433, 35.327668000308726 ], [ -81.909707990900372, 35.320998000489048 ], [ -81.907433990743598, 35.313526000481922 ] ] ] } },
{ "type": "Feature", "properties": { "county": "RUTHERFORD", "precinct": "34", "enr_desc": "Union", "winner": "Aaron Ellenburg", "winner_votes": 310, "winner_share": 82.666666666666671, "runner_up": "Jamie Dunn", "runner_up_votes": 50, "runner_up_share": 13.333333333333334, "contest_votes": 375, "margin_of_victory": 69.333333333333343, "is_tie": false, "results": [ { "candidate": "Aaron Ellenburg", "votes": 310, "share": 82.66666666666667 }, { "candidate": "Jamie Dunn", "votes": 50, "share": 13.333333333333334 }, { "candidate": "Jason Ray Wease", "votes": 15, "share": 4.0 } ], "participated": true, "map_key": "RUTHERFORD_34" }, "geometry": { "type": "Polygon", "coordinates": [ [ [ -82.040437991395549, 35.317180000172733 ], [ -82.03806699099998, 35.318151999891235 ], [ -82.028534991517034, 35.318362000212169 ], [ -82.025058990872921, 35.32025700009207 ], [ -82.024184990719704, 35.322256999977036 ], [ -82.025063991350763, 35.323085000114624 ], [ -82.02520699134682, 35.325233999845715 ], [ -82.027505990692816, 35.325905000399032 ], [ -82.02860099105952, 35.327517000043414 ], [ -82.028504991104739, 35.328770000064189 ], [ -82.026217991249069, 35.329087000335065 ], [ -82.024173991630704, 35.330709000066683 ], [ -82.021460991414841, 35.330108000387661 ], [ -82.014102991288283, 35.336733000146609 ], [ -82.013912991183943, 35.338865999847826 ], [ -82.011331991160972, 35.340774000378062 ], [ -82.005639990810536, 35.353060000277722 ], [ -82.002988991249907, 35.352509000081781 ], [ -82.002042991588837, 35.349107999995262 ], [ -81.999124991631533, 35.349312000023168 ], [ -81.994449990819248, 35.351017999852544 ], [ -81.987131991419986, 35.347902000570933 ], [ -81.987484991050437, 35.344924000476752 ], [ -81.9854069909033, 35.339420000221189 ], [ -81.985840991406874, 35.338725000332104 ], [ -81.951204991540706, 35.328201000123265 ], [ -81.937880991025821, 35.324702000613456 ], [ -81.935020990691058, 35.323232999961668 ], [ -81.936201991035617, 35.320629000478291 ], [ -81.935278991559187, 35.317526000047074 ], [ -81.938811991019094, 35.313798999925439 ], [ -81.938675990802366, 35.30497500023926 ], [ -81.943015990779401, 35.295390000602509 ], [ -81.945315990697637, 35.284423000383818 ], [ -81.954565990913082, 35.270252000427561 ], [ -81.962152990775394, 35.262597999930129 ], [ -81.96192699085033, 35.259436000594789 ], [ -81.960924991240617, 35.259438000583721 ], [ -81.959721991533584, 35.255703999906544 ], [ -81.957524990755189, 35.254352000491913 ], [ -81.957043991622385, 35.252017999987686 ], [ -81.959390990699021, 35.249144000440289 ], [ -81.959773990776611, 35.247050999978022 ], [ -81.963868991752278, 35.249450000069409 ], [ -81.967309991126925, 35.249609000288523 ], [ -81.968397991177255, 35.250888000410647 ], [ -81.969167990844852, 35.258135000353491 ], [ -81.973133991523014, 35.25947700063567 ], [ -81.977621990995658, 35.263350000472087 ], [ -81.982507990710261, 35.263371000587739 ], [ -81.983809991149329, 35.265044000467654 ], [ -81.987841991490868, 35.26581600004755 ], [ -81.995763990808641, 35.270649999905963 ], [ -81.999429991569315, 35.276182000473078 ], [ -81.999687990827894, 35.280630999942197 ], [ -82.000816991734965, 35.282756000040713 ], [ -82.005714990929434, 35.284116999811388 ], [ -82.008653991757328, 35.286730999893557 ], [ -82.010510990914966, 35.289692000239441 ], [ -82.01518999163558, 35.292406000259795 ], [ -82.016900991534726, 35.296995000628108 ], [ -82.016756991118186, 35.299151999830663 ], [ -82.022994991201315, 35.298203000454073 ], [ -82.024896991215101, 35.299949000148032 ], [ -82.029516991589588, 35.301502000113054 ], [ -82.029710990941368, 35.305255999890171 ], [ -82.031004991390432, 35.308729000587405 ], [ -82.037577991445602, 35.313636000171655 ], [ -82.040437991395549, 35.317180000172733 ] ] ] } }
]
}
