{
"type": "FeatureCollection",
"name": "scotland_county_clerk_of_superior_court_dem",
"crs": { "type": "name", "properties": { "name": "urn:ogc:def:crs:OGC:1.3:CRS84" } },
"features": [
{ "type": "Feature", "properties": { "county": "SCOTLAND", "precinct": "01-16", "enr_desc": "01-16/01", "winner": "W. Philip McRae", "winner_votes": 363, "winner_share": 84.418604651162781, "runner_up": "Addie Pratt", "runner_up_votes": 67, "runner_up_share": 15.58139534883721, "contest_votes": 430, "margin_of_victory": 68.837209302325576, "is_tie": false, "results": [ { "candidate": "W. Philip McRae", "votes": 363, "share": 84.41860465116278 }, { "candidate": "Addie Pratt", "votes": 67, "share": 15.58139534883721 } ], "participated": true, "map_key": "SCOTLAND_01-16" }, "geometry": { "type": "Polygon", "coordinates": [ [ [ -79.361641991102104, 34.740150000277524 ], [ -79.369172991061276, 34.744292000016458 ], [ -79.393584991759866, 34.753019999778424 ], [ -79.40209599111013, 34.75520699982863 ], [ -79.432390991617041, 34.766903000145653 ], [ -79.446121991771847, 34.768386999909076 ], [ -79.462803991653573, 34.774160999772185 ], [ -79.470294991413823, 34.776706000074888 ], [ -79.478219991137181, 34.774943000190369 ], [ -79.486042991458419, 34.777039000302196 ], [ -79.48534399079729, 34.780937999598741 ], [ -79.485633991010985, 34.786424999827148 ], [ -79.472007991830182, 34.781464000180321 ], [ -79.460771991043572, 34.794511000162636 ], [ -79.456269991654864, 34.797506999710777 ], [ -79.442353990951347, 34.801239999784841 ], [ -79.435498991362195, 34.805766000379222 ], [ -79.436029991785929, 34.805028000373433 ], [ -79.437789991341134, 34.803511000458194 ], [ -79.432247991029669, 34.7987700002518 ], [ -79.422370990834722, 34.801110000147105 ], [ -79.418782990878825, 34.80370399978306 ], [ -79.412099990981872, 34.805783999991718 ], [ -79.408988991587805, 34.807959000473147 ], [ -79.401112991692429, 34.815210000103868 ], [ -79.393243991519483, 34.815024999622217 ], [ -79.388468991202842, 34.816891999676926 ], [ -79.380188991592064, 34.818343999820577 ], [ -79.372816990987971, 34.821578999784961 ], [ -79.359216991321077, 34.815044000383402 ], [ -79.355865991525533, 34.814522999987581 ], [ -79.355441991052331, 34.815265000113691 ], [ -79.35396699134985, 34.81530500037659 ], [ -79.354318991303046, 34.814597000474578 ], [ -79.353083991085441, 34.814280000137906 ], [ -79.353629991575204, 34.813371000355112 ], [ -79.352816991639799, 34.813216000467818 ], [ -79.353520991015913, 34.812457000076492 ], [ -79.351338990761292, 34.812613000268612 ], [ -79.350775991775947, 34.811238999925372 ], [ -79.351760991312219, 34.810833999669633 ], [ -79.350405991751884, 34.809910999777976 ], [ -79.350596991569688, 34.809190999742981 ], [ -79.349146991381133, 34.808725000319193 ], [ -79.349597990903391, 34.807857999695656 ], [ -79.348988990853243, 34.80728600028818 ], [ -79.350189991019548, 34.805233999779091 ], [ -79.34939999093676, 34.803964999777641 ], [ -79.348482991114111, 34.803910999783689 ], [ -79.348595991028688, 34.803201000054507 ], [ -79.347647991107848, 34.80351499968657 ], [ -79.346809990980432, 34.802529000379131 ], [ -79.347566991769554, 34.802004999805817 ], [ -79.347175991479432, 34.801133000310777 ], [ -79.348090991584485, 34.800755999763233 ], [ -79.346467990987691, 34.800392999637438 ], [ -79.346635991013542, 34.798112000277484 ], [ -79.345588991244824, 34.797659999963848 ], [ -79.345446991230432, 34.795882000078237 ], [ -79.344045991402609, 34.796075999697464 ], [ -79.344409991076873, 34.795092999662806 ], [ -79.342962991376382, 34.794092000341593 ], [ -79.343280990791357, 34.792418999657464 ], [ -79.344175991131735, 34.792280999979425 ], [ -79.341909991371082, 34.792142999863337 ], [ -79.342411990744594, 34.790197000143849 ], [ -79.341539990889004, 34.790325000412949 ], [ -79.34175699151848, 34.789083999768138 ], [ -79.339562990825712, 34.789114000110132 ], [ -79.33961299171132, 34.78714400039857 ], [ -79.338299990924455, 34.787767999971948 ], [ -79.338007991462604, 34.78581099983078 ], [ -79.338876991504847, 34.785675000153915 ], [ -79.33717799075211, 34.785524000223141 ], [ -79.337852991588022, 34.784520999958794 ], [ -79.336773991215452, 34.783895999893545 ], [ -79.337232991094496, 34.783359999658629 ], [ -79.336460990980399, 34.78302099961126 ], [ -79.336371991691806, 34.78131199979579 ], [ -79.335251991112841, 34.781148999910677 ], [ -79.334378991660586, 34.777377000362279 ], [ -79.331922990794325, 34.77709900023298 ], [ -79.33313099164215, 34.776434000358044 ], [ -79.331789990944259, 34.776468000241522 ], [ -79.332236991164379, 34.775735999780458 ], [ -79.331192990807551, 34.775429999887614 ], [ -79.331605990903782, 34.774744000022942 ], [ -79.330824991410566, 34.774078000080152 ], [ -79.361641991102104, 34.740150000277524 ] ] ] } },
{ "type": "Feature", "properties": { "county": "SCOTLAND", "precinct": "02-25", "enr_desc": "02-25/02", "winner": "W. Philip McRae", "winner_votes": 243, "winner_share": 74.08536585365853, "runner_up": "Addie Pratt", "runner_up_votes": 85, "runner_up_share": 25.914634146341463, "contest_votes": 328, "margin_of_victory": 48.170731707317067, "is_tie": false, "results": [ { "candidate": "W. Philip McRae", "votes": 243, "share": 74.08536585365853 }, { "candidate": "Addie Pratt", "votes": 85, "share": 25.914634146341463 } ], "participated": true, "map_key": "SCOTLAND_02-25" }, "geometry": { "type": "Polygon", "coordinates": [ [ [ -79.504941990777667, 34.665757000458363 ], [ -79.50403799110704, 34.668883999839061 ], [ -79.502956990754484, 34.66915800007218 ], [ -79.502678991064542, 34.670393999705674 ], [ -79.503343991597632, 34.67044000020465 ], [ -79.500597990940733, 34.67254599991044 ], [ -79.501012991686707, 34.673645000074764 ], [ -79.500402991507585, 34.674286000470985 ], [ -79.502229991108038, 34.6778599999259 ], [ -79.502977990780181, 34.678043000357619 ], [ -79.503059991447273, 34.679508000390932 ], [ -79.504694990914757, 34.679828999598378 ], [ -79.505303991397824, 34.682395000341181 ], [ -79.504415990801689, 34.683264000387325 ], [ -79.505911991333136, 34.684890999935867 ], [ -79.505993991625118, 34.68653999980662 ], [ -79.509818991495266, 34.688328000063876 ], [ -79.510427991535849, 34.689748000244442 ], [ -79.509761991121422, 34.690320000061348 ], [ -79.513197990935993, 34.693872000078663 ], [ -79.513889991660506, 34.695772999955317 ], [ -79.514193991204408, 34.697008999940934 ], [ -79.513334991171703, 34.696939999852617 ], [ -79.513028991557363, 34.697879000201183 ], [ -79.513444991692168, 34.69858900024083 ], [ -79.509393991361037, 34.702754999919968 ], [ -79.511017991436461, 34.704143000187344 ], [ -79.493337991695142, 34.716785999762514 ], [ -79.48511799075753, 34.71947699966416 ], [ -79.479335990934203, 34.72298700032664 ], [ -79.465209990983737, 34.725614999908522 ], [ -79.459970991083097, 34.728666000332503 ], [ -79.456157991191176, 34.72946500037142 ], [ -79.4677879915902, 34.764415999998192 ], [ -79.462803991653573, 34.774160999772185 ], [ -79.446121991771847, 34.768386999909076 ], [ -79.432390991617041, 34.766903000145653 ], [ -79.40209599111013, 34.75520699982863 ], [ -79.393584991759866, 34.753019999778424 ], [ -79.369172991061276, 34.744292000016458 ], [ -79.361641991102104, 34.740150000277524 ], [ -79.366794991688906, 34.734484999953494 ], [ -79.367403991247656, 34.732769000074192 ], [ -79.369030991489083, 34.73204000003372 ], [ -79.461505991205414, 34.630379000237369 ], [ -79.504941990777667, 34.665757000458363 ] ] ] } },
{ "type": "Feature", "properties": { "county": "SCOTLAND", "precinct": "3", "enr_desc": "03", "winner": "W. Philip McRae", "winner_votes": 285, "winner_share": 68.840579710144922, "runner_up": "Addie Pratt", "runner_up_votes": 129, "runner_up_share": 31.159420289855071, "contest_votes": 414, "margin_of_victory": 37.681159420289852, "is_tie": false, "results": [ { "candidate": "W. Philip McRae", "votes": 285, "share": 68.84057971014492 }, { "candidate": "Addie Pratt", "votes": 129, "share": 31.15942028985507 } ], "participated": true, "map_key": "SCOTLAND_3" }, "geometry": { "type": "Polygon", "coordinates": [ [ [ -79.528247990859498, 34.782297999974489 ], [ -79.516372990815498, 34.781917000113424 ], [ -79.5062829917333, 34.778147999914097 ], [ -79.499445991535509, 34.776665999996538 ], [ -79.488388990871584, 34.777820999932821 ], [ -79.486042991458419, 34.777039000302196 ], [ -79.478219991137181, 34.774943000190369 ], [ -79.470294991413823, 34.776706000074888 ], [ -79.462803991653573, 34.774160999772185 ], [ -79.4677879915902, 34.764415999998192 ], [ -79.470463991210494, 34.759561999888348 ], [ -79.489629991310139, 34.745256999782555 ], [ -79.513818990872537, 34.74550499959814 ], [ -79.524943991706095, 34.746660999688729 ], [ -79.52790299168926, 34.744208000094844 ], [ -79.531477991335436, 34.745465999730492 ], [ -79.535978991639467, 34.748490999746139 ], [ -79.537109990879401, 34.751574000331033 ], [ -79.542657991199647, 34.754527999625488 ], [ -79.543017991065639, 34.756360000451231 ], [ -79.539270990872694, 34.761534999678048 ], [ -79.537992991107828, 34.764694999759342 ], [ -79.536298991564422, 34.766115000429828 ], [ -79.534300991561039, 34.766550000090902 ], [ -79.533412991102495, 34.767877999837701 ], [ -79.531358991099935, 34.768289000227938 ], [ -79.531496991205643, 34.771266000403429 ], [ -79.527969990905405, 34.777197000480825 ], [ -79.528247990859498, 34.782297999974489 ] ] ] } },
{ "type": "Feature", "properties": { "county": "SCOTLAND", "precinct": "4", "enr_desc": "04", "winner": "W. Philip McRae", "winner_votes": 330, "winner_share": 68.181818181818173, "runner_up": "Addie Pratt", "runner_up_votes": 154, "runner_up_share": 31.818181818181817, "contest_votes": 484, "margin_of_victory": 36.36363636363636, "is_tie": false, "results": [ { "candidate": "W. Philip McRae", "votes": 330, "share": 68.18181818181817 }, { "candidate": "Addie Pratt", "votes": 154, "share": 31.818181818181817 } ], "participated": true, "map_key": "SCOTLAND_4" }, "geometry": { "type": "Polygon", "coordinates": [ [ [ -79.504941990777667, 34.665757000458363 ], [ -79.532566991601769, 34.688260000205318 ], [ -79.516794991463556, 34.712634999628776 ], [ -79.51853799106992, 34.713430999599304 ], [ -79.519312991811091, 34.715401000110312 ], [ -79.518813991119771, 34.71613400002753 ], [ -79.519700990816844, 34.716637999677125 ], [ -79.520031990747967, 34.719546000152882 ], [ -79.519032990784851, 34.720782000284387 ], [ -79.520834990991176, 34.72222599970334 ], [ -79.519918991337249, 34.723278999935438 ], [ -79.520806991321265, 34.723599999994057 ], [ -79.520112991681273, 34.724171999977735 ], [ -79.521054990838863, 34.72577600004292 ], [ -79.520249991158096, 34.727241000115335 ], [ -79.521661991816472, 34.731387000384409 ], [ -79.522271991647784, 34.731501000179541 ], [ -79.521661991373577, 34.732073999831627 ], [ -79.522214991555117, 34.734569999665219 ], [ -79.525614991394406, 34.738114000404131 ], [ -79.526525991046825, 34.743243999681354 ], [ -79.52790299168926, 34.744208000094844 ], [ -79.524943991706095, 34.746660999688729 ], [ -79.513818990872537, 34.74550499959814 ], [ -79.489629991310139, 34.745256999782555 ], [ -79.470463991210494, 34.759561999888348 ], [ -79.4677879915902, 34.764415999998192 ], [ -79.456157991191176, 34.72946500037142 ], [ -79.459970991083097, 34.728666000332503 ], [ -79.465209990983737, 34.725614999908522 ], [ -79.479335990934203, 34.72298700032664 ], [ -79.48511799075753, 34.71947699966416 ], [ -79.493337991695142, 34.716785999762514 ], [ -79.511017991436461, 34.704143000187344 ], [ -79.509393991361037, 34.702754999919968 ], [ -79.513444991692168, 34.69858900024083 ], [ -79.513028991557363, 34.697879000201183 ], [ -79.513334991171703, 34.696939999852617 ], [ -79.514193991204408, 34.697008999940934 ], [ -79.513889991660506, 34.695772999955317 ], [ -79.513197990935993, 34.693872000078663 ], [ -79.509761991121422, 34.690320000061348 ], [ -79.510427991535849, 34.689748000244442 ], [ -79.509818991495266, 34.688328000063876 ], [ -79.505993991625118, 34.68653999980662 ], [ -79.505911991333136, 34.684890999935867 ], [ -79.504415990801689, 34.683264000387325 ], [ -79.505303991397824, 34.682395000341181 ], [ -79.504694990914757, 34.679828999598378 ], [ -79.503059991447273, 34.679508000390932 ], [ -79.502977990780181, 34.678043000357619 ], [ -79.502229991108038, 34.6778599999259 ], [ -79.500402991507585, 34.674286000470985 ], [ -79.501012991686707, 34.673645000074764 ], [ -79.500597990940733, 34.67254599991044 ], [ -79.503343991597632, 34.67044000020465 ], [ -79.502678991064542, 34.670393999705674 ], [ -79.502956990754484, 34.66915800007218 ], [ -79.50403799110704, 34.668883999839061 ], [ -79.504941990777667, 34.665757000458363 ] ] ] } },
{ "type": "Feature", "properties": { "county": "SCOTLAND", "precinct": "05-10", "enr_desc": "05-10/05", "winner": "W. Philip McRae", "winner_votes": 126, "winner_share": 78.260869565217391, "runner_up": "Addie Pratt", "runner_up_votes": 35, "runner_up_share": 21.739130434782609, "contest_votes": 161, "margin_of_victory": 56.521739130434781, "is_tie": false, "results": [ { "candidate": "W. Philip McRae", "votes": 126, "share": 78.26086956521739 }, { "candidate": "Addie Pratt", "votes": 35, "share": 21.73913043478261 } ], "participated": true, "map_key": "SCOTLAND_05-10" }, "geometry": { "type": "Polygon", "coordinates": [ [ [ -79.532566991601769, 34.688260000205318 ], [ -79.676493991113418, 34.805064999671892 ], [ -79.692943991056012, 34.805154999795185 ], [ -79.692512991590263, 34.806847000407977 ], [ -79.68821599084329, 34.809915000072245 ], [ -79.688391990955182, 34.811339999683746 ], [ -79.678372991557296, 34.813947999867928 ], [ -79.672851991751855, 34.813271000456488 ], [ -79.659103991108552, 34.815262000036029 ], [ -79.654498991614986, 34.814881000060794 ], [ -79.644814991110266, 34.820047999763531 ], [ -79.637398991819822, 34.82294700046225 ], [ -79.634570991053025, 34.82549300003847 ], [ -79.625643991175522, 34.817894999672312 ], [ -79.621624991191737, 34.816353999978297 ], [ -79.614044991775401, 34.815308999992759 ], [ -79.607215991719102, 34.814871999650343 ], [ -79.596357991253498, 34.811249999812034 ], [ -79.58768499101042, 34.80706400044339 ], [ -79.583092991154686, 34.801779000195523 ], [ -79.579075990868063, 34.799447000155993 ], [ -79.561827991202335, 34.792765999905576 ], [ -79.554132991149601, 34.787831999888319 ], [ -79.550167991121015, 34.786912999996922 ], [ -79.542064991749086, 34.783338999907954 ], [ -79.528247990859498, 34.782297999974489 ], [ -79.527969990905405, 34.777197000480825 ], [ -79.531496991205643, 34.771266000403429 ], [ -79.531358991099935, 34.768289000227938 ], [ -79.533412991102495, 34.767877999837701 ], [ -79.534300991561039, 34.766550000090902 ], [ -79.536298991564422, 34.766115000429828 ], [ -79.537992991107828, 34.764694999759342 ], [ -79.539270990872694, 34.761534999678048 ], [ -79.543017991065639, 34.756360000451231 ], [ -79.542657991199647, 34.754527999625488 ], [ -79.537109990879401, 34.751574000331033 ], [ -79.535978991639467, 34.748490999746139 ], [ -79.531477991335436, 34.745465999730492 ], [ -79.52790299168926, 34.744208000094844 ], [ -79.526525991046825, 34.743243999681354 ], [ -79.525614991394406, 34.738114000404131 ], [ -79.522214991555117, 34.734569999665219 ], [ -79.521661991373577, 34.732073999831627 ], [ -79.522271991647784, 34.731501000179541 ], [ -79.521661991816472, 34.731387000384409 ], [ -79.520249991158096, 34.727241000115335 ], [ -79.521054990838863, 34.72577600004292 ], [ -79.520112991681273, 34.724171999977735 ], [ -79.520806991321265, 34.723599999994057 ], [ -79.519918991337249, 34.723278999935438 ], [ -79.520834990991176, 34.72222599970334 ], [ -79.519032990784851, 34.720782000284387 ], [ -79.520031990747967, 34.719546000152882 ], [ -79.519700990816844, 34.716637999677125 ], [ -79.518813991119771, 34.71613400002753 ], [ -79.519312991811091, 34.715401000110312 ], [ -79.51853799106992, 34.713430999599304 ], [ -79.516794991463556, 34.712634999628776 ], [ -79.532566991601769, 34.688260000205318 ] ] ] } },
{ "type": "Feature", "properties": { "county": "SCOTLAND", "precinct": "06-89", "enr_desc": "06-89/06", "winner": "W. Philip McRae", "winner_votes": 205, "winner_share": 77.651515151515156, "runner_up": "Addie Pratt", "runner_up_votes": 59, "runner_up_share": 22.348484848484848, "contest_votes": 264, "margin_of_victory": 55.303030303030312, "is_tie": false, "results": [ { "candidate": "W. Philip McRae", "votes": 205, "share": 77.65151515151516 }, { "candidate": "Addie Pratt", "votes": 59, "share": 22.348484848484848 } ], "participated": true, "map_key": "SCOTLAND_06-89" }, "geometry": { "type": "Polygon", "coordinates": [ [ [ -79.486042991458419, 34.777039000302196 ], [ -79.488388990871584, 34.777820999932821 ], [ -79.499445991535509, 34.776665999996538 ], [ -79.5062829917333, 34.778147999914097 ], [ -79.516372990815498, 34.781917000113424 ], [ -79.528247990859498, 34.782297999974489 ], [ -79.542064991749086, 34.783338999907954 ], [ -79.550167991121015, 34.786912999996922 ], [ -79.554132991149601, 34.787831999888319 ], [ -79.561827991202335, 34.792765999905576 ], [ -79.579075990868063, 34.799447000155993 ], [ -79.583092991154686, 34.801779000195523 ], [ -79.58768499101042, 34.80706400044339 ], [ -79.596357991253498, 34.811249999812034 ], [ -79.607215991719102, 34.814871999650343 ], [ -79.614044991775401, 34.815308999992759 ], [ -79.616376991614516, 34.81690899968936 ], [ -79.617124991112888, 34.818601000097907 ], [ -79.620800991565872, 34.81798199987464 ], [ -79.622764990865747, 34.820237999843677 ], [ -79.623159990971786, 34.821566000263886 ], [ -79.622186991501451, 34.822118000144165 ], [ -79.621444991635883, 34.824870000035368 ], [ -79.622928991811108, 34.826817000454021 ], [ -79.62199299085394, 34.829388000476577 ], [ -79.619221991797787, 34.830968000119206 ], [ -79.618590991417932, 34.833331000186945 ], [ -79.620132991465269, 34.8352419998578 ], [ -79.617667990984316, 34.837678999931903 ], [ -79.617366990983868, 34.839282000290339 ], [ -79.62280899170257, 34.843739000362554 ], [ -79.621467991161936, 34.845734999990107 ], [ -79.619717991666789, 34.846461999645655 ], [ -79.619928991246056, 34.848903000283954 ], [ -79.626259991609459, 34.850971999854529 ], [ -79.62676699138575, 34.85191099963621 ], [ -79.615999991534636, 34.865928000017874 ], [ -79.561855991647903, 34.910349999648659 ], [ -79.563976991810932, 34.910816000102479 ], [ -79.565229991433071, 34.91026799995587 ], [ -79.566006991130465, 34.91113599991904 ], [ -79.563986991077485, 34.917946000074494 ], [ -79.567571991717386, 34.924121000392724 ], [ -79.568258990862944, 34.927372000314968 ], [ -79.571549991439269, 34.928240000255627 ], [ -79.573833991286662, 34.930018000437578 ], [ -79.576817991070754, 34.929815000345364 ], [ -79.578603991527885, 34.930895999717954 ], [ -79.579444991038187, 34.933439999808655 ], [ -79.581729991027217, 34.935441999644745 ], [ -79.584786991103286, 34.945385000102128 ], [ -79.583240991650229, 34.947999999827196 ], [ -79.584763991401886, 34.950165000473874 ], [ -79.58561799086776, 34.954744999990801 ], [ -79.583215991248423, 34.955609999716287 ], [ -79.581606991375196, 34.957413000340985 ], [ -79.582002991601058, 34.960778000061268 ], [ -79.581205991474377, 34.962224000141333 ], [ -79.581899991382556, 34.96387699993462 ], [ -79.577578991172913, 34.968770999719631 ], [ -79.577992991545642, 34.972386000040778 ], [ -79.571652990931852, 34.975228000259101 ], [ -79.566666991605672, 34.979415000478042 ], [ -79.573422990767639, 34.992210000325578 ], [ -79.567934991616639, 34.994325000203602 ], [ -79.566920991590621, 34.995680000457014 ], [ -79.553037990722373, 35.004775000237117 ], [ -79.529907991473664, 35.015314999721973 ], [ -79.524237990908389, 35.018776999647102 ], [ -79.521380991139893, 35.019225000175908 ], [ -79.510505991075334, 35.026152000299106 ], [ -79.483293991720615, 35.033679999596039 ], [ -79.46888599135815, 35.036567000441856 ], [ -79.460885991664625, 35.040898000389788 ], [ -79.45837599085381, 35.043755999884347 ], [ -79.45696599160695, 35.041640999703276 ], [ -79.45819699128559, 35.041623999620988 ], [ -79.457578990820693, 35.040099999941688 ], [ -79.456916991594809, 35.040319999966762 ], [ -79.456187991428294, 35.039335999982725 ], [ -79.457338991176712, 35.037668000146972 ], [ -79.456082991555306, 35.037302999726805 ], [ -79.454710991666218, 35.034479000459378 ], [ -79.453937991033328, 35.034689000199101 ], [ -79.453919991110965, 35.033544000037793 ], [ -79.452814991295099, 35.033785000123196 ], [ -79.452055991050116, 35.030437999620752 ], [ -79.450051991094114, 35.030201000017748 ], [ -79.449815991036445, 35.028044000195784 ], [ -79.44899199163342, 35.027319999960994 ], [ -79.449437991525258, 35.026952000410994 ], [ -79.445808991085784, 35.026038000443911 ], [ -79.44555999108799, 35.024716999630769 ], [ -79.443633991578594, 35.024505999913075 ], [ -79.442694990956355, 35.022979999654815 ], [ -79.445692990941595, 35.018073000407099 ], [ -79.446559991290144, 35.014833999713304 ], [ -79.446616991027625, 34.975415000271255 ], [ -79.462538991730241, 34.969482999921823 ], [ -79.472207991264952, 34.957978000177974 ], [ -79.482907990974198, 34.940969000426868 ], [ -79.482857991630439, 34.935153000236134 ], [ -79.479735990940171, 34.927557999753972 ], [ -79.479812991742847, 34.921427999683914 ], [ -79.477224990754593, 34.908865999930292 ], [ -79.473849991472051, 34.904027999632476 ], [ -79.47149999074766, 34.902793000442792 ], [ -79.471566990773937, 34.899734000012216 ], [ -79.469140991235506, 34.900233999686399 ], [ -79.468089991316418, 34.898925999713597 ], [ -79.468033991166621, 34.897094000087392 ], [ -79.465781991497124, 34.896567000464586 ], [ -79.466365991087102, 34.895468000185943 ], [ -79.464085991217942, 34.89336199958759 ], [ -79.458422991638599, 34.890979999897326 ], [ -79.456771991662464, 34.888574000086109 ], [ -79.452518990797728, 34.886098999605792 ], [ -79.451990990915192, 34.883854000448309 ], [ -79.445713991021393, 34.878687000442525 ], [ -79.445602990754423, 34.877174999646854 ], [ -79.444574990920529, 34.876466000332222 ], [ -79.441680991189841, 34.869880000432758 ], [ -79.435440991037694, 34.866895000428222 ], [ -79.434288991379233, 34.861934000199575 ], [ -79.430603990994399, 34.857906000121361 ], [ -79.429751990739121, 34.853141999798829 ], [ -79.428738991739777, 34.852902999800875 ], [ -79.428874991517134, 34.8516969997331 ], [ -79.426013991413612, 34.850139999955928 ], [ -79.425986990971225, 34.848169999921687 ], [ -79.424486990947329, 34.846909999619207 ], [ -79.42398799128037, 34.844323000128945 ], [ -79.422598991243532, 34.842491000334469 ], [ -79.42196299152792, 34.83591800013501 ], [ -79.42029699111589, 34.834474999953564 ], [ -79.419797991515367, 34.832391000182831 ], [ -79.420540991522273, 34.826867000470145 ], [ -79.417201990848511, 34.822212000195798 ], [ -79.416814991165509, 34.819396999647537 ], [ -79.417361991185956, 34.818633000396709 ], [ -79.416435991567297, 34.817937000020656 ], [ -79.417524991342873, 34.815788999590936 ], [ -79.414488991191391, 34.813170999890204 ], [ -79.412592991383718, 34.812728999625818 ], [ -79.411354991697436, 34.810015000357033 ], [ -79.408988991587805, 34.807959000473147 ], [ -79.412099990981872, 34.805783999991718 ], [ -79.418782990878825, 34.80370399978306 ], [ -79.422370990834722, 34.801110000147105 ], [ -79.432247991029669, 34.7987700002518 ], [ -79.437789991341134, 34.803511000458194 ], [ -79.436029991785929, 34.805028000373433 ], [ -79.435498991362195, 34.805766000379222 ], [ -79.442353990951347, 34.801239999784841 ], [ -79.456269991654864, 34.797506999710777 ], [ -79.460771991043572, 34.794511000162636 ], [ -79.472007991830182, 34.781464000180321 ], [ -79.485633991010985, 34.786424999827148 ], [ -79.48534399079729, 34.780937999598741 ], [ -79.486042991458419, 34.777039000302196 ] ] ] } },
{ "type": "Feature", "properties": { "county": "SCOTLAND", "precinct": "7", "enr_desc": "07", "winner": "W. Philip McRae", "winner_votes": 325, "winner_share": 82.487309644670049, "runner_up": "Addie Pratt", "runner_up_votes": 69, "runner_up_share": 17.512690355329948, "contest_votes": 394, "margin_of_victory": 64.974619289340097, "is_tie": false, "results": [ { "candidate": "W. Philip McRae", "votes": 325, "share": 82.48730964467005 }, { "candidate": "Addie Pratt", "votes": 69, "share": 17.512690355329948 } ], "participated": true, "map_key": "SCOTLAND_7" }, "geometry": { "type": "Polygon", "coordinates": [ [ [ -79.408988991587805, 34.807959000473147 ], [ -79.411354991697436, 34.810015000357033 ], [ -79.412592991383718, 34.812728999625818 ], [ -79.414488991191391, 34.813170999890204 ], [ -79.417524991342873, 34.815788999590936 ], [ -79.416435991567297, 34.817937000020656 ], [ -79.417361991185956, 34.818633000396709 ], [ -79.416814991165509, 34.819396999647537 ], [ -79.417201990848511, 34.822212000195798 ], [ -79.420540991522273, 34.826867000470145 ], [ -79.419797991515367, 34.832391000182831 ], [ -79.42029699111589, 34.834474999953564 ], [ -79.42196299152792, 34.83591800013501 ], [ -79.422598991243532, 34.842491000334469 ], [ -79.42398799128037, 34.844323000128945 ], [ -79.424486990947329, 34.846909999619207 ], [ -79.425986990971225, 34.848169999921687 ], [ -79.426013991413612, 34.850139999955928 ], [ -79.428874991517134, 34.8516969997331 ], [ -79.428738991739777, 34.852902999800875 ], [ -79.429751990739121, 34.853141999798829 ], [ -79.430603990994399, 34.857906000121361 ], [ -79.434288991379233, 34.861934000199575 ], [ -79.435440991037694, 34.866895000428222 ], [ -79.441680991189841, 34.869880000432758 ], [ -79.444574990920529, 34.876466000332222 ], [ -79.445602990754423, 34.877174999646854 ], [ -79.445713991021393, 34.878687000442525 ], [ -79.451990990915192, 34.883854000448309 ], [ -79.452518990797728, 34.886098999605792 ], [ -79.456771991662464, 34.888574000086109 ], [ -79.458422991638599, 34.890979999897326 ], [ -79.464085991217942, 34.89336199958759 ], [ -79.466365991087102, 34.895468000185943 ], [ -79.465781991497124, 34.896567000464586 ], [ -79.468033991166621, 34.897094000087392 ], [ -79.468089991316418, 34.898925999713597 ], [ -79.469140991235506, 34.900233999686399 ], [ -79.471566990773937, 34.899734000012216 ], [ -79.47149999074766, 34.902793000442792 ], [ -79.473849991472051, 34.904027999632476 ], [ -79.477224990754593, 34.908865999930292 ], [ -79.479812991742847, 34.921427999683914 ], [ -79.479735990940171, 34.927557999753972 ], [ -79.482857991630439, 34.935153000236134 ], [ -79.482907990974198, 34.940969000426868 ], [ -79.472207991264952, 34.957978000177974 ], [ -79.462538991730241, 34.969482999921823 ], [ -79.446616991027625, 34.975415000271255 ], [ -79.446559991290144, 35.014833999713304 ], [ -79.445692990941595, 35.018073000407099 ], [ -79.442694990956355, 35.022979999654815 ], [ -79.441965991771198, 35.022276000230171 ], [ -79.439294991726427, 35.022647999798586 ], [ -79.437681991012525, 35.021354999919197 ], [ -79.436696991012909, 35.02213499960105 ], [ -79.434899991710452, 35.020533000364935 ], [ -79.43342699089358, 35.021013000236643 ], [ -79.431329991753785, 35.020131000220296 ], [ -79.430372991798279, 35.017199000001433 ], [ -79.428500991554117, 35.016408999718301 ], [ -79.429251991245366, 35.015588000349396 ], [ -79.425455991760543, 35.012552999878253 ], [ -79.425927991106477, 35.011852000160495 ], [ -79.424785991433239, 35.011164999782551 ], [ -79.424916990923094, 35.010353000046294 ], [ -79.423074990717822, 35.010297000180323 ], [ -79.421109990798527, 35.009043000126042 ], [ -79.420845991446711, 35.007858999796056 ], [ -79.419596991494018, 35.007724000154617 ], [ -79.420204991741514, 35.007242999849474 ], [ -79.419401991223779, 35.006743999830093 ], [ -79.420094990993746, 35.006395999890515 ], [ -79.41795899138468, 35.005805000074822 ], [ -79.417857991245796, 35.004797999788508 ], [ -79.415630991105431, 35.003954000169593 ], [ -79.415979991567838, 35.002918000131636 ], [ -79.415062991799218, 35.003574000244875 ], [ -79.413366991739721, 35.002168999784239 ], [ -79.4115609916811, 35.002142000062413 ], [ -79.411396990737515, 35.001259999896376 ], [ -79.410097990764072, 35.00199099959508 ], [ -79.407615991185935, 34.9992430003363 ], [ -79.405901991725315, 34.999572000453007 ], [ -79.404062990873641, 34.997899999830366 ], [ -79.401162991250914, 34.997406999799658 ], [ -79.400636991126035, 34.996096999859603 ], [ -79.398495991203831, 34.995224999830022 ], [ -79.39836099148458, 34.993958999678448 ], [ -79.396505991359959, 34.994115000445163 ], [ -79.396980991403026, 34.99273999971922 ], [ -79.39602499071664, 34.992703999928679 ], [ -79.396609991582096, 34.991814999931243 ], [ -79.394105991519325, 34.989624999761034 ], [ -79.394130991441585, 34.988800999731964 ], [ -79.393226991092931, 34.98913400011088 ], [ -79.390186990829321, 34.9859339996082 ], [ -79.391117991234779, 34.985526 ], [ -79.390594991271215, 34.983839999725177 ], [ -79.388729991267894, 34.982998000160777 ], [ -79.388388991166721, 34.981467000212916 ], [ -79.387848991240048, 34.981967000311961 ], [ -79.386345991397121, 34.98146299968986 ], [ -79.38627999141373, 34.979926000143713 ], [ -79.382844991755718, 34.97829699967042 ], [ -79.381903991128794, 34.976502999833038 ], [ -79.378536990896706, 34.975783999802623 ], [ -79.378420991107788, 34.974383000308706 ], [ -79.375894991050416, 34.972696000362454 ], [ -79.373293991610893, 34.96961500003188 ], [ -79.373688991068164, 34.969119000120983 ], [ -79.37289899170004, 34.969068000192777 ], [ -79.373305991219681, 34.96854700011238 ], [ -79.372152990804679, 34.968788000438735 ], [ -79.370515990773555, 34.966635999757848 ], [ -79.36994699152406, 34.963347000135137 ], [ -79.368707991009884, 34.962420000238716 ], [ -79.368081991809589, 34.96297000046507 ], [ -79.367612991694472, 34.962123000116542 ], [ -79.36695499074807, 34.96248499976349 ], [ -79.36397199127606, 34.960312000084372 ], [ -79.362830990980626, 34.959289000470378 ], [ -79.363132991665893, 34.958405000292039 ], [ -79.362275990928083, 34.958691000375119 ], [ -79.362377991473863, 34.957513000190303 ], [ -79.360838991343741, 34.957922000019245 ], [ -79.363644991603124, 34.954184000407054 ], [ -79.362063991458626, 34.953073999711187 ], [ -79.362367990915786, 34.952085999844073 ], [ -79.361288990754701, 34.950668999840005 ], [ -79.362191991019216, 34.950257999707404 ], [ -79.361006991013355, 34.950379999911974 ], [ -79.359339990789707, 34.949273000312871 ], [ -79.358451991394404, 34.949651999797609 ], [ -79.356594991693669, 34.94809100016306 ], [ -79.356919991757678, 34.947556000187085 ], [ -79.355084991750402, 34.945604000384719 ], [ -79.355259991061331, 34.944837000273736 ], [ -79.354299991295392, 34.945620999828535 ], [ -79.354254991765089, 34.944162000278297 ], [ -79.353131991254415, 34.944329000038088 ], [ -79.353975991338856, 34.943193999936589 ], [ -79.352900991238684, 34.940393000193041 ], [ -79.353838991168359, 34.939949999677879 ], [ -79.35290499140163, 34.939564000026429 ], [ -79.354294991005474, 34.938628999936192 ], [ -79.353208991581681, 34.936892000041787 ], [ -79.354657990755911, 34.937206000393282 ], [ -79.355325991725991, 34.935822000413744 ], [ -79.354216991658433, 34.934472000038255 ], [ -79.355376991194646, 34.933048000043591 ], [ -79.356129991484039, 34.933139000042374 ], [ -79.355335990919116, 34.932144000029055 ], [ -79.355379991313541, 34.930223000328645 ], [ -79.354385991425545, 34.929464000383177 ], [ -79.354589990816635, 34.926575999879418 ], [ -79.352198991143041, 34.925142000388647 ], [ -79.352447991194978, 34.924060999835405 ], [ -79.35102499162609, 34.924584000425583 ], [ -79.351287990925528, 34.923618000190245 ], [ -79.349724991286493, 34.921389999950989 ], [ -79.351745991416237, 34.919816000330897 ], [ -79.350417991557578, 34.917518999648379 ], [ -79.35145699119478, 34.915750000337226 ], [ -79.350838991346208, 34.914376000331131 ], [ -79.351796991759144, 34.914170999968512 ], [ -79.350803990754358, 34.913462999622396 ], [ -79.351799991794294, 34.913006999868422 ], [ -79.350865991414622, 34.911985999614153 ], [ -79.35209599115673, 34.911123000115921 ], [ -79.351487991186119, 34.910750000154628 ], [ -79.35173399083763, 34.908969000060452 ], [ -79.350875991550993, 34.908784999635692 ], [ -79.349640990766574, 34.905975000373438 ], [ -79.350531990973892, 34.905444999979096 ], [ -79.34960699089018, 34.905255000278011 ], [ -79.349550991010474, 34.903959999654177 ], [ -79.3485139910388, 34.902982999868463 ], [ -79.34909999089092, 34.902534000019578 ], [ -79.348458991761177, 34.901243999782658 ], [ -79.34929599073935, 34.900811000130467 ], [ -79.348320991519429, 34.899634999849695 ], [ -79.349804991013883, 34.898919000086565 ], [ -79.348773990971566, 34.898324000073011 ], [ -79.349584991781555, 34.897646999943838 ], [ -79.348297991692533, 34.896158000290157 ], [ -79.349331991305831, 34.894416000164753 ], [ -79.350314991359113, 34.894542000448112 ], [ -79.348916991216853, 34.893650999770287 ], [ -79.349120990828169, 34.891073000279214 ], [ -79.348386990880513, 34.890853000249123 ], [ -79.348718991800823, 34.889295999759327 ], [ -79.348124991585323, 34.888854999714376 ], [ -79.348908991552108, 34.88755899993987 ], [ -79.348108990776211, 34.88742899977975 ], [ -79.348624991777882, 34.885872000199058 ], [ -79.346909991517336, 34.884103000320167 ], [ -79.347512991390786, 34.883690000467119 ], [ -79.346623991577857, 34.882834000307213 ], [ -79.347479991711936, 34.88249499969325 ], [ -79.346426990945247, 34.882336999712521 ], [ -79.346549990747903, 34.879067999739398 ], [ -79.344256991105141, 34.877727999824451 ], [ -79.345059991572384, 34.874567999835392 ], [ -79.344414990924989, 34.87404899974981 ], [ -79.344058991054396, 34.874843999662176 ], [ -79.342682991455717, 34.873764999818349 ], [ -79.343018990934439, 34.872186000286405 ], [ -79.342031991281544, 34.871928000383527 ], [ -79.34183899121723, 34.869933999778333 ], [ -79.343380991078703, 34.870073000381197 ], [ -79.343548991108491, 34.868433999590962 ], [ -79.34210799129707, 34.868292999721191 ], [ -79.34288999132599, 34.867716999862459 ], [ -79.341796991824367, 34.867293000455938 ], [ -79.342014991110105, 34.864486999820294 ], [ -79.340843991688288, 34.863185000291367 ], [ -79.341549991180059, 34.862315000267337 ], [ -79.337849990966546, 34.859287000388036 ], [ -79.338150991718152, 34.857374999750505 ], [ -79.338971991086012, 34.857026000452137 ], [ -79.337957991528143, 34.856838999967266 ], [ -79.33829499149607, 34.856215000311522 ], [ -79.337332991493824, 34.856393999583929 ], [ -79.338151990741054, 34.855720000467265 ], [ -79.336922990979701, 34.85379000030693 ], [ -79.338000990977804, 34.853476000336087 ], [ -79.337320991233199, 34.852934000104234 ], [ -79.338378990769556, 34.852039999973059 ], [ -79.340227991527911, 34.851841999955568 ], [ -79.338753991630185, 34.850427999829421 ], [ -79.340374991410357, 34.850630000330568 ], [ -79.340538991363516, 34.849593999864332 ], [ -79.341488991330891, 34.84966500026642 ], [ -79.341335991787602, 34.848886000046178 ], [ -79.342147991681898, 34.849241000386051 ], [ -79.341383991687806, 34.848249999858183 ], [ -79.341778991054213, 34.847510000358803 ], [ -79.342768991187512, 34.847645000144794 ], [ -79.343303991659369, 34.846097999595372 ], [ -79.34529199162337, 34.846000000325745 ], [ -79.345134991464235, 34.843364000351293 ], [ -79.34790399108897, 34.843146999705475 ], [ -79.347087991461706, 34.840951000105747 ], [ -79.348111991365414, 34.840980000421041 ], [ -79.348801990812277, 34.839517000045944 ], [ -79.347806991308715, 34.838640999831533 ], [ -79.348831991611036, 34.838854999627451 ], [ -79.34972599086079, 34.837594000371368 ], [ -79.349253991780017, 34.837002999872219 ], [ -79.350476991176109, 34.836384000428275 ], [ -79.349971991266017, 34.835390999723501 ], [ -79.351929991262011, 34.833789000330938 ], [ -79.350940991777307, 34.83290200011087 ], [ -79.352020991787413, 34.832277999608309 ], [ -79.351203991435113, 34.832044000310411 ], [ -79.353615991507951, 34.828750000283364 ], [ -79.353059991334135, 34.827588999813258 ], [ -79.351630991578375, 34.827699999772271 ], [ -79.35245799088689, 34.826967999601706 ], [ -79.35219999159051, 34.825889000377913 ], [ -79.353657990988552, 34.826193000119098 ], [ -79.352648990974785, 34.825132000116461 ], [ -79.353558991145547, 34.824958999599239 ], [ -79.35295899100403, 34.824024999706104 ], [ -79.355331991276515, 34.821896000338711 ], [ -79.356104991557388, 34.822062000096572 ], [ -79.356081990994056, 34.820730000149652 ], [ -79.356746991596864, 34.821273999988485 ], [ -79.357716991033513, 34.820605999657381 ], [ -79.356905990797685, 34.819509000317488 ], [ -79.35735899168175, 34.818856000355289 ], [ -79.355889990760176, 34.817773999661128 ], [ -79.355992991500088, 34.816435999710095 ], [ -79.354868991552692, 34.816696999645309 ], [ -79.355441991052331, 34.815265000113691 ], [ -79.355865991525533, 34.814522999987581 ], [ -79.359216991321077, 34.815044000383402 ], [ -79.372816990987971, 34.821578999784961 ], [ -79.380188991592064, 34.818343999820577 ], [ -79.388468991202842, 34.816891999676926 ], [ -79.393243991519483, 34.815024999622217 ], [ -79.401112991692429, 34.815210000103868 ], [ -79.408988991587805, 34.807959000473147 ] ] ] } }
]
}
