{
"type": "FeatureCollection",
"name": "stanly_county_board_of_commissioners_district_01_rep",
"crs": { "type": "name", "properties": { "name": "urn:ogc:def:crs:OGC:1.3:CRS84" } },
"features": [
{ "type": "Feature", "properties": { "county": "STANLY", "precinct": "127", "enr_desc": "Norwood", "winner": "Lane Furr", "winner_votes": 133, "winner_share": 53.846153846153847, "runner_up": "Mike Barbee", "runner_up_votes": 114, "runner_up_share": 46.153846153846153, "contest_votes": 247, "margin_of_victory": 7.6923076923076934, "is_tie": false, "results": [ { "candidate": "Lane Furr", "votes": 133, "share": 53.84615384615385 }, { "candidate": "Mike Barbee", "votes": 114, "share": 46.15384615384615 } ], "participated": true, "map_key": "STANLY_127" }, "geometry": { "type": "Polygon", "coordinates": [ [ [ -80.169143479800141, 35.270787311195264 ], [ -80.168383990925776, 35.270958000022354 ], [ -80.168818990913408, 35.278825999825045 ], [ -80.165482991186508, 35.284852999782707 ], [ -80.16043999149683, 35.286708999875273 ], [ -80.155659991142841, 35.294149999669877 ], [ -80.150211991754816, 35.297377999738138 ], [ -80.145462991021944, 35.298819000086858 ], [ -80.143004991442851, 35.297238000397606 ], [ -80.139902991175489, 35.299411999749225 ], [ -80.137891990991506, 35.299433999833582 ], [ -80.134459991637783, 35.294097000392696 ], [ -80.133146990699629, 35.293340000488016 ], [ -80.123676990877655, 35.294850000415821 ], [ -80.12157999105915, 35.294575999892956 ], [ -80.11869299102834, 35.292680000060365 ], [ -80.114707991150041, 35.292598000468814 ], [ -80.111015991153778, 35.291039999701304 ], [ -80.105256990826959, 35.292782999894904 ], [ -80.093965991016745, 35.287086999679936 ], [ -80.091767991084282, 35.275389000013 ], [ -80.092240991372535, 35.27198699991758 ], [ -80.097870990996185, 35.26141399984246 ], [ -80.09841099112711, 35.258086000330657 ], [ -80.098184991563897, 35.255172999977489 ], [ -80.092767991678684, 35.239295000339901 ], [ -80.090800991360865, 35.235989000286871 ], [ -80.088560991646105, 35.234165999711429 ], [ -80.078757991246491, 35.229128000055006 ], [ -80.076011991715916, 35.226968000035392 ], [ -80.069798991475409, 35.218314999987001 ], [ -80.066561991180947, 35.211651999697075 ], [ -80.065354991310357, 35.206031999832241 ], [ -80.061747000136904, 35.200258999782818 ], [ -80.060801999678418, 35.19625900008262 ], [ -80.061304999335192, 35.191793999447668 ], [ -80.060798999145987, 35.189189999540218 ], [ -80.053555999368371, 35.179509999514991 ], [ -80.053063999408096, 35.172624999477158 ], [ -80.057467999201506, 35.163245999763753 ], [ -80.060611999166412, 35.160208999987518 ], [ -80.068188999762214, 35.155755999666738 ], [ -80.075365000023879, 35.14308099936887 ], [ -80.076175999881187, 35.143184999830204 ], [ -80.077991999228857, 35.148040999655194 ], [ -80.089414999546875, 35.160504999594963 ], [ -80.094680999973335, 35.164921999916224 ], [ -80.102678999878748, 35.169161999543306 ], [ -80.10707099957996, 35.173062000072605 ], [ -80.108878000110366, 35.178669999562317 ], [ -80.108145999306572, 35.187966999771135 ], [ -80.110003999564739, 35.192093999893736 ], [ -80.1123509995885, 35.193750999943411 ], [ -80.114760999762368, 35.194304999365151 ], [ -80.123608567204329, 35.191696413043211 ], [ -80.124601816167214, 35.194209822735715 ], [ -80.123812980409866, 35.201031115280266 ], [ -80.128403898349987, 35.210913802032401 ], [ -80.134153317938598, 35.218265158485579 ], [ -80.13881323395772, 35.226329703052436 ], [ -80.141805373572026, 35.23377342188838 ], [ -80.143450324389647, 35.235048118960364 ], [ -80.151205230145223, 35.236712926348467 ], [ -80.152901431828084, 35.237736138210728 ], [ -80.159380621107204, 35.249483263481054 ], [ -80.161939304013373, 35.252745930518394 ], [ -80.165092430747933, 35.262445681813993 ], [ -80.169143479800141, 35.270787311195264 ] ] ] } },
{ "type": "Feature", "properties": { "county": "STANLY", "precinct": "126", "enr_desc": "Aquadale", "winner": "Lane Furr", "winner_votes": 116, "winner_share": 59.793814432989691, "runner_up": "Mike Barbee", "runner_up_votes": 78, "runner_up_share": 40.206185567010309, "contest_votes": 194, "margin_of_victory": 19.587628865979383, "is_tie": false, "results": [ { "candidate": "Lane Furr", "votes": 116, "share": 59.79381443298969 }, { "candidate": "Mike Barbee", "votes": 78, "share": 40.20618556701031 } ], "participated": true, "map_key": "STANLY_126" }, "geometry": { "type": "Polygon", "coordinates": [ [ [ -80.265778991181534, 35.23618300007103 ], [ -80.262819991584053, 35.237257999773 ], [ -80.26203799112939, 35.238449000327819 ], [ -80.261979990933725, 35.241197000231523 ], [ -80.263931991011674, 35.244565000105446 ], [ -80.264181991284588, 35.246511999873078 ], [ -80.261890991080065, 35.2490299997527 ], [ -80.26102499118096, 35.252806000300161 ], [ -80.261302991415263, 35.254064999987982 ], [ -80.266158991223634, 35.257914000098239 ], [ -80.266073990866943, 35.260753999770586 ], [ -80.264899991516955, 35.261737999698795 ], [ -80.258533990858552, 35.262514000536683 ], [ -80.256015991197771, 35.269590000347463 ], [ -80.254225990791724, 35.271330000014551 ], [ -80.252130991222614, 35.272016000322118 ], [ -80.250144991418907, 35.274488000394925 ], [ -80.25021399079273, 35.276777999964473 ], [ -80.247963991044045, 35.282510000497204 ], [ -80.244328991558675, 35.280944000396033 ], [ -80.238493991646649, 35.281982000181323 ], [ -80.232618991168138, 35.287082000117103 ], [ -80.223017991389767, 35.288487000244523 ], [ -80.222040991492904, 35.289211000488969 ], [ -80.220457991042466, 35.282585000156999 ], [ -80.222382990883133, 35.280800000532608 ], [ -80.223765991667278, 35.274025999740601 ], [ -80.218243990744881, 35.27575500036226 ], [ -80.211436991207037, 35.276271999703745 ], [ -80.206706991293203, 35.279868999939076 ], [ -80.201146990747688, 35.281352999913786 ], [ -80.200406991242673, 35.281134000308775 ], [ -80.201613991233032, 35.279052000024251 ], [ -80.196111991641999, 35.276389000465358 ], [ -80.189498990900987, 35.277048000254872 ], [ -80.179472991222823, 35.272903000017301 ], [ -80.175338991395151, 35.269682000078475 ], [ -80.169143479800141, 35.270787311195264 ], [ -80.165092430747933, 35.262445681813993 ], [ -80.161939304013373, 35.252745930518394 ], [ -80.159380621107204, 35.249483263481054 ], [ -80.152901431828084, 35.237736138210728 ], [ -80.151205230145223, 35.236712926348467 ], [ -80.143450324389647, 35.235048118960364 ], [ -80.141805373572026, 35.23377342188838 ], [ -80.13881323395772, 35.226329703052436 ], [ -80.134153317938598, 35.218265158485579 ], [ -80.128403898349987, 35.210913802032401 ], [ -80.123812980409866, 35.201031115280266 ], [ -80.124601816167214, 35.194209822735715 ], [ -80.123608567204329, 35.191696413043211 ], [ -80.127784000196286, 35.188958999185196 ], [ -80.12945400016136, 35.186346999898667 ], [ -80.128489000141428, 35.183132999903421 ], [ -80.124480999379685, 35.176952999735022 ], [ -80.124132999742073, 35.175436000040392 ], [ -80.124899999758881, 35.174418999756213 ], [ -80.13158000014748, 35.173472999955642 ], [ -80.13476699918651, 35.168427999609996 ], [ -80.136985999189534, 35.167423999676977 ], [ -80.142173999558295, 35.168384999788742 ], [ -80.150514999152207, 35.17417799971237 ], [ -80.153888999525961, 35.174946999439463 ], [ -80.156202000179889, 35.174350999822728 ], [ -80.157836997205067, 35.172788004170641 ], [ -80.15914399170083, 35.167332000433206 ], [ -80.16580699157808, 35.164528000215789 ], [ -80.167613990714699, 35.16190700042295 ], [ -80.166601991382706, 35.158475999778275 ], [ -80.161001991422808, 35.153067999992402 ], [ -80.15983099129781, 35.149820000171971 ], [ -80.161658990864595, 35.148291999821843 ], [ -80.165075991273042, 35.147476000342522 ], [ -80.173262990861858, 35.147897000401521 ], [ -80.18236999078114, 35.15185000028761 ], [ -80.185929991228278, 35.15462900032098 ], [ -80.191191990742112, 35.155905000283624 ], [ -80.193527991404181, 35.158877000191822 ], [ -80.194919991355619, 35.165381000127901 ], [ -80.197368990712761, 35.166585999831156 ], [ -80.20215099143833, 35.166611000114379 ], [ -80.205251990718835, 35.165433000012143 ], [ -80.206102990900604, 35.163777000431679 ], [ -80.206183990979198, 35.159143000213213 ], [ -80.207837991349436, 35.155986000220913 ], [ -80.221277991644683, 35.155423000483765 ], [ -80.225001991005399, 35.156241000161664 ], [ -80.230064990727513, 35.163589999898079 ], [ -80.231246991691194, 35.166681999698369 ], [ -80.236638991773873, 35.171498000232639 ], [ -80.241240990798616, 35.179070000152286 ], [ -80.242099991392465, 35.18157300037327 ], [ -80.239998990713573, 35.188066999693824 ], [ -80.250544991211697, 35.202097000213811 ], [ -80.251669991219927, 35.204546000062393 ], [ -80.251092990799705, 35.20833399989597 ], [ -80.253108990965259, 35.210851000198147 ], [ -80.255605990896655, 35.215086000435591 ], [ -80.257331990803564, 35.22188899981191 ], [ -80.264883991658024, 35.232956000155696 ], [ -80.265778991181534, 35.23618300007103 ] ] ] } },
{ "type": "Feature", "properties": { "county": "STANLY", "precinct": "3", "enr_desc": "Albemarle Number 3", "winner": "Lane Furr", "winner_votes": 80, "winner_share": 66.666666666666657, "runner_up": "Mike Barbee", "runner_up_votes": 40, "runner_up_share": 33.333333333333329, "contest_votes": 120, "margin_of_victory": 33.333333333333329, "is_tie": false, "results": [ { "candidate": "Lane Furr", "votes": 80, "share": 66.66666666666666 }, { "candidate": "Mike Barbee", "votes": 40, "share": 33.33333333333333 } ], "participated": true, "map_key": "STANLY_3" }, "geometry": { "type": "Polygon", "coordinates": [ [ [ -80.198103991586578, 35.350335000067048 ], [ -80.197588991086917, 35.357504999675342 ], [ -80.198279991066684, 35.360863000512701 ], [ -80.195299990694849, 35.365546999973773 ], [ -80.195945990728504, 35.367512000172198 ], [ -80.194267991062688, 35.369781000490299 ], [ -80.189417990922607, 35.370960999906927 ], [ -80.189325990678768, 35.372224999645283 ], [ -80.186127991236233, 35.374839999790048 ], [ -80.185751991730513, 35.378046000112334 ], [ -80.182977991145506, 35.381096000533766 ], [ -80.182126991500965, 35.381059999785478 ], [ -80.184897991340364, 35.377849000172077 ], [ -80.177050990851228, 35.377500999651062 ], [ -80.177006991756329, 35.379034999985116 ], [ -80.175095990991338, 35.378699000398242 ], [ -80.175142991634232, 35.37550600038989 ], [ -80.170475991106628, 35.378415000172261 ], [ -80.169691991539963, 35.377909999830791 ], [ -80.175170991707859, 35.37460899978128 ], [ -80.179947990732941, 35.364893999662222 ], [ -80.182583990964844, 35.365851999921738 ], [ -80.182320990712711, 35.355353000065747 ], [ -80.17957399101887, 35.355393999906212 ], [ -80.180179990846156, 35.353215999876461 ], [ -80.178570999571889, 35.352517999615394 ], [ -80.186841990703726, 35.352263000495313 ], [ -80.192892991314551, 35.350138999648273 ], [ -80.198103991586578, 35.350335000067048 ] ] ] } },
{ "type": "Feature", "properties": { "county": "STANLY", "precinct": "19", "enr_desc": "Ridenhour", "winner": "Lane Furr", "winner_votes": 135, "winner_share": 79.881656804733723, "runner_up": "Mike Barbee", "runner_up_votes": 34, "runner_up_share": 20.118343195266274, "contest_votes": 169, "margin_of_victory": 59.763313609467446, "is_tie": false, "results": [ { "candidate": "Lane Furr", "votes": 135, "share": 79.88165680473372 }, { "candidate": "Mike Barbee", "votes": 34, "share": 20.118343195266274 } ], "participated": true, "map_key": "STANLY_19" }, "geometry": { "type": "Polygon", "coordinates": [ [ [ -80.32470999173178, 35.45879700030433 ], [ -80.313047991749954, 35.460405999927332 ], [ -80.287474991409312, 35.46856599991488 ], [ -80.272800990968761, 35.469689999803009 ], [ -80.273030991604344, 35.468713000450663 ], [ -80.269665991662279, 35.468476000460392 ], [ -80.263716990782285, 35.465534999892526 ], [ -80.264008991158562, 35.464087000230478 ], [ -80.261809990954731, 35.4621569998517 ], [ -80.259770991576559, 35.454869000100466 ], [ -80.259049990791326, 35.455150999754082 ], [ -80.257961991246574, 35.451432000303527 ], [ -80.249966991059495, 35.443118000238137 ], [ -80.243643990761342, 35.425636999707713 ], [ -80.239067991323466, 35.421306000029915 ], [ -80.236700990974143, 35.417753999750481 ], [ -80.235353991050616, 35.413707000337112 ], [ -80.227480991061427, 35.405551000431956 ], [ -80.24996699079459, 35.399470000366293 ], [ -80.254829990943165, 35.396839000485642 ], [ -80.265097991284875, 35.387975999864828 ], [ -80.269198991614971, 35.381543000365774 ], [ -80.274171991261198, 35.379236000155188 ], [ -80.275467991133226, 35.377198999671251 ], [ -80.279737990791347, 35.374936000180938 ], [ -80.282910991398381, 35.371477000424811 ], [ -80.293896991182521, 35.377264000307591 ], [ -80.303448991497632, 35.380687999650618 ], [ -80.321881990821836, 35.381848999762475 ], [ -80.328424991132209, 35.384501000035279 ], [ -80.336256990780029, 35.38466699986467 ], [ -80.344637991444614, 35.382339000069749 ], [ -80.358228991662813, 35.38485100033337 ], [ -80.373777990759876, 35.384751000308263 ], [ -80.32470999173178, 35.45879700030433 ] ] ] } },
{ "type": "Feature", "properties": { "county": "STANLY", "precinct": "25", "enr_desc": "Furr Number 2", "winner": "Lane Furr", "winner_votes": 257, "winner_share": 84.539473684210535, "runner_up": "Mike Barbee", "runner_up_votes": 47, "runner_up_share": 15.460526315789474, "contest_votes": 304, "margin_of_victory": 69.078947368421055, "is_tie": false, "results": [ { "candidate": "Lane Furr", "votes": 257, "share": 84.53947368421053 }, { "candidate": "Mike Barbee", "votes": 47, "share": 15.460526315789474 } ], "participated": true, "map_key": "STANLY_25" }, "geometry": { "type": "Polygon", "coordinates": [ [ [ -80.459508991129795, 35.254178000497745 ], [ -80.456393991550584, 35.254857000480861 ], [ -80.45105999166843, 35.254586000226702 ], [ -80.45305099123398, 35.251106000249543 ], [ -80.449952991510145, 35.251008000447058 ], [ -80.446694991485003, 35.242384000264309 ], [ -80.443607991658467, 35.241296000312929 ], [ -80.432512991547782, 35.241597999936467 ], [ -80.427472991736138, 35.247166000242515 ], [ -80.428390991595833, 35.252694999833473 ], [ -80.425520990688753, 35.252676999847473 ], [ -80.424715991243204, 35.251176999892238 ], [ -80.423927991319133, 35.251192999671453 ], [ -80.424007991236394, 35.25279100042156 ], [ -80.421710991103438, 35.252720999850474 ], [ -80.422492990682542, 35.250832999744027 ], [ -80.41961299073192, 35.250523000064234 ], [ -80.41919899129681, 35.251396000436479 ], [ -80.419997991383653, 35.251729999802293 ], [ -80.418441990695143, 35.252841000210367 ], [ -80.415407990912854, 35.253076000184798 ], [ -80.411788991465343, 35.250413000270974 ], [ -80.410082991226901, 35.248038999770458 ], [ -80.410211990958643, 35.244949999885314 ], [ -80.408766991233691, 35.240279000423648 ], [ -80.394224991186093, 35.233649000078408 ], [ -80.39053299134406, 35.2316050002336 ], [ -80.391203990855914, 35.22965600012693 ], [ -80.390310991501806, 35.229060000018194 ], [ -80.388917991149498, 35.224938000538863 ], [ -80.391096991654891, 35.222235999844351 ], [ -80.390288991575488, 35.219120999739651 ], [ -80.388587991114562, 35.216922000209408 ], [ -80.385990990796572, 35.218455000222725 ], [ -80.384483991162881, 35.217927999718547 ], [ -80.383759991554939, 35.216049000396268 ], [ -80.384515991236071, 35.212271000152121 ], [ -80.383846991361779, 35.211812000187344 ], [ -80.379965991611996, 35.214421000533861 ], [ -80.377259991196013, 35.213594999914491 ], [ -80.376227990771724, 35.212221000151985 ], [ -80.378015991612017, 35.210160000269667 ], [ -80.380024991125055, 35.209222000515851 ], [ -80.381647991240769, 35.203268000163725 ], [ -80.37908299174218, 35.200838999950058 ], [ -80.378748991187578, 35.199168000191555 ], [ -80.374339991430389, 35.199122000515516 ], [ -80.372798991048526, 35.193603000283829 ], [ -80.373885991139787, 35.191678000511558 ], [ -80.375462991427355, 35.191036000097341 ], [ -80.375323991221052, 35.190348999784639 ], [ -80.373184991760738, 35.186708999811849 ], [ -80.369055991544812, 35.186711000084003 ], [ -80.370974991531014, 35.179701999935439 ], [ -80.376771991639231, 35.177507000386647 ], [ -80.379592990990687, 35.17278400013226 ], [ -80.388327991452698, 35.16586200024306 ], [ -80.397780991755312, 35.165452000527033 ], [ -80.400755991162882, 35.167202999752945 ], [ -80.40290899151664, 35.167293000325209 ], [ -80.405434991557968, 35.166490000224044 ], [ -80.408555991159758, 35.163747000531309 ], [ -80.412186991724354, 35.163371000145766 ], [ -80.415743991656441, 35.166492000481611 ], [ -80.415707991247132, 35.168949000250834 ], [ -80.417046991411198, 35.171599999660273 ], [ -80.419434991265675, 35.172848000167278 ], [ -80.425476991307121, 35.17019799993362 ], [ -80.430316990820458, 35.166163999910729 ], [ -80.435923990701511, 35.165043000190046 ], [ -80.440079991538838, 35.161039999732019 ], [ -80.44722899071472, 35.164796000479335 ], [ -80.452858991225725, 35.165522000540776 ], [ -80.455890991010534, 35.164257000352904 ], [ -80.459346990978588, 35.1650770004875 ], [ -80.461647991251056, 35.168985999952369 ], [ -80.463732990719066, 35.170372000322679 ], [ -80.465448991025511, 35.169773999715389 ], [ -80.467889990815422, 35.166799000448741 ], [ -80.469820991058043, 35.166924999815578 ], [ -80.471711990891933, 35.169419999763235 ], [ -80.476223991792736, 35.171801000416288 ], [ -80.477031991553091, 35.173281000427515 ], [ -80.477062991355893, 35.177518999852232 ], [ -80.480596991660008, 35.179912000052404 ], [ -80.482757991308247, 35.179946999868754 ], [ -80.485586991548644, 35.17651900032299 ], [ -80.488891991748659, 35.175489000056743 ], [ -80.493363990887033, 35.178855999780595 ], [ -80.500721990803399, 35.180497000461784 ], [ -80.503963991314549, 35.181997000040987 ], [ -80.505399991197322, 35.183723000101921 ], [ -80.504106991411106, 35.18748600047909 ], [ -80.506095990725001, 35.191475999902423 ], [ -80.505654990829271, 35.193750999695759 ], [ -80.499538990703655, 35.198064999798405 ], [ -80.496646991388531, 35.203338000439118 ], [ -80.494388990934411, 35.20562199967798 ], [ -80.489081991553775, 35.209867000293407 ], [ -80.483402991005093, 35.212428000178136 ], [ -80.483052991393194, 35.214094000105391 ], [ -80.484355991017281, 35.216367999805811 ], [ -80.459508991129795, 35.254178000497745 ] ] ] } },
{ "type": "Feature", "properties": { "county": "STANLY", "precinct": "11", "enr_desc": "Albemarle Number 11", "winner": "Lane Furr", "winner_votes": 73, "winner_share": 70.192307692307693, "runner_up": "Mike Barbee", "runner_up_votes": 31, "runner_up_share": 29.807692307692307, "contest_votes": 104, "margin_of_victory": 40.384615384615387, "is_tie": false, "results": [ { "candidate": "Lane Furr", "votes": 73, "share": 70.1923076923077 }, { "candidate": "Mike Barbee", "votes": 31, "share": 29.807692307692307 } ], "participated": true, "map_key": "STANLY_11" }, "geometry": { "type": "Polygon", "coordinates": [ [ [ -80.201783991345593, 35.406716000030606 ], [ -80.196715990986689, 35.407195000102902 ], [ -80.197187990710518, 35.409242000440862 ], [ -80.190851991364084, 35.409174000124011 ], [ -80.189854991317048, 35.406665999866846 ], [ -80.187883990883179, 35.406429000448824 ], [ -80.186004991733299, 35.400683999942331 ], [ -80.182255991373196, 35.401590999861668 ], [ -80.183150991474463, 35.398897999711245 ], [ -80.18472299096176, 35.398336000026219 ], [ -80.18233599096888, 35.395016000014969 ], [ -80.182374991326313, 35.392528000359967 ], [ -80.177806991120164, 35.395847000412921 ], [ -80.176780990689963, 35.394191000387494 ], [ -80.176607990864994, 35.392446000355015 ], [ -80.179786990687234, 35.392654000060332 ], [ -80.17874299116923, 35.391753000230871 ], [ -80.180009991517849, 35.390515000094716 ], [ -80.179140991085774, 35.389867999888168 ], [ -80.179955991686739, 35.389160000497277 ], [ -80.179204991334586, 35.388073000215208 ], [ -80.183776991483143, 35.387235000494897 ], [ -80.182126991500965, 35.381059999785478 ], [ -80.182977991145506, 35.381096000533766 ], [ -80.185751991730513, 35.378046000112334 ], [ -80.186127991236233, 35.374839999790048 ], [ -80.189325990678768, 35.372224999645283 ], [ -80.189417990922607, 35.370960999906927 ], [ -80.194267991062688, 35.369781000490299 ], [ -80.195945990728504, 35.367512000172198 ], [ -80.198792991334187, 35.370524999643578 ], [ -80.197866991438019, 35.371745000103218 ], [ -80.200217991149572, 35.372601000378054 ], [ -80.202469991112125, 35.37193300002582 ], [ -80.210428991540596, 35.381895999983726 ], [ -80.212008991181548, 35.385864999754048 ], [ -80.216561990910066, 35.392551000371263 ], [ -80.215012990953809, 35.396669999742777 ], [ -80.209678991770602, 35.403123000191542 ], [ -80.208237991387776, 35.406334999636073 ], [ -80.201783991345593, 35.406716000030606 ] ] ] } },
{ "type": "Feature", "properties": { "county": "STANLY", "precinct": "14", "enr_desc": "East Albemarle", "winner": "Lane Furr", "winner_votes": 60, "winner_share": 58.252427184466015, "runner_up": "Mike Barbee", "runner_up_votes": 43, "runner_up_share": 41.747572815533978, "contest_votes": 103, "margin_of_victory": 16.504854368932037, "is_tie": false, "results": [ { "candidate": "Lane Furr", "votes": 60, "share": 58.252427184466015 }, { "candidate": "Mike Barbee", "votes": 43, "share": 41.74757281553398 } ], "participated": true, "map_key": "STANLY_14" }, "geometry": { "type": "Polygon", "coordinates": [ [ [ -80.093965991016745, 35.287086999679936 ], [ -80.105256990826959, 35.292782999894904 ], [ -80.111015991153778, 35.291039999701304 ], [ -80.114707991150041, 35.292598000468814 ], [ -80.11869299102834, 35.292680000060365 ], [ -80.12157999105915, 35.294575999892956 ], [ -80.123676990877655, 35.294850000415821 ], [ -80.133146990699629, 35.293340000488016 ], [ -80.134459991637783, 35.294097000392696 ], [ -80.137891990991506, 35.299433999833582 ], [ -80.139902991175489, 35.299411999749225 ], [ -80.143004991442851, 35.297238000397606 ], [ -80.145462991021944, 35.298819000086858 ], [ -80.146576991654229, 35.304499000309953 ], [ -80.148698991396898, 35.306102999669562 ], [ -80.155083991094855, 35.318359000323888 ], [ -80.141042990673583, 35.330596999679223 ], [ -80.13753099088963, 35.3391049997133 ], [ -80.141163991666303, 35.342653999811446 ], [ -80.143674999381318, 35.343812999740045 ], [ -80.143010991157738, 35.344422000218323 ], [ -80.150857990975467, 35.345723000118269 ], [ -80.151080991623701, 35.349799000020909 ], [ -80.149074990816132, 35.349656000310176 ], [ -80.149013990862272, 35.350980000090615 ], [ -80.151017990720817, 35.350978000354573 ], [ -80.149075991702944, 35.351444999768148 ], [ -80.149231991047145, 35.356972000053197 ], [ -80.152357990715316, 35.356075000362686 ], [ -80.152606990902612, 35.362639999755118 ], [ -80.14866899146989, 35.364130999635968 ], [ -80.147902991642326, 35.362882000519697 ], [ -80.148088991299957, 35.364013000053845 ], [ -80.145735990895091, 35.364521000104666 ], [ -80.139454991565458, 35.363430999983954 ], [ -80.138195991718803, 35.363816000196188 ], [ -80.137996990728226, 35.366206000371832 ], [ -80.13848899148762, 35.367318999888028 ], [ -80.141263991206387, 35.365980000439293 ], [ -80.141510990768353, 35.366996999971995 ], [ -80.145806991369113, 35.366148999679503 ], [ -80.147252991030356, 35.364713999817312 ], [ -80.147653991016526, 35.365330999918456 ], [ -80.149015991440606, 35.364751999641022 ], [ -80.145805991132647, 35.368448999798346 ], [ -80.133178991246083, 35.372674999723614 ], [ -80.128435991439289, 35.37147499964555 ], [ -80.125622991365773, 35.371729000161501 ], [ -80.121017991763111, 35.373988999775065 ], [ -80.115515991149195, 35.373030999997091 ], [ -80.111412991638048, 35.369342000360817 ], [ -80.114129991456679, 35.35629899981663 ], [ -80.112815990764076, 35.355588999788829 ], [ -80.10767299095798, 35.355454000014952 ], [ -80.10448399117773, 35.350439999878979 ], [ -80.104146990970406, 35.347348000208427 ], [ -80.102525991421572, 35.347577000173686 ], [ -80.101659991129196, 35.350027999985755 ], [ -80.10040299098911, 35.350417999639504 ], [ -80.097996990950662, 35.347373000382582 ], [ -80.093049991758022, 35.345678999756458 ], [ -80.091147991255113, 35.344305999770519 ], [ -80.090197991047162, 35.342474000349966 ], [ -80.083017991555096, 35.340106999972193 ], [ -80.078965990951332, 35.336508000241892 ], [ -80.077159991017211, 35.337264999948324 ], [ -80.077826990800304, 35.342268000047746 ], [ -80.077387991559675, 35.344333000431718 ], [ -80.073976991513163, 35.34592999988179 ], [ -80.065957991006456, 35.345212999942326 ], [ -80.066334991243252, 35.340646999630188 ], [ -80.067599991537406, 35.338620000014657 ], [ -80.075181990718278, 35.3312779999765 ], [ -80.081937990974069, 35.321457000268737 ], [ -80.081957991274905, 35.318612999902527 ], [ -80.079915991716945, 35.314543000068817 ], [ -80.079536991654763, 35.311102999693333 ], [ -80.080482991692577, 35.307623000202433 ], [ -80.090468990722101, 35.294266999643909 ], [ -80.093965991016745, 35.287086999679936 ] ] ] } },
{ "type": "Feature", "properties": { "county": "STANLY", "precinct": "15", "enr_desc": "Badin", "winner": "Lane Furr", "winner_votes": 65, "winner_share": 71.428571428571431, "runner_up": "Mike Barbee", "runner_up_votes": 26, "runner_up_share": 28.571428571428569, "contest_votes": 91, "margin_of_victory": 42.857142857142861, "is_tie": false, "results": [ { "candidate": "Lane Furr", "votes": 65, "share": 71.42857142857143 }, { "candidate": "Mike Barbee", "votes": 26, "share": 28.57142857142857 } ], "participated": true, "map_key": "STANLY_15" }, "geometry": { "type": "Polygon", "coordinates": [ [ [ -80.145805991132647, 35.368448999798346 ], [ -80.1406219911796, 35.381621999670401 ], [ -80.146388991170511, 35.386473999717992 ], [ -80.145836990989068, 35.390814999906077 ], [ -80.147089990995156, 35.392990000166158 ], [ -80.150079991524905, 35.395225000340716 ], [ -80.15079499089218, 35.401477000053291 ], [ -80.16038599072904, 35.403811000530055 ], [ -80.146792991178287, 35.411192000195868 ], [ -80.14064799106238, 35.417472000233182 ], [ -80.136787991129282, 35.417827000388385 ], [ -80.130313990939058, 35.421939000168749 ], [ -80.126999991107098, 35.421663999648132 ], [ -80.121677991651538, 35.418660000448803 ], [ -80.116299991324297, 35.413822000144172 ], [ -80.114339990825954, 35.413071000433931 ], [ -80.11525299149217, 35.412634000334442 ], [ -80.114437991457223, 35.4111540005118 ], [ -80.115350991542869, 35.408163000279337 ], [ -80.114465990931023, 35.407739000226549 ], [ -80.113311991261298, 35.408122000470371 ], [ -80.110711991074609, 35.412604999900267 ], [ -80.109165991336525, 35.412397999890352 ], [ -80.106308991292124, 35.415091000302965 ], [ -80.103388991730839, 35.411926999886965 ], [ -80.103410991229353, 35.415169000355135 ], [ -80.104591991403481, 35.415856000112448 ], [ -80.102890991463809, 35.416963000281463 ], [ -80.103620990975216, 35.41964200005016 ], [ -80.10291399156597, 35.421499000004076 ], [ -80.101536990972392, 35.421945999900956 ], [ -80.099459991514863, 35.425131000008527 ], [ -80.097934991018917, 35.424041000266065 ], [ -80.094939991513442, 35.418621999762792 ], [ -80.093271991529477, 35.419928000522752 ], [ -80.090118990877329, 35.415552000148445 ], [ -80.093717991027063, 35.405473999938202 ], [ -80.093710990921778, 35.402030000289514 ], [ -80.087271991408585, 35.39887600011177 ], [ -80.083903990736289, 35.395093999941253 ], [ -80.075032990962697, 35.395071999940981 ], [ -80.066136991203606, 35.389514000328418 ], [ -80.062270991284507, 35.386133999940014 ], [ -80.057924991382535, 35.377688000371748 ], [ -80.051224991755376, 35.371536999684068 ], [ -80.05266599132969, 35.367562999931081 ], [ -80.054137991554995, 35.365959000039467 ], [ -80.065387991011917, 35.360474000066731 ], [ -80.066370991749125, 35.357145000453571 ], [ -80.065957991006456, 35.345212999942326 ], [ -80.073976991513163, 35.34592999988179 ], [ -80.077387991559675, 35.344333000431718 ], [ -80.077826990800304, 35.342268000047746 ], [ -80.077159991017211, 35.337264999948324 ], [ -80.078965990951332, 35.336508000241892 ], [ -80.083017991555096, 35.340106999972193 ], [ -80.090197991047162, 35.342474000349966 ], [ -80.091147991255113, 35.344305999770519 ], [ -80.093049991758022, 35.345678999756458 ], [ -80.097996990950662, 35.347373000382582 ], [ -80.10040299098911, 35.350417999639504 ], [ -80.101659991129196, 35.350027999985755 ], [ -80.102525991421572, 35.347577000173686 ], [ -80.104146990970406, 35.347348000208427 ], [ -80.10448399117773, 35.350439999878979 ], [ -80.10767299095798, 35.355454000014952 ], [ -80.112815990764076, 35.355588999788829 ], [ -80.114129991456679, 35.35629899981663 ], [ -80.111412991638048, 35.369342000360817 ], [ -80.115515991149195, 35.373030999997091 ], [ -80.121017991763111, 35.373988999775065 ], [ -80.125622991365773, 35.371729000161501 ], [ -80.128435991439289, 35.37147499964555 ], [ -80.133178991246083, 35.372674999723614 ], [ -80.145805991132647, 35.368448999798346 ] ] ] } },
{ "type": "Feature", "properties": { "county": "STANLY", "precinct": "16", "enr_desc": "Palmerville", "winner": "Lane Furr", "winner_votes": 69, "winner_share": 75.824175824175825, "runner_up": "Mike Barbee", "runner_up_votes": 22, "runner_up_share": 24.175824175824175, "contest_votes": 91, "margin_of_victory": 51.64835164835165, "is_tie": false, "results": [ { "candidate": "Lane Furr", "votes": 69, "share": 75.82417582417582 }, { "candidate": "Mike Barbee", "votes": 22, "share": 24.175824175824175 } ], "participated": true, "map_key": "STANLY_16" }, "geometry": { "type": "Polygon", "coordinates": [ [ [ -80.145805991132647, 35.368448999798346 ], [ -80.149015991440606, 35.364751999641022 ], [ -80.149451991723424, 35.365260000348847 ], [ -80.152907991599974, 35.36387900040085 ], [ -80.154006991612775, 35.367905999699893 ], [ -80.15736599086739, 35.370025000366525 ], [ -80.158335991081401, 35.372912000423952 ], [ -80.162658991193126, 35.372931000162325 ], [ -80.165895990862992, 35.376534000018744 ], [ -80.167014990719579, 35.376183999745265 ], [ -80.169691991539963, 35.377909999830791 ], [ -80.170475991106628, 35.378415000172261 ], [ -80.175142991634232, 35.37550600038989 ], [ -80.175095990991338, 35.378699000398242 ], [ -80.177006991756329, 35.379034999985116 ], [ -80.177050990851228, 35.377500999651062 ], [ -80.184897991340364, 35.377849000172077 ], [ -80.182126991500965, 35.381059999785478 ], [ -80.183776991483143, 35.387235000494897 ], [ -80.179204991334586, 35.388073000215208 ], [ -80.179955991686739, 35.389160000497277 ], [ -80.179140991085774, 35.389867999888168 ], [ -80.180009991517849, 35.390515000094716 ], [ -80.17874299116923, 35.391753000230871 ], [ -80.179786990687234, 35.392654000060332 ], [ -80.176607990864994, 35.392446000355015 ], [ -80.176780990689963, 35.394191000387494 ], [ -80.177806991120164, 35.395847000412921 ], [ -80.182374991326313, 35.392528000359967 ], [ -80.18233599096888, 35.395016000014969 ], [ -80.18472299096176, 35.398336000026219 ], [ -80.183150991474463, 35.398897999711245 ], [ -80.182255991373196, 35.401590999861668 ], [ -80.186004991733299, 35.400683999942331 ], [ -80.187883990883179, 35.406429000448824 ], [ -80.186660991613522, 35.409919999740119 ], [ -80.183138991487169, 35.414770999737662 ], [ -80.181932991541942, 35.425366000122736 ], [ -80.178562990997648, 35.430351999641857 ], [ -80.170867991656465, 35.437573000283322 ], [ -80.168551991378465, 35.440767000155972 ], [ -80.159942990714072, 35.449011000231025 ], [ -80.155606991164618, 35.451533000150221 ], [ -80.155273991149159, 35.455535000152793 ], [ -80.153742991443977, 35.460339999717824 ], [ -80.144277991181852, 35.466612000218802 ], [ -80.139208991327209, 35.468055000009898 ], [ -80.136831991653438, 35.467816999670077 ], [ -80.13968099156007, 35.471077000447984 ], [ -80.146015991289175, 35.473157000133675 ], [ -80.142838991263559, 35.474532999998722 ], [ -80.139292990773541, 35.474855000054539 ], [ -80.136536990988603, 35.473353999652851 ], [ -80.129339990736383, 35.467148000233614 ], [ -80.118250990795445, 35.46526099987144 ], [ -80.109913991061518, 35.460982000087085 ], [ -80.108494991538038, 35.459450999947009 ], [ -80.108164991697109, 35.457203000255305 ], [ -80.109380991665873, 35.44857200041649 ], [ -80.108655990874809, 35.445090000407234 ], [ -80.107024991616356, 35.44295800031432 ], [ -80.100224991026863, 35.440801000301271 ], [ -80.097467990863436, 35.438094000088782 ], [ -80.096959991225631, 35.436287000410296 ], [ -80.097713991234386, 35.433910000079543 ], [ -80.10049099072171, 35.429903000074162 ], [ -80.095938991306383, 35.425417000324082 ], [ -80.093271991529477, 35.419928000522752 ], [ -80.094939991513442, 35.418621999762792 ], [ -80.097934991018917, 35.424041000266065 ], [ -80.099459991514863, 35.425131000008527 ], [ -80.101536990972392, 35.421945999900956 ], [ -80.10291399156597, 35.421499000004076 ], [ -80.103620990975216, 35.41964200005016 ], [ -80.102890991463809, 35.416963000281463 ], [ -80.104591991403481, 35.415856000112448 ], [ -80.103410991229353, 35.415169000355135 ], [ -80.103388991730839, 35.411926999886965 ], [ -80.106308991292124, 35.415091000302965 ], [ -80.109165991336525, 35.412397999890352 ], [ -80.110711991074609, 35.412604999900267 ], [ -80.113311991261298, 35.408122000470371 ], [ -80.114465990931023, 35.407739000226549 ], [ -80.115350991542869, 35.408163000279337 ], [ -80.114437991457223, 35.4111540005118 ], [ -80.11525299149217, 35.412634000334442 ], [ -80.114339990825954, 35.413071000433931 ], [ -80.116299991324297, 35.413822000144172 ], [ -80.121677991651538, 35.418660000448803 ], [ -80.126999991107098, 35.421663999648132 ], [ -80.130313990939058, 35.421939000168749 ], [ -80.136787991129282, 35.417827000388385 ], [ -80.14064799106238, 35.417472000233182 ], [ -80.146792991178287, 35.411192000195868 ], [ -80.16038599072904, 35.403811000530055 ], [ -80.15079499089218, 35.401477000053291 ], [ -80.150079991524905, 35.395225000340716 ], [ -80.147089990995156, 35.392990000166158 ], [ -80.145836990989068, 35.390814999906077 ], [ -80.146388991170511, 35.386473999717992 ], [ -80.1406219911796, 35.381621999670401 ], [ -80.145805991132647, 35.368448999798346 ] ] ] } },
{ "type": "Feature", "properties": { "county": "STANLY", "precinct": "17", "enr_desc": "New London", "winner": "Lane Furr", "winner_votes": 146, "winner_share": 76.84210526315789, "runner_up": "Mike Barbee", "runner_up_votes": 44, "runner_up_share": 23.157894736842106, "contest_votes": 190, "margin_of_victory": 53.68421052631578, "is_tie": false, "results": [ { "candidate": "Lane Furr", "votes": 146, "share": 76.84210526315789 }, { "candidate": "Mike Barbee", "votes": 44, "share": 23.157894736842106 } ], "participated": true, "map_key": "STANLY_17" }, "geometry": { "type": "Polygon", "coordinates": [ [ [ -80.187883990883179, 35.406429000448824 ], [ -80.189854991317048, 35.406665999866846 ], [ -80.190851991364084, 35.409174000124011 ], [ -80.197187990710518, 35.409242000440862 ], [ -80.196715990986689, 35.407195000102902 ], [ -80.201783991345593, 35.406716000030606 ], [ -80.205877990690638, 35.41431999973657 ], [ -80.208362991284673, 35.41439600051676 ], [ -80.219176990675251, 35.406696000525876 ], [ -80.2240129915442, 35.408170999688551 ], [ -80.225164990797069, 35.406190999693528 ], [ -80.227480991061427, 35.405551000431956 ], [ -80.235353991050616, 35.413707000337112 ], [ -80.236700990974143, 35.417753999750481 ], [ -80.239067991323466, 35.421306000029915 ], [ -80.243643990761342, 35.425636999707713 ], [ -80.249966991059495, 35.443118000238137 ], [ -80.24834899145273, 35.444540999813903 ], [ -80.248384991649317, 35.449190000183215 ], [ -80.242078990797523, 35.449914999878878 ], [ -80.239907990787941, 35.451632000496659 ], [ -80.235332991353602, 35.452964000202371 ], [ -80.23834599083942, 35.457498000536631 ], [ -80.223505991582698, 35.450804000534653 ], [ -80.221227991204756, 35.448440000471933 ], [ -80.223234991272122, 35.454102000464722 ], [ -80.224069991214648, 35.460320000271075 ], [ -80.221174991544316, 35.465510000400819 ], [ -80.213633991285676, 35.471727000475511 ], [ -80.210720990868069, 35.481405000177098 ], [ -80.206820991259775, 35.487078000055305 ], [ -80.206464990794345, 35.492147999886861 ], [ -80.205522991196446, 35.494587999848825 ], [ -80.199439991304942, 35.500550000358679 ], [ -80.189401991454716, 35.503328000047347 ], [ -80.182865991265302, 35.503274000398413 ], [ -80.183263991424909, 35.504141000309708 ], [ -80.182558991219523, 35.504151000015426 ], [ -80.179985991052732, 35.499898999757754 ], [ -80.178746990971732, 35.49093600002503 ], [ -80.176242990974274, 35.485428000032108 ], [ -80.16586499136038, 35.480223000447829 ], [ -80.161735991533703, 35.475208000090959 ], [ -80.150217990683814, 35.472713999855664 ], [ -80.146015991289175, 35.473157000133675 ], [ -80.13968099156007, 35.471077000447984 ], [ -80.136831991653438, 35.467816999670077 ], [ -80.139208991327209, 35.468055000009898 ], [ -80.144277991181852, 35.466612000218802 ], [ -80.153742991443977, 35.460339999717824 ], [ -80.155273991149159, 35.455535000152793 ], [ -80.155606991164618, 35.451533000150221 ], [ -80.159942990714072, 35.449011000231025 ], [ -80.168551991378465, 35.440767000155972 ], [ -80.170867991656465, 35.437573000283322 ], [ -80.178562990997648, 35.430351999641857 ], [ -80.181932991541942, 35.425366000122736 ], [ -80.183138991487169, 35.414770999737662 ], [ -80.186660991613522, 35.409919999740119 ], [ -80.187883990883179, 35.406429000448824 ] ] ] } },
{ "type": "Feature", "properties": { "county": "STANLY", "precinct": "18", "enr_desc": "Richfield", "winner": "Lane Furr", "winner_votes": 89, "winner_share": 78.070175438596493, "runner_up": "Mike Barbee", "runner_up_votes": 25, "runner_up_share": 21.929824561403507, "contest_votes": 114, "margin_of_victory": 56.140350877192986, "is_tie": false, "results": [ { "candidate": "Lane Furr", "votes": 89, "share": 78.0701754385965 }, { "candidate": "Mike Barbee", "votes": 25, "share": 21.929824561403507 } ], "participated": true, "map_key": "STANLY_18" }, "geometry": { "type": "Polygon", "coordinates": [ [ [ -80.32470999173178, 35.45879700030433 ], [ -80.295420991192415, 35.502920000450231 ], [ -80.189401991454716, 35.503328000047347 ], [ -80.199439991304942, 35.500550000358679 ], [ -80.205522991196446, 35.494587999848825 ], [ -80.206464990794345, 35.492147999886861 ], [ -80.206820991259775, 35.487078000055305 ], [ -80.210720990868069, 35.481405000177098 ], [ -80.213633991285676, 35.471727000475511 ], [ -80.221174991544316, 35.465510000400819 ], [ -80.224069991214648, 35.460320000271075 ], [ -80.223234991272122, 35.454102000464722 ], [ -80.221227991204756, 35.448440000471933 ], [ -80.223505991582698, 35.450804000534653 ], [ -80.23834599083942, 35.457498000536631 ], [ -80.235332991353602, 35.452964000202371 ], [ -80.239907990787941, 35.451632000496659 ], [ -80.242078990797523, 35.449914999878878 ], [ -80.248384991649317, 35.449190000183215 ], [ -80.24834899145273, 35.444540999813903 ], [ -80.249966991059495, 35.443118000238137 ], [ -80.257961991246574, 35.451432000303527 ], [ -80.259049990791326, 35.455150999754082 ], [ -80.259770991576559, 35.454869000100466 ], [ -80.261809990954731, 35.4621569998517 ], [ -80.264008991158562, 35.464087000230478 ], [ -80.263716990782285, 35.465534999892526 ], [ -80.269665991662279, 35.468476000460392 ], [ -80.273030991604344, 35.468713000450663 ], [ -80.272800990968761, 35.469689999803009 ], [ -80.287474991409312, 35.46856599991488 ], [ -80.313047991749954, 35.460405999927332 ], [ -80.32470999173178, 35.45879700030433 ] ] ] } },
{ "type": "Feature", "properties": { "county": "STANLY", "precinct": "21", "enr_desc": "Endy", "winner": "Lane Furr", "winner_votes": 84, "winner_share": 64.122137404580144, "runner_up": "Mike Barbee", "runner_up_votes": 47, "runner_up_share": 35.877862595419849, "contest_votes": 131, "margin_of_victory": 28.244274809160295, "is_tie": false, "results": [ { "candidate": "Lane Furr", "votes": 84, "share": 64.12213740458014 }, { "candidate": "Mike Barbee", "votes": 47, "share": 35.87786259541985 } ], "participated": true, "map_key": "STANLY_21" }, "geometry": { "type": "Polygon", "coordinates": [ [ [ -80.287521990791149, 35.255877999975368 ], [ -80.28860799119694, 35.257600000060528 ], [ -80.291650990727959, 35.257944000251427 ], [ -80.294748990842308, 35.261815000202461 ], [ -80.296116991308295, 35.264494999680117 ], [ -80.297204991302294, 35.271618000031445 ], [ -80.299940991630791, 35.273197999747694 ], [ -80.303486991426709, 35.282520000155081 ], [ -80.30708899132307, 35.286391000070552 ], [ -80.315664990741865, 35.302033000199778 ], [ -80.318541991144784, 35.304230999722392 ], [ -80.318066991056142, 35.305490999860687 ], [ -80.319071990781538, 35.306889000148047 ], [ -80.312377991764166, 35.311358000500611 ], [ -80.309762990863177, 35.314246000266436 ], [ -80.304101991294829, 35.317197000364501 ], [ -80.303569990794003, 35.321201000131673 ], [ -80.304433990748805, 35.33081600030868 ], [ -80.303985991133757, 35.332249000368691 ], [ -80.294389991234169, 35.330596000538371 ], [ -80.28693999084264, 35.32811999992574 ], [ -80.273117991748435, 35.331288999688901 ], [ -80.267928990821275, 35.329520999972303 ], [ -80.254297999465805, 35.32859399960509 ], [ -80.249803991538627, 35.328619000032965 ], [ -80.243399990925667, 35.3321859998496 ], [ -80.236854991312768, 35.332974999943382 ], [ -80.234142000142995, 35.332466000245311 ], [ -80.238824991501019, 35.327512999835662 ], [ -80.234587990792519, 35.319865000527621 ], [ -80.234669991680477, 35.317712000387537 ], [ -80.236232991209647, 35.315054999679418 ], [ -80.234776991706397, 35.309239000224892 ], [ -80.237818990747456, 35.304176000332887 ], [ -80.235722991285542, 35.30236800051749 ], [ -80.24133599157399, 35.296937999815022 ], [ -80.24242199112615, 35.294961000193709 ], [ -80.240798991312715, 35.288165999703949 ], [ -80.247963991044045, 35.282510000497204 ], [ -80.25021399079273, 35.276777999964473 ], [ -80.250144991418907, 35.274488000394925 ], [ -80.252130991222614, 35.272016000322118 ], [ -80.254225990791724, 35.271330000014551 ], [ -80.256015991197771, 35.269590000347463 ], [ -80.258533990858552, 35.262514000536683 ], [ -80.264899991516955, 35.261737999698795 ], [ -80.266073990866943, 35.260753999770586 ], [ -80.266158991223634, 35.257914000098239 ], [ -80.261302991415263, 35.254064999987982 ], [ -80.26102499118096, 35.252806000300161 ], [ -80.261890991080065, 35.2490299997527 ], [ -80.264181991284588, 35.246511999873078 ], [ -80.263931991011674, 35.244565000105446 ], [ -80.261979990933725, 35.241197000231523 ], [ -80.26203799112939, 35.238449000327819 ], [ -80.262819991584053, 35.237257999773 ], [ -80.265778991181534, 35.23618300007103 ], [ -80.270716991345921, 35.242575000481615 ], [ -80.274734991035615, 35.245462000201442 ], [ -80.275068991067116, 35.248096000146091 ], [ -80.273282991561388, 35.250582000388448 ], [ -80.273113991755679, 35.252328999706506 ], [ -80.273866990867802, 35.255306000075741 ], [ -80.275122990799744, 35.25562700014099 ], [ -80.27928399069738, 35.254047999772695 ], [ -80.279423991716016, 35.24887600043423 ], [ -80.280512991701798, 35.248257999865167 ], [ -80.286514990774734, 35.253683000475533 ], [ -80.287521990791149, 35.255877999975368 ] ] ] } },
{ "type": "Feature", "properties": { "county": "STANLY", "precinct": "22", "enr_desc": "Big Lick Number 1", "winner": "Lane Furr", "winner_votes": 133, "winner_share": 59.375, "runner_up": "Mike Barbee", "runner_up_votes": 91, "runner_up_share": 40.625, "contest_votes": 224, "margin_of_victory": 18.75, "is_tie": false, "results": [ { "candidate": "Lane Furr", "votes": 133, "share": 59.375 }, { "candidate": "Mike Barbee", "votes": 91, "share": 40.625 } ], "participated": true, "map_key": "STANLY_22" }, "geometry": { "type": "Polygon", "coordinates": [ [ [ -80.287521990791149, 35.255877999975368 ], [ -80.286514990774734, 35.253683000475533 ], [ -80.280512991701798, 35.248257999865167 ], [ -80.279423991716016, 35.24887600043423 ], [ -80.27928399069738, 35.254047999772695 ], [ -80.275122990799744, 35.25562700014099 ], [ -80.273866990867802, 35.255306000075741 ], [ -80.273113991755679, 35.252328999706506 ], [ -80.273282991561388, 35.250582000388448 ], [ -80.275068991067116, 35.248096000146091 ], [ -80.274734991035615, 35.245462000201442 ], [ -80.270716991345921, 35.242575000481615 ], [ -80.265778991181534, 35.23618300007103 ], [ -80.264883991658024, 35.232956000155696 ], [ -80.257331990803564, 35.22188899981191 ], [ -80.255605990896655, 35.215086000435591 ], [ -80.253108990965259, 35.210851000198147 ], [ -80.255190991402969, 35.211254000235321 ], [ -80.259194991493132, 35.208796000051414 ], [ -80.263854990708609, 35.208410000091398 ], [ -80.265011990746899, 35.204049999666019 ], [ -80.271506991408074, 35.201669999906144 ], [ -80.275729991094735, 35.196057000109555 ], [ -80.281912990919224, 35.195602000157031 ], [ -80.284365991599117, 35.192235000281542 ], [ -80.28792099077296, 35.191418000302015 ], [ -80.292251991193851, 35.194053000462681 ], [ -80.295964990982625, 35.193942000096634 ], [ -80.299320990792694, 35.190280000164613 ], [ -80.30388399095996, 35.188044999847101 ], [ -80.304346991745078, 35.183101000407895 ], [ -80.305351991190619, 35.181921000182001 ], [ -80.310451991177914, 35.18057700034521 ], [ -80.318207991341183, 35.180255000101575 ], [ -80.320930990818866, 35.178725000118654 ], [ -80.321344991371319, 35.177559999809134 ], [ -80.320440991006095, 35.174457999891757 ], [ -80.32147099123938, 35.17311999985553 ], [ -80.323169990838693, 35.173427999722804 ], [ -80.326118991573395, 35.176205000309949 ], [ -80.329555991376878, 35.176581000312488 ], [ -80.334894990972955, 35.173710000137632 ], [ -80.340354991125011, 35.17414800008649 ], [ -80.345198991418073, 35.169646999651391 ], [ -80.349399991332433, 35.173495000164181 ], [ -80.345446991329027, 35.186155999846335 ], [ -80.34874799169107, 35.193323999661736 ], [ -80.348656991472978, 35.199557999679882 ], [ -80.342896991676596, 35.206483000216195 ], [ -80.341612990967249, 35.210040000503575 ], [ -80.333346991556169, 35.216879000470414 ], [ -80.334980991357867, 35.218436000383335 ], [ -80.334739990701564, 35.22107600027762 ], [ -80.337573991248291, 35.221176000262403 ], [ -80.33207899155272, 35.222849999890308 ], [ -80.336911991551418, 35.22457700021792 ], [ -80.337521991344403, 35.227848000276353 ], [ -80.339858991432934, 35.228964999814373 ], [ -80.340807991309291, 35.231963000061228 ], [ -80.343719991511023, 35.231046999644462 ], [ -80.348105991070511, 35.231534000326612 ], [ -80.347846991269094, 35.232506000268828 ], [ -80.349051991396323, 35.232694000233984 ], [ -80.349253990755614, 35.23400099997648 ], [ -80.349200990799517, 35.232561000416091 ], [ -80.350949990757087, 35.232869000317635 ], [ -80.352528991105402, 35.231068999740351 ], [ -80.352156991214741, 35.227193000249919 ], [ -80.357473990967122, 35.229388999976479 ], [ -80.357275991625201, 35.230912000002455 ], [ -80.350631991707161, 35.236452999644378 ], [ -80.348987990911851, 35.234746000371622 ], [ -80.346959991536394, 35.235029000135306 ], [ -80.345520990851327, 35.238606000236736 ], [ -80.348309990723877, 35.238893000216414 ], [ -80.341852990995562, 35.242914999738836 ], [ -80.340225990796682, 35.241501999951588 ], [ -80.341127991327838, 35.240872000517804 ], [ -80.338710991662325, 35.238295999686216 ], [ -80.338234991205695, 35.236411999854909 ], [ -80.335973991753221, 35.234299999852254 ], [ -80.332231991224646, 35.237343000136526 ], [ -80.32898599106359, 35.23706000052578 ], [ -80.326339990809075, 35.234223000235453 ], [ -80.329952990878382, 35.231530999659441 ], [ -80.328949991057456, 35.230080000183669 ], [ -80.320887991636283, 35.234949000268728 ], [ -80.319718991006582, 35.234812000378476 ], [ -80.320072991599588, 35.232860000103017 ], [ -80.319437990723557, 35.232173000257752 ], [ -80.320848990962077, 35.230816000223356 ], [ -80.318890990709775, 35.228773999905393 ], [ -80.313948991227022, 35.23404899969033 ], [ -80.312084991003502, 35.238452000138054 ], [ -80.312194990809317, 35.241586999823838 ], [ -80.311348991536278, 35.242885999946907 ], [ -80.304199991440825, 35.246716999921979 ], [ -80.297479991670855, 35.252313000494624 ], [ -80.287521990791149, 35.255877999975368 ] ] ] } },
{ "type": "Feature", "properties": { "county": "STANLY", "precinct": "23", "enr_desc": "Big Lick Number 2", "winner": "Lane Furr", "winner_votes": 169, "winner_share": 71.914893617021278, "runner_up": "Mike Barbee", "runner_up_votes": 66, "runner_up_share": 28.085106382978726, "contest_votes": 235, "margin_of_victory": 43.829787234042556, "is_tie": false, "results": [ { "candidate": "Lane Furr", "votes": 169, "share": 71.91489361702128 }, { "candidate": "Mike Barbee", "votes": 66, "share": 28.085106382978726 } ], "participated": true, "map_key": "STANLY_23" }, "geometry": { "type": "Polygon", "coordinates": [ [ [ -80.394224991186093, 35.233649000078408 ], [ -80.394795991748012, 35.241151999650306 ], [ -80.377853991489928, 35.261459000296448 ], [ -80.379385991082373, 35.264451999955597 ], [ -80.380038991757402, 35.274036000433178 ], [ -80.382625990709002, 35.276543000000558 ], [ -80.38324199090448, 35.28162600037745 ], [ -80.382672991579938, 35.287543999798068 ], [ -80.378807991012678, 35.291408999885583 ], [ -80.375263991292826, 35.300718000216264 ], [ -80.373308991666107, 35.30350999984401 ], [ -80.373180991451193, 35.306973000307273 ], [ -80.374514991763846, 35.311608000445716 ], [ -80.363844991175242, 35.312065000321674 ], [ -80.358833991010172, 35.313733000497784 ], [ -80.350850990798861, 35.31072999976486 ], [ -80.343692991195809, 35.306254000064229 ], [ -80.341395991697382, 35.296314999920305 ], [ -80.3421859911235, 35.293850999718707 ], [ -80.340080991074942, 35.293649000277433 ], [ -80.327642990884712, 35.299338000079921 ], [ -80.325196991606333, 35.30104700012587 ], [ -80.32256499100329, 35.304796999837244 ], [ -80.319071990781538, 35.306889000148047 ], [ -80.318066991056142, 35.305490999860687 ], [ -80.318541991144784, 35.304230999722392 ], [ -80.315664990741865, 35.302033000199778 ], [ -80.30708899132307, 35.286391000070552 ], [ -80.303486991426709, 35.282520000155081 ], [ -80.299940991630791, 35.273197999747694 ], [ -80.297204991302294, 35.271618000031445 ], [ -80.296116991308295, 35.264494999680117 ], [ -80.294748990842308, 35.261815000202461 ], [ -80.291650990727959, 35.257944000251427 ], [ -80.28860799119694, 35.257600000060528 ], [ -80.287521990791149, 35.255877999975368 ], [ -80.297479991670855, 35.252313000494624 ], [ -80.304199991440825, 35.246716999921979 ], [ -80.311348991536278, 35.242885999946907 ], [ -80.312194990809317, 35.241586999823838 ], [ -80.312084991003502, 35.238452000138054 ], [ -80.313948991227022, 35.23404899969033 ], [ -80.318890990709775, 35.228773999905393 ], [ -80.320848990962077, 35.230816000223356 ], [ -80.319437990723557, 35.232173000257752 ], [ -80.320072991599588, 35.232860000103017 ], [ -80.319718991006582, 35.234812000378476 ], [ -80.320887991636283, 35.234949000268728 ], [ -80.328949991057456, 35.230080000183669 ], [ -80.329952990878382, 35.231530999659441 ], [ -80.326339990809075, 35.234223000235453 ], [ -80.32898599106359, 35.23706000052578 ], [ -80.332231991224646, 35.237343000136526 ], [ -80.335973991753221, 35.234299999852254 ], [ -80.338234991205695, 35.236411999854909 ], [ -80.338710991662325, 35.238295999686216 ], [ -80.341127991327838, 35.240872000517804 ], [ -80.340225990796682, 35.241501999951588 ], [ -80.341852990995562, 35.242914999738836 ], [ -80.348309990723877, 35.238893000216414 ], [ -80.345520990851327, 35.238606000236736 ], [ -80.346959991536394, 35.235029000135306 ], [ -80.348987990911851, 35.234746000371622 ], [ -80.350631991707161, 35.236452999644378 ], [ -80.357275991625201, 35.230912000002455 ], [ -80.357473990967122, 35.229388999976479 ], [ -80.352156991214741, 35.227193000249919 ], [ -80.352528991105402, 35.231068999740351 ], [ -80.350949990757087, 35.232869000317635 ], [ -80.349200990799517, 35.232561000416091 ], [ -80.349253990755614, 35.23400099997648 ], [ -80.349051991396323, 35.232694000233984 ], [ -80.347846991269094, 35.232506000268828 ], [ -80.348105991070511, 35.231534000326612 ], [ -80.343719991511023, 35.231046999644462 ], [ -80.340807991309291, 35.231963000061228 ], [ -80.339858991432934, 35.228964999814373 ], [ -80.337521991344403, 35.227848000276353 ], [ -80.336911991551418, 35.22457700021792 ], [ -80.33207899155272, 35.222849999890308 ], [ -80.337573991248291, 35.221176000262403 ], [ -80.334739990701564, 35.22107600027762 ], [ -80.334980991357867, 35.218436000383335 ], [ -80.333346991556169, 35.216879000470414 ], [ -80.341612990967249, 35.210040000503575 ], [ -80.342896991676596, 35.206483000216195 ], [ -80.348656991472978, 35.199557999679882 ], [ -80.34874799169107, 35.193323999661736 ], [ -80.345446991329027, 35.186155999846335 ], [ -80.349399991332433, 35.173495000164181 ], [ -80.345198991418073, 35.169646999651391 ], [ -80.347116991790031, 35.168864000368679 ], [ -80.351550991248573, 35.169285999802376 ], [ -80.354355990752737, 35.165651000128889 ], [ -80.358596991795039, 35.165122000330349 ], [ -80.364482991502115, 35.170607000152337 ], [ -80.366010991614075, 35.17574000013321 ], [ -80.368683990904373, 35.179211999990351 ], [ -80.370974991531014, 35.179701999935439 ], [ -80.369055991544812, 35.186711000084003 ], [ -80.373184991760738, 35.186708999811849 ], [ -80.375323991221052, 35.190348999784639 ], [ -80.375462991427355, 35.191036000097341 ], [ -80.373885991139787, 35.191678000511558 ], [ -80.372798991048526, 35.193603000283829 ], [ -80.374339991430389, 35.199122000515516 ], [ -80.378748991187578, 35.199168000191555 ], [ -80.37908299174218, 35.200838999950058 ], [ -80.381647991240769, 35.203268000163725 ], [ -80.380024991125055, 35.209222000515851 ], [ -80.378015991612017, 35.210160000269667 ], [ -80.376227990771724, 35.212221000151985 ], [ -80.377259991196013, 35.213594999914491 ], [ -80.379965991611996, 35.214421000533861 ], [ -80.383846991361779, 35.211812000187344 ], [ -80.384515991236071, 35.212271000152121 ], [ -80.383759991554939, 35.216049000396268 ], [ -80.384483991162881, 35.217927999718547 ], [ -80.385990990796572, 35.218455000222725 ], [ -80.388587991114562, 35.216922000209408 ], [ -80.390288991575488, 35.219120999739651 ], [ -80.391096991654891, 35.222235999844351 ], [ -80.388917991149498, 35.224938000538863 ], [ -80.390310991501806, 35.229060000018194 ], [ -80.391203990855914, 35.22965600012693 ], [ -80.39053299134406, 35.2316050002336 ], [ -80.394224991186093, 35.233649000078408 ] ] ] } },
{ "type": "Feature", "properties": { "county": "STANLY", "precinct": "24", "enr_desc": "Furr Number 1", "winner": "Lane Furr", "winner_votes": 223, "winner_share": 76.109215017064841, "runner_up": "Mike Barbee", "runner_up_votes": 70, "runner_up_share": 23.890784982935152, "contest_votes": 293, "margin_of_victory": 52.218430034129689, "is_tie": false, "results": [ { "candidate": "Lane Furr", "votes": 223, "share": 76.10921501706484 }, { "candidate": "Mike Barbee", "votes": 70, "share": 23.890784982935152 } ], "participated": true, "map_key": "STANLY_24" }, "geometry": { "type": "Polygon", "coordinates": [ [ [ -80.459508991129795, 35.254178000497745 ], [ -80.405361991700318, 35.336881000329392 ], [ -80.396641991406142, 35.332963000478905 ], [ -80.395020990805108, 35.329605000387254 ], [ -80.398178991503599, 35.327000000412866 ], [ -80.398052991522121, 35.324437999741306 ], [ -80.393637991079899, 35.323075000028965 ], [ -80.390903991084215, 35.323116000474073 ], [ -80.385898991142739, 35.320953999716878 ], [ -80.382249991653467, 35.318124000179402 ], [ -80.379452991240811, 35.314354999674379 ], [ -80.374514991763846, 35.311608000445716 ], [ -80.373180991451193, 35.306973000307273 ], [ -80.373308991666107, 35.30350999984401 ], [ -80.375263991292826, 35.300718000216264 ], [ -80.378807991012678, 35.291408999885583 ], [ -80.382672991579938, 35.287543999798068 ], [ -80.38324199090448, 35.28162600037745 ], [ -80.382625990709002, 35.276543000000558 ], [ -80.380038991757402, 35.274036000433178 ], [ -80.379385991082373, 35.264451999955597 ], [ -80.377853991489928, 35.261459000296448 ], [ -80.394795991748012, 35.241151999650306 ], [ -80.394224991186093, 35.233649000078408 ], [ -80.408766991233691, 35.240279000423648 ], [ -80.410211990958643, 35.244949999885314 ], [ -80.410082991226901, 35.248038999770458 ], [ -80.411788991465343, 35.250413000270974 ], [ -80.415407990912854, 35.253076000184798 ], [ -80.418441990695143, 35.252841000210367 ], [ -80.419997991383653, 35.251729999802293 ], [ -80.41919899129681, 35.251396000436479 ], [ -80.41961299073192, 35.250523000064234 ], [ -80.422492990682542, 35.250832999744027 ], [ -80.421710991103438, 35.252720999850474 ], [ -80.424007991236394, 35.25279100042156 ], [ -80.423927991319133, 35.251192999671453 ], [ -80.424715991243204, 35.251176999892238 ], [ -80.425520990688753, 35.252676999847473 ], [ -80.428390991595833, 35.252694999833473 ], [ -80.427472991736138, 35.247166000242515 ], [ -80.432512991547782, 35.241597999936467 ], [ -80.443607991658467, 35.241296000312929 ], [ -80.446694991485003, 35.242384000264309 ], [ -80.449952991510145, 35.251008000447058 ], [ -80.45305099123398, 35.251106000249543 ], [ -80.45105999166843, 35.254586000226702 ], [ -80.456393991550584, 35.254857000480861 ], [ -80.459508991129795, 35.254178000497745 ] ] ] } },
{ "type": "Feature", "properties": { "county": "STANLY", "precinct": "212", "enr_desc": "North Albemarle 2", "winner": "Lane Furr", "winner_votes": 92, "winner_share": 65.248226950354621, "runner_up": "Mike Barbee", "runner_up_votes": 49, "runner_up_share": 34.751773049645394, "contest_votes": 141, "margin_of_victory": 30.496453900709227, "is_tie": false, "results": [ { "candidate": "Lane Furr", "votes": 92, "share": 65.24822695035462 }, { "candidate": "Mike Barbee", "votes": 49, "share": 34.751773049645394 } ], "participated": true, "map_key": "STANLY_212" }, "geometry": { "type": "Polygon", "coordinates": [ [ [ -80.282910991398381, 35.371477000424811 ], [ -80.279737990791347, 35.374936000180938 ], [ -80.275467991133226, 35.377198999671251 ], [ -80.274171991261198, 35.379236000155188 ], [ -80.269198991614971, 35.381543000365774 ], [ -80.265097991284875, 35.387975999864828 ], [ -80.254829990943165, 35.396839000485642 ], [ -80.24996699079459, 35.399470000366293 ], [ -80.227480991061427, 35.405551000431956 ], [ -80.225164990797069, 35.406190999693528 ], [ -80.2240129915442, 35.408170999688551 ], [ -80.219176990675251, 35.406696000525876 ], [ -80.208362991284673, 35.41439600051676 ], [ -80.205877990690638, 35.41431999973657 ], [ -80.201783991345593, 35.406716000030606 ], [ -80.208237991387776, 35.406334999636073 ], [ -80.209678991770602, 35.403123000191542 ], [ -80.215012990953809, 35.396669999742777 ], [ -80.216561990910066, 35.392551000371263 ], [ -80.212008991181548, 35.385864999754048 ], [ -80.210428991540596, 35.381895999983726 ], [ -80.202469991112125, 35.37193300002582 ], [ -80.200217991149572, 35.372601000378054 ], [ -80.197866991438019, 35.371745000103218 ], [ -80.198792991334187, 35.370524999643578 ], [ -80.195945990728504, 35.367512000172198 ], [ -80.195299990694849, 35.365546999973773 ], [ -80.198279991066684, 35.360863000512701 ], [ -80.197588991086917, 35.357504999675342 ], [ -80.198103991586578, 35.350335000067048 ], [ -80.199561999670806, 35.350380999252991 ], [ -80.20904999109095, 35.349716999662157 ], [ -80.218428991133365, 35.356709000499471 ], [ -80.235207991244593, 35.358733999649559 ], [ -80.238391999990981, 35.359906999906642 ], [ -80.242298991446404, 35.361336999641317 ], [ -80.248585991333314, 35.360500000340373 ], [ -80.260620991542396, 35.36385399977268 ], [ -80.273881991681648, 35.36927799997914 ], [ -80.282910991398381, 35.371477000424811 ] ] ] } },
{ "type": "Feature", "properties": { "county": "STANLY", "precinct": "110", "enr_desc": "Albemarle 10.1", "winner": "Lane Furr", "winner_votes": 45, "winner_share": 60.810810810810814, "runner_up": "Mike Barbee", "runner_up_votes": 29, "runner_up_share": 39.189189189189186, "contest_votes": 74, "margin_of_victory": 21.621621621621628, "is_tie": false, "results": [ { "candidate": "Lane Furr", "votes": 45, "share": 60.810810810810814 }, { "candidate": "Mike Barbee", "votes": 29, "share": 39.189189189189186 } ], "participated": true, "map_key": "STANLY_110" }, "geometry": { "type": "Polygon", "coordinates": [ [ [ -80.234142000142995, 35.332466000245311 ], [ -80.236855000112485, 35.332974999853619 ], [ -80.243399999725284, 35.332185999759275 ], [ -80.249804000337804, 35.328618999942222 ], [ -80.254297999465805, 35.32859399960509 ], [ -80.254177999607947, 35.329710000066626 ], [ -80.254020000116938, 35.330684000246301 ], [ -80.254176999505347, 35.331590999706791 ], [ -80.254785000092042, 35.332987999934076 ], [ -80.255140999640531, 35.334263000265317 ], [ -80.255634999943339, 35.335310000036209 ], [ -80.249781000330003, 35.340658000313141 ], [ -80.238391999990981, 35.359906999906642 ], [ -80.235208000047052, 35.358733999559838 ], [ -80.218428999922168, 35.35670899950955 ], [ -80.2090499998925, 35.349716999574333 ], [ -80.199561999670806, 35.350380999252991 ], [ -80.199273999763406, 35.345666999843978 ], [ -80.193779999201226, 35.336223999657612 ], [ -80.192927000030764, 35.334057999549678 ], [ -80.194579999225766, 35.333527000047113 ], [ -80.196801999448368, 35.337431999675147 ], [ -80.198541999861391, 35.336791999543649 ], [ -80.199796999475637, 35.331066999214279 ], [ -80.200709999236992, 35.331069999525269 ], [ -80.200573999262119, 35.328657999330751 ], [ -80.205987000082757, 35.327666999882773 ], [ -80.208612999377465, 35.329522999630072 ], [ -80.206978999420784, 35.331167999876889 ], [ -80.208335999276287, 35.335315000031294 ], [ -80.211216996001724, 35.336716999970371 ], [ -80.212143000417726, 35.336239999667747 ], [ -80.212051999625785, 35.335127999560356 ], [ -80.215253999789695, 35.328573999949654 ], [ -80.21413399516473, 35.327776000161087 ], [ -80.214012996132553, 35.327846000437162 ], [ -80.212119996019055, 35.327099000005326 ], [ -80.211173995998251, 35.324854000365015 ], [ -80.210556995870832, 35.32416900038934 ], [ -80.207825995841304, 35.322934999654997 ], [ -80.207965999823486, 35.320766999845269 ], [ -80.211952999514935, 35.320648999676109 ], [ -80.213262999688681, 35.323703999472336 ], [ -80.21453999816319, 35.32349799966245 ], [ -80.214507999319494, 35.323367000172439 ], [ -80.219728999176539, 35.318889999824449 ], [ -80.219631999825268, 35.316896999227851 ], [ -80.223857000087051, 35.31899999989718 ], [ -80.223012999729733, 35.321035999946702 ], [ -80.218214999283163, 35.324261999520324 ], [ -80.217834999996825, 35.329617999913658 ], [ -80.216212999773632, 35.328925999837018 ], [ -80.21460399918621, 35.331590000008198 ], [ -80.213912999976117, 35.333494999505255 ], [ -80.216680995473311, 35.335808999850762 ], [ -80.218216999250458, 35.331191999373786 ], [ -80.220221999960259, 35.33330399945747 ], [ -80.221389999642881, 35.332585999538964 ], [ -80.222446999573918, 35.333721999870313 ], [ -80.231098999716593, 35.333015999969611 ], [ -80.231034999987202, 35.333949999962229 ], [ -80.234142000142995, 35.332466000245311 ] ] ] } },
{ "type": "Feature", "properties": { "county": "STANLY", "precinct": "113", "enr_desc": "South Albemarle 1", "winner": "Lane Furr", "winner_votes": 57, "winner_share": 77.027027027027032, "runner_up": "Mike Barbee", "runner_up_votes": 17, "runner_up_share": 22.972972972972975, "contest_votes": 74, "margin_of_victory": 54.054054054054056, "is_tie": false, "results": [ { "candidate": "Lane Furr", "votes": 57, "share": 77.02702702702703 }, { "candidate": "Mike Barbee", "votes": 17, "share": 22.972972972972975 } ], "participated": true, "map_key": "STANLY_113" }, "geometry": { "type": "Polygon", "coordinates": [ [ [ -80.214507999319494, 35.323367000172439 ], [ -80.21453999816319, 35.32349799966245 ], [ -80.213262999688681, 35.323703999472336 ], [ -80.211952999514935, 35.320648999676109 ], [ -80.207965999823486, 35.320766999845269 ], [ -80.207825995841304, 35.322934999654997 ], [ -80.210556995870832, 35.32416900038934 ], [ -80.211173995998251, 35.324854000365015 ], [ -80.212119996019055, 35.327099000005326 ], [ -80.214012996132553, 35.327846000437162 ], [ -80.21413399516473, 35.327776000161087 ], [ -80.215253999789695, 35.328573999949654 ], [ -80.212051999625785, 35.335127999560356 ], [ -80.212143000417726, 35.336239999667747 ], [ -80.211216996001724, 35.336716999970371 ], [ -80.208335999276287, 35.335315000031294 ], [ -80.206978999420784, 35.331167999876889 ], [ -80.208612999377465, 35.329522999630072 ], [ -80.205987000082757, 35.327666999882773 ], [ -80.200573999262119, 35.328657999330751 ], [ -80.200709999236992, 35.331069999525269 ], [ -80.199796999475637, 35.331066999214279 ], [ -80.198541999861391, 35.336791999543649 ], [ -80.196801999448368, 35.337431999675147 ], [ -80.194579999225766, 35.333527000047113 ], [ -80.192927000030764, 35.334057999549678 ], [ -80.193779999201226, 35.336223999657612 ], [ -80.190459999281657, 35.337660999794636 ], [ -80.185987999214959, 35.333405999815028 ], [ -80.185717999719898, 35.332316999262098 ], [ -80.184572999494989, 35.333651999893362 ], [ -80.184691999428424, 35.335189999737366 ], [ -80.18586699535004, 35.337260000234217 ], [ -80.185747999960242, 35.33844000007921 ], [ -80.180440999491296, 35.338268999736322 ], [ -80.176763000259712, 35.338922000258322 ], [ -80.176581999831754, 35.338831000146477 ], [ -80.173632999621105, 35.339409000261412 ], [ -80.173455000365195, 35.339447000413351 ], [ -80.17239700053608, 35.339648999592725 ], [ -80.17261700002534, 35.340478999596421 ], [ -80.171654999421676, 35.34065999977031 ], [ -80.171295999439167, 35.338365999802321 ], [ -80.170262999901865, 35.338234999711688 ], [ -80.166462999550959, 35.337851999980785 ], [ -80.163621000423561, 35.33451499979919 ], [ -80.161691000477234, 35.335014999876527 ], [ -80.160032000545726, 35.332118999790296 ], [ -80.158749999867396, 35.333105000113058 ], [ -80.159150999980611, 35.336467000334039 ], [ -80.158362999729661, 35.336532999820847 ], [ -80.158521000156071, 35.337703999803985 ], [ -80.156153999199915, 35.337762999759455 ], [ -80.155940999847232, 35.337113999282849 ], [ -80.153787999938146, 35.338850999658902 ], [ -80.151137000070989, 35.338710000062058 ], [ -80.151095999798329, 35.339339999672745 ], [ -80.149479999549101, 35.339641999683806 ], [ -80.15104699937072, 35.344404999972916 ], [ -80.14885499961585, 35.344052999797903 ], [ -80.14961699917356, 35.342570999843154 ], [ -80.14740099969184, 35.342173999971351 ], [ -80.14630999957005, 35.344189999627297 ], [ -80.146545999867143, 35.343678999700522 ], [ -80.145400999266727, 35.343475999405321 ], [ -80.143674999381318, 35.343812999740045 ], [ -80.141163999367038, 35.342653999738879 ], [ -80.137530999690114, 35.339104999630649 ], [ -80.141042999473143, 35.330596999596324 ], [ -80.155083999880233, 35.318358999338578 ], [ -80.148699000193801, 35.306102999586152 ], [ -80.146576999338635, 35.304498999335706 ], [ -80.145462991021944, 35.298819000086858 ], [ -80.150211999451258, 35.297377999665031 ], [ -80.155659999938436, 35.294149999585912 ], [ -80.160439999192249, 35.286708999801505 ], [ -80.16548299998108, 35.284852999698053 ], [ -80.168818999707298, 35.278825999740128 ], [ -80.168383999718856, 35.270957999937515 ], [ -80.169143479800141, 35.270787311195264 ], [ -80.175339000188032, 35.269681999993125 ], [ -80.17947300001606, 35.272902999931603 ], [ -80.189498999681476, 35.277047999267005 ], [ -80.196111999323165, 35.276388999487956 ], [ -80.201614000026908, 35.279051999936968 ], [ -80.200407000023532, 35.281133999320147 ], [ -80.201146999541848, 35.28135299982651 ], [ -80.20670700008715, 35.279868999851374 ], [ -80.211437000000657, 35.276271999615716 ], [ -80.218243999524887, 35.275754999372396 ], [ -80.223765999361433, 35.274025999662804 ], [ -80.222382999663694, 35.280799999542403 ], [ -80.220457999836697, 35.282585000068359 ], [ -80.222040999174951, 35.289210999509883 ], [ -80.223018000171081, 35.288486999254332 ], [ -80.232618999962853, 35.28708200002756 ], [ -80.238493999327829, 35.281981999201228 ], [ -80.24432899923967, 35.28094399941552 ], [ -80.247963991044045, 35.282510000497204 ], [ -80.240799000107529, 35.288165999613838 ], [ -80.242421999907933, 35.294960999202061 ], [ -80.241335999270305, 35.296937999736151 ], [ -80.235723000068205, 35.302367999526268 ], [ -80.237818999530333, 35.304175999341595 ], [ -80.234776999390178, 35.309238999245011 ], [ -80.236233000007417, 35.315054999589606 ], [ -80.234669999365067, 35.31771199940767 ], [ -80.234587999577144, 35.319864999536563 ], [ -80.238824999200205, 35.327512999756898 ], [ -80.234142000142995, 35.332466000245311 ], [ -80.231034999987202, 35.333949999962229 ], [ -80.231098999716593, 35.333015999969611 ], [ -80.222446999573918, 35.333721999870313 ], [ -80.221389999642881, 35.332585999538964 ], [ -80.220221999960259, 35.33330399945747 ], [ -80.218216999250458, 35.331191999373786 ], [ -80.216680995473311, 35.335808999850762 ], [ -80.213912999976117, 35.333494999505255 ], [ -80.21460399918621, 35.331590000008198 ], [ -80.216212999773632, 35.328925999837018 ], [ -80.217834999996825, 35.329617999913658 ], [ -80.218214999283163, 35.324261999520324 ], [ -80.223012999729733, 35.321035999946702 ], [ -80.223857000087051, 35.31899999989718 ], [ -80.219631999825268, 35.316896999227851 ], [ -80.219728999176539, 35.318889999824449 ], [ -80.214507999319494, 35.323367000172439 ] ] ] } },
{ "type": "Feature", "properties": { "county": "STANLY", "precinct": "107", "enr_desc": "Albemarle 7.1", "winner": "Lane Furr", "winner_votes": 70, "winner_share": 69.306930693069305, "runner_up": "Mike Barbee", "runner_up_votes": 31, "runner_up_share": 30.693069306930692, "contest_votes": 101, "margin_of_victory": 38.613861386138609, "is_tie": false, "results": [ { "candidate": "Lane Furr", "votes": 70, "share": 69.3069306930693 }, { "candidate": "Mike Barbee", "votes": 31, "share": 30.693069306930692 } ], "participated": true, "map_key": "STANLY_107" }, "geometry": { "type": "Polygon", "coordinates": [ [ [ -80.170262999901865, 35.338234999711688 ], [ -80.171705000102733, 35.344472999864841 ], [ -80.168943000205985, 35.346028999980952 ], [ -80.165899999211049, 35.34926199959483 ], [ -80.178570999571889, 35.352517999615394 ], [ -80.180179999648132, 35.353215999790748 ], [ -80.179573999821031, 35.355393999820521 ], [ -80.182320999514857, 35.355352999979893 ], [ -80.182583999768127, 35.365851999835826 ], [ -80.179947999536168, 35.364893999576488 ], [ -80.175170999411591, 35.374608999706595 ], [ -80.169691999243994, 35.377909999756447 ], [ -80.167014999524042, 35.376183999660469 ], [ -80.165895999667498, 35.376533999934068 ], [ -80.162658999997191, 35.37293100007787 ], [ -80.158335999872619, 35.372911999438408 ], [ -80.15736599965831, 35.370024999381044 ], [ -80.154006999315868, 35.367905999626558 ], [ -80.152907999289923, 35.36387899942617 ], [ -80.149451999413543, 35.365259999374381 ], [ -80.149015991440606, 35.364751999641022 ], [ -80.147653999819781, 35.365330999835102 ], [ -80.147252999833597, 35.364713999733979 ], [ -80.14580700017251, 35.366148999596291 ], [ -80.141510999571793, 35.366996999889068 ], [ -80.141263999997079, 35.365979999455028 ], [ -80.138488999190685, 35.367318999815637 ], [ -80.137996999518975, 35.366205999387795 ], [ -80.138195999408907, 35.363815999222496 ], [ -80.139454999268139, 35.363430999911543 ], [ -80.145735999698317, 35.364521000021469 ], [ -80.148089000103127, 35.364012999970399 ], [ -80.147902999332231, 35.362881999545351 ], [ -80.148668999172628, 35.36413099956291 ], [ -80.152606999705569, 35.362639999671366 ], [ -80.152357999504858, 35.356074999377576 ], [ -80.149231999849505, 35.356971999969751 ], [ -80.149075999404502, 35.351444999695119 ], [ -80.151017999509804, 35.350977999369576 ], [ -80.149013999664021, 35.350980000007155 ], [ -80.149074999604949, 35.349655999325314 ], [ -80.151080999325131, 35.34979899994778 ], [ -80.150857999776647, 35.345723000034674 ], [ -80.143010999946128, 35.344421999233916 ], [ -80.143674999381318, 35.343812999740045 ], [ -80.145400999266727, 35.343475999405321 ], [ -80.146545999867143, 35.343678999700522 ], [ -80.14630999957005, 35.344189999627297 ], [ -80.14740099969184, 35.342173999971351 ], [ -80.14961699917356, 35.342570999843154 ], [ -80.14885499961585, 35.344052999797903 ], [ -80.15104699937072, 35.344404999972916 ], [ -80.149479999549101, 35.339641999683806 ], [ -80.151095999798329, 35.339339999672745 ], [ -80.151137000070989, 35.338710000062058 ], [ -80.153787999938146, 35.338850999658902 ], [ -80.155940999847232, 35.337113999282849 ], [ -80.156153999199915, 35.337762999759455 ], [ -80.158521000156071, 35.337703999803985 ], [ -80.158362999729661, 35.336532999820847 ], [ -80.159150999980611, 35.336467000334039 ], [ -80.158749999867396, 35.333105000113058 ], [ -80.160032000545726, 35.332118999790296 ], [ -80.161691000477234, 35.335014999876527 ], [ -80.163621000423561, 35.33451499979919 ], [ -80.166462999550959, 35.337851999980785 ], [ -80.170262999901865, 35.338234999711688 ] ] ] } },
{ "type": "Feature", "properties": { "county": "STANLY", "precinct": "108", "enr_desc": "Albemarle 8.1", "winner": "Lane Furr", "winner_votes": 2, "winner_share": 50.0, "runner_up": "Mike Barbee", "runner_up_votes": 2, "runner_up_share": 50.0, "contest_votes": 4, "margin_of_victory": 0.0, "is_tie": true, "results": [ { "candidate": "Lane Furr", "votes": 2, "share": 50.0 }, { "candidate": "Mike Barbee", "votes": 2, "share": 50.0 } ], "participated": true, "map_key": "STANLY_108" }, "geometry": { "type": "Polygon", "coordinates": [ [ [ -80.173455000365195, 35.339447000413351 ], [ -80.173632999621105, 35.339409000261412 ], [ -80.176581999831754, 35.338831000146477 ], [ -80.176763000259712, 35.338922000258322 ], [ -80.180440999491296, 35.338268999736322 ], [ -80.185747999960242, 35.33844000007921 ], [ -80.18586699535004, 35.337260000234217 ], [ -80.184691999428424, 35.335189999737366 ], [ -80.184572999494989, 35.333651999893362 ], [ -80.185717999719898, 35.332316999262098 ], [ -80.185987999214959, 35.333405999815028 ], [ -80.190459999281657, 35.337660999794636 ], [ -80.193779999201226, 35.336223999657612 ], [ -80.199273999763406, 35.345666999843978 ], [ -80.199561999670806, 35.350380999252991 ], [ -80.198103991586578, 35.350335000067048 ], [ -80.192893000116129, 35.350138999561544 ], [ -80.186841999492415, 35.352262999507687 ], [ -80.178570999571889, 35.352517999615394 ], [ -80.165899999211049, 35.34926199959483 ], [ -80.168943000205985, 35.346028999980952 ], [ -80.171705000102733, 35.344472999864841 ], [ -80.170262999901865, 35.338234999711688 ], [ -80.171295999439167, 35.338365999802321 ], [ -80.171654999421676, 35.34065999977031 ], [ -80.17261700002534, 35.340478999596421 ], [ -80.17239700053608, 35.339648999592725 ], [ -80.173455000365195, 35.339447000413351 ] ] ] } },
{ "type": "Feature", "properties": { "county": "STANLY", "precinct": "120", "enr_desc": "Almond 1", "winner": "Lane Furr", "winner_votes": 171, "winner_share": 73.076923076923066, "runner_up": "Mike Barbee", "runner_up_votes": 63, "runner_up_share": 26.923076923076923, "contest_votes": 234, "margin_of_victory": 46.153846153846146, "is_tie": false, "results": [ { "candidate": "Lane Furr", "votes": 171, "share": 73.07692307692307 }, { "candidate": "Mike Barbee", "votes": 63, "share": 26.923076923076923 } ], "participated": true, "map_key": "STANLY_120" }, "geometry": { "type": "Polygon", "coordinates": [ [ [ -80.282910991398381, 35.371477000424811 ], [ -80.273881999384784, 35.369277999898159 ], [ -80.260620999245006, 35.363853999692566 ], [ -80.248586000135944, 35.360500000249644 ], [ -80.242299000249133, 35.361336999551021 ], [ -80.238391999990981, 35.359906999906642 ], [ -80.249781000330003, 35.340658000313141 ], [ -80.255634999943339, 35.335310000036209 ], [ -80.255140999640531, 35.334263000265317 ], [ -80.254785000092042, 35.332987999934076 ], [ -80.254176999505347, 35.331590999706791 ], [ -80.254020000116938, 35.330684000246301 ], [ -80.254177999607947, 35.329710000066626 ], [ -80.254297999465805, 35.32859399960509 ], [ -80.267928999620523, 35.329520999880181 ], [ -80.273117999447948, 35.33128899960797 ], [ -80.28693999964176, 35.328119999832204 ], [ -80.294390000019163, 35.330595999543036 ], [ -80.303985999918808, 35.332248999372609 ], [ -80.3044339995337, 35.330815999312563 ], [ -80.303569999592298, 35.321201000036993 ], [ -80.304102000078259, 35.317196999368427 ], [ -80.309762999646267, 35.314245999269964 ], [ -80.312377999447222, 35.31135799951582 ], [ -80.319071990781538, 35.306889000148047 ], [ -80.322564999799795, 35.30479699974115 ], [ -80.325196999302932, 35.30104700004167 ], [ -80.327642999680648, 35.299337999983464 ], [ -80.340080999855388, 35.293648999278766 ], [ -80.342185999918811, 35.293850999621213 ], [ -80.341395999393526, 35.296314999835033 ], [ -80.343692999992513, 35.306253999966671 ], [ -80.350850999595991, 35.310729999666712 ], [ -80.358833999792566, 35.313732999497738 ], [ -80.36384499995745, 35.312064999321279 ], [ -80.374514991763846, 35.311608000445716 ], [ -80.379453000038339, 35.314354999574185 ], [ -80.382249999351615, 35.318124000091608 ], [ -80.38589899994092, 35.320953999616187 ], [ -80.390903999867263, 35.323115999471632 ], [ -80.393637999878351, 35.323074999927705 ], [ -80.398052999220866, 35.324437999652439 ], [ -80.398178999187095, 35.326999999422632 ], [ -80.395020999588766, 35.329604999384507 ], [ -80.396642000190184, 35.332962999476052 ], [ -80.405361999384667, 35.33688099933871 ], [ -80.373777999549745, 35.384750999307101 ], [ -80.358228999352264, 35.384850999345652 ], [ -80.344638000249546, 35.382338999972085 ], [ -80.336256999585174, 35.38466699976761 ], [ -80.328424999937354, 35.384500999938773 ], [ -80.321881999626697, 35.381848999666417 ], [ -80.303448999201805, 35.380687999567783 ], [ -80.29389699997256, 35.377263999312206 ], [ -80.282910991398381, 35.371477000424811 ] ] ] } }
]
}
