{
"type": "FeatureCollection",
"name": "stokes_county_sheriff_rep",
"crs": { "type": "name", "properties": { "name": "urn:ogc:def:crs:OGC:1.3:CRS84" } },
"features": [
{ "type": "Feature", "properties": { "county": "STOKES", "precinct": "1", "enr_desc": "Danbury", "winner": "Joey Lemons", "winner_votes": 91, "winner_share": 61.904761904761905, "runner_up": "Steven Bingman", "runner_up_votes": 56, "runner_up_share": 38.095238095238095, "contest_votes": 147, "margin_of_victory": 23.80952380952381, "is_tie": false, "results": [ { "candidate": "Joey Lemons", "votes": 91, "share": 61.904761904761905 }, { "candidate": "Steven Bingman", "votes": 56, "share": 38.095238095238095 } ], "participated": true, "map_key": "STOKES_1" }, "geometry": { "type": "Polygon", "coordinates": [ [ [ -80.282646991379622, 36.375855000414603 ], [ -80.290725990696117, 36.376389000543831 ], [ -80.290582991313102, 36.381343999789173 ], [ -80.298543990579248, 36.381465999762064 ], [ -80.298479991356189, 36.387022999822477 ], [ -80.308077991643316, 36.388949000400089 ], [ -80.309907991322987, 36.387278000278812 ], [ -80.319284991013546, 36.387524000529559 ], [ -80.318815991094979, 36.393305000079998 ], [ -80.305521991408327, 36.392615000512002 ], [ -80.305094990892997, 36.399593000084501 ], [ -80.303561990755455, 36.400203000320651 ], [ -80.302239990847852, 36.39856600001886 ], [ -80.30004099140983, 36.398433000514359 ], [ -80.29594399064392, 36.396278999705508 ], [ -80.294410990915893, 36.393081999693607 ], [ -80.292686991138225, 36.393118000219317 ], [ -80.294128991389655, 36.391953000060454 ], [ -80.292262990915049, 36.388002000128289 ], [ -80.28940099135967, 36.389719000029622 ], [ -80.285842991058786, 36.396262000191243 ], [ -80.276255991162245, 36.401164000285867 ], [ -80.274614991142855, 36.40351499973815 ], [ -80.274451991322579, 36.405686000497035 ], [ -80.275006991081625, 36.408998999741307 ], [ -80.275959991058144, 36.409446999729148 ], [ -80.276421990764263, 36.411163999780804 ], [ -80.276835991215705, 36.417586999685398 ], [ -80.279261991501045, 36.418889000273147 ], [ -80.282642991652679, 36.417807999881759 ], [ -80.287235990877519, 36.421947999652367 ], [ -80.289622990977577, 36.421527000036669 ], [ -80.289111991011211, 36.4250090003083 ], [ -80.286506991599225, 36.425892000264099 ], [ -80.284486990869524, 36.427992000027515 ], [ -80.286021991025933, 36.431681000535363 ], [ -80.282536991284587, 36.438730000412036 ], [ -80.279609990937033, 36.440485999770701 ], [ -80.276826991397286, 36.439217000087865 ], [ -80.27815899114924, 36.434782999894381 ], [ -80.27634799118492, 36.430489999993675 ], [ -80.271633991482929, 36.431904000262314 ], [ -80.272133991109754, 36.433492999989745 ], [ -80.27149099154083, 36.434701000116661 ], [ -80.266368990859178, 36.432959000489504 ], [ -80.264956991348569, 36.430002000232832 ], [ -80.261542991620104, 36.42858600016087 ], [ -80.256833991297796, 36.429194999838941 ], [ -80.253376990612225, 36.431418999938948 ], [ -80.245826990584916, 36.429844000147376 ], [ -80.240805990948175, 36.434994999895387 ], [ -80.236509991022203, 36.435523000069836 ], [ -80.233524991657532, 36.433777999707011 ], [ -80.230582991319125, 36.424343000294961 ], [ -80.222111991063784, 36.424703999763743 ], [ -80.217183991350566, 36.425856000211738 ], [ -80.213268990592027, 36.428179999779104 ], [ -80.213672991638063, 36.428848000073046 ], [ -80.212305990882015, 36.430707999925872 ], [ -80.200705990802689, 36.438022000013298 ], [ -80.198669991357235, 36.440431000096616 ], [ -80.195000990872629, 36.441715000165445 ], [ -80.191738991497786, 36.444121000531197 ], [ -80.187860991313059, 36.4485040004474 ], [ -80.186937991500685, 36.451026000425969 ], [ -80.180746990803939, 36.451320000190165 ], [ -80.179795991655752, 36.452115000472048 ], [ -80.17966499132649, 36.45406399978679 ], [ -80.177659991010472, 36.4538969996619 ], [ -80.171379991097922, 36.451262000529518 ], [ -80.166988991016765, 36.451133000198723 ], [ -80.165751991186781, 36.445044000146595 ], [ -80.158654991526419, 36.439159000133344 ], [ -80.159607990995497, 36.437044000484846 ], [ -80.159435990928102, 36.43301600051452 ], [ -80.154540990826689, 36.432896000138498 ], [ -80.152354991128377, 36.435174000245929 ], [ -80.149531990819, 36.433529000149001 ], [ -80.147471990847166, 36.434463000194114 ], [ -80.147834990765958, 36.432997999790977 ], [ -80.146472991004188, 36.432097000021237 ], [ -80.147266990728554, 36.431085999789602 ], [ -80.145199990669056, 36.430115000352053 ], [ -80.14456199160567, 36.42877200041567 ], [ -80.146444990835661, 36.427556999916426 ], [ -80.143371991473998, 36.426373000444144 ], [ -80.141122990899561, 36.427839000201622 ], [ -80.140047990592805, 36.422755000442152 ], [ -80.144482990651525, 36.420552999960442 ], [ -80.1434889906389, 36.41861900053123 ], [ -80.145178990714626, 36.416790999908557 ], [ -80.141885991634467, 36.415494000341205 ], [ -80.140377991621463, 36.413102999648956 ], [ -80.141974991455697, 36.411432000152487 ], [ -80.145094991552881, 36.411834999664563 ], [ -80.146772991047555, 36.409160999778983 ], [ -80.146226990602543, 36.406412999916675 ], [ -80.145333991086417, 36.405349999679387 ], [ -80.143913990894035, 36.406007999727443 ], [ -80.141447990989334, 36.405772000291087 ], [ -80.14079199147892, 36.403916000220327 ], [ -80.141263990595917, 36.402607000238753 ], [ -80.137927990831628, 36.40166900051085 ], [ -80.146648990765073, 36.392008000474839 ], [ -80.158770990866856, 36.38841999993646 ], [ -80.162940991418935, 36.385982999705647 ], [ -80.174254990936049, 36.384029000507482 ], [ -80.177285990709052, 36.380227999925609 ], [ -80.17901999064091, 36.383217999667451 ], [ -80.185571991451084, 36.384382999683204 ], [ -80.187678990789408, 36.385665999711833 ], [ -80.188623990629424, 36.38528000005774 ], [ -80.190979991042028, 36.387147999771152 ], [ -80.191409991420542, 36.388900999772062 ], [ -80.194257990636686, 36.38871700028821 ], [ -80.194355991251655, 36.385131000219829 ], [ -80.197091990814329, 36.382202000084085 ], [ -80.200040991589219, 36.382768000382555 ], [ -80.203610990877607, 36.378074999672954 ], [ -80.205437990586447, 36.377432999926135 ], [ -80.205685991358266, 36.37686699974185 ], [ -80.204626991189656, 36.376236000230641 ], [ -80.205316991046672, 36.375469000130003 ], [ -80.209500990990648, 36.374541999870665 ], [ -80.211501990636407, 36.374995000391529 ], [ -80.214073990637857, 36.372062999855395 ], [ -80.217410991261545, 36.370511000170616 ], [ -80.220404991126074, 36.370443000176721 ], [ -80.225451991470223, 36.366331999776357 ], [ -80.227449991529937, 36.365617999897268 ], [ -80.230953990576182, 36.367766999983331 ], [ -80.231194990641853, 36.370476000062375 ], [ -80.233912991530175, 36.370743999821237 ], [ -80.234162990718673, 36.377268000067872 ], [ -80.239921990777717, 36.375969000161106 ], [ -80.244261990597508, 36.377338000487036 ], [ -80.245346991388431, 36.373916000452368 ], [ -80.246925991322954, 36.374321999820886 ], [ -80.248592991374778, 36.376110000309602 ], [ -80.246258991277514, 36.381068999935096 ], [ -80.253612991373174, 36.381185000003896 ], [ -80.25339699090901, 36.386588999647969 ], [ -80.262675990878535, 36.386948999829166 ], [ -80.261720991337228, 36.372526000480541 ], [ -80.269532990736195, 36.372822000212572 ], [ -80.270381991571796, 36.374919000045459 ], [ -80.268802991327632, 36.375553999959983 ], [ -80.269234991087799, 36.381477000396877 ], [ -80.272051991289246, 36.380529999749236 ], [ -80.272874991161103, 36.37551799969922 ], [ -80.282646991379622, 36.375855000414603 ] ] ] } },
{ "type": "Feature", "properties": { "county": "STOKES", "precinct": "12", "enr_desc": "Mount Olive", "winner": "Joey Lemons", "winner_votes": 225, "winner_share": 81.227436823104696, "runner_up": "Steven Bingman", "runner_up_votes": 52, "runner_up_share": 18.772563176895307, "contest_votes": 277, "margin_of_victory": 62.454873646209393, "is_tie": false, "results": [ { "candidate": "Joey Lemons", "votes": 225, "share": 81.2274368231047 }, { "candidate": "Steven Bingman", "votes": 52, "share": 18.772563176895307 } ], "participated": true, "map_key": "STOKES_12" }, "geometry": { "type": "Polygon", "coordinates": [ [ [ -80.290945990866888, 36.324721000323727 ], [ -80.290739991213613, 36.323126999871796 ], [ -80.291383990892228, 36.322438999650267 ], [ -80.292683991366602, 36.32363800038133 ], [ -80.299098991334361, 36.325213000105954 ], [ -80.30960999075171, 36.318867999923256 ], [ -80.311736990741579, 36.323095999956998 ], [ -80.313008991135661, 36.323953000506201 ], [ -80.327078990659757, 36.324986999983949 ], [ -80.336208990891407, 36.326870000016854 ], [ -80.336382991190888, 36.327999000389589 ], [ -80.337945990983826, 36.327455000121503 ], [ -80.343692990817758, 36.323641000387106 ], [ -80.351034991301574, 36.324081999944454 ], [ -80.355887990728093, 36.32843500036477 ], [ -80.363356990973813, 36.332095000105362 ], [ -80.363735990823116, 36.33457099965247 ], [ -80.362791990696451, 36.337252999994064 ], [ -80.362714990824287, 36.345125999741086 ], [ -80.363536990837076, 36.349261999764131 ], [ -80.370199991656193, 36.346940999777878 ], [ -80.372186990667174, 36.349605999697467 ], [ -80.374932990808986, 36.350253999809205 ], [ -80.376484991358751, 36.35026899988523 ], [ -80.381855991504338, 36.354784000393153 ], [ -80.379566991070078, 36.356236999987125 ], [ -80.378896991031951, 36.362288000097088 ], [ -80.377304991011059, 36.365640999926285 ], [ -80.377601990652437, 36.367343000161689 ], [ -80.375318991619508, 36.369279000094728 ], [ -80.376570991195223, 36.372302999891183 ], [ -80.376314991608581, 36.374170999821324 ], [ -80.3693159912185, 36.377533999853803 ], [ -80.35962499163071, 36.378936000254697 ], [ -80.362808991402829, 36.380896000356557 ], [ -80.361188991529573, 36.382853999800588 ], [ -80.361120991357254, 36.38405099982436 ], [ -80.365710991492492, 36.384866999949026 ], [ -80.367128991496131, 36.384323000453612 ], [ -80.368004991557655, 36.388090999648433 ], [ -80.36522499066281, 36.393591999971726 ], [ -80.366692991087334, 36.395485999846727 ], [ -80.367001990818423, 36.397788000429024 ], [ -80.365855991464883, 36.400232999664318 ], [ -80.363777991057901, 36.401322000412357 ], [ -80.362898990646883, 36.403291999988376 ], [ -80.361704990706301, 36.403731000262276 ], [ -80.360218991333895, 36.403663999823735 ], [ -80.358606990818785, 36.40159700024374 ], [ -80.356344990646107, 36.401741000049228 ], [ -80.351501990605968, 36.400013999926692 ], [ -80.347634991658879, 36.401336999798836 ], [ -80.345123991240001, 36.403240000013746 ], [ -80.334793991207221, 36.402650999790204 ], [ -80.331461991563657, 36.404993000225261 ], [ -80.331458990934877, 36.403411000216465 ], [ -80.333264990885198, 36.401505000516252 ], [ -80.33004599072683, 36.400085000028348 ], [ -80.331253990910412, 36.397813000300218 ], [ -80.328935990985784, 36.398102000016422 ], [ -80.326837991450475, 36.399667000537924 ], [ -80.324923991524457, 36.399365999817668 ], [ -80.3240299916108, 36.396015000533815 ], [ -80.322471991476306, 36.394869999662461 ], [ -80.322682990962477, 36.392582999876872 ], [ -80.321525991231169, 36.393434000109117 ], [ -80.318815991094979, 36.393305000079998 ], [ -80.319284991013546, 36.387524000529559 ], [ -80.309907991322987, 36.387278000278812 ], [ -80.308077991643316, 36.388949000400089 ], [ -80.298479991356189, 36.387022999822477 ], [ -80.298543990579248, 36.381465999762064 ], [ -80.290582991313102, 36.381343999789173 ], [ -80.290725990696117, 36.376389000543831 ], [ -80.282646991379622, 36.375855000414603 ], [ -80.283183991667713, 36.372428000498985 ], [ -80.282288991044098, 36.37095700022919 ], [ -80.276473991028752, 36.367340000463635 ], [ -80.278442991481342, 36.366008000016592 ], [ -80.282985990702088, 36.367397000068244 ], [ -80.285405991551073, 36.366371999780895 ], [ -80.286771990712367, 36.360052999735316 ], [ -80.285895991414861, 36.356716000233966 ], [ -80.291519991509816, 36.354468999949198 ], [ -80.292719990882347, 36.350072999963359 ], [ -80.295893991230372, 36.346440999885658 ], [ -80.295241990837198, 36.343220000193078 ], [ -80.295846990984046, 36.33925100018763 ], [ -80.298454991376047, 36.337631000388988 ], [ -80.295783990621146, 36.334058000140658 ], [ -80.291740990795645, 36.331464999693232 ], [ -80.291746991316941, 36.330772000385302 ], [ -80.293945990935981, 36.330547000210359 ], [ -80.293085990593639, 36.329088000054433 ], [ -80.294571990888841, 36.327146999952618 ], [ -80.293832991581937, 36.325844000035971 ], [ -80.292689991258143, 36.326395999997459 ], [ -80.290945990866888, 36.324721000323727 ] ] ] } },
{ "type": "Feature", "properties": { "county": "STOKES", "precinct": "4", "enr_desc": "Chestnut Grove", "winner": "Joey Lemons", "winner_votes": 132, "winner_share": 80.0, "runner_up": "Steven Bingman", "runner_up_votes": 33, "runner_up_share": 20.0, "contest_votes": 165, "margin_of_victory": 60.0, "is_tie": false, "results": [ { "candidate": "Joey Lemons", "votes": 132, "share": 80.0 }, { "candidate": "Steven Bingman", "votes": 33, "share": 20.0 } ], "participated": true, "map_key": "STOKES_4" }, "geometry": { "type": "Polygon", "coordinates": [ [ [ -80.328730991356437, 36.301215000006515 ], [ -80.332736990880889, 36.302892000028905 ], [ -80.338972990592737, 36.303909000481553 ], [ -80.344866990710912, 36.309476000369095 ], [ -80.348331991016622, 36.310121999659891 ], [ -80.355765991552417, 36.308333999969847 ], [ -80.357703990617068, 36.30605700025562 ], [ -80.360835990838595, 36.305321000206852 ], [ -80.369933991425867, 36.304905000533083 ], [ -80.37208699150483, 36.306561999953551 ], [ -80.373100990765892, 36.298055999780502 ], [ -80.374129991490747, 36.295241000299967 ], [ -80.37412999138958, 36.292056000515743 ], [ -80.37311999134694, 36.289405000499336 ], [ -80.38151399083479, 36.290786000462454 ], [ -80.386439991297749, 36.287768000035094 ], [ -80.39390799068326, 36.281038000167896 ], [ -80.398809991208466, 36.278077000499799 ], [ -80.40255599154554, 36.278869000422524 ], [ -80.406337991411377, 36.280989000318911 ], [ -80.415165990711174, 36.281516000501114 ], [ -80.417407990914398, 36.284962000095511 ], [ -80.421294990933916, 36.285622000553253 ], [ -80.423566990857069, 36.28691299982593 ], [ -80.427897990567971, 36.284339999760746 ], [ -80.430497990825188, 36.284594000021528 ], [ -80.430361991314271, 36.286235000130112 ], [ -80.43158299095235, 36.28724699998763 ], [ -80.430572991351156, 36.288496999868173 ], [ -80.432508990643754, 36.289658000373699 ], [ -80.436209991381489, 36.288804999964881 ], [ -80.437253991265393, 36.289224999812646 ], [ -80.434082991618808, 36.291867000459014 ], [ -80.432633991320941, 36.295136999853277 ], [ -80.430875990994977, 36.29408399989169 ], [ -80.428091991363388, 36.289531000208797 ], [ -80.425569991593605, 36.292010999898245 ], [ -80.423132991362976, 36.292723999831836 ], [ -80.420666990619225, 36.294757000314682 ], [ -80.420698991643292, 36.299705000321765 ], [ -80.417720991120973, 36.298682000469221 ], [ -80.416248991465451, 36.29629200053364 ], [ -80.416755991210437, 36.294781000388063 ], [ -80.413405991425279, 36.294067999997147 ], [ -80.414104991039537, 36.298632999759498 ], [ -80.416126990953302, 36.300307999928698 ], [ -80.41490399138992, 36.305872000291522 ], [ -80.412179990877888, 36.30663800051596 ], [ -80.41080199140778, 36.30382499997539 ], [ -80.409372990724307, 36.302851999732191 ], [ -80.408534990861043, 36.308734000284453 ], [ -80.407773991300488, 36.309690999984255 ], [ -80.404987990797039, 36.310615000128763 ], [ -80.402809991101549, 36.313060000098439 ], [ -80.401009990645164, 36.312314999857257 ], [ -80.395618991243637, 36.317625000462023 ], [ -80.393442990864898, 36.318177000281544 ], [ -80.394253990903835, 36.319174000415998 ], [ -80.395699991214641, 36.319233999921877 ], [ -80.397630991103867, 36.322188999746849 ], [ -80.402102990895045, 36.323653999777441 ], [ -80.402025991520389, 36.32508500018487 ], [ -80.400305991231789, 36.325909999932954 ], [ -80.400478990644359, 36.327610000354547 ], [ -80.3978069908392, 36.328212000168378 ], [ -80.400523991618329, 36.331560000074568 ], [ -80.394725990638037, 36.332397000176925 ], [ -80.39241199103806, 36.331048000280269 ], [ -80.392617991554687, 36.329949999839464 ], [ -80.391941991575621, 36.329498000513986 ], [ -80.391324990706025, 36.332085000145092 ], [ -80.389602991629005, 36.332651999708574 ], [ -80.388243991449215, 36.336669000422376 ], [ -80.38513299083732, 36.335971000553137 ], [ -80.385948991634265, 36.332666999870725 ], [ -80.384927991310988, 36.331967000390321 ], [ -80.382414991105179, 36.332708999762588 ], [ -80.378908991507771, 36.335343000039252 ], [ -80.376803990857169, 36.334491000060844 ], [ -80.372789990751571, 36.337275000210745 ], [ -80.370464990789003, 36.337248000192261 ], [ -80.37253199152569, 36.343789000386721 ], [ -80.375522990826639, 36.347363000240286 ], [ -80.374932990808986, 36.350253999809205 ], [ -80.372186990667174, 36.349605999697467 ], [ -80.370199991656193, 36.346940999777878 ], [ -80.363536990837076, 36.349261999764131 ], [ -80.362714990824287, 36.345125999741086 ], [ -80.362791990696451, 36.337252999994064 ], [ -80.363735990823116, 36.33457099965247 ], [ -80.363356990973813, 36.332095000105362 ], [ -80.355887990728093, 36.32843500036477 ], [ -80.351034991301574, 36.324081999944454 ], [ -80.343692990817758, 36.323641000387106 ], [ -80.337945990983826, 36.327455000121503 ], [ -80.336382991190888, 36.327999000389589 ], [ -80.336208990891407, 36.326870000016854 ], [ -80.33320899150722, 36.317772000249292 ], [ -80.334207990625913, 36.313954000153117 ], [ -80.332671990863872, 36.310624999700302 ], [ -80.33254399066665, 36.305901000438034 ], [ -80.328730991356437, 36.301215000006515 ] ] ] } },
{ "type": "Feature", "properties": { "county": "STOKES", "precinct": "2", "enr_desc": "Sandy Ridge", "winner": "Joey Lemons", "winner_votes": 220, "winner_share": 68.965517241379317, "runner_up": "Steven Bingman", "runner_up_votes": 99, "runner_up_share": 31.03448275862069, "contest_votes": 319, "margin_of_victory": 37.931034482758626, "is_tie": false, "results": [ { "candidate": "Joey Lemons", "votes": 220, "share": 68.96551724137932 }, { "candidate": "Steven Bingman", "votes": 99, "share": 31.03448275862069 } ], "participated": true, "map_key": "STOKES_2" }, "geometry": { "type": "Polygon", "coordinates": [ [ [ -80.029925991447726, 36.447838000218752 ], [ -80.033851991584214, 36.449631999948046 ], [ -80.035348991020044, 36.449234999664576 ], [ -80.036413991170548, 36.450567000144254 ], [ -80.0397089912789, 36.451491999929701 ], [ -80.044503990679416, 36.450409000056908 ], [ -80.053479991408437, 36.451578000029713 ], [ -80.057542990769562, 36.453824000113599 ], [ -80.067075990862264, 36.455924000108226 ], [ -80.077506991321627, 36.454530000052486 ], [ -80.080932991164104, 36.451990999890135 ], [ -80.082649990913822, 36.451695000193759 ], [ -80.093077991489352, 36.456238999778286 ], [ -80.098292990553446, 36.457490999802438 ], [ -80.09998299110309, 36.45356700003471 ], [ -80.102810990593042, 36.451620999741522 ], [ -80.106449991314165, 36.447587000038048 ], [ -80.106972991051492, 36.445155000336655 ], [ -80.10897399111019, 36.443777000126133 ], [ -80.115196991598296, 36.442831999856473 ], [ -80.122136990874182, 36.44336400029038 ], [ -80.125542990975788, 36.441168000377615 ], [ -80.129227991359741, 36.443087999731212 ], [ -80.137506991157764, 36.438914000203319 ], [ -80.139256990714998, 36.436055000486817 ], [ -80.142292991608414, 36.434783999635322 ], [ -80.147471990847166, 36.434463000194114 ], [ -80.149531990819, 36.433529000149001 ], [ -80.152354991128377, 36.435174000245929 ], [ -80.154540990826689, 36.432896000138498 ], [ -80.159435990928102, 36.43301600051452 ], [ -80.159607990995497, 36.437044000484846 ], [ -80.158654991526419, 36.439159000133344 ], [ -80.165751991186781, 36.445044000146595 ], [ -80.166988991016765, 36.451133000198723 ], [ -80.171379991097922, 36.451262000529518 ], [ -80.177659991010472, 36.4538969996619 ], [ -80.177346990726619, 36.457559000082746 ], [ -80.175803990886564, 36.461277999830912 ], [ -80.176581991114531, 36.466908000433641 ], [ -80.174884991121161, 36.468892999888006 ], [ -80.174708991590208, 36.472729000051572 ], [ -80.179099991218749, 36.475508000518523 ], [ -80.186002991374565, 36.477413999951246 ], [ -80.185144990689366, 36.480475000325974 ], [ -80.182453991198187, 36.480673999680228 ], [ -80.182442990694, 36.480024000450179 ], [ -80.180543990592994, 36.481516999771593 ], [ -80.175329991478606, 36.483289999937462 ], [ -80.179142991656732, 36.48704300049156 ], [ -80.183030991627533, 36.494760000466094 ], [ -80.186289991553323, 36.496422000476038 ], [ -80.18705599149186, 36.498392000100239 ], [ -80.189398991406634, 36.500270000043521 ], [ -80.190575990736164, 36.503240000068587 ], [ -80.193188991094189, 36.504644000221504 ], [ -80.193341991566285, 36.505360000225188 ], [ -80.191926991557068, 36.506734000419392 ], [ -80.193271990792539, 36.5083749997399 ], [ -80.192568991385457, 36.510494000439941 ], [ -80.193777990847991, 36.513502000486731 ], [ -80.187990991188087, 36.513928999950572 ], [ -80.184033990809311, 36.51711900000312 ], [ -80.183876991031681, 36.520184000386067 ], [ -80.187005990756276, 36.524899999947152 ], [ -80.186856990536526, 36.528200999878862 ], [ -80.184231991009398, 36.532102999737425 ], [ -80.182322991438696, 36.531563999747441 ], [ -80.177899990874323, 36.534945000046704 ], [ -80.174664991431214, 36.538713000015221 ], [ -80.172966991141664, 36.543182000053555 ], [ -80.027338990686772, 36.542480000078157 ], [ -80.029925991447726, 36.447838000218752 ] ] ] } },
{ "type": "Feature", "properties": { "county": "STOKES", "precinct": "3", "enr_desc": "Lawsonville", "winner": "Joey Lemons", "winner_votes": 147, "winner_share": 56.106870229007633, "runner_up": "Steven Bingman", "runner_up_votes": 115, "runner_up_share": 43.893129770992367, "contest_votes": 262, "margin_of_victory": 12.213740458015266, "is_tie": false, "results": [ { "candidate": "Joey Lemons", "votes": 147, "share": 56.10687022900763 }, { "candidate": "Steven Bingman", "votes": 115, "share": 43.89312977099237 } ], "participated": true, "map_key": "STOKES_3" }, "geometry": { "type": "Polygon", "coordinates": [ [ [ -80.289111991011211, 36.4250090003083 ], [ -80.292585990893201, 36.425525999914157 ], [ -80.292189990611078, 36.42988600022607 ], [ -80.291139991177857, 36.432224999846603 ], [ -80.290014990983892, 36.433246000055185 ], [ -80.28958299159909, 36.436035000050381 ], [ -80.2878529908715, 36.439450000499718 ], [ -80.28810799125776, 36.442470000447187 ], [ -80.284642991429905, 36.444746999978094 ], [ -80.284905991363061, 36.448233999844767 ], [ -80.290169990742868, 36.458344999732489 ], [ -80.286506991324501, 36.461001999835688 ], [ -80.286085990910706, 36.46484700023538 ], [ -80.290158991563843, 36.470516000474412 ], [ -80.289874991127988, 36.472593000445464 ], [ -80.287003991327651, 36.476580000119903 ], [ -80.285720990686883, 36.480004999837568 ], [ -80.284022991527138, 36.480065000215063 ], [ -80.282084990671507, 36.477938999741802 ], [ -80.279642991507302, 36.479344000241518 ], [ -80.279475991463428, 36.480510999653539 ], [ -80.283562991328736, 36.483691000412222 ], [ -80.282389990744491, 36.487734000530445 ], [ -80.28154799099795, 36.4880539999129 ], [ -80.278344991329931, 36.486508000388476 ], [ -80.276002990867937, 36.48363900010726 ], [ -80.273659990658132, 36.484925000142503 ], [ -80.274050990933958, 36.487465000170246 ], [ -80.271602990987375, 36.487393999842801 ], [ -80.271533991616437, 36.490890999730823 ], [ -80.272467991319985, 36.492463000071652 ], [ -80.270038991133418, 36.494740000338844 ], [ -80.272504990757611, 36.498551000112869 ], [ -80.269966990666759, 36.502947000018992 ], [ -80.269015991072834, 36.503039000318523 ], [ -80.26875699066737, 36.50456100042333 ], [ -80.267380991606117, 36.505263000354887 ], [ -80.268254991187817, 36.505917999647032 ], [ -80.267269991277814, 36.506239000000214 ], [ -80.265148990797684, 36.510156999828681 ], [ -80.2654849911318, 36.511249000124707 ], [ -80.271949990810398, 36.514740999964438 ], [ -80.270390991233441, 36.515342999913777 ], [ -80.270851991019541, 36.516227000123216 ], [ -80.273721991448681, 36.517342999662596 ], [ -80.275829991088017, 36.516470999908833 ], [ -80.272904991304557, 36.515136000530831 ], [ -80.273360990658503, 36.51368800012601 ], [ -80.274808991655874, 36.511651000101011 ], [ -80.276331990684724, 36.511185000145986 ], [ -80.2795989913635, 36.515051999976755 ], [ -80.280339990921078, 36.517543000462723 ], [ -80.284077990794231, 36.518023000443911 ], [ -80.285319991106093, 36.518949000363847 ], [ -80.285346991096375, 36.520079000030428 ], [ -80.287473990559661, 36.520167000334816 ], [ -80.288231991228628, 36.521251999786145 ], [ -80.287960990558489, 36.526949000444255 ], [ -80.286165991104426, 36.524805000013821 ], [ -80.282297991529518, 36.527617999868127 ], [ -80.284331991414547, 36.528956000174254 ], [ -80.283343990797974, 36.530118999928796 ], [ -80.286373991031994, 36.533832000253618 ], [ -80.282751990693924, 36.53680999983365 ], [ -80.283071991492363, 36.538085999665583 ], [ -80.278153990987164, 36.542638000444093 ], [ -80.282624991238379, 36.543670000299102 ], [ -80.283031991591145, 36.541224000185906 ], [ -80.285832991408697, 36.541216000015737 ], [ -80.287620990869698, 36.54374300051839 ], [ -80.287835990871301, 36.542731000337369 ], [ -80.290873991020518, 36.540971000277338 ], [ -80.294876990563296, 36.544053000290177 ], [ -80.172966991141664, 36.543182000053555 ], [ -80.174664991431214, 36.538713000015221 ], [ -80.177899990874323, 36.534945000046704 ], [ -80.182322991438696, 36.531563999747441 ], [ -80.184231991009398, 36.532102999737425 ], [ -80.186856990536526, 36.528200999878862 ], [ -80.187005990756276, 36.524899999947152 ], [ -80.183876991031681, 36.520184000386067 ], [ -80.184033990809311, 36.51711900000312 ], [ -80.187990991188087, 36.513928999950572 ], [ -80.193777990847991, 36.513502000486731 ], [ -80.192568991385457, 36.510494000439941 ], [ -80.193271990792539, 36.5083749997399 ], [ -80.191926991557068, 36.506734000419392 ], [ -80.193341991566285, 36.505360000225188 ], [ -80.193188991094189, 36.504644000221504 ], [ -80.190575990736164, 36.503240000068587 ], [ -80.189398991406634, 36.500270000043521 ], [ -80.18705599149186, 36.498392000100239 ], [ -80.186289991553323, 36.496422000476038 ], [ -80.183030991627533, 36.494760000466094 ], [ -80.179142991656732, 36.48704300049156 ], [ -80.175329991478606, 36.483289999937462 ], [ -80.180543990592994, 36.481516999771593 ], [ -80.182442990694, 36.480024000450179 ], [ -80.182453991198187, 36.480673999680228 ], [ -80.185144990689366, 36.480475000325974 ], [ -80.186002991374565, 36.477413999951246 ], [ -80.179099991218749, 36.475508000518523 ], [ -80.174708991590208, 36.472729000051572 ], [ -80.174884991121161, 36.468892999888006 ], [ -80.176581991114531, 36.466908000433641 ], [ -80.175803990886564, 36.461277999830912 ], [ -80.177346990726619, 36.457559000082746 ], [ -80.177659991010472, 36.4538969996619 ], [ -80.17966499132649, 36.45406399978679 ], [ -80.179795991655752, 36.452115000472048 ], [ -80.180746990803939, 36.451320000190165 ], [ -80.186937991500685, 36.451026000425969 ], [ -80.187860991313059, 36.4485040004474 ], [ -80.191738991497786, 36.444121000531197 ], [ -80.195000990872629, 36.441715000165445 ], [ -80.198669991357235, 36.440431000096616 ], [ -80.200705990802689, 36.438022000013298 ], [ -80.212305990882015, 36.430707999925872 ], [ -80.213672991638063, 36.428848000073046 ], [ -80.213268990592027, 36.428179999779104 ], [ -80.217183991350566, 36.425856000211738 ], [ -80.222111991063784, 36.424703999763743 ], [ -80.230582991319125, 36.424343000294961 ], [ -80.233524991657532, 36.433777999707011 ], [ -80.236509991022203, 36.435523000069836 ], [ -80.240805990948175, 36.434994999895387 ], [ -80.245826990584916, 36.429844000147376 ], [ -80.253376990612225, 36.431418999938948 ], [ -80.256833991297796, 36.429194999838941 ], [ -80.261542991620104, 36.42858600016087 ], [ -80.264956991348569, 36.430002000232832 ], [ -80.266368990859178, 36.432959000489504 ], [ -80.27149099154083, 36.434701000116661 ], [ -80.272133991109754, 36.433492999989745 ], [ -80.271633991482929, 36.431904000262314 ], [ -80.27634799118492, 36.430489999993675 ], [ -80.27815899114924, 36.434782999894381 ], [ -80.276826991397286, 36.439217000087865 ], [ -80.279609990937033, 36.440485999770701 ], [ -80.282536991284587, 36.438730000412036 ], [ -80.286021991025933, 36.431681000535363 ], [ -80.284486990869524, 36.427992000027515 ], [ -80.286506991599225, 36.425892000264099 ], [ -80.289111991011211, 36.4250090003083 ] ] ] } },
{ "type": "Feature", "properties": { "county": "STOKES", "precinct": "506", "enr_desc": "Francisco", "winner": "Joey Lemons", "winner_votes": 182, "winner_share": 71.09375, "runner_up": "Steven Bingman", "runner_up_votes": 74, "runner_up_share": 28.90625, "contest_votes": 256, "margin_of_victory": 42.1875, "is_tie": false, "results": [ { "candidate": "Joey Lemons", "votes": 182, "share": 71.09375 }, { "candidate": "Steven Bingman", "votes": 74, "share": 28.90625 } ], "participated": true, "map_key": "STOKES_506" }, "geometry": { "type": "Polygon", "coordinates": [ [ [ -80.444728990857314, 36.474689000004396 ], [ -80.440339991459751, 36.55066499972034 ], [ -80.294876990563296, 36.544053000290177 ], [ -80.290873991020518, 36.540971000277338 ], [ -80.287835990871301, 36.542731000337369 ], [ -80.287620990869698, 36.54374300051839 ], [ -80.285832991408697, 36.541216000015737 ], [ -80.283031991591145, 36.541224000185906 ], [ -80.282624991238379, 36.543670000299102 ], [ -80.278153990987164, 36.542638000444093 ], [ -80.283071991492363, 36.538085999665583 ], [ -80.282751990693924, 36.53680999983365 ], [ -80.286373991031994, 36.533832000253618 ], [ -80.283343990797974, 36.530118999928796 ], [ -80.284331991414547, 36.528956000174254 ], [ -80.282297991529518, 36.527617999868127 ], [ -80.286165991104426, 36.524805000013821 ], [ -80.287960990558489, 36.526949000444255 ], [ -80.288231991228628, 36.521251999786145 ], [ -80.287473990559661, 36.520167000334816 ], [ -80.285346991096375, 36.520079000030428 ], [ -80.285319991106093, 36.518949000363847 ], [ -80.284077990794231, 36.518023000443911 ], [ -80.280339990921078, 36.517543000462723 ], [ -80.2795989913635, 36.515051999976755 ], [ -80.276331990684724, 36.511185000145986 ], [ -80.274808991655874, 36.511651000101011 ], [ -80.273360990658503, 36.51368800012601 ], [ -80.272904991304557, 36.515136000530831 ], [ -80.275829991088017, 36.516470999908833 ], [ -80.273721991448681, 36.517342999662596 ], [ -80.270851991019541, 36.516227000123216 ], [ -80.270390991233441, 36.515342999913777 ], [ -80.271949990810398, 36.514740999964438 ], [ -80.2654849911318, 36.511249000124707 ], [ -80.265148990797684, 36.510156999828681 ], [ -80.267269991277814, 36.506239000000214 ], [ -80.268254991187817, 36.505917999647032 ], [ -80.267380991606117, 36.505263000354887 ], [ -80.26875699066737, 36.50456100042333 ], [ -80.269015991072834, 36.503039000318523 ], [ -80.269966990666759, 36.502947000018992 ], [ -80.272504990757611, 36.498551000112869 ], [ -80.270038991133418, 36.494740000338844 ], [ -80.272467991319985, 36.492463000071652 ], [ -80.271533991616437, 36.490890999730823 ], [ -80.271602990987375, 36.487393999842801 ], [ -80.274050990933958, 36.487465000170246 ], [ -80.273659990658132, 36.484925000142503 ], [ -80.276002990867937, 36.48363900010726 ], [ -80.278344991329931, 36.486508000388476 ], [ -80.28154799099795, 36.4880539999129 ], [ -80.282389990744491, 36.487734000530445 ], [ -80.283562991328736, 36.483691000412222 ], [ -80.279475991463428, 36.480510999653539 ], [ -80.279642991507302, 36.479344000241518 ], [ -80.282084990671507, 36.477938999741802 ], [ -80.284022991527138, 36.480065000215063 ], [ -80.285720990686883, 36.480004999837568 ], [ -80.287003991327651, 36.476580000119903 ], [ -80.289874991127988, 36.472593000445464 ], [ -80.290158991563843, 36.470516000474412 ], [ -80.286085990910706, 36.46484700023538 ], [ -80.286506991324501, 36.461001999835688 ], [ -80.290169990742868, 36.458344999732489 ], [ -80.284905991363061, 36.448233999844767 ], [ -80.286344990875705, 36.448805000416293 ], [ -80.288601991591463, 36.452074000519616 ], [ -80.289498991590932, 36.451271000085214 ], [ -80.289505990603487, 36.449953000193091 ], [ -80.290540990576773, 36.450238000537091 ], [ -80.290868991632394, 36.452153000187849 ], [ -80.294919991035329, 36.455796999760061 ], [ -80.297990991584896, 36.455403000093568 ], [ -80.301367990888224, 36.456031000049002 ], [ -80.303331990759347, 36.455413000243141 ], [ -80.302893991646044, 36.457509999752403 ], [ -80.3035679908715, 36.45993700006423 ], [ -80.307471991635268, 36.463342999659545 ], [ -80.312875990951497, 36.465115000253085 ], [ -80.313469991443668, 36.469144999754164 ], [ -80.314613990785958, 36.468949999879719 ], [ -80.316763991059844, 36.466737000351117 ], [ -80.317687990589803, 36.464758000407279 ], [ -80.319130991104402, 36.464576999945692 ], [ -80.320392990887754, 36.464996000282262 ], [ -80.320807991162923, 36.466774999709472 ], [ -80.325021991638266, 36.469218999774228 ], [ -80.329975990630572, 36.469198999817756 ], [ -80.32977099087114, 36.472407000479009 ], [ -80.327026990836117, 36.473424000336976 ], [ -80.327466991240811, 36.475022999910671 ], [ -80.329824990776771, 36.475199000465267 ], [ -80.332927991122347, 36.47219400038324 ], [ -80.335750990774272, 36.475220000062492 ], [ -80.339879991139483, 36.473199999804024 ], [ -80.341979990576732, 36.473303000479802 ], [ -80.343691990763489, 36.474488000206549 ], [ -80.348474991646398, 36.472349000183613 ], [ -80.352485991272403, 36.473374000274283 ], [ -80.35706199089266, 36.472038999829905 ], [ -80.358457990990686, 36.472575000334231 ], [ -80.363092991195714, 36.469597000163063 ], [ -80.367654991259201, 36.470232999826891 ], [ -80.368297990811868, 36.469177000318204 ], [ -80.371765991512504, 36.467539000283587 ], [ -80.374691990995828, 36.467616999860816 ], [ -80.379789991546318, 36.466226999731724 ], [ -80.385490991098749, 36.466056000091953 ], [ -80.391324991088823, 36.469083999832414 ], [ -80.392855991348881, 36.467915999665131 ], [ -80.39326199099358, 36.466316000345984 ], [ -80.395688991248605, 36.465579000462604 ], [ -80.395065991457685, 36.464324000401433 ], [ -80.395600991029241, 36.463253000175769 ], [ -80.400604991283075, 36.464043000171337 ], [ -80.399321991205724, 36.46235299979967 ], [ -80.401069991627082, 36.460773000474845 ], [ -80.403898991040947, 36.461377000358702 ], [ -80.404383991506876, 36.462186000005325 ], [ -80.408104991650887, 36.46251300029774 ], [ -80.408779990943515, 36.463464999809872 ], [ -80.413539991268777, 36.462630000329781 ], [ -80.416530991347713, 36.463632000302063 ], [ -80.421354991314956, 36.461858999790536 ], [ -80.421600991465851, 36.463167999794237 ], [ -80.420259991368994, 36.463778999742445 ], [ -80.423556990667407, 36.467429999883592 ], [ -80.425029990674446, 36.467737000374534 ], [ -80.427260991035752, 36.466677999837842 ], [ -80.435769991471389, 36.467237999970017 ], [ -80.437888991290237, 36.47012600042865 ], [ -80.437974990640669, 36.472198000062001 ], [ -80.444728990857314, 36.474689000004396 ] ] ] } },
{ "type": "Feature", "properties": { "county": "STOKES", "precinct": "7", "enr_desc": "Reynolds", "winner": "Joey Lemons", "winner_votes": 69, "winner_share": 71.875, "runner_up": "Steven Bingman", "runner_up_votes": 27, "runner_up_share": 28.125, "contest_votes": 96, "margin_of_victory": 43.75, "is_tie": false, "results": [ { "candidate": "Joey Lemons", "votes": 69, "share": 71.875 }, { "candidate": "Steven Bingman", "votes": 27, "share": 28.125 } ], "participated": true, "map_key": "STOKES_7" }, "geometry": { "type": "Polygon", "coordinates": [ [ [ -80.446981990951031, 36.438379999874776 ], [ -80.444728990857314, 36.474689000004396 ], [ -80.437974990640669, 36.472198000062001 ], [ -80.437888991290237, 36.47012600042865 ], [ -80.435769991471389, 36.467237999970017 ], [ -80.427260991035752, 36.466677999837842 ], [ -80.425029990674446, 36.467737000374534 ], [ -80.423556990667407, 36.467429999883592 ], [ -80.420259991368994, 36.463778999742445 ], [ -80.421600991465851, 36.463167999794237 ], [ -80.421354991314956, 36.461858999790536 ], [ -80.416530991347713, 36.463632000302063 ], [ -80.413539991268777, 36.462630000329781 ], [ -80.408779990943515, 36.463464999809872 ], [ -80.408104991650887, 36.46251300029774 ], [ -80.404383991506876, 36.462186000005325 ], [ -80.403898991040947, 36.461377000358702 ], [ -80.401069991627082, 36.460773000474845 ], [ -80.399321991205724, 36.46235299979967 ], [ -80.400604991283075, 36.464043000171337 ], [ -80.395600991029241, 36.463253000175769 ], [ -80.395065991457685, 36.464324000401433 ], [ -80.395688991248605, 36.465579000462604 ], [ -80.39326199099358, 36.466316000345984 ], [ -80.392855991348881, 36.467915999665131 ], [ -80.391324991088823, 36.469083999832414 ], [ -80.385490991098749, 36.466056000091953 ], [ -80.379789991546318, 36.466226999731724 ], [ -80.374691990995828, 36.467616999860816 ], [ -80.371765991512504, 36.467539000283587 ], [ -80.368297990811868, 36.469177000318204 ], [ -80.367654991259201, 36.470232999826891 ], [ -80.363092991195714, 36.469597000163063 ], [ -80.358457990990686, 36.472575000334231 ], [ -80.35706199089266, 36.472038999829905 ], [ -80.352485991272403, 36.473374000274283 ], [ -80.348474991646398, 36.472349000183613 ], [ -80.343691990763489, 36.474488000206549 ], [ -80.341979990576732, 36.473303000479802 ], [ -80.339879991139483, 36.473199999804024 ], [ -80.335750990774272, 36.475220000062492 ], [ -80.332927991122347, 36.47219400038324 ], [ -80.329824990776771, 36.475199000465267 ], [ -80.327466991240811, 36.475022999910671 ], [ -80.327026990836117, 36.473424000336976 ], [ -80.32977099087114, 36.472407000479009 ], [ -80.329975990630572, 36.469198999817756 ], [ -80.325021991638266, 36.469218999774228 ], [ -80.320807991162923, 36.466774999709472 ], [ -80.320392990887754, 36.464996000282262 ], [ -80.319130991104402, 36.464576999945692 ], [ -80.317687990589803, 36.464758000407279 ], [ -80.316763991059844, 36.466737000351117 ], [ -80.314613990785958, 36.468949999879719 ], [ -80.313469991443668, 36.469144999754164 ], [ -80.312875990951497, 36.465115000253085 ], [ -80.307471991635268, 36.463342999659545 ], [ -80.3035679908715, 36.45993700006423 ], [ -80.302893991646044, 36.457509999752403 ], [ -80.303331990759347, 36.455413000243141 ], [ -80.301367990888224, 36.456031000049002 ], [ -80.297990991584896, 36.455403000093568 ], [ -80.294919991035329, 36.455796999760061 ], [ -80.290868991632394, 36.452153000187849 ], [ -80.290540990576773, 36.450238000537091 ], [ -80.289505990603487, 36.449953000193091 ], [ -80.289498991590932, 36.451271000085214 ], [ -80.288601991591463, 36.452074000519616 ], [ -80.286344990875705, 36.448805000416293 ], [ -80.284905991363061, 36.448233999844767 ], [ -80.284642991429905, 36.444746999978094 ], [ -80.28810799125776, 36.442470000447187 ], [ -80.2878529908715, 36.439450000499718 ], [ -80.28958299159909, 36.436035000050381 ], [ -80.290014990983892, 36.433246000055185 ], [ -80.291139991177857, 36.432224999846603 ], [ -80.291789991339201, 36.432832000520229 ], [ -80.294288991380128, 36.431886000393568 ], [ -80.294726990805344, 36.433353000023843 ], [ -80.294058991066578, 36.434624999723304 ], [ -80.295290990732994, 36.435920999797645 ], [ -80.295380990819567, 36.43862900001028 ], [ -80.297832990757968, 36.438910999822731 ], [ -80.297813991050234, 36.440621999990206 ], [ -80.300110991090662, 36.440258000259654 ], [ -80.301323990939778, 36.438748000172097 ], [ -80.300642990866649, 36.438031999691141 ], [ -80.30145999071101, 36.437589000177709 ], [ -80.302883990778, 36.438537000331856 ], [ -80.301923991081992, 36.43932100020811 ], [ -80.302186990749064, 36.440133000197385 ], [ -80.303840990825663, 36.440368000280067 ], [ -80.304495991112347, 36.437528000079759 ], [ -80.306253991472829, 36.436502000072153 ], [ -80.30788799076943, 36.439292000285029 ], [ -80.310455990722005, 36.43927100038254 ], [ -80.311657990911058, 36.440577000139811 ], [ -80.314668991653917, 36.440792000075035 ], [ -80.31558899057255, 36.439429000261804 ], [ -80.316254990729661, 36.443861000221716 ], [ -80.317739991501995, 36.446553000230985 ], [ -80.322153990637901, 36.44752999985549 ], [ -80.32234899065287, 36.44657000001289 ], [ -80.320418991317709, 36.443297000044986 ], [ -80.320844991420032, 36.440439999726216 ], [ -80.322847991065018, 36.439546000450541 ], [ -80.324758991473999, 36.440925999885337 ], [ -80.323726990699527, 36.443146999831903 ], [ -80.325456991465089, 36.443788000354765 ], [ -80.326759991055923, 36.442492999898818 ], [ -80.328043990857353, 36.443345999754349 ], [ -80.327963991498848, 36.441268000100663 ], [ -80.329400990781366, 36.441589999698863 ], [ -80.330590991500785, 36.440796999788297 ], [ -80.332015991444109, 36.441364000501963 ], [ -80.329719991620962, 36.437064999987598 ], [ -80.330092990970769, 36.436259999676757 ], [ -80.331496990822984, 36.436053999731577 ], [ -80.331466990695944, 36.432399999914395 ], [ -80.335907990945472, 36.432522999758319 ], [ -80.336288991134879, 36.43418599988852 ], [ -80.338455991136328, 36.432881000276375 ], [ -80.338776991540584, 36.432199000452492 ], [ -80.338104991185986, 36.431726000246726 ], [ -80.339067991402246, 36.431399999929489 ], [ -80.340167990990082, 36.431290000343225 ], [ -80.341568990757338, 36.432797000176741 ], [ -80.342360991220886, 36.431847999710776 ], [ -80.343676991508588, 36.432645999948335 ], [ -80.344741990873672, 36.431426000458536 ], [ -80.343995990839986, 36.430696999880062 ], [ -80.345350991438039, 36.429734000501966 ], [ -80.346755991391262, 36.431478999814971 ], [ -80.34573899058725, 36.432283000148672 ], [ -80.346481991173277, 36.432568999890051 ], [ -80.346057990741755, 36.434589000217933 ], [ -80.350821990827086, 36.436204000221224 ], [ -80.351500990875053, 36.438110000285 ], [ -80.352244991297198, 36.43763399985194 ], [ -80.351828991034211, 36.434788000114466 ], [ -80.35321299163121, 36.436346999960193 ], [ -80.354138990948115, 36.436303999800742 ], [ -80.353805991558076, 36.433462000518347 ], [ -80.356238990662078, 36.434895999727019 ], [ -80.356628990720424, 36.437311000365334 ], [ -80.358846991078209, 36.43712800003626 ], [ -80.359435991592093, 36.436111000345754 ], [ -80.361654991190662, 36.436985999782792 ], [ -80.361580991365912, 36.435630999758466 ], [ -80.362278990864212, 36.43537600054016 ], [ -80.364555991401886, 36.436890000354801 ], [ -80.368209991203173, 36.434439000377083 ], [ -80.368590991649455, 36.436001999958272 ], [ -80.370156990684507, 36.436604999743921 ], [ -80.373369990946813, 36.435608000403704 ], [ -80.380007991244739, 36.437573999909048 ], [ -80.383403990956126, 36.436230999796848 ], [ -80.384244991247684, 36.435542999687065 ], [ -80.384271991387251, 36.434204000406204 ], [ -80.38613199154031, 36.4328190000817 ], [ -80.389057991551866, 36.432089000122069 ], [ -80.390412991464544, 36.432370000264577 ], [ -80.390254991556063, 36.433105000406492 ], [ -80.391679991512689, 36.431467000276079 ], [ -80.39313999106804, 36.431684000033037 ], [ -80.396577991584849, 36.429446000443427 ], [ -80.398612990658805, 36.430009999673857 ], [ -80.39872799069137, 36.430681000206107 ], [ -80.401465991456092, 36.431015000468044 ], [ -80.402733991363846, 36.432248000531843 ], [ -80.405820991072432, 36.432393000408396 ], [ -80.408064990776936, 36.429844000449044 ], [ -80.412141991156943, 36.428991000537842 ], [ -80.41623299101785, 36.430425999866976 ], [ -80.417641990772893, 36.432672999908405 ], [ -80.420869991010321, 36.434744000445086 ], [ -80.421332991438575, 36.438308000373048 ], [ -80.422360990711198, 36.440007999766323 ], [ -80.422240990667873, 36.437972999666414 ], [ -80.424548990821862, 36.437599000052209 ], [ -80.4243349913515, 36.441110000307305 ], [ -80.432724991151204, 36.443717999762782 ], [ -80.440302991049975, 36.443666000313812 ], [ -80.443998990795819, 36.439403999771663 ], [ -80.446981990951031, 36.438379999874776 ] ] ] } },
{ "type": "Feature", "properties": { "county": "STOKES", "precinct": "8", "enr_desc": "Flinty Knoll", "winner": "Joey Lemons", "winner_votes": 152, "winner_share": 75.621890547263675, "runner_up": "Steven Bingman", "runner_up_votes": 49, "runner_up_share": 24.378109452736318, "contest_votes": 201, "margin_of_victory": 51.243781094527357, "is_tie": false, "results": [ { "candidate": "Joey Lemons", "votes": 152, "share": 75.62189054726367 }, { "candidate": "Steven Bingman", "votes": 49, "share": 24.378109452736318 } ], "participated": true, "map_key": "STOKES_8" }, "geometry": { "type": "Polygon", "coordinates": [ [ [ -80.318815991094979, 36.393305000079998 ], [ -80.321525991231169, 36.393434000109117 ], [ -80.322682990962477, 36.392582999876872 ], [ -80.322471991476306, 36.394869999662461 ], [ -80.3240299916108, 36.396015000533815 ], [ -80.324923991524457, 36.399365999817668 ], [ -80.326837991450475, 36.399667000537924 ], [ -80.328935990985784, 36.398102000016422 ], [ -80.331253990910412, 36.397813000300218 ], [ -80.33004599072683, 36.400085000028348 ], [ -80.333264990885198, 36.401505000516252 ], [ -80.331458990934877, 36.403411000216465 ], [ -80.331461991563657, 36.404993000225261 ], [ -80.334793991207221, 36.402650999790204 ], [ -80.345123991240001, 36.403240000013746 ], [ -80.347634991658879, 36.401336999798836 ], [ -80.351501990605968, 36.400013999926692 ], [ -80.356344990646107, 36.401741000049228 ], [ -80.358606990818785, 36.40159700024374 ], [ -80.360218991333895, 36.403663999823735 ], [ -80.361704990706301, 36.403731000262276 ], [ -80.362898990646883, 36.403291999988376 ], [ -80.363777991057901, 36.401322000412357 ], [ -80.365855991464883, 36.400232999664318 ], [ -80.367001990818423, 36.397788000429024 ], [ -80.370978990667069, 36.396118999991266 ], [ -80.373233990732373, 36.396972000412362 ], [ -80.378029990560734, 36.392683000355781 ], [ -80.381726990597215, 36.386690999752886 ], [ -80.390849990881065, 36.386699000503221 ], [ -80.395201990976801, 36.383202999781304 ], [ -80.396673991650104, 36.383687999728437 ], [ -80.399789991405044, 36.382466999936675 ], [ -80.403495990893461, 36.383312000148592 ], [ -80.40767399165091, 36.383003999840504 ], [ -80.409511990772444, 36.380894999688792 ], [ -80.414592991160077, 36.380249999781789 ], [ -80.414744991668613, 36.386463000316645 ], [ -80.422648990705028, 36.385797000300599 ], [ -80.426969991154436, 36.38793300048431 ], [ -80.430137991576572, 36.394862999769437 ], [ -80.431541990899419, 36.396834000310903 ], [ -80.432896990888054, 36.397355999964034 ], [ -80.433234991503994, 36.399762999652332 ], [ -80.439379991286017, 36.399476000063991 ], [ -80.443079990557408, 36.400487999818878 ], [ -80.446244990969703, 36.402662000523698 ], [ -80.444780991644365, 36.405532000022845 ], [ -80.448304991409017, 36.405852000484551 ], [ -80.446981990951031, 36.438379999874776 ], [ -80.443998990795819, 36.439403999771663 ], [ -80.440302991049975, 36.443666000313812 ], [ -80.432724991151204, 36.443717999762782 ], [ -80.4243349913515, 36.441110000307305 ], [ -80.424548990821862, 36.437599000052209 ], [ -80.422240990667873, 36.437972999666414 ], [ -80.422360990711198, 36.440007999766323 ], [ -80.421332991438575, 36.438308000373048 ], [ -80.420869991010321, 36.434744000445086 ], [ -80.417641990772893, 36.432672999908405 ], [ -80.41623299101785, 36.430425999866976 ], [ -80.412141991156943, 36.428991000537842 ], [ -80.408064990776936, 36.429844000449044 ], [ -80.405820991072432, 36.432393000408396 ], [ -80.402733991363846, 36.432248000531843 ], [ -80.401465991456092, 36.431015000468044 ], [ -80.39872799069137, 36.430681000206107 ], [ -80.398612990658805, 36.430009999673857 ], [ -80.396577991584849, 36.429446000443427 ], [ -80.39313999106804, 36.431684000033037 ], [ -80.391679991512689, 36.431467000276079 ], [ -80.390254991556063, 36.433105000406492 ], [ -80.390412991464544, 36.432370000264577 ], [ -80.389057991551866, 36.432089000122069 ], [ -80.38613199154031, 36.4328190000817 ], [ -80.384271991387251, 36.434204000406204 ], [ -80.384244991247684, 36.435542999687065 ], [ -80.383403990956126, 36.436230999796848 ], [ -80.380007991244739, 36.437573999909048 ], [ -80.373369990946813, 36.435608000403704 ], [ -80.370156990684507, 36.436604999743921 ], [ -80.368590991649455, 36.436001999958272 ], [ -80.368209991203173, 36.434439000377083 ], [ -80.364555991401886, 36.436890000354801 ], [ -80.362278990864212, 36.43537600054016 ], [ -80.361580991365912, 36.435630999758466 ], [ -80.361654991190662, 36.436985999782792 ], [ -80.359435991592093, 36.436111000345754 ], [ -80.358846991078209, 36.43712800003626 ], [ -80.356628990720424, 36.437311000365334 ], [ -80.356238990662078, 36.434895999727019 ], [ -80.353805991558076, 36.433462000518347 ], [ -80.354138990948115, 36.436303999800742 ], [ -80.35321299163121, 36.436346999960193 ], [ -80.351828991034211, 36.434788000114466 ], [ -80.352244991297198, 36.43763399985194 ], [ -80.351500990875053, 36.438110000285 ], [ -80.350821990827086, 36.436204000221224 ], [ -80.346057990741755, 36.434589000217933 ], [ -80.346481991173277, 36.432568999890051 ], [ -80.34573899058725, 36.432283000148672 ], [ -80.346755991391262, 36.431478999814971 ], [ -80.345350991438039, 36.429734000501966 ], [ -80.343995990839986, 36.430696999880062 ], [ -80.344741990873672, 36.431426000458536 ], [ -80.343676991508588, 36.432645999948335 ], [ -80.342360991220886, 36.431847999710776 ], [ -80.341568990757338, 36.432797000176741 ], [ -80.340167990990082, 36.431290000343225 ], [ -80.339067991402246, 36.431399999929489 ], [ -80.338104991185986, 36.431726000246726 ], [ -80.338776991540584, 36.432199000452492 ], [ -80.338455991136328, 36.432881000276375 ], [ -80.336288991134879, 36.43418599988852 ], [ -80.335907990945472, 36.432522999758319 ], [ -80.331466990695944, 36.432399999914395 ], [ -80.331496990822984, 36.436053999731577 ], [ -80.330092990970769, 36.436259999676757 ], [ -80.329719991620962, 36.437064999987598 ], [ -80.332015991444109, 36.441364000501963 ], [ -80.330590991500785, 36.440796999788297 ], [ -80.329400990781366, 36.441589999698863 ], [ -80.327963991498848, 36.441268000100663 ], [ -80.328043990857353, 36.443345999754349 ], [ -80.326759991055923, 36.442492999898818 ], [ -80.325456991465089, 36.443788000354765 ], [ -80.323726990699527, 36.443146999831903 ], [ -80.324758991473999, 36.440925999885337 ], [ -80.322847991065018, 36.439546000450541 ], [ -80.320844991420032, 36.440439999726216 ], [ -80.320418991317709, 36.443297000044986 ], [ -80.32234899065287, 36.44657000001289 ], [ -80.322153990637901, 36.44752999985549 ], [ -80.317739991501995, 36.446553000230985 ], [ -80.316254990729661, 36.443861000221716 ], [ -80.31558899057255, 36.439429000261804 ], [ -80.314668991653917, 36.440792000075035 ], [ -80.311657990911058, 36.440577000139811 ], [ -80.310455990722005, 36.43927100038254 ], [ -80.30788799076943, 36.439292000285029 ], [ -80.306253991472829, 36.436502000072153 ], [ -80.304495991112347, 36.437528000079759 ], [ -80.303840990825663, 36.440368000280067 ], [ -80.302186990749064, 36.440133000197385 ], [ -80.301923991081992, 36.43932100020811 ], [ -80.302883990778, 36.438537000331856 ], [ -80.30145999071101, 36.437589000177709 ], [ -80.300642990866649, 36.438031999691141 ], [ -80.301323990939778, 36.438748000172097 ], [ -80.300110991090662, 36.440258000259654 ], [ -80.297813991050234, 36.440621999990206 ], [ -80.297832990757968, 36.438910999822731 ], [ -80.295380990819567, 36.43862900001028 ], [ -80.295290990732994, 36.435920999797645 ], [ -80.294058991066578, 36.434624999723304 ], [ -80.294726990805344, 36.433353000023843 ], [ -80.294288991380128, 36.431886000393568 ], [ -80.291789991339201, 36.432832000520229 ], [ -80.291139991177857, 36.432224999846603 ], [ -80.292189990611078, 36.42988600022607 ], [ -80.292585990893201, 36.425525999914157 ], [ -80.289111991011211, 36.4250090003083 ], [ -80.289622990977577, 36.421527000036669 ], [ -80.287235990877519, 36.421947999652367 ], [ -80.282642991652679, 36.417807999881759 ], [ -80.279261991501045, 36.418889000273147 ], [ -80.276835991215705, 36.417586999685398 ], [ -80.276421990764263, 36.411163999780804 ], [ -80.275959991058144, 36.409446999729148 ], [ -80.275006991081625, 36.408998999741307 ], [ -80.274451991322579, 36.405686000497035 ], [ -80.274614991142855, 36.40351499973815 ], [ -80.276255991162245, 36.401164000285867 ], [ -80.285842991058786, 36.396262000191243 ], [ -80.28940099135967, 36.389719000029622 ], [ -80.292262990915049, 36.388002000128289 ], [ -80.294128991389655, 36.391953000060454 ], [ -80.292686991138225, 36.393118000219317 ], [ -80.294410990915893, 36.393081999693607 ], [ -80.29594399064392, 36.396278999705508 ], [ -80.30004099140983, 36.398433000514359 ], [ -80.302239990847852, 36.39856600001886 ], [ -80.303561990755455, 36.400203000320651 ], [ -80.305094990892997, 36.399593000084501 ], [ -80.305521991408327, 36.392615000512002 ], [ -80.318815991094979, 36.393305000079998 ] ] ] } },
{ "type": "Feature", "properties": { "county": "STOKES", "precinct": "9", "enr_desc": "Pinnacle", "winner": "Joey Lemons", "winner_votes": 152, "winner_share": 63.865546218487388, "runner_up": "Steven Bingman", "runner_up_votes": 86, "runner_up_share": 36.134453781512605, "contest_votes": 238, "margin_of_victory": 27.731092436974784, "is_tie": false, "results": [ { "candidate": "Joey Lemons", "votes": 152, "share": 63.86554621848739 }, { "candidate": "Steven Bingman", "votes": 86, "share": 36.134453781512605 } ], "participated": true, "map_key": "STOKES_9" }, "geometry": { "type": "Polygon", "coordinates": [ [ [ -80.430497990825188, 36.284594000021528 ], [ -80.429380991014355, 36.278529000156311 ], [ -80.432720991624166, 36.278946000123447 ], [ -80.435626990701508, 36.277236000435586 ], [ -80.435013991131711, 36.272758000434578 ], [ -80.440464991178573, 36.269133000207106 ], [ -80.441846990798453, 36.269131999835516 ], [ -80.44114099077359, 36.266268000415387 ], [ -80.434787991605077, 36.261382000394335 ], [ -80.451924991638023, 36.261514999824399 ], [ -80.448304991409017, 36.405852000484551 ], [ -80.444780991644365, 36.405532000022845 ], [ -80.446244990969703, 36.402662000523698 ], [ -80.443079990557408, 36.400487999818878 ], [ -80.439379991286017, 36.399476000063991 ], [ -80.433234991503994, 36.399762999652332 ], [ -80.432896990888054, 36.397355999964034 ], [ -80.431541990899419, 36.396834000310903 ], [ -80.430137991576572, 36.394862999769437 ], [ -80.426969991154436, 36.38793300048431 ], [ -80.422648990705028, 36.385797000300599 ], [ -80.414744991668613, 36.386463000316645 ], [ -80.414592991160077, 36.380249999781789 ], [ -80.409511990772444, 36.380894999688792 ], [ -80.40767399165091, 36.383003999840504 ], [ -80.403495990893461, 36.383312000148592 ], [ -80.399789991405044, 36.382466999936675 ], [ -80.396673991650104, 36.383687999728437 ], [ -80.395201990976801, 36.383202999781304 ], [ -80.390849990881065, 36.386699000503221 ], [ -80.381726990597215, 36.386690999752886 ], [ -80.378029990560734, 36.392683000355781 ], [ -80.373233990732373, 36.396972000412362 ], [ -80.370978990667069, 36.396118999991266 ], [ -80.367001990818423, 36.397788000429024 ], [ -80.366692991087334, 36.395485999846727 ], [ -80.36522499066281, 36.393591999971726 ], [ -80.368004991557655, 36.388090999648433 ], [ -80.367128991496131, 36.384323000453612 ], [ -80.365710991492492, 36.384866999949026 ], [ -80.361120991357254, 36.38405099982436 ], [ -80.361188991529573, 36.382853999800588 ], [ -80.362808991402829, 36.380896000356557 ], [ -80.35962499163071, 36.378936000254697 ], [ -80.3693159912185, 36.377533999853803 ], [ -80.376314991608581, 36.374170999821324 ], [ -80.376570991195223, 36.372302999891183 ], [ -80.375318991619508, 36.369279000094728 ], [ -80.377601990652437, 36.367343000161689 ], [ -80.377304991011059, 36.365640999926285 ], [ -80.378896991031951, 36.362288000097088 ], [ -80.379566991070078, 36.356236999987125 ], [ -80.381855991504338, 36.354784000393153 ], [ -80.376484991358751, 36.35026899988523 ], [ -80.374932990808986, 36.350253999809205 ], [ -80.375522990826639, 36.347363000240286 ], [ -80.37253199152569, 36.343789000386721 ], [ -80.370464990789003, 36.337248000192261 ], [ -80.372789990751571, 36.337275000210745 ], [ -80.376803990857169, 36.334491000060844 ], [ -80.378908991507771, 36.335343000039252 ], [ -80.382414991105179, 36.332708999762588 ], [ -80.384927991310988, 36.331967000390321 ], [ -80.385948991634265, 36.332666999870725 ], [ -80.38513299083732, 36.335971000553137 ], [ -80.388243991449215, 36.336669000422376 ], [ -80.389602991629005, 36.332651999708574 ], [ -80.391324990706025, 36.332085000145092 ], [ -80.391941991575621, 36.329498000513986 ], [ -80.392617991554687, 36.329949999839464 ], [ -80.39241199103806, 36.331048000280269 ], [ -80.394725990638037, 36.332397000176925 ], [ -80.400523991618329, 36.331560000074568 ], [ -80.3978069908392, 36.328212000168378 ], [ -80.400478990644359, 36.327610000354547 ], [ -80.400305991231789, 36.325909999932954 ], [ -80.402025991520389, 36.32508500018487 ], [ -80.402102990895045, 36.323653999777441 ], [ -80.397630991103867, 36.322188999746849 ], [ -80.395699991214641, 36.319233999921877 ], [ -80.394253990903835, 36.319174000415998 ], [ -80.393442990864898, 36.318177000281544 ], [ -80.395618991243637, 36.317625000462023 ], [ -80.401009990645164, 36.312314999857257 ], [ -80.402809991101549, 36.313060000098439 ], [ -80.404987990797039, 36.310615000128763 ], [ -80.407773991300488, 36.309690999984255 ], [ -80.408534990861043, 36.308734000284453 ], [ -80.409372990724307, 36.302851999732191 ], [ -80.41080199140778, 36.30382499997539 ], [ -80.412179990877888, 36.30663800051596 ], [ -80.41490399138992, 36.305872000291522 ], [ -80.416126990953302, 36.300307999928698 ], [ -80.414104991039537, 36.298632999759498 ], [ -80.413405991425279, 36.294067999997147 ], [ -80.416755991210437, 36.294781000388063 ], [ -80.416248991465451, 36.29629200053364 ], [ -80.417720991120973, 36.298682000469221 ], [ -80.420698991643292, 36.299705000321765 ], [ -80.420666990619225, 36.294757000314682 ], [ -80.423132991362976, 36.292723999831836 ], [ -80.425569991593605, 36.292010999898245 ], [ -80.428091991363388, 36.289531000208797 ], [ -80.430875990994977, 36.29408399989169 ], [ -80.432633991320941, 36.295136999853277 ], [ -80.434082991618808, 36.291867000459014 ], [ -80.437253991265393, 36.289224999812646 ], [ -80.436209991381489, 36.288804999964881 ], [ -80.432508990643754, 36.289658000373699 ], [ -80.430572991351156, 36.288496999868173 ], [ -80.43158299095235, 36.28724699998763 ], [ -80.430361991314271, 36.286235000130112 ], [ -80.430497990825188, 36.284594000021528 ] ] ] } },
{ "type": "Feature", "properties": { "county": "STOKES", "precinct": "10", "enr_desc": "East King", "winner": "Joey Lemons", "winner_votes": 211, "winner_share": 79.323308270676691, "runner_up": "Steven Bingman", "runner_up_votes": 55, "runner_up_share": 20.676691729323306, "contest_votes": 266, "margin_of_victory": 58.646616541353382, "is_tie": false, "results": [ { "candidate": "Joey Lemons", "votes": 211, "share": 79.32330827067669 }, { "candidate": "Steven Bingman", "votes": 55, "share": 20.676691729323306 } ], "participated": true, "map_key": "STOKES_10" }, "geometry": { "type": "Polygon", "coordinates": [ [ [ -80.364426991632655, 36.260793000248988 ], [ -80.360749991244361, 36.266211000062079 ], [ -80.361947990600697, 36.274051000517581 ], [ -80.359516991531805, 36.280360999950169 ], [ -80.356675990698918, 36.28377999975708 ], [ -80.354998990583226, 36.28980799968167 ], [ -80.359037991446513, 36.295878999706886 ], [ -80.357660990761957, 36.299471999862881 ], [ -80.358599990967932, 36.302876000386547 ], [ -80.360835990838595, 36.305321000206852 ], [ -80.357703990617068, 36.30605700025562 ], [ -80.355765991552417, 36.308333999969847 ], [ -80.348331991016622, 36.310121999659891 ], [ -80.344866990710912, 36.309476000369095 ], [ -80.338972990592737, 36.303909000481553 ], [ -80.332736990880889, 36.302892000028905 ], [ -80.328730991356437, 36.301215000006515 ], [ -80.326311990617, 36.296356999796757 ], [ -80.321163991336121, 36.291848000476698 ], [ -80.320564991338813, 36.279723999991319 ], [ -80.315023991624798, 36.275309999692723 ], [ -80.313811990772905, 36.273274000505154 ], [ -80.313698990961527, 36.270993000449145 ], [ -80.310399990614769, 36.267990000201934 ], [ -80.309268990644767, 36.264176000248099 ], [ -80.310455991667538, 36.260338999993103 ], [ -80.364426991632655, 36.260793000248988 ] ] ] } },
{ "type": "Feature", "properties": { "county": "STOKES", "precinct": "11", "enr_desc": "West King", "winner": "Joey Lemons", "winner_votes": 205, "winner_share": 82.0, "runner_up": "Steven Bingman", "runner_up_votes": 45, "runner_up_share": 18.0, "contest_votes": 250, "margin_of_victory": 64.0, "is_tie": false, "results": [ { "candidate": "Joey Lemons", "votes": 205, "share": 82.0 }, { "candidate": "Steven Bingman", "votes": 45, "share": 18.0 } ], "participated": true, "map_key": "STOKES_11" }, "geometry": { "type": "Polygon", "coordinates": [ [ [ -80.364426991632655, 36.260793000248988 ], [ -80.434787991605077, 36.261382000394335 ], [ -80.44114099077359, 36.266268000415387 ], [ -80.441846990798453, 36.269131999835516 ], [ -80.440464991178573, 36.269133000207106 ], [ -80.435013991131711, 36.272758000434578 ], [ -80.435626990701508, 36.277236000435586 ], [ -80.432720991624166, 36.278946000123447 ], [ -80.429380991014355, 36.278529000156311 ], [ -80.430497990825188, 36.284594000021528 ], [ -80.427897990567971, 36.284339999760746 ], [ -80.423566990857069, 36.28691299982593 ], [ -80.421294990933916, 36.285622000553253 ], [ -80.417407990914398, 36.284962000095511 ], [ -80.415165990711174, 36.281516000501114 ], [ -80.406337991411377, 36.280989000318911 ], [ -80.40255599154554, 36.278869000422524 ], [ -80.398809991208466, 36.278077000499799 ], [ -80.39390799068326, 36.281038000167896 ], [ -80.386439991297749, 36.287768000035094 ], [ -80.38151399083479, 36.290786000462454 ], [ -80.37311999134694, 36.289405000499336 ], [ -80.37412999138958, 36.292056000515743 ], [ -80.374129991490747, 36.295241000299967 ], [ -80.373100990765892, 36.298055999780502 ], [ -80.37208699150483, 36.306561999953551 ], [ -80.369933991425867, 36.304905000533083 ], [ -80.360835990838595, 36.305321000206852 ], [ -80.358599990967932, 36.302876000386547 ], [ -80.357660990761957, 36.299471999862881 ], [ -80.359037991446513, 36.295878999706886 ], [ -80.354998990583226, 36.28980799968167 ], [ -80.356675990698918, 36.28377999975708 ], [ -80.359516991531805, 36.280360999950169 ], [ -80.361947990600697, 36.274051000517581 ], [ -80.360749991244361, 36.266211000062079 ], [ -80.364426991632655, 36.260793000248988 ] ] ] } },
{ "type": "Feature", "properties": { "county": "STOKES", "precinct": "13", "enr_desc": "Mizpah", "winner": "Joey Lemons", "winner_votes": 161, "winner_share": 79.310344827586206, "runner_up": "Steven Bingman", "runner_up_votes": 42, "runner_up_share": 20.689655172413794, "contest_votes": 203, "margin_of_victory": 58.620689655172413, "is_tie": false, "results": [ { "candidate": "Joey Lemons", "votes": 161, "share": 79.3103448275862 }, { "candidate": "Steven Bingman", "votes": 42, "share": 20.689655172413794 } ], "participated": true, "map_key": "STOKES_13" }, "geometry": { "type": "Polygon", "coordinates": [ [ [ -80.310455991667538, 36.260338999993103 ], [ -80.309268990644767, 36.264176000248099 ], [ -80.310399990614769, 36.267990000201934 ], [ -80.313698990961527, 36.270993000449145 ], [ -80.313811990772905, 36.273274000505154 ], [ -80.315023991624798, 36.275309999692723 ], [ -80.320564991338813, 36.279723999991319 ], [ -80.321163991336121, 36.291848000476698 ], [ -80.326311990617, 36.296356999796757 ], [ -80.328730991356437, 36.301215000006515 ], [ -80.33254399066665, 36.305901000438034 ], [ -80.332671990863872, 36.310624999700302 ], [ -80.334207990625913, 36.313954000153117 ], [ -80.33320899150722, 36.317772000249292 ], [ -80.336208990891407, 36.326870000016854 ], [ -80.327078990659757, 36.324986999983949 ], [ -80.313008991135661, 36.323953000506201 ], [ -80.311736990741579, 36.323095999956998 ], [ -80.30960999075171, 36.318867999923256 ], [ -80.299098991334361, 36.325213000105954 ], [ -80.292683991366602, 36.32363800038133 ], [ -80.291383990892228, 36.322438999650267 ], [ -80.290739991213613, 36.323126999871796 ], [ -80.290945990866888, 36.324721000323727 ], [ -80.288068990908741, 36.32190199992953 ], [ -80.286880990773383, 36.322047000313624 ], [ -80.287804990893861, 36.320809000443489 ], [ -80.286697990611927, 36.319490999874702 ], [ -80.286608991193532, 36.316894000388935 ], [ -80.285212990848592, 36.315188000212899 ], [ -80.283684991561344, 36.316032000041041 ], [ -80.281987991016976, 36.315464000138576 ], [ -80.276663000204778, 36.309279000356099 ], [ -80.275453991012441, 36.307308999921986 ], [ -80.278083990915135, 36.306961000024096 ], [ -80.281796990841841, 36.304131000204272 ], [ -80.281911991273773, 36.303177000339311 ], [ -80.28340299080638, 36.30259000031954 ], [ -80.285012990681793, 36.298933000018373 ], [ -80.284612991041143, 36.298138999716656 ], [ -80.28350099144474, 36.298607999993145 ], [ -80.282061991441594, 36.297874999912494 ], [ -80.283943991084215, 36.296517999737766 ], [ -80.282527990881377, 36.294396000154961 ], [ -80.283261991424013, 36.290708000384299 ], [ -80.282711990864115, 36.289562999935498 ], [ -80.280405990598283, 36.289420000106247 ], [ -80.281436991612722, 36.286713000355086 ], [ -80.279432991284935, 36.283951000413339 ], [ -80.283229991253876, 36.282616999854412 ], [ -80.284608991555046, 36.282875999981492 ], [ -80.285826991424884, 36.281038000211169 ], [ -80.281633990574662, 36.277693999711765 ], [ -80.279640990867591, 36.28112299997467 ], [ -80.277560991393912, 36.278775000413283 ], [ -80.275823991014519, 36.274944000095218 ], [ -80.272537990706155, 36.272720999650993 ], [ -80.273095990959732, 36.271846000001752 ], [ -80.277629990723327, 36.272011000019226 ], [ -80.27784599075882, 36.270754999869098 ], [ -80.273875991035183, 36.268626999841388 ], [ -80.271811991535571, 36.266410000491319 ], [ -80.268420990924866, 36.265777999741125 ], [ -80.26189099061645, 36.259842000186389 ], [ -80.310455991667538, 36.260338999993103 ] ] ] } },
{ "type": "Feature", "properties": { "county": "STOKES", "precinct": "20", "enr_desc": "Mitchell", "winner": "Joey Lemons", "winner_votes": 153, "winner_share": 75.742574257425744, "runner_up": "Steven Bingman", "runner_up_votes": 49, "runner_up_share": 24.257425742574256, "contest_votes": 202, "margin_of_victory": 51.485148514851488, "is_tie": false, "results": [ { "candidate": "Joey Lemons", "votes": 153, "share": 75.74257425742574 }, { "candidate": "Steven Bingman", "votes": 49, "share": 24.257425742574256 } ], "participated": true, "map_key": "STOKES_20" }, "geometry": { "type": "Polygon", "coordinates": [ [ [ -80.03188199165885, 36.376177000124152 ], [ -80.03489699108728, 36.375980999957783 ], [ -80.038065991671985, 36.378041000339188 ], [ -80.041740991036434, 36.376596000193913 ], [ -80.043211990582975, 36.378019999637047 ], [ -80.044959991147323, 36.377492000456584 ], [ -80.04780599078336, 36.378338999842029 ], [ -80.052337990555444, 36.376463999878958 ], [ -80.053862991367325, 36.378533000055945 ], [ -80.055705991240927, 36.378080000393055 ], [ -80.058443990895157, 36.378862000239963 ], [ -80.060427990858301, 36.377602999765408 ], [ -80.063092990775914, 36.379728999919834 ], [ -80.065581991237593, 36.379993999815831 ], [ -80.068538991336681, 36.379261000116315 ], [ -80.06901499145539, 36.37411200001732 ], [ -80.068455990920754, 36.369378000042154 ], [ -80.070601991049543, 36.371596999698355 ], [ -80.080076990630474, 36.37157100018031 ], [ -80.082386990616257, 36.372192000526134 ], [ -80.088080991455143, 36.374880000229965 ], [ -80.095312990954909, 36.382488000081032 ], [ -80.098478990859235, 36.382030999815044 ], [ -80.099374990656557, 36.381036000442215 ], [ -80.100085991499952, 36.377486999855876 ], [ -80.103969991519961, 36.375507999655092 ], [ -80.104950991184722, 36.374032999745531 ], [ -80.102279991448853, 36.363698000402465 ], [ -80.103948990900903, 36.364148000282512 ], [ -80.108963991080245, 36.361275000369005 ], [ -80.108421991586653, 36.358870999714604 ], [ -80.110823990970019, 36.356381000040628 ], [ -80.111443991282954, 36.353950999639494 ], [ -80.112515991295766, 36.352950000262908 ], [ -80.111773990579962, 36.351272999731364 ], [ -80.112099990614524, 36.349175999772321 ], [ -80.1159739915405, 36.351046000351396 ], [ -80.117823991161487, 36.354140999653971 ], [ -80.123706991534036, 36.355521999738968 ], [ -80.128618990985416, 36.361017000509875 ], [ -80.128787990723453, 36.364684000365628 ], [ -80.125583991661955, 36.368054999812067 ], [ -80.126315990663002, 36.369551000173466 ], [ -80.132158990943253, 36.373892999842894 ], [ -80.1316449913936, 36.376915999947514 ], [ -80.128939990585351, 36.377227999890273 ], [ -80.124577991608874, 36.374529000488131 ], [ -80.118685990789004, 36.373484999847435 ], [ -80.117730991197021, 36.375800999634585 ], [ -80.122372991260974, 36.38035400032085 ], [ -80.123271991011507, 36.382906999985067 ], [ -80.116545991263834, 36.38209899993138 ], [ -80.113092991418512, 36.382722000526115 ], [ -80.111658990631753, 36.384109000243861 ], [ -80.113890991011971, 36.388914999676381 ], [ -80.1166579908584, 36.391590999719305 ], [ -80.119708990631182, 36.392841000337484 ], [ -80.124442991207943, 36.396725999701438 ], [ -80.133143990902383, 36.398647000177569 ], [ -80.137927990831628, 36.40166900051085 ], [ -80.141263990595917, 36.402607000238753 ], [ -80.14079199147892, 36.403916000220327 ], [ -80.141447990989334, 36.405772000291087 ], [ -80.143913990894035, 36.406007999727443 ], [ -80.145333991086417, 36.405349999679387 ], [ -80.146226990602543, 36.406412999916675 ], [ -80.146772991047555, 36.409160999778983 ], [ -80.145094991552881, 36.411834999664563 ], [ -80.141974991455697, 36.411432000152487 ], [ -80.140377991621463, 36.413102999648956 ], [ -80.141885991634467, 36.415494000341205 ], [ -80.145178990714626, 36.416790999908557 ], [ -80.1434889906389, 36.41861900053123 ], [ -80.144482990651525, 36.420552999960442 ], [ -80.140047990592805, 36.422755000442152 ], [ -80.141122990899561, 36.427839000201622 ], [ -80.143371991473998, 36.426373000444144 ], [ -80.146444990835661, 36.427556999916426 ], [ -80.14456199160567, 36.42877200041567 ], [ -80.145199990669056, 36.430115000352053 ], [ -80.147266990728554, 36.431085999789602 ], [ -80.146472991004188, 36.432097000021237 ], [ -80.147834990765958, 36.432997999790977 ], [ -80.147471990847166, 36.434463000194114 ], [ -80.142292991608414, 36.434783999635322 ], [ -80.139256990714998, 36.436055000486817 ], [ -80.137506991157764, 36.438914000203319 ], [ -80.129227991359741, 36.443087999731212 ], [ -80.125542990975788, 36.441168000377615 ], [ -80.122136990874182, 36.44336400029038 ], [ -80.115196991598296, 36.442831999856473 ], [ -80.10897399111019, 36.443777000126133 ], [ -80.106972991051492, 36.445155000336655 ], [ -80.106449991314165, 36.447587000038048 ], [ -80.102810990593042, 36.451620999741522 ], [ -80.09998299110309, 36.45356700003471 ], [ -80.098292990553446, 36.457490999802438 ], [ -80.093077991489352, 36.456238999778286 ], [ -80.082649990913822, 36.451695000193759 ], [ -80.080932991164104, 36.451990999890135 ], [ -80.077506991321627, 36.454530000052486 ], [ -80.067075990862264, 36.455924000108226 ], [ -80.057542990769562, 36.453824000113599 ], [ -80.053479991408437, 36.451578000029713 ], [ -80.044503990679416, 36.450409000056908 ], [ -80.0397089912789, 36.451491999929701 ], [ -80.036413991170548, 36.450567000144254 ], [ -80.035348991020044, 36.449234999664576 ], [ -80.033851991584214, 36.449631999948046 ], [ -80.029925991447726, 36.447838000218752 ], [ -80.03188199165885, 36.376177000124152 ] ] ] } },
{ "type": "Feature", "properties": { "county": "STOKES", "precinct": "17", "enr_desc": "West Walnut Cove", "winner": "Joey Lemons", "winner_votes": 113, "winner_share": 71.974522292993626, "runner_up": "Steven Bingman", "runner_up_votes": 44, "runner_up_share": 28.02547770700637, "contest_votes": 157, "margin_of_victory": 43.949044585987252, "is_tie": false, "results": [ { "candidate": "Joey Lemons", "votes": 113, "share": 71.97452229299363 }, { "candidate": "Steven Bingman", "votes": 44, "share": 28.02547770700637 } ], "participated": true, "map_key": "STOKES_17" }, "geometry": { "type": "Polygon", "coordinates": [ [ [ -80.189724999758567, 36.307943000032616 ], [ -80.183399991645643, 36.308795000195204 ], [ -80.187429991668267, 36.315835000199812 ], [ -80.187277991287459, 36.317225999970077 ], [ -80.184924990943699, 36.318542000457178 ], [ -80.187004991488465, 36.320271000098721 ], [ -80.187010990594473, 36.321636000449679 ], [ -80.185790991490649, 36.322245999642128 ], [ -80.18105999149337, 36.322019000461566 ], [ -80.175943990645266, 36.325687999838415 ], [ -80.173665990872394, 36.332509000017964 ], [ -80.172529991500568, 36.333899000396755 ], [ -80.167243990935674, 36.336727999888048 ], [ -80.164934991501127, 36.337032999943048 ], [ -80.160037991147306, 36.33570299983203 ], [ -80.155273991474829, 36.332499000445154 ], [ -80.149842991480796, 36.334992000074472 ], [ -80.144048991308807, 36.324969999672945 ], [ -80.142449991262254, 36.319697000484538 ], [ -80.138983991469502, 36.315373000350228 ], [ -80.139616991409241, 36.31072900008909 ], [ -80.142227991208685, 36.307145999886274 ], [ -80.14140599084925, 36.304900000019529 ], [ -80.141781991329566, 36.293288000075897 ], [ -80.14071699110572, 36.290215000221771 ], [ -80.145789991431101, 36.285852999650437 ], [ -80.14441699096956, 36.273907000158729 ], [ -80.147095991565919, 36.258536999895874 ], [ -80.213540991225329, 36.259368999954319 ], [ -80.212606991431059, 36.259963000012462 ], [ -80.213043990778743, 36.261048000093382 ], [ -80.211372991572105, 36.263513000529024 ], [ -80.212655990606933, 36.263793000390116 ], [ -80.214347991590856, 36.268270999966226 ], [ -80.216084991332238, 36.268627000056931 ], [ -80.217942990574613, 36.267918000001998 ], [ -80.221119991328621, 36.267420000117127 ], [ -80.22254899129868, 36.267857000216793 ], [ -80.216156990785308, 36.268771000475837 ], [ -80.214267991135259, 36.268413999933728 ], [ -80.211614990622834, 36.269473000461545 ], [ -80.211796990981711, 36.27093200044775 ], [ -80.210588990949475, 36.271860000408651 ], [ -80.209864991144556, 36.275015000251983 ], [ -80.206162990673747, 36.276954999643365 ], [ -80.20677999129714, 36.278716000366508 ], [ -80.204764990962886, 36.278617999723025 ], [ -80.203836991053194, 36.280558000510688 ], [ -80.202450990710872, 36.280843000213238 ], [ -80.201868990663371, 36.281825000490443 ], [ -80.199411990646595, 36.281484000062825 ], [ -80.197775990989967, 36.279753999913709 ], [ -80.197548991294155, 36.282313999818264 ], [ -80.196677990770041, 36.282501000180403 ], [ -80.195478991067233, 36.281517000388021 ], [ -80.194071991152128, 36.2817690003195 ], [ -80.191810991023871, 36.279362999946883 ], [ -80.189141991283719, 36.282427000277664 ], [ -80.187903991128849, 36.286945000365925 ], [ -80.189471990758037, 36.291518999653348 ], [ -80.188048990577713, 36.294563999656248 ], [ -80.188747991583682, 36.297105000256934 ], [ -80.19045299150423, 36.298543000399029 ], [ -80.189706991365313, 36.300239000054766 ], [ -80.190470990615438, 36.305983000204556 ], [ -80.189724999758567, 36.307943000032616 ] ] ] } },
{ "type": "Feature", "properties": { "county": "STOKES", "precinct": "1618", "enr_desc": "East Walnut Cove", "winner": "Joey Lemons", "winner_votes": 131, "winner_share": 79.393939393939391, "runner_up": "Steven Bingman", "runner_up_votes": 34, "runner_up_share": 20.606060606060606, "contest_votes": 165, "margin_of_victory": 58.787878787878782, "is_tie": false, "results": [ { "candidate": "Joey Lemons", "votes": 131, "share": 79.39393939393939 }, { "candidate": "Steven Bingman", "votes": 34, "share": 20.606060606060606 } ], "participated": true, "map_key": "STOKES_1618" }, "geometry": { "type": "Polygon", "coordinates": [ [ [ -80.098283990776494, 36.257954000108242 ], [ -80.147095991565919, 36.258536999895874 ], [ -80.14441699096956, 36.273907000158729 ], [ -80.145789991431101, 36.285852999650437 ], [ -80.14071699110572, 36.290215000221771 ], [ -80.141781991329566, 36.293288000075897 ], [ -80.14140599084925, 36.304900000019529 ], [ -80.142227991208685, 36.307145999886274 ], [ -80.139616991409241, 36.31072900008909 ], [ -80.138983991469502, 36.315373000350228 ], [ -80.142449991262254, 36.319697000484538 ], [ -80.144048991308807, 36.324969999672945 ], [ -80.149842991480796, 36.334992000074472 ], [ -80.153417991284115, 36.343334000310875 ], [ -80.154916990771184, 36.351316999823467 ], [ -80.14586799084357, 36.354395999940586 ], [ -80.14430099099792, 36.357271000382305 ], [ -80.142258991372259, 36.3584520004325 ], [ -80.13306799161613, 36.367782999728988 ], [ -80.129987991087745, 36.369027000329751 ], [ -80.127344991096038, 36.367911000290498 ], [ -80.126315990663002, 36.369551000173466 ], [ -80.125583991661955, 36.368054999812067 ], [ -80.128787990723453, 36.364684000365628 ], [ -80.128618990985416, 36.361017000509875 ], [ -80.123706991534036, 36.355521999738968 ], [ -80.117823991161487, 36.354140999653971 ], [ -80.1159739915405, 36.351046000351396 ], [ -80.112099990614524, 36.349175999772321 ], [ -80.10461799062729, 36.342833999829054 ], [ -80.102680991366967, 36.336704999912222 ], [ -80.099629991109055, 36.334238000181138 ], [ -80.098648990892556, 36.331743000477736 ], [ -80.095431990959398, 36.327927000523488 ], [ -80.094160990646927, 36.323778999993188 ], [ -80.092591990565197, 36.321774999880894 ], [ -80.091202990965186, 36.32047600040454 ], [ -80.088460990570312, 36.320054999892335 ], [ -80.08371899076883, 36.317876000205509 ], [ -80.082658990579375, 36.316440999920758 ], [ -80.083131990851314, 36.313180999694907 ], [ -80.089407991209924, 36.306185999720626 ], [ -80.087384990816275, 36.302150999787436 ], [ -80.083171991253607, 36.302675999810312 ], [ -80.081187991227893, 36.303762000439342 ], [ -80.079952991079224, 36.309402999756678 ], [ -80.072270990755953, 36.310062000074446 ], [ -80.072800991030562, 36.308548000465322 ], [ -80.079489990759683, 36.30574400033143 ], [ -80.078616991447149, 36.305301000346304 ], [ -80.079638990802167, 36.305133000287022 ], [ -80.080279990665431, 36.301504000187073 ], [ -80.078819990699316, 36.298027999758929 ], [ -80.080874991631859, 36.295139999783018 ], [ -80.082134991257007, 36.291323000153461 ], [ -80.080407990905115, 36.288159000225711 ], [ -80.08071199139718, 36.286232999634038 ], [ -80.084109990898156, 36.280751000188936 ], [ -80.087649990722028, 36.278631000493867 ], [ -80.088754990869688, 36.26915399963363 ], [ -80.093551991213516, 36.265393999676981 ], [ -80.09902399146506, 36.263623000403115 ], [ -80.100297990821801, 36.262062000043983 ], [ -80.100439991172621, 36.260447999828401 ], [ -80.098283990776494, 36.257954000108242 ] ] ] } },
{ "type": "Feature", "properties": { "county": "STOKES", "precinct": "1819", "enr_desc": "Pine Hall", "winner": "Joey Lemons", "winner_votes": 132, "winner_share": 80.0, "runner_up": "Steven Bingman", "runner_up_votes": 33, "runner_up_share": 20.0, "contest_votes": 165, "margin_of_victory": 60.0, "is_tie": false, "results": [ { "candidate": "Joey Lemons", "votes": 132, "share": 80.0 }, { "candidate": "Steven Bingman", "votes": 33, "share": 20.0 } ], "participated": true, "map_key": "STOKES_1819" }, "geometry": { "type": "Polygon", "coordinates": [ [ [ -80.098283990776494, 36.257954000108242 ], [ -80.100439991172621, 36.260447999828401 ], [ -80.100297990821801, 36.262062000043983 ], [ -80.09902399146506, 36.263623000403115 ], [ -80.093551991213516, 36.265393999676981 ], [ -80.088754990869688, 36.26915399963363 ], [ -80.087649990722028, 36.278631000493867 ], [ -80.084109990898156, 36.280751000188936 ], [ -80.08071199139718, 36.286232999634038 ], [ -80.080407990905115, 36.288159000225711 ], [ -80.082134991257007, 36.291323000153461 ], [ -80.080874991631859, 36.295139999783018 ], [ -80.078819990699316, 36.298027999758929 ], [ -80.080279990665431, 36.301504000187073 ], [ -80.079638990802167, 36.305133000287022 ], [ -80.078616991447149, 36.305301000346304 ], [ -80.079489990759683, 36.30574400033143 ], [ -80.072800991030562, 36.308548000465322 ], [ -80.072270990755953, 36.310062000074446 ], [ -80.079952991079224, 36.309402999756678 ], [ -80.081187991227893, 36.303762000439342 ], [ -80.083171991253607, 36.302675999810312 ], [ -80.087384990816275, 36.302150999787436 ], [ -80.089407991209924, 36.306185999720626 ], [ -80.083131990851314, 36.313180999694907 ], [ -80.082658990579375, 36.316440999920758 ], [ -80.08371899076883, 36.317876000205509 ], [ -80.088460990570312, 36.320054999892335 ], [ -80.091202990965186, 36.32047600040454 ], [ -80.092591990565197, 36.321774999880894 ], [ -80.094160990646927, 36.323778999993188 ], [ -80.095431990959398, 36.327927000523488 ], [ -80.098648990892556, 36.331743000477736 ], [ -80.099629991109055, 36.334238000181138 ], [ -80.102680991366967, 36.336704999912222 ], [ -80.10461799062729, 36.342833999829054 ], [ -80.112099990614524, 36.349175999772321 ], [ -80.111773990579962, 36.351272999731364 ], [ -80.112515991295766, 36.352950000262908 ], [ -80.111443991282954, 36.353950999639494 ], [ -80.110823990970019, 36.356381000040628 ], [ -80.108421991586653, 36.358870999714604 ], [ -80.108963991080245, 36.361275000369005 ], [ -80.103948990900903, 36.364148000282512 ], [ -80.102279991448853, 36.363698000402465 ], [ -80.104950991184722, 36.374032999745531 ], [ -80.103969991519961, 36.375507999655092 ], [ -80.100085991499952, 36.377486999855876 ], [ -80.099374990656557, 36.381036000442215 ], [ -80.098478990859235, 36.382030999815044 ], [ -80.095312990954909, 36.382488000081032 ], [ -80.088080991455143, 36.374880000229965 ], [ -80.082386990616257, 36.372192000526134 ], [ -80.080076990630474, 36.37157100018031 ], [ -80.070601991049543, 36.371596999698355 ], [ -80.068455990920754, 36.369378000042154 ], [ -80.06901499145539, 36.37411200001732 ], [ -80.068538991336681, 36.379261000116315 ], [ -80.065581991237593, 36.379993999815831 ], [ -80.063092990775914, 36.379728999919834 ], [ -80.060427990858301, 36.377602999765408 ], [ -80.058443990895157, 36.378862000239963 ], [ -80.055705991240927, 36.378080000393055 ], [ -80.053862991367325, 36.378533000055945 ], [ -80.052337990555444, 36.376463999878958 ], [ -80.04780599078336, 36.378338999842029 ], [ -80.044959991147323, 36.377492000456584 ], [ -80.043211990582975, 36.378019999637047 ], [ -80.041740991036434, 36.376596000193913 ], [ -80.038065991671985, 36.378041000339188 ], [ -80.03489699108728, 36.375980999957783 ], [ -80.03188199165885, 36.376177000124152 ], [ -80.035118990826447, 36.257184000094888 ], [ -80.098283990776494, 36.257954000108242 ] ] ] } },
{ "type": "Feature", "properties": { "county": "STOKES", "precinct": "150", "enr_desc": "Germanton", "winner": "Joey Lemons", "winner_votes": 164, "winner_share": 83.673469387755105, "runner_up": "Steven Bingman", "runner_up_votes": 32, "runner_up_share": 16.326530612244898, "contest_votes": 196, "margin_of_victory": 67.34693877551021, "is_tie": false, "results": [ { "candidate": "Joey Lemons", "votes": 164, "share": 83.6734693877551 }, { "candidate": "Steven Bingman", "votes": 32, "share": 16.3265306122449 } ], "participated": true, "map_key": "STOKES_150" }, "geometry": { "type": "Polygon", "coordinates": [ [ [ -80.189724999758567, 36.307943000032616 ], [ -80.190470998421773, 36.305983001029965 ], [ -80.189706999157735, 36.300238999979186 ], [ -80.190452999296483, 36.298543000323392 ], [ -80.188748000502287, 36.297105001071671 ], [ -80.188048999469444, 36.294563998668892 ], [ -80.189471999649385, 36.291518998665921 ], [ -80.188063000075786, 36.288668000205909 ], [ -80.188611999526032, 36.283286999766709 ], [ -80.191810999927227, 36.279362999860297 ], [ -80.194072000055741, 36.281769000232742 ], [ -80.195478998857851, 36.28151700031205 ], [ -80.197029998457737, 36.282511999743782 ], [ -80.19759600044533, 36.279804000028179 ], [ -80.198591000443258, 36.279924000040658 ], [ -80.199411999563566, 36.281484000876837 ], [ -80.201695000695622, 36.281892999295351 ], [ -80.203836999943107, 36.280557999522152 ], [ -80.204764998753205, 36.278617999646436 ], [ -80.206694998939156, 36.278808999267454 ], [ -80.206102000138088, 36.277046000175091 ], [ -80.210043001245694, 36.274787999717816 ], [ -80.21058899983835, 36.271859999419526 ], [ -80.211796998784848, 36.270932001271788 ], [ -80.211615000651406, 36.269473001263648 ], [ -80.214449999196631, 36.268439999028004 ], [ -80.212655999508499, 36.26379300030203 ], [ -80.21137299934739, 36.263512999551004 ], [ -80.213043998567343, 36.261048000016253 ], [ -80.212607000332241, 36.259962999924404 ], [ -80.213832999803643, 36.259462998675033 ], [ -80.21269699912979, 36.259274000400048 ], [ -80.261758999363991, 36.259811000803928 ], [ -80.268420999840856, 36.265778000550078 ], [ -80.271812000451604, 36.266410001300073 ], [ -80.273875999951485, 36.268627000649943 ], [ -80.277845999661068, 36.270754999776308 ], [ -80.277629999640055, 36.27201100082749 ], [ -80.273095998763594, 36.271846000821945 ], [ -80.27253799960863, 36.27272099955858 ], [ -80.275823998804427, 36.274944000014138 ], [ -80.277561000311422, 36.278775001221547 ], [ -80.27964100088397, 36.281122999870149 ], [ -80.281633999477734, 36.277693999618648 ], [ -80.285826999200935, 36.281037999228296 ], [ -80.28460900157161, 36.282875999876538 ], [ -80.283230000157445, 36.282616999761238 ], [ -80.279433000174308, 36.283950999419375 ], [ -80.281437001629783, 36.286713000250423 ], [ -80.280405999502648, 36.289420000013294 ], [ -80.282711999754127, 36.289562998941271 ], [ -80.283262000342859, 36.290708001192243 ], [ -80.282528000913771, 36.294396000951238 ], [ -80.283943998876239, 36.29651799965616 ], [ -80.282062000346841, 36.297874999819406 ], [ -80.283500999222525, 36.298607999010535 ], [ -80.284613001045216, 36.298138998710641 ], [ -80.285012999572757, 36.298932999023947 ], [ -80.283402998598959, 36.302590000237984 ], [ -80.281912001292881, 36.303177000234612 ], [ -80.281797000861019, 36.304131000099517 ], [ -80.278083999807137, 36.306960999030103 ], [ -80.27545399879115, 36.307308998939867 ], [ -80.276663000204778, 36.309279000356099 ], [ -80.274353001025077, 36.31021199895423 ], [ -80.270682000216411, 36.314290999613618 ], [ -80.265101000022469, 36.315450998404955 ], [ -80.260735999285629, 36.318681999121047 ], [ -80.259637998720976, 36.32052700005783 ], [ -80.257303000076547, 36.319139000025842 ], [ -80.256475999028282, 36.321227000752081 ], [ -80.25538299966243, 36.321837999818626 ], [ -80.255601000166877, 36.323361998983209 ], [ -80.252177999781225, 36.322072999002884 ], [ -80.247249999560367, 36.316582000837371 ], [ -80.24418400077225, 36.318788999652668 ], [ -80.24383699947937, 36.319820000123023 ], [ -80.24166900048921, 36.320480000319868 ], [ -80.241088999576561, 36.321819000167437 ], [ -80.237923000888202, 36.323688999264718 ], [ -80.236589999734875, 36.325866000504931 ], [ -80.236305999720926, 36.328423999067539 ], [ -80.232575000082562, 36.328405999942511 ], [ -80.225007001668388, 36.330777001207935 ], [ -80.22500700115495, 36.328431999343621 ], [ -80.226645999657222, 36.325302001017675 ], [ -80.223074999926808, 36.324067999776695 ], [ -80.221176001019714, 36.32120800042626 ], [ -80.20788599931933, 36.316133999212653 ], [ -80.204697001043456, 36.312949000252182 ], [ -80.201008000263087, 36.311766000098892 ], [ -80.196719999767211, 36.308878998700635 ], [ -80.189724999758567, 36.307943000032616 ] ] ] } },
{ "type": "Feature", "properties": { "county": "STOKES", "precinct": "140", "enr_desc": "Wilson St.", "winner": "Joey Lemons", "winner_votes": 167, "winner_share": 75.565610859728508, "runner_up": "Steven Bingman", "runner_up_votes": 54, "runner_up_share": 24.434389140271492, "contest_votes": 221, "margin_of_victory": 51.131221719457017, "is_tie": false, "results": [ { "candidate": "Joey Lemons", "votes": 167, "share": 75.56561085972851 }, { "candidate": "Steven Bingman", "votes": 54, "share": 24.43438914027149 } ], "participated": true, "map_key": "STOKES_140" }, "geometry": { "type": "Polygon", "coordinates": [ [ [ -80.189724999758567, 36.307943000032616 ], [ -80.196719999767211, 36.308878998700635 ], [ -80.201008000263087, 36.311766000098892 ], [ -80.204697001043456, 36.312949000252182 ], [ -80.20788599931933, 36.316133999212653 ], [ -80.221176001019714, 36.32120800042626 ], [ -80.223074999926808, 36.324067999776695 ], [ -80.226645999657222, 36.325302001017675 ], [ -80.22500700115495, 36.328431999343621 ], [ -80.225007001668388, 36.330777001207935 ], [ -80.232575000082562, 36.328405999942511 ], [ -80.236305999720926, 36.328423999067539 ], [ -80.236589999734875, 36.325866000504931 ], [ -80.237923000888202, 36.323688999264718 ], [ -80.241088999576561, 36.321819000167437 ], [ -80.24166900048921, 36.320480000319868 ], [ -80.24383699947937, 36.319820000123023 ], [ -80.24418400077225, 36.318788999652668 ], [ -80.247249999560367, 36.316582000837371 ], [ -80.252177999781225, 36.322072999002884 ], [ -80.255601000166877, 36.323361998983209 ], [ -80.25538299966243, 36.321837999818626 ], [ -80.256475999028282, 36.321227000752081 ], [ -80.257303000076547, 36.319139000025842 ], [ -80.259637998720976, 36.32052700005783 ], [ -80.260735999285629, 36.318681999121047 ], [ -80.265101000022469, 36.315450998404955 ], [ -80.270682000216411, 36.314290999613618 ], [ -80.274353001025077, 36.31021199895423 ], [ -80.276663000204778, 36.309279000356099 ], [ -80.28198800102318, 36.315463999132746 ], [ -80.283685001596453, 36.316032000837218 ], [ -80.284618000318972, 36.314982999563142 ], [ -80.28660900011532, 36.316894001196502 ], [ -80.286697999519617, 36.319490999781294 ], [ -80.2878050009151, 36.320809000338272 ], [ -80.286880998567881, 36.322047000231912 ], [ -80.288793000959657, 36.322412999727653 ], [ -80.292690000181054, 36.326396000804664 ], [ -80.294252001205962, 36.326138001084828 ], [ -80.294508000778066, 36.32748600021413 ], [ -80.293085999502338, 36.329087999960564 ], [ -80.293945999859403, 36.330547001017393 ], [ -80.291747000240363, 36.33077200119255 ], [ -80.291740998576572, 36.331464998710167 ], [ -80.295783998402257, 36.334057999157245 ], [ -80.29845500139939, 36.337631000282876 ], [ -80.29584699987933, 36.339250999192437 ], [ -80.295241998633742, 36.343220000110783 ], [ -80.295893999027186, 36.346440999803285 ], [ -80.292720000907309, 36.350072999857744 ], [ -80.291520000406891, 36.354468998954353 ], [ -80.28589600034114, 36.356716001041669 ], [ -80.286771998510503, 36.360052999653576 ], [ -80.285406001578011, 36.366371999675941 ], [ -80.282986000743605, 36.367397000864528 ], [ -80.278443000394148, 36.366007999923717 ], [ -80.276473998827612, 36.367340000382519 ], [ -80.28228899885768, 36.370957001048865 ], [ -80.283184000595696, 36.372428001306837 ], [ -80.282647000293522, 36.375855000321451 ], [ -80.272875000074976, 36.375517999606778 ], [ -80.272052001318031, 36.38052999964534 ], [ -80.269234998888052, 36.38147700031621 ], [ -80.268664999561722, 36.375609999706349 ], [ -80.270382000485668, 36.374918999953159 ], [ -80.269532998535595, 36.372822000131855 ], [ -80.261720999136656, 36.372526000400335 ], [ -80.262675999807854, 36.386949000638459 ], [ -80.253396999838216, 36.386589000458017 ], [ -80.25361300138799, 36.381184999000389 ], [ -80.24625900019204, 36.381068999844615 ], [ -80.24859300140298, 36.376110000207596 ], [ -80.246683999456309, 36.374163999984646 ], [ -80.245346999187959, 36.373916000373214 ], [ -80.24426199839742, 36.377338000407981 ], [ -80.240160999420013, 36.375970999724444 ], [ -80.234093001673656, 36.377228999196895 ], [ -80.233913000443565, 36.370743999731609 ], [ -80.231151998452745, 36.370440999197953 ], [ -80.230954000589549, 36.367766998981708 ], [ -80.227677000744706, 36.365592999564534 ], [ -80.225452001483532, 36.366331998775095 ], [ -80.220405000039491, 36.370443000088095 ], [ -80.217411000174977, 36.370511000082246 ], [ -80.214073998450871, 36.372063000679333 ], [ -80.211457000856058, 36.375015001048666 ], [ -80.209500998803847, 36.374542000694831 ], [ -80.205316999974144, 36.375469000943568 ], [ -80.204626998989454, 36.376236000154137 ], [ -80.205686001373095, 36.376866998742315 ], [ -80.205437998399887, 36.377433000750585 ], [ -80.203611000906122, 36.378074999574622 ], [ -80.200041000504029, 36.3827680002954 ], [ -80.197091998614709, 36.382202000008014 ], [ -80.194355999038905, 36.385130999242882 ], [ -80.194257998424291, 36.388716999311335 ], [ -80.191410001437092, 36.388900998773636 ], [ -80.190979999970651, 36.387148000585782 ], [ -80.188623999544532, 36.385279999971431 ], [ -80.187678998603445, 36.385666000537412 ], [ -80.185571999251678, 36.384382999607922 ], [ -80.179020000670135, 36.383217999571109 ], [ -80.177285998509248, 36.38022799985076 ], [ -80.17425499985103, 36.384029000422174 ], [ -80.162941000334087, 36.385982999621213 ], [ -80.158770998667876, 36.388419999862805 ], [ -80.146648999693795, 36.392008001292588 ], [ -80.137927999748598, 36.4016690004282 ], [ -80.133144000933555, 36.398647000085013 ], [ -80.124443001251493, 36.396726000510633 ], [ -80.119708999534566, 36.392840999355123 ], [ -80.115401999602142, 36.390604998897459 ], [ -80.113562999586478, 36.388399000676202 ], [ -80.111749999281244, 36.383458000883124 ], [ -80.11654600130548, 36.382099000741185 ], [ -80.122454000189776, 36.383275000347943 ], [ -80.123488000192751, 36.382444998882626 ], [ -80.122373000188148, 36.380354001140347 ], [ -80.117730998996848, 36.375800999563509 ], [ -80.118203000023755, 36.373829000047301 ], [ -80.120074998617184, 36.373256000257598 ], [ -80.125677001134989, 36.37500599962847 ], [ -80.128939999512298, 36.377228000709309 ], [ -80.131645000320546, 36.376916000766322 ], [ -80.132158999857097, 36.37389299976067 ], [ -80.126315990663002, 36.369551000173466 ], [ -80.126833999325029, 36.368185001214847 ], [ -80.127791000193, 36.367917999221078 ], [ -80.129988001115265, 36.369027000237438 ], [ -80.133067999415175, 36.36778299965696 ], [ -80.142259001411205, 36.358452001240202 ], [ -80.144300999922763, 36.35727100120031 ], [ -80.145734998733374, 36.354482999632829 ], [ -80.154916999682513, 36.351316999739595 ], [ -80.153418000194605, 36.343334000227067 ], [ -80.149842991480796, 36.334992000074472 ], [ -80.155274000371094, 36.332498999460206 ], [ -80.160038000069889, 36.335703000648863 ], [ -80.164935001537671, 36.337033000749024 ], [ -80.167243999845368, 36.336727999803308 ], [ -80.172530001523654, 36.333899000300967 ], [ -80.173665999768488, 36.332508999031681 ], [ -80.175944000667329, 36.325687999742378 ], [ -80.181059999287925, 36.322019000386497 ], [ -80.18579100039878, 36.322245999555953 ], [ -80.1870109984023, 36.321636001275358 ], [ -80.187005000396297, 36.320271000012532 ], [ -80.18492499985139, 36.318542000371131 ], [ -80.187278000195022, 36.317225999883853 ], [ -80.187430000575674, 36.31583500011358 ], [ -80.183400000565484, 36.308795001010324 ], [ -80.189724999758567, 36.307943000032616 ] ] ] } }
]
}
