{
"type": "FeatureCollection",
"name": "swain_county_sheriff_rep",
"crs": { "type": "name", "properties": { "name": "urn:ogc:def:crs:OGC:1.3:CRS84" } },
"features": [
{ "type": "Feature", "properties": { "county": "SWAIN", "precinct": "BC2", "enr_desc": "Bc2", "winner": "Brian E. Kirkland", "winner_votes": 337, "winner_share": 88.451443569553803, "runner_up": "Wayne Dover", "runner_up_votes": 44, "runner_up_share": 11.548556430446194, "contest_votes": 381, "margin_of_victory": 76.902887139107605, "is_tie": false, "results": [ { "candidate": "Brian E. Kirkland", "votes": 337, "share": 88.4514435695538 }, { "candidate": "Wayne Dover", "votes": 44, "share": 11.548556430446194 } ], "participated": true, "map_key": "SWAIN_BC2" }, "geometry": { "type": "Polygon", "coordinates": [ [ [ -83.472795990746604, 35.586319000118216 ], [ -83.47249899166421, 35.589153000577092 ], [ -83.471295991318698, 35.59026800016197 ], [ -83.462691991191733, 35.592570000514634 ], [ -83.461451991485703, 35.595286000581879 ], [ -83.456588991211405, 35.597194000131061 ], [ -83.455214991347248, 35.599080999871759 ], [ -83.455010991006276, 35.602022000017676 ], [ -83.451647991086134, 35.6035280006016 ], [ -83.450766990959522, 35.606330000493351 ], [ -83.446751991761843, 35.60887900066956 ], [ -83.445675991713159, 35.611747000468007 ], [ -83.440872990922202, 35.61170300029238 ], [ -83.432302990693273, 35.609990000668738 ], [ -83.42948399138912, 35.61028600015387 ], [ -83.435679991058365, 35.60781000064182 ], [ -83.435949991246247, 35.606910000713199 ], [ -83.423629991580981, 35.601350000425981 ], [ -83.421899991089447, 35.598720000679691 ], [ -83.416969991057528, 35.595209999973569 ], [ -83.410289991672755, 35.593630000079273 ], [ -83.405559991350216, 35.589160000066734 ], [ -83.404249991109708, 35.586500000646978 ], [ -83.398912991655124, 35.585882000472502 ], [ -83.393114991243536, 35.579714000461422 ], [ -83.388252991454223, 35.578280000421053 ], [ -83.386102991443082, 35.576618000249461 ], [ -83.378933990881237, 35.563430000495536 ], [ -83.376737991042205, 35.56226700005729 ], [ -83.375196991453464, 35.553785000110807 ], [ -83.3698009906945, 35.549373000073395 ], [ -83.36793099079209, 35.541907999945273 ], [ -83.365392991094538, 35.541883000542249 ], [ -83.362849991292265, 35.539484000451708 ], [ -83.362914991540237, 35.534869000078935 ], [ -83.361735991574349, 35.530322000179716 ], [ -83.354869991268842, 35.524030000422748 ], [ -83.356051991414219, 35.521267000086219 ], [ -83.355855991718087, 35.519661000505806 ], [ -83.35230699095942, 35.517658000173512 ], [ -83.35161399116673, 35.515938000727388 ], [ -83.352398990948146, 35.513042999960476 ], [ -83.360126991164861, 35.503916000468692 ], [ -83.365142991590801, 35.500289000751472 ], [ -83.367945991323026, 35.500640000612215 ], [ -83.368794990766574, 35.499604000283725 ], [ -83.369613991204417, 35.498126000609062 ], [ -83.369607991223106, 35.49365300064796 ], [ -83.370420991447759, 35.492871000581182 ], [ -83.366062991110496, 35.491377000584784 ], [ -83.367514991176407, 35.488679000018564 ], [ -83.367222991462739, 35.484147000603507 ], [ -83.370224991522832, 35.483553999975655 ], [ -83.374275990955041, 35.479946000427901 ], [ -83.37592999138603, 35.477144000743536 ], [ -83.380996990986645, 35.47690599999968 ], [ -83.37904499072306, 35.47511300073468 ], [ -83.379524990714259, 35.474782999971325 ], [ -83.378749991398152, 35.47341999993872 ], [ -83.381566991475424, 35.472855000360269 ], [ -83.383544991103733, 35.471473999983928 ], [ -83.38138899154491, 35.466127000732257 ], [ -83.383582991441358, 35.46448700055624 ], [ -83.383413991596996, 35.461487999855436 ], [ -83.386420991125163, 35.460905000328154 ], [ -83.388448991714824, 35.459059000031431 ], [ -83.389392991265552, 35.461073000286078 ], [ -83.389322991079666, 35.459467000396785 ], [ -83.390390991661164, 35.459216000107538 ], [ -83.392258990686372, 35.456831000198314 ], [ -83.392159990679502, 35.453491000167212 ], [ -83.393672991088408, 35.452427000024166 ], [ -83.396860990763756, 35.452654000728835 ], [ -83.40041799173494, 35.450134000434858 ], [ -83.400672991480107, 35.448726000014759 ], [ -83.396757991099506, 35.443335000029514 ], [ -83.399055991141211, 35.4395810001241 ], [ -83.398528991471863, 35.435993000011635 ], [ -83.402942991186777, 35.430759999928938 ], [ -83.407081991593415, 35.427650000469413 ], [ -83.411327990965106, 35.427676000246549 ], [ -83.413163991757017, 35.431038000330346 ], [ -83.414760990979204, 35.432017000311525 ], [ -83.421151991396869, 35.431315000429187 ], [ -83.427056991613711, 35.434095000559289 ], [ -83.431485991585745, 35.433436999984352 ], [ -83.437895990769761, 35.433740999921525 ], [ -83.446468991015379, 35.428196000707892 ], [ -83.451492991022548, 35.427335000759456 ], [ -83.453555991341943, 35.422747000155432 ], [ -83.455509991505266, 35.42118700071363 ], [ -83.464673991467507, 35.423466000007849 ], [ -83.468223991340608, 35.425861999917956 ], [ -83.478403991163589, 35.429547000077385 ], [ -83.482734991484193, 35.428123999950728 ], [ -83.48570599177306, 35.428014000621779 ], [ -83.486852990765499, 35.428828000777749 ], [ -83.488637991119333, 35.43119900054176 ], [ -83.488943991390599, 35.437729000673563 ], [ -83.489790991622598, 35.440089000708937 ], [ -83.493955991631566, 35.44661200039004 ], [ -83.499637991634245, 35.452627999926243 ], [ -83.502641990727199, 35.452514999902832 ], [ -83.509912991521432, 35.448410000591011 ], [ -83.511713991726282, 35.446087000326202 ], [ -83.510588991203477, 35.442699999882734 ], [ -83.51148399156385, 35.440952000068513 ], [ -83.517945990834804, 35.442155000743426 ], [ -83.521518991343157, 35.441114000180576 ], [ -83.522074991241041, 35.441940000226452 ], [ -83.523570991458485, 35.445402000433923 ], [ -83.522064991492073, 35.459960000136206 ], [ -83.519844990798461, 35.465489000523718 ], [ -83.516130991020489, 35.470246000327954 ], [ -83.511448991605931, 35.47390400069316 ], [ -83.499880990744927, 35.478049000441395 ], [ -83.484642991218735, 35.486174000138597 ], [ -83.480502991217406, 35.489762000188378 ], [ -83.478777990824383, 35.496941000433097 ], [ -83.477104991121806, 35.500095000096245 ], [ -83.459402990688147, 35.513021000139489 ], [ -83.456854991086431, 35.516997000286068 ], [ -83.458134991699907, 35.525621000308519 ], [ -83.462951990711545, 35.534313000626575 ], [ -83.468875991196057, 35.552147000360947 ], [ -83.463720990640212, 35.565344999927099 ], [ -83.462879991359486, 35.569041999866755 ], [ -83.463063991676805, 35.573993000124823 ], [ -83.464495990683162, 35.578453000463838 ], [ -83.469263991493534, 35.583734000064979 ], [ -83.472795990746604, 35.586319000118216 ] ] ] } },
{ "type": "Feature", "properties": { "county": "SWAIN", "precinct": "ALARKA", "enr_desc": "Alarka", "winner": "Brian E. Kirkland", "winner_votes": 154, "winner_share": 90.058479532163744, "runner_up": "Wayne Dover", "runner_up_votes": 17, "runner_up_share": 9.9415204678362574, "contest_votes": 171, "margin_of_victory": 80.116959064327489, "is_tie": false, "results": [ { "candidate": "Brian E. Kirkland", "votes": 154, "share": 90.05847953216374 }, { "candidate": "Wayne Dover", "votes": 17, "share": 9.941520467836257 } ], "participated": true, "map_key": "SWAIN_ALARKA" }, "geometry": { "type": "Polygon", "coordinates": [ [ [ -83.44694499077174, 35.316825000074935 ], [ -83.447866991375022, 35.321022000446284 ], [ -83.445460991031467, 35.323540000367323 ], [ -83.444435991005648, 35.327327000680917 ], [ -83.445155991015227, 35.329387000430714 ], [ -83.447665991483163, 35.330643999969261 ], [ -83.449627990855049, 35.329304000412279 ], [ -83.449591991502857, 35.330811000641134 ], [ -83.451402991749092, 35.330579000358007 ], [ -83.458304991397824, 35.334679000599557 ], [ -83.460026991306805, 35.334470000562582 ], [ -83.4606379911056, 35.335149000468782 ], [ -83.461999991231508, 35.333982000612238 ], [ -83.462625990889123, 35.334231000032929 ], [ -83.462116991573751, 35.336003999975787 ], [ -83.462781990812218, 35.33693200067556 ], [ -83.466736991435852, 35.337335000605535 ], [ -83.470301991470521, 35.339030999903571 ], [ -83.469128991289054, 35.341625000325301 ], [ -83.471136991762904, 35.343597000437171 ], [ -83.465695991669321, 35.347444000738214 ], [ -83.471109990704406, 35.35247300040534 ], [ -83.47103999128035, 35.355541000278535 ], [ -83.472459991482495, 35.356212000658516 ], [ -83.476985991627174, 35.361368999900257 ], [ -83.476659991659133, 35.365946000021999 ], [ -83.479313991044592, 35.368306999889306 ], [ -83.480444991554748, 35.374413000374595 ], [ -83.48214699101726, 35.376972000373783 ], [ -83.481105991656037, 35.380997000530407 ], [ -83.479369991074321, 35.381061000262818 ], [ -83.481215991669416, 35.382557000542853 ], [ -83.480673990948887, 35.385696000697529 ], [ -83.477662991130586, 35.387081000255897 ], [ -83.477741990859485, 35.388064000463544 ], [ -83.476185991084066, 35.389344000755095 ], [ -83.475184991205595, 35.39159000026055 ], [ -83.473241991609683, 35.391524000633538 ], [ -83.46461999133345, 35.387390000712344 ], [ -83.46068699165788, 35.386514000345464 ], [ -83.460051991633321, 35.388809000210443 ], [ -83.456363991315513, 35.394180000480105 ], [ -83.450195991465748, 35.391770999954062 ], [ -83.446977990914334, 35.39177100014917 ], [ -83.441865990718341, 35.394581000491499 ], [ -83.437035990793859, 35.394638000452964 ], [ -83.432209990987246, 35.397172000474903 ], [ -83.42676899172956, 35.393098000382636 ], [ -83.430451990767779, 35.389800999889594 ], [ -83.430169991586027, 35.384617999914127 ], [ -83.429514990949855, 35.38524900019523 ], [ -83.42684899099109, 35.383876000295921 ], [ -83.420613991416914, 35.38503000006947 ], [ -83.418508991240543, 35.384733000127021 ], [ -83.416793990700242, 35.382225000379528 ], [ -83.414611991038569, 35.381438000060179 ], [ -83.410940990864205, 35.384690000611087 ], [ -83.404761991632924, 35.385193000442435 ], [ -83.399323991413354, 35.383164000441091 ], [ -83.399323990720717, 35.380517000341705 ], [ -83.397933990830012, 35.379383000048662 ], [ -83.383842991097112, 35.376585000211598 ], [ -83.382637991274478, 35.372956000617123 ], [ -83.378651991219797, 35.370385000613261 ], [ -83.377539991720994, 35.364335000478199 ], [ -83.374943991145102, 35.363956999952684 ], [ -83.3732759914664, 35.36237000067706 ], [ -83.371050991055412, 35.354581000092594 ], [ -83.364097991600801, 35.355262000378623 ], [ -83.35909299149003, 35.353068999903549 ], [ -83.352536990883451, 35.347129000773442 ], [ -83.346605990862813, 35.346728000398642 ], [ -83.345557991550052, 35.345211000523371 ], [ -83.344143990917942, 35.344830000317572 ], [ -83.336658991370726, 35.345027000509909 ], [ -83.335831991048423, 35.342928000073627 ], [ -83.340307991569304, 35.337382000161419 ], [ -83.340629991683869, 35.333477999995488 ], [ -83.339608991320461, 35.330993000127883 ], [ -83.3444719915571, 35.3299520007456 ], [ -83.346832991627039, 35.328532000622168 ], [ -83.357249991170832, 35.329683000491656 ], [ -83.364227990722739, 35.32599300018731 ], [ -83.369032991395983, 35.326916000170066 ], [ -83.372555991267078, 35.329092999889518 ], [ -83.379319991680362, 35.325506000047881 ], [ -83.386303990899236, 35.326781000277016 ], [ -83.391396991505758, 35.325522000139053 ], [ -83.397229991735855, 35.327685000391327 ], [ -83.399563991334531, 35.327770000696617 ], [ -83.401079991704478, 35.326193000144684 ], [ -83.404261991003665, 35.324900000066727 ], [ -83.40636999093411, 35.321321000377132 ], [ -83.410917991720197, 35.31652799996894 ], [ -83.415853991154478, 35.319459000176167 ], [ -83.421750990813067, 35.317622000738282 ], [ -83.425468990947849, 35.321549000637667 ], [ -83.428063991656614, 35.323022000408983 ], [ -83.428368991118901, 35.32454800062132 ], [ -83.430933991086661, 35.324215000135609 ], [ -83.432453990947579, 35.32518300013259 ], [ -83.437744990911256, 35.321915000274721 ], [ -83.440807990714234, 35.31720500045337 ], [ -83.442289991263223, 35.316511000262935 ], [ -83.44694499077174, 35.316825000074935 ] ] ] } },
{ "type": "Feature", "properties": { "county": "SWAIN", "precinct": "ALMOND", "enr_desc": "Almond", "winner": "Brian E. Kirkland", "winner_votes": 256, "winner_share": 95.522388059701484, "runner_up": "Wayne Dover", "runner_up_votes": 12, "runner_up_share": 4.4776119402985071, "contest_votes": 268, "margin_of_victory": 91.044776119402982, "is_tie": false, "results": [ { "candidate": "Brian E. Kirkland", "votes": 256, "share": 95.52238805970148 }, { "candidate": "Wayne Dover", "votes": 12, "share": 4.477611940298507 } ], "participated": true, "map_key": "SWAIN_ALMOND" }, "geometry": { "type": "Polygon", "coordinates": [ [ [ -83.542552991272188, 35.565179000744607 ], [ -83.542211991208774, 35.563569000435912 ], [ -83.544088991309494, 35.558526000715183 ], [ -83.543967990930966, 35.556514000779181 ], [ -83.545601990760261, 35.553490000444121 ], [ -83.544143990778224, 35.550122000500771 ], [ -83.544251990886693, 35.548254000212545 ], [ -83.541066990925955, 35.544184000303233 ], [ -83.543473990673078, 35.539845000382137 ], [ -83.544442991080587, 35.534060000084629 ], [ -83.541004990798271, 35.523217000225969 ], [ -83.543752990949912, 35.519958999995197 ], [ -83.544048991558228, 35.518313000205687 ], [ -83.550082991768008, 35.517455000608635 ], [ -83.553421991565926, 35.515061000291098 ], [ -83.557466991404013, 35.513632000399419 ], [ -83.55898599105825, 35.510765000361651 ], [ -83.559348990853451, 35.507316000507331 ], [ -83.56242499151594, 35.504344000263224 ], [ -83.562780991197599, 35.502477000369957 ], [ -83.561786991352534, 35.499391000165133 ], [ -83.56252599105018, 35.498155000444989 ], [ -83.560227991113194, 35.496721000281156 ], [ -83.560187990737077, 35.493238000763895 ], [ -83.561362991360298, 35.49211800019534 ], [ -83.564405991166225, 35.491569000267674 ], [ -83.566393991193408, 35.488629000183799 ], [ -83.566131991732917, 35.48647500003662 ], [ -83.563303991077618, 35.483998000633306 ], [ -83.565687991308707, 35.481180000660721 ], [ -83.565109991492804, 35.478682000445154 ], [ -83.566398990838579, 35.475209000133567 ], [ -83.569063990858183, 35.472434000569621 ], [ -83.565894991161727, 35.471313999899863 ], [ -83.566162991461582, 35.46775500030823 ], [ -83.563275991396594, 35.467235000656153 ], [ -83.562399990742335, 35.465581999983911 ], [ -83.561661991113425, 35.458745999970816 ], [ -83.562710991131112, 35.455819000595959 ], [ -83.563969991410502, 35.441920000752361 ], [ -83.563800991240299, 35.439896000646414 ], [ -83.562581990963949, 35.438814000175526 ], [ -83.57063099085515, 35.435877000314647 ], [ -83.570098991310886, 35.43492800052389 ], [ -83.573275991205634, 35.427612000568431 ], [ -83.573583991326331, 35.422171000439242 ], [ -83.572775991315936, 35.420393000040022 ], [ -83.570200991437417, 35.418863000101396 ], [ -83.565418991260813, 35.420295000213244 ], [ -83.563933991601715, 35.41360700056542 ], [ -83.560009991468874, 35.41396300002679 ], [ -83.556980991585533, 35.412663000566418 ], [ -83.556729991551151, 35.411312000173211 ], [ -83.55883999094263, 35.407464000286005 ], [ -83.56253699125233, 35.405250000518556 ], [ -83.562409990859251, 35.402975000258174 ], [ -83.558879990929043, 35.398767000062712 ], [ -83.554584991551948, 35.399733000498138 ], [ -83.551915990918161, 35.399494000225552 ], [ -83.551109991228302, 35.39818300021637 ], [ -83.550882991267812, 35.394240999983083 ], [ -83.549493991314378, 35.393354999953786 ], [ -83.54536599150633, 35.392764000195449 ], [ -83.540290991101585, 35.393231000227701 ], [ -83.538995991653209, 35.394476000325739 ], [ -83.540556991352304, 35.396581000065304 ], [ -83.538025991174138, 35.398441000141823 ], [ -83.536143991665639, 35.3986919999112 ], [ -83.53342199096177, 35.397690000756285 ], [ -83.530783990953836, 35.398985000572203 ], [ -83.528404991797345, 35.397769000706965 ], [ -83.525501991502395, 35.397509999885827 ], [ -83.527708991493057, 35.393315000530393 ], [ -83.531207991743926, 35.390719000482598 ], [ -83.530754991013566, 35.38959100007996 ], [ -83.528857991622715, 35.387925000284405 ], [ -83.525051990900337, 35.387925000744616 ], [ -83.5193679909016, 35.384172000463316 ], [ -83.517439991438266, 35.384092000150396 ], [ -83.512447990748285, 35.381993000033781 ], [ -83.509481991075518, 35.382113999923817 ], [ -83.507405990762294, 35.38380900011466 ], [ -83.501918991101931, 35.382478000692352 ], [ -83.498545991578794, 35.383486000492283 ], [ -83.495645991207439, 35.382894000602114 ], [ -83.491086991575841, 35.385520000037964 ], [ -83.48434199138913, 35.387265000137504 ], [ -83.480673990948887, 35.385696000697529 ], [ -83.481215991669416, 35.382557000542853 ], [ -83.479369991074321, 35.381061000262818 ], [ -83.481105991656037, 35.380997000530407 ], [ -83.48214699101726, 35.376972000373783 ], [ -83.480444991554748, 35.374413000374595 ], [ -83.479313991044592, 35.368306999889306 ], [ -83.476659991659133, 35.365946000021999 ], [ -83.476985991627174, 35.361368999900257 ], [ -83.472459991482495, 35.356212000658516 ], [ -83.47103999128035, 35.355541000278535 ], [ -83.471109990704406, 35.35247300040534 ], [ -83.465695991669321, 35.347444000738214 ], [ -83.471136991762904, 35.343597000437171 ], [ -83.469128991289054, 35.341625000325301 ], [ -83.470301991470521, 35.339030999903571 ], [ -83.466736991435852, 35.337335000605535 ], [ -83.462781990812218, 35.33693200067556 ], [ -83.462116991573751, 35.336003999975787 ], [ -83.462625990889123, 35.334231000032929 ], [ -83.461999991231508, 35.333982000612238 ], [ -83.4606379911056, 35.335149000468782 ], [ -83.460026991306805, 35.334470000562582 ], [ -83.458304991397824, 35.334679000599557 ], [ -83.451402991749092, 35.330579000358007 ], [ -83.449591991502857, 35.330811000641134 ], [ -83.449627990855049, 35.329304000412279 ], [ -83.447665991483163, 35.330643999969261 ], [ -83.445155991015227, 35.329387000430714 ], [ -83.444435991005648, 35.327327000680917 ], [ -83.445460991031467, 35.323540000367323 ], [ -83.447866991375022, 35.321022000446284 ], [ -83.44694499077174, 35.316825000074935 ], [ -83.451054991200394, 35.314927000767561 ], [ -83.452738990822141, 35.313318000759075 ], [ -83.45246499082026, 35.31113400023542 ], [ -83.453542990746712, 35.309611999902494 ], [ -83.453762991462966, 35.307277000113373 ], [ -83.454851990948981, 35.306758999900872 ], [ -83.455889991371421, 35.302797000563011 ], [ -83.457908991678877, 35.301852000151932 ], [ -83.461343991103988, 35.301725000082101 ], [ -83.463608991437866, 35.298973000254342 ], [ -83.467381991150575, 35.297778000291707 ], [ -83.474051990957022, 35.297669000673167 ], [ -83.477833991176112, 35.301043000365418 ], [ -83.480968991043071, 35.301989000416491 ], [ -83.482582991692809, 35.303405000569882 ], [ -83.484542991470136, 35.303573999898845 ], [ -83.486664991219357, 35.305430000324122 ], [ -83.490275990977892, 35.305547000452925 ], [ -83.492232990759746, 35.304248000664742 ], [ -83.495749991785218, 35.29952100042869 ], [ -83.672814991119381, 35.282796000326933 ], [ -83.678681991326727, 35.279109000301553 ], [ -83.679841991367198, 35.279395000302202 ], [ -83.682078991456009, 35.281033000266078 ], [ -83.68163499074042, 35.284651000720302 ], [ -83.683712990936925, 35.286400999949464 ], [ -83.68458699101852, 35.288700000151366 ], [ -83.689611991444593, 35.291995000747242 ], [ -83.690249990971367, 35.294325000157748 ], [ -83.6953429915513, 35.297536000149897 ], [ -83.694624991150079, 35.305534000669525 ], [ -83.694150990810854, 35.307110000598136 ], [ -83.692395990832495, 35.307279000085728 ], [ -83.691241990798503, 35.310016000127455 ], [ -83.691943990822722, 35.312180999914375 ], [ -83.690222990876322, 35.314639000006082 ], [ -83.690593991399496, 35.317158000272286 ], [ -83.688597990981734, 35.318234000121379 ], [ -83.685044991652177, 35.323797000511341 ], [ -83.681427991378413, 35.325150000726417 ], [ -83.678581990692734, 35.328218000237548 ], [ -83.67527699149548, 35.32769500074599 ], [ -83.670175990801354, 35.328576000054177 ], [ -83.668280991297664, 35.33122900044507 ], [ -83.66334799139382, 35.333083000314055 ], [ -83.660506990728635, 35.335626000680563 ], [ -83.658951990780693, 35.335152000429126 ], [ -83.655336991639331, 35.336728000640257 ], [ -83.651755991393969, 35.336864000417791 ], [ -83.645015991500586, 35.340211000164132 ], [ -83.638949991020226, 35.338818000787199 ], [ -83.628567990700276, 35.343917999926369 ], [ -83.620758991010177, 35.345289000121916 ], [ -83.61699499132105, 35.349064000606397 ], [ -83.613614991712694, 35.357275000505851 ], [ -83.610981991234851, 35.358947000430668 ], [ -83.606803991565926, 35.364558000460093 ], [ -83.602055990756938, 35.368396000770076 ], [ -83.60100099126619, 35.370524000218978 ], [ -83.596880990804678, 35.371871000267639 ], [ -83.593091991552697, 35.376986000322582 ], [ -83.595368991544532, 35.381076000019178 ], [ -83.59294399156768, 35.38304699986962 ], [ -83.588297991411551, 35.398081000494216 ], [ -83.586006990790935, 35.400935999991198 ], [ -83.586788991734281, 35.402127000458307 ], [ -83.585845990938864, 35.40290000076979 ], [ -83.585216991722447, 35.406584000722376 ], [ -83.583022990771553, 35.407417000306104 ], [ -83.58238599085233, 35.409630000256932 ], [ -83.58520499157197, 35.413334000167779 ], [ -83.58423399122924, 35.415713000685194 ], [ -83.585655991648935, 35.417096000418574 ], [ -83.585086990883653, 35.418204000362053 ], [ -83.58811199070928, 35.418257000511879 ], [ -83.589029990737046, 35.418937000652853 ], [ -83.587291991709819, 35.420828999934848 ], [ -83.588546991087824, 35.421765000580308 ], [ -83.585180990888503, 35.426005000515971 ], [ -83.586096990729573, 35.426998999970216 ], [ -83.585358990728309, 35.428691000048033 ], [ -83.585755990897439, 35.434832000400455 ], [ -83.589743990969041, 35.434917999936118 ], [ -83.594377991614067, 35.431786000424246 ], [ -83.600292991726292, 35.431373000583122 ], [ -83.60814999090222, 35.427385999924489 ], [ -83.610813991747861, 35.427045000071637 ], [ -83.613819991397762, 35.429014000209264 ], [ -83.616052991191737, 35.434015000622445 ], [ -83.618005991264582, 35.435836000675025 ], [ -83.623487990771906, 35.436675000460113 ], [ -83.632250991599008, 35.441942000658514 ], [ -83.637061991352212, 35.442178999898665 ], [ -83.642419991558114, 35.443618000457633 ], [ -83.64460299113783, 35.44177500026845 ], [ -83.645013991302562, 35.432029000510482 ], [ -83.645858991205102, 35.429454000693909 ], [ -83.648258990804024, 35.427335000097507 ], [ -83.65222399081091, 35.426476000734382 ], [ -83.654373990711619, 35.427330000791464 ], [ -83.65788999161667, 35.432261000089824 ], [ -83.659863991699964, 35.432491000561171 ], [ -83.662188991778052, 35.431121000532393 ], [ -83.664630991266293, 35.431161000198962 ], [ -83.667052991432868, 35.434317000642054 ], [ -83.66986099153138, 35.435643000540367 ], [ -83.674788991018417, 35.435582000380613 ], [ -83.684297991201063, 35.439062999988913 ], [ -83.700055991712446, 35.441765999974692 ], [ -83.703017991177106, 35.443232000139467 ], [ -83.707964991108895, 35.44378599998268 ], [ -83.713828991444856, 35.44204700017287 ], [ -83.721108991427641, 35.442968000211863 ], [ -83.728030991492901, 35.444974000441633 ], [ -83.732818991768099, 35.447406000534713 ], [ -83.73720299069177, 35.446910000351949 ], [ -83.749534990719212, 35.442584000276504 ], [ -83.754915991613998, 35.442775000204975 ], [ -83.756676990797104, 35.441709000088736 ], [ -83.767812990941337, 35.443706000433743 ], [ -83.77556599071228, 35.44360500076283 ], [ -83.785569991147653, 35.449163000711614 ], [ -83.795602991075683, 35.452412999918153 ], [ -83.800837991420863, 35.45580000072097 ], [ -83.802798991730882, 35.45555000060245 ], [ -83.804579991406399, 35.454184000729846 ], [ -83.805084991405025, 35.452679000724544 ], [ -83.804399990972442, 35.450021000120991 ], [ -83.806710991019187, 35.444824000019345 ], [ -83.808423991000467, 35.443955000276539 ], [ -83.815983990918369, 35.446435000520331 ], [ -83.817652991094349, 35.449495000663859 ], [ -83.819124991480479, 35.450379000690944 ], [ -83.831411991039531, 35.450953000030282 ], [ -83.835830990756264, 35.448909000425836 ], [ -83.837898991582065, 35.448742000349576 ], [ -83.840088991625194, 35.449699999963407 ], [ -83.842692991358803, 35.452627000436301 ], [ -83.844327990841933, 35.453111000091916 ], [ -83.865889991373535, 35.448292000537727 ], [ -83.867339990724261, 35.45092600064514 ], [ -83.868056991038316, 35.455198000411244 ], [ -83.870809991375495, 35.458491000713998 ], [ -83.873793991486679, 35.460413000023692 ], [ -83.881545991530018, 35.463183000605419 ], [ -83.889478991664291, 35.463030000485531 ], [ -83.895374991727422, 35.461490999970771 ], [ -83.907494990980197, 35.466467000627389 ], [ -83.911531991011799, 35.466288000087566 ], [ -83.914076991771125, 35.465054000315554 ], [ -83.916252991125674, 35.462013000271249 ], [ -83.918772991345179, 35.460858000481913 ], [ -83.928286991110667, 35.450245999948798 ], [ -83.935744990938517, 35.448435000022627 ], [ -83.939418991144962, 35.448600000537361 ], [ -83.944299991504664, 35.450788000190862 ], [ -83.947196990976494, 35.453309000522658 ], [ -83.948245990786958, 35.456188000651686 ], [ -83.953391991693451, 35.46023300040931 ], [ -83.949241991120502, 35.461099000597912 ], [ -83.946230991076362, 35.463728000082398 ], [ -83.942878991683855, 35.464397999906978 ], [ -83.941969991430355, 35.467312000218392 ], [ -83.936722991563002, 35.471553000478011 ], [ -83.924140991531402, 35.474311000052325 ], [ -83.919703991742608, 35.473297000223589 ], [ -83.916620991095115, 35.473649000628647 ], [ -83.911652991025562, 35.476243000449642 ], [ -83.909267990706098, 35.479725000279274 ], [ -83.908834990957303, 35.483636999988569 ], [ -83.905780991016186, 35.488689000377434 ], [ -83.901469991542939, 35.49105700042319 ], [ -83.900364991266713, 35.493030999970578 ], [ -83.901465991119053, 35.496552000273482 ], [ -83.896909990834331, 35.499924000149875 ], [ -83.896830991229294, 35.501021999993704 ], [ -83.892417991701208, 35.502361000419079 ], [ -83.889926991315406, 35.504663000175292 ], [ -83.887755990809168, 35.508609000594753 ], [ -83.883503990995138, 35.513200000601408 ], [ -83.883227990709557, 35.515615000708621 ], [ -83.879847991093371, 35.519050000417465 ], [ -83.876647991045672, 35.519277000541429 ], [ -83.873235991215154, 35.520856000676112 ], [ -83.868068991125284, 35.520008000249732 ], [ -83.857180990678998, 35.521573000420545 ], [ -83.849143991393646, 35.51863200069058 ], [ -83.844268991611472, 35.52121000017938 ], [ -83.840123991078315, 35.521518000201858 ], [ -83.832142991710995, 35.524574000237855 ], [ -83.825418990755722, 35.524317000218161 ], [ -83.823362991735252, 35.525454000383135 ], [ -83.820466991253284, 35.525652000528822 ], [ -83.81927799162402, 35.527327000125403 ], [ -83.809892990728784, 35.532996000178976 ], [ -83.80803799134884, 35.537093000568937 ], [ -83.802803990781484, 35.541487000808594 ], [ -83.79878499118044, 35.541641000464814 ], [ -83.794645991508304, 35.545649000049821 ], [ -83.786708991053672, 35.54787800032809 ], [ -83.783663991350934, 35.550145999919998 ], [ -83.780181991623351, 35.550634000037185 ], [ -83.775092990997365, 35.556361000696604 ], [ -83.77266599134478, 35.557432000109927 ], [ -83.77220799097006, 35.560913000158699 ], [ -83.77135999102407, 35.561606000132748 ], [ -83.765236991007782, 35.561647000035855 ], [ -83.763971990774962, 35.562746000017135 ], [ -83.759550991740582, 35.562573000210101 ], [ -83.75499199103038, 35.56461500003568 ], [ -83.746511991430864, 35.560336000144261 ], [ -83.743132991470517, 35.563067000412332 ], [ -83.741189991457219, 35.562848999938531 ], [ -83.7388659913087, 35.564657000564132 ], [ -83.736136991440546, 35.565521000163777 ], [ -83.732639990726312, 35.563649000619463 ], [ -83.72903099112024, 35.564089999916263 ], [ -83.727066991401102, 35.562634999958689 ], [ -83.722771990789767, 35.562296000296108 ], [ -83.717955991520526, 35.564061999881389 ], [ -83.714006991445629, 35.564183000600252 ], [ -83.712474990973078, 35.566402000692854 ], [ -83.709696991106483, 35.566780000329551 ], [ -83.706989991508991, 35.568551000734587 ], [ -83.704327991552887, 35.568673000098116 ], [ -83.701241991555491, 35.567476000200621 ], [ -83.695609991280676, 35.570322000683767 ], [ -83.692805990766018, 35.568839000244324 ], [ -83.689847990976148, 35.568999000221545 ], [ -83.687696991068293, 35.568197000644318 ], [ -83.682762991701324, 35.568752000185768 ], [ -83.67975699165595, 35.57035100071208 ], [ -83.678345991096847, 35.56975700005998 ], [ -83.674721991347113, 35.570164000280528 ], [ -83.672953991130768, 35.569383999945167 ], [ -83.663804991540502, 35.569756000577016 ], [ -83.661001990817212, 35.56833900080246 ], [ -83.656013990941929, 35.570013000003648 ], [ -83.654023991431785, 35.569601000758929 ], [ -83.653203991003451, 35.568414000266586 ], [ -83.648636991644935, 35.567573000245687 ], [ -83.645151990926792, 35.565913000611772 ], [ -83.640129991232158, 35.566165000154989 ], [ -83.635328991677383, 35.568096000095558 ], [ -83.633861991078888, 35.570672000607374 ], [ -83.629312991020385, 35.568171000570317 ], [ -83.621307991591195, 35.572697000366205 ], [ -83.618570991233781, 35.572253999965397 ], [ -83.613496991361799, 35.575129000012829 ], [ -83.608335991044243, 35.580015000279175 ], [ -83.601773991691715, 35.578918999869295 ], [ -83.598301991494822, 35.574999999890721 ], [ -83.596116990715345, 35.574999000473781 ], [ -83.591777991235446, 35.571633000619428 ], [ -83.591306990826681, 35.569123000307833 ], [ -83.587560991373849, 35.567025999995508 ], [ -83.586269991502405, 35.563697000418045 ], [ -83.584373991088654, 35.562698000687149 ], [ -83.575022991004374, 35.563892000319839 ], [ -83.572662991588857, 35.565381000348346 ], [ -83.56934199077493, 35.564216999927112 ], [ -83.566524991687047, 35.564294000011891 ], [ -83.564978991237453, 35.566091000163887 ], [ -83.559291990926511, 35.564613000334532 ], [ -83.553644990664111, 35.564531000293059 ], [ -83.551042990897173, 35.563454000140844 ], [ -83.544972990983823, 35.565256000584363 ], [ -83.542552991272188, 35.565179000744607 ] ] ] } },
{ "type": "Feature", "properties": { "county": "SWAIN", "precinct": "BC1", "enr_desc": "Bc1", "winner": "Brian E. Kirkland", "winner_votes": 367, "winner_share": 91.293532338308452, "runner_up": "Wayne Dover", "runner_up_votes": 35, "runner_up_share": 8.7064676616915424, "contest_votes": 402, "margin_of_victory": 82.587064676616905, "is_tie": false, "results": [ { "candidate": "Brian E. Kirkland", "votes": 367, "share": 91.29353233830845 }, { "candidate": "Wayne Dover", "votes": 35, "share": 8.706467661691542 } ], "participated": true, "map_key": "SWAIN_BC1" }, "geometry": { "type": "Polygon", "coordinates": [ [ [ -83.404761991632924, 35.385193000442435 ], [ -83.410940990864205, 35.384690000611087 ], [ -83.414611991038569, 35.381438000060179 ], [ -83.416793990700242, 35.382225000379528 ], [ -83.418508991240543, 35.384733000127021 ], [ -83.420613991416914, 35.38503000006947 ], [ -83.42684899099109, 35.383876000295921 ], [ -83.429514990949855, 35.38524900019523 ], [ -83.430169991586027, 35.384617999914127 ], [ -83.430451990767779, 35.389800999889594 ], [ -83.42676899172956, 35.393098000382636 ], [ -83.432209990987246, 35.397172000474903 ], [ -83.437035990793859, 35.394638000452964 ], [ -83.441865990718341, 35.394581000491499 ], [ -83.446977990914334, 35.39177100014917 ], [ -83.450195991465748, 35.391770999954062 ], [ -83.456363991315513, 35.394180000480105 ], [ -83.460051991633321, 35.388809000210443 ], [ -83.46068699165788, 35.386514000345464 ], [ -83.46461999133345, 35.387390000712344 ], [ -83.473241991609683, 35.391524000633538 ], [ -83.475184991205595, 35.39159000026055 ], [ -83.476185991084066, 35.389344000755095 ], [ -83.477741990859485, 35.388064000463544 ], [ -83.477662991130586, 35.387081000255897 ], [ -83.480673990948887, 35.385696000697529 ], [ -83.48434199138913, 35.387265000137504 ], [ -83.491086991575841, 35.385520000037964 ], [ -83.495645991207439, 35.382894000602114 ], [ -83.498545991578794, 35.383486000492283 ], [ -83.501918991101931, 35.382478000692352 ], [ -83.507405990762294, 35.38380900011466 ], [ -83.509481991075518, 35.382113999923817 ], [ -83.512447990748285, 35.381993000033781 ], [ -83.517439991438266, 35.384092000150396 ], [ -83.5193679909016, 35.384172000463316 ], [ -83.525051990900337, 35.387925000744616 ], [ -83.528857991622715, 35.387925000284405 ], [ -83.530754991013566, 35.38959100007996 ], [ -83.531207991743926, 35.390719000482598 ], [ -83.527708991493057, 35.393315000530393 ], [ -83.525501991502395, 35.397509999885827 ], [ -83.528404991797345, 35.397769000706965 ], [ -83.530783990953836, 35.398985000572203 ], [ -83.53342199096177, 35.397690000756285 ], [ -83.536143991665639, 35.3986919999112 ], [ -83.538025991174138, 35.398441000141823 ], [ -83.540556991352304, 35.396581000065304 ], [ -83.538995991653209, 35.394476000325739 ], [ -83.540290991101585, 35.393231000227701 ], [ -83.54536599150633, 35.392764000195449 ], [ -83.549493991314378, 35.393354999953786 ], [ -83.550882991267812, 35.394240999983083 ], [ -83.551109991228302, 35.39818300021637 ], [ -83.551915990918161, 35.399494000225552 ], [ -83.554584991551948, 35.399733000498138 ], [ -83.558879990929043, 35.398767000062712 ], [ -83.562409990859251, 35.402975000258174 ], [ -83.56253699125233, 35.405250000518556 ], [ -83.55883999094263, 35.407464000286005 ], [ -83.556729991551151, 35.411312000173211 ], [ -83.556980991585533, 35.412663000566418 ], [ -83.560009991468874, 35.41396300002679 ], [ -83.563933991601715, 35.41360700056542 ], [ -83.565418991260813, 35.420295000213244 ], [ -83.570200991437417, 35.418863000101396 ], [ -83.572775991315936, 35.420393000040022 ], [ -83.573583991326331, 35.422171000439242 ], [ -83.573275991205634, 35.427612000568431 ], [ -83.570098991310886, 35.43492800052389 ], [ -83.57063099085515, 35.435877000314647 ], [ -83.562581990963949, 35.438814000175526 ], [ -83.563800991240299, 35.439896000646414 ], [ -83.563969991410502, 35.441920000752361 ], [ -83.562710991131112, 35.455819000595959 ], [ -83.561661991113425, 35.458745999970816 ], [ -83.562399990742335, 35.465581999983911 ], [ -83.563275991396594, 35.467235000656153 ], [ -83.566162991461582, 35.46775500030823 ], [ -83.565894991161727, 35.471313999899863 ], [ -83.569063990858183, 35.472434000569621 ], [ -83.566398990838579, 35.475209000133567 ], [ -83.565109991492804, 35.478682000445154 ], [ -83.565687991308707, 35.481180000660721 ], [ -83.563303991077618, 35.483998000633306 ], [ -83.566131991732917, 35.48647500003662 ], [ -83.566393991193408, 35.488629000183799 ], [ -83.564405991166225, 35.491569000267674 ], [ -83.561362991360298, 35.49211800019534 ], [ -83.560187990737077, 35.493238000763895 ], [ -83.560227991113194, 35.496721000281156 ], [ -83.56252599105018, 35.498155000444989 ], [ -83.561786991352534, 35.499391000165133 ], [ -83.562780991197599, 35.502477000369957 ], [ -83.56242499151594, 35.504344000263224 ], [ -83.559348990853451, 35.507316000507331 ], [ -83.55898599105825, 35.510765000361651 ], [ -83.557466991404013, 35.513632000399419 ], [ -83.553421991565926, 35.515061000291098 ], [ -83.550082991768008, 35.517455000608635 ], [ -83.544048991558228, 35.518313000205687 ], [ -83.543752990949912, 35.519958999995197 ], [ -83.541004990798271, 35.523217000225969 ], [ -83.544442991080587, 35.534060000084629 ], [ -83.543473990673078, 35.539845000382137 ], [ -83.541066990925955, 35.544184000303233 ], [ -83.544251990886693, 35.548254000212545 ], [ -83.544143990778224, 35.550122000500771 ], [ -83.545601990760261, 35.553490000444121 ], [ -83.543967990930966, 35.556514000779181 ], [ -83.544088991309494, 35.558526000715183 ], [ -83.542211991208774, 35.563569000435912 ], [ -83.542552991272188, 35.565179000744607 ], [ -83.540716990957563, 35.565865000411229 ], [ -83.53663599120992, 35.564788000736321 ], [ -83.530632991627115, 35.564468999913025 ], [ -83.521294990862074, 35.565592000647825 ], [ -83.516563990722361, 35.562438000008576 ], [ -83.513093991739481, 35.563080000719701 ], [ -83.50746799165546, 35.561929000429494 ], [ -83.498543991691776, 35.562888000097765 ], [ -83.493316991638821, 35.566830000345171 ], [ -83.48535699107569, 35.568471000427934 ], [ -83.480479991251826, 35.577340000517374 ], [ -83.478630991061024, 35.579190000181519 ], [ -83.479071991648766, 35.583218000612803 ], [ -83.472795990746604, 35.586319000118216 ], [ -83.469263991493534, 35.583734000064979 ], [ -83.464495990683162, 35.578453000463838 ], [ -83.463063991676805, 35.573993000124823 ], [ -83.462879991359486, 35.569041999866755 ], [ -83.463720990640212, 35.565344999927099 ], [ -83.468875991196057, 35.552147000360947 ], [ -83.462951990711545, 35.534313000626575 ], [ -83.458134991699907, 35.525621000308519 ], [ -83.456854991086431, 35.516997000286068 ], [ -83.459402990688147, 35.513021000139489 ], [ -83.477104991121806, 35.500095000096245 ], [ -83.478777990824383, 35.496941000433097 ], [ -83.480502991217406, 35.489762000188378 ], [ -83.484642991218735, 35.486174000138597 ], [ -83.499880990744927, 35.478049000441395 ], [ -83.511448991605931, 35.47390400069316 ], [ -83.516130991020489, 35.470246000327954 ], [ -83.519844990798461, 35.465489000523718 ], [ -83.522064991492073, 35.459960000136206 ], [ -83.523570991458485, 35.445402000433923 ], [ -83.522074991241041, 35.441940000226452 ], [ -83.521518991343157, 35.441114000180576 ], [ -83.517945990834804, 35.442155000743426 ], [ -83.51148399156385, 35.440952000068513 ], [ -83.510588991203477, 35.442699999882734 ], [ -83.511713991726282, 35.446087000326202 ], [ -83.509912991521432, 35.448410000591011 ], [ -83.502641990727199, 35.452514999902832 ], [ -83.499637991634245, 35.452627999926243 ], [ -83.493955991631566, 35.44661200039004 ], [ -83.489790991622598, 35.440089000708937 ], [ -83.488943991390599, 35.437729000673563 ], [ -83.488637991119333, 35.43119900054176 ], [ -83.486852990765499, 35.428828000777749 ], [ -83.48570599177306, 35.428014000621779 ], [ -83.482734991484193, 35.428123999950728 ], [ -83.478403991163589, 35.429547000077385 ], [ -83.468223991340608, 35.425861999917956 ], [ -83.464673991467507, 35.423466000007849 ], [ -83.455509991505266, 35.42118700071363 ], [ -83.453555991341943, 35.422747000155432 ], [ -83.451492991022548, 35.427335000759456 ], [ -83.446468991015379, 35.428196000707892 ], [ -83.437895990769761, 35.433740999921525 ], [ -83.431485991585745, 35.433436999984352 ], [ -83.427056991613711, 35.434095000559289 ], [ -83.421151991396869, 35.431315000429187 ], [ -83.414760990979204, 35.432017000311525 ], [ -83.413163991757017, 35.431038000330346 ], [ -83.411327990965106, 35.427676000246549 ], [ -83.407081991593415, 35.427650000469413 ], [ -83.402942991186777, 35.430759999928938 ], [ -83.398528991471863, 35.435993000011635 ], [ -83.399055991141211, 35.4395810001241 ], [ -83.396757991099506, 35.443335000029514 ], [ -83.400672991480107, 35.448726000014759 ], [ -83.40041799173494, 35.450134000434858 ], [ -83.396860990763756, 35.452654000728835 ], [ -83.393672991088408, 35.452427000024166 ], [ -83.390956991260779, 35.451560000351243 ], [ -83.387527991721512, 35.44895700021992 ], [ -83.383313991353589, 35.445086000098748 ], [ -83.382018991689719, 35.442070000248009 ], [ -83.380218991166245, 35.442068000645939 ], [ -83.398314991248043, 35.430698000750823 ], [ -83.397342991651612, 35.428761000309663 ], [ -83.394358990902077, 35.426547000586602 ], [ -83.392720991318939, 35.420326999960729 ], [ -83.390586991176647, 35.418634000106081 ], [ -83.393112991536441, 35.418355000482528 ], [ -83.39136799134063, 35.416403000505746 ], [ -83.391437990839705, 35.414601000700614 ], [ -83.389817990715073, 35.410800000272133 ], [ -83.395944990980894, 35.403110999887716 ], [ -83.399833991398367, 35.400800000594636 ], [ -83.400683991048311, 35.399415000413917 ], [ -83.399448990985107, 35.392049000361496 ], [ -83.404761991632924, 35.385193000442435 ] ] ] } },
{ "type": "Feature", "properties": { "county": "SWAIN", "precinct": "WHCH", "enr_desc": "Whch", "winner": "Brian E. Kirkland", "winner_votes": 169, "winner_share": 68.699186991869922, "runner_up": "Wayne Dover", "runner_up_votes": 77, "runner_up_share": 31.300813008130078, "contest_votes": 246, "margin_of_victory": 37.398373983739845, "is_tie": false, "results": [ { "candidate": "Brian E. Kirkland", "votes": 169, "share": 68.69918699186992 }, { "candidate": "Wayne Dover", "votes": 77, "share": 31.300813008130078 } ], "participated": true, "map_key": "SWAIN_WHCH" }, "geometry": { "type": "Polygon", "coordinates": [ [ [ -83.336658991370726, 35.345027000509909 ], [ -83.344143990917942, 35.344830000317572 ], [ -83.345557991550052, 35.345211000523371 ], [ -83.346605990862813, 35.346728000398642 ], [ -83.352536990883451, 35.347129000773442 ], [ -83.35909299149003, 35.353068999903549 ], [ -83.364097991600801, 35.355262000378623 ], [ -83.371050991055412, 35.354581000092594 ], [ -83.3732759914664, 35.36237000067706 ], [ -83.374943991145102, 35.363956999952684 ], [ -83.377539991720994, 35.364335000478199 ], [ -83.378651991219797, 35.370385000613261 ], [ -83.382637991274478, 35.372956000617123 ], [ -83.383842991097112, 35.376585000211598 ], [ -83.397933990830012, 35.379383000048662 ], [ -83.399323990720717, 35.380517000341705 ], [ -83.399323991413354, 35.383164000441091 ], [ -83.404761991632924, 35.385193000442435 ], [ -83.399448990985107, 35.392049000361496 ], [ -83.400683991048311, 35.399415000413917 ], [ -83.399833991398367, 35.400800000594636 ], [ -83.395944990980894, 35.403110999887716 ], [ -83.389817990715073, 35.410800000272133 ], [ -83.391437990839705, 35.414601000700614 ], [ -83.39136799134063, 35.416403000505746 ], [ -83.393112991536441, 35.418355000482528 ], [ -83.390586991176647, 35.418634000106081 ], [ -83.392720991318939, 35.420326999960729 ], [ -83.394358990902077, 35.426547000586602 ], [ -83.397342991651612, 35.428761000309663 ], [ -83.398314991248043, 35.430698000750823 ], [ -83.380218991166245, 35.442068000645939 ], [ -83.382018991689719, 35.442070000248009 ], [ -83.383313991353589, 35.445086000098748 ], [ -83.387527991721512, 35.44895700021992 ], [ -83.390956991260779, 35.451560000351243 ], [ -83.393672991088408, 35.452427000024166 ], [ -83.392159990679502, 35.453491000167212 ], [ -83.392258990686372, 35.456831000198314 ], [ -83.390390991661164, 35.459216000107538 ], [ -83.389322991079666, 35.459467000396785 ], [ -83.389392991265552, 35.461073000286078 ], [ -83.388448991714824, 35.459059000031431 ], [ -83.386420991125163, 35.460905000328154 ], [ -83.383413991596996, 35.461487999855436 ], [ -83.383582991441358, 35.46448700055624 ], [ -83.38138899154491, 35.466127000732257 ], [ -83.383544991103733, 35.471473999983928 ], [ -83.381566991475424, 35.472855000360269 ], [ -83.378749991398152, 35.47341999993872 ], [ -83.379524990714259, 35.474782999971325 ], [ -83.37904499072306, 35.47511300073468 ], [ -83.380996990986645, 35.47690599999968 ], [ -83.37592999138603, 35.477144000743536 ], [ -83.374275990955041, 35.479946000427901 ], [ -83.370224991522832, 35.483553999975655 ], [ -83.367222991462739, 35.484147000603507 ], [ -83.367514991176407, 35.488679000018564 ], [ -83.366062991110496, 35.491377000584784 ], [ -83.370420991447759, 35.492871000581182 ], [ -83.369607991223106, 35.49365300064796 ], [ -83.369613991204417, 35.498126000609062 ], [ -83.368794990766574, 35.499604000283725 ], [ -83.367945991323026, 35.500640000612215 ], [ -83.365142991590801, 35.500289000751472 ], [ -83.360126991164861, 35.503916000468692 ], [ -83.352398990948146, 35.513042999960476 ], [ -83.35161399116673, 35.515938000727388 ], [ -83.35230699095942, 35.517658000173512 ], [ -83.355855991718087, 35.519661000505806 ], [ -83.356051991414219, 35.521267000086219 ], [ -83.354869991268842, 35.524030000422748 ], [ -83.361735991574349, 35.530322000179716 ], [ -83.362914991540237, 35.534869000078935 ], [ -83.362849991292265, 35.539484000451708 ], [ -83.365392991094538, 35.541883000542249 ], [ -83.36793099079209, 35.541907999945273 ], [ -83.3698009906945, 35.549373000073395 ], [ -83.375196991453464, 35.553785000110807 ], [ -83.376737991042205, 35.56226700005729 ], [ -83.378933990881237, 35.563430000495536 ], [ -83.386102991443082, 35.576618000249461 ], [ -83.388252991454223, 35.578280000421053 ], [ -83.393114991243536, 35.579714000461422 ], [ -83.398912991655124, 35.585882000472502 ], [ -83.404249991109708, 35.586500000646978 ], [ -83.405559991350216, 35.589160000066734 ], [ -83.410289991672755, 35.593630000079273 ], [ -83.416969991057528, 35.595209999973569 ], [ -83.421899991089447, 35.598720000679691 ], [ -83.423629991580981, 35.601350000425981 ], [ -83.435949991246247, 35.606910000713199 ], [ -83.435679991058365, 35.60781000064182 ], [ -83.42948399138912, 35.61028600015387 ], [ -83.421371991245934, 35.611258000130064 ], [ -83.420134991242236, 35.613517000021048 ], [ -83.415033991169338, 35.614504000111481 ], [ -83.405532991346988, 35.620512000096952 ], [ -83.395709990860183, 35.62311300046801 ], [ -83.391670991712502, 35.626563999891552 ], [ -83.388867991109478, 35.63191900076874 ], [ -83.388725990924613, 35.633622000024786 ], [ -83.378086991418755, 35.634562000528483 ], [ -83.37677999077421, 35.636732000777187 ], [ -83.371827990854939, 35.639163000027494 ], [ -83.370878990997909, 35.638202000223998 ], [ -83.367796990632868, 35.637841000011576 ], [ -83.366055991329929, 35.641028000589138 ], [ -83.358272991626379, 35.64699799988658 ], [ -83.35824099125945, 35.6488430005491 ], [ -83.355932991060428, 35.650757000549532 ], [ -83.355968990810567, 35.654305000720406 ], [ -83.35434699157949, 35.655646000018066 ], [ -83.352598991301392, 35.658964999980334 ], [ -83.350560991598357, 35.660647000623406 ], [ -83.345006990923736, 35.661209000323709 ], [ -83.341063991698491, 35.664589000744755 ], [ -83.33872099128584, 35.663633999901236 ], [ -83.334655990754371, 35.665662000691974 ], [ -83.329565991537109, 35.663729000620108 ], [ -83.321756991021061, 35.66310900051073 ], [ -83.312075990909477, 35.65461200076286 ], [ -83.310116991603195, 35.654651000452702 ], [ -83.308784991090718, 35.656210999975052 ], [ -83.305781991546823, 35.655458000577809 ], [ -83.298243991100918, 35.657255000131833 ], [ -83.293544991752569, 35.661879000589266 ], [ -83.293671990755101, 35.66491700056315 ], [ -83.291620990754836, 35.666507999937402 ], [ -83.290304991442937, 35.673498000539567 ], [ -83.288377991702546, 35.674645999951913 ], [ -83.283988990707726, 35.67446300057599 ], [ -83.281341991488347, 35.677698999928992 ], [ -83.274466990821381, 35.679076000130742 ], [ -83.271165991493817, 35.683168000361462 ], [ -83.270679990964524, 35.686827000270398 ], [ -83.266907991363539, 35.688649000020298 ], [ -83.263304991082038, 35.688516000696275 ], [ -83.259290991440622, 35.690371000125729 ], [ -83.257611991560196, 35.693968999991576 ], [ -83.254074991574498, 35.695658999979862 ], [ -83.250842991503319, 35.695723000674228 ], [ -83.248298991337222, 35.694307000515408 ], [ -83.239961991699701, 35.695322000350451 ], [ -83.235434990664942, 35.694005000537281 ], [ -83.225757991244592, 35.693827999945597 ], [ -83.215129991356093, 35.692337000436666 ], [ -83.211605991151714, 35.687157000741571 ], [ -83.209624991245505, 35.685933000465894 ], [ -83.208323990744262, 35.682516000726835 ], [ -83.206943991295816, 35.681066000042939 ], [ -83.203771990894396, 35.679682000120984 ], [ -83.199718991297942, 35.681056000263652 ], [ -83.194613991529025, 35.677859000494969 ], [ -83.191974991330852, 35.677870000503837 ], [ -83.190633990987592, 35.674624000553102 ], [ -83.189354991501958, 35.673547000105671 ], [ -83.184567991306395, 35.671327999865092 ], [ -83.181976991396112, 35.671327000539769 ], [ -83.186997991027184, 35.666344999868123 ], [ -83.194664990720653, 35.660889000584561 ], [ -83.196380990945087, 35.654313000168806 ], [ -83.202820991125407, 35.649565000534139 ], [ -83.203217990695165, 35.648246999893217 ], [ -83.202065990635731, 35.646741999911484 ], [ -83.20242999098474, 35.644499999888879 ], [ -83.201876990982882, 35.642759000206588 ], [ -83.199857991579194, 35.641188000478628 ], [ -83.193745990911808, 35.640106000213777 ], [ -83.190630990698438, 35.641326000723971 ], [ -83.187513991281833, 35.640820000006762 ], [ -83.181869990671089, 35.637068000670816 ], [ -83.177097991682146, 35.631954999838996 ], [ -83.177086991577724, 35.62931599995634 ], [ -83.175870990905011, 35.627500000501392 ], [ -83.180706991514555, 35.622989000004182 ], [ -83.181632990758615, 35.618687000114534 ], [ -83.179014991343038, 35.614296000642796 ], [ -83.175979991143478, 35.612450000629593 ], [ -83.177769990812223, 35.609296999995422 ], [ -83.182654990743401, 35.605205000438509 ], [ -83.183014991547381, 35.60252799991364 ], [ -83.185371990974673, 35.599370000708319 ], [ -83.185518991277959, 35.598270999991051 ], [ -83.183198991004332, 35.596084000260007 ], [ -83.184637990995995, 35.59141999996789 ], [ -83.18315799106287, 35.589399000338666 ], [ -83.183540990963934, 35.586317000437717 ], [ -83.182108990994237, 35.584537000651174 ], [ -83.175208991036811, 35.580761999867114 ], [ -83.170259991346981, 35.578899000228922 ], [ -83.166748991033728, 35.578465000196005 ], [ -83.164429991571225, 35.574784000457363 ], [ -83.164316991726793, 35.571345000427506 ], [ -83.162063991715542, 35.568180000195682 ], [ -83.163341991326732, 35.564668999966159 ], [ -83.160055991202313, 35.5626090001902 ], [ -83.159514991371083, 35.558655000292319 ], [ -83.15637899080744, 35.554664000678997 ], [ -83.155834990991721, 35.552622000471231 ], [ -83.159675991338474, 35.54842400007783 ], [ -83.16292299132607, 35.548050999895253 ], [ -83.164603991583633, 35.545233000664815 ], [ -83.164020990936734, 35.540929999996948 ], [ -83.165364990774123, 35.538475000588214 ], [ -83.167206991682747, 35.537882000370296 ], [ -83.168348991560848, 35.538668000659349 ], [ -83.171608991139834, 35.537646000013197 ], [ -83.17174399141436, 35.533806000501492 ], [ -83.169949991191402, 35.531037000193436 ], [ -83.173142990824857, 35.528855999979804 ], [ -83.17241799108038, 35.526825000621592 ], [ -83.174076991685126, 35.523571000605386 ], [ -83.173982991110748, 35.521681000506781 ], [ -83.180776991443764, 35.518725000651663 ], [ -83.182329991159776, 35.515863000702836 ], [ -83.183645991202454, 35.514995000204529 ], [ -83.186321990845983, 35.514368000397539 ], [ -83.196064991220368, 35.519378000563826 ], [ -83.201151991006853, 35.51889400015358 ], [ -83.204826991717681, 35.519431000606403 ], [ -83.207682991054767, 35.518024000610914 ], [ -83.211096990687935, 35.519726000094529 ], [ -83.212129991106991, 35.521800999943686 ], [ -83.214888991203708, 35.523775000516601 ], [ -83.216401991683426, 35.526043000212624 ], [ -83.220010991638404, 35.524762000282863 ], [ -83.22749799168308, 35.525589000383256 ], [ -83.232677991217514, 35.52329200053876 ], [ -83.236072990714348, 35.524564000702625 ], [ -83.238832991280319, 35.522979999859558 ], [ -83.241832991655514, 35.519033000054186 ], [ -83.245804991532665, 35.518038000581498 ], [ -83.247228991587264, 35.516702000231462 ], [ -83.257148990820326, 35.513153000619134 ], [ -83.261770991507078, 35.514495000685386 ], [ -83.264487991643151, 35.510716000419549 ], [ -83.264351990871418, 35.506528999909925 ], [ -83.268581991208592, 35.506191000629926 ], [ -83.272404991683544, 35.504675000552403 ], [ -83.273406991332394, 35.502307999928448 ], [ -83.275356990990346, 35.500457000407302 ], [ -83.280175991205212, 35.499525000088937 ], [ -83.283462991522939, 35.497423000150945 ], [ -83.286394990690894, 35.492535000764569 ], [ -83.28491799161533, 35.490710000656435 ], [ -83.285277991302863, 35.488900000095718 ], [ -83.291652990831082, 35.483129000101066 ], [ -83.29704499126872, 35.484278000147697 ], [ -83.304914990883375, 35.478600000157613 ], [ -83.308930991314426, 35.479323000338212 ], [ -83.311800991438645, 35.47150099998121 ], [ -83.317881991207571, 35.465302000476221 ], [ -83.322254991339634, 35.466468000388041 ], [ -83.325190991587277, 35.468741000139126 ], [ -83.331968991743835, 35.469949000089812 ], [ -83.336220991395436, 35.474922000739554 ], [ -83.342911991535033, 35.472837000488788 ], [ -83.345409991737085, 35.473520999858096 ], [ -83.347099991548802, 35.471168000168099 ], [ -83.351725991085928, 35.468092000154428 ], [ -83.358972990830651, 35.440348000171554 ], [ -83.35913799156522, 35.439447000390295 ], [ -83.357389991320858, 35.437579000074408 ], [ -83.358186991104745, 35.4358180007087 ], [ -83.360398991359546, 35.43405400020675 ], [ -83.360983990903534, 35.431117000737871 ], [ -83.362634991507861, 35.429999000594563 ], [ -83.36376599155831, 35.426923000459098 ], [ -83.362088991412278, 35.423548000481773 ], [ -83.362518991167718, 35.421723000303203 ], [ -83.361627991195704, 35.419645000303596 ], [ -83.362596991282857, 35.417650000191038 ], [ -83.360650991342837, 35.414583000527713 ], [ -83.360703991068149, 35.411813000295027 ], [ -83.355651990787834, 35.409893000391577 ], [ -83.353057990819096, 35.411375000289844 ], [ -83.351804991585155, 35.411075000255089 ], [ -83.349694991558522, 35.409061000250233 ], [ -83.347951990879906, 35.405355000183242 ], [ -83.349144991451297, 35.401222000061125 ], [ -83.345383991419396, 35.399744000480233 ], [ -83.343579991491737, 35.397396000186127 ], [ -83.341142991613779, 35.397377999966778 ], [ -83.340016991451179, 35.395474999980323 ], [ -83.342851991275595, 35.394212000155484 ], [ -83.345907991214801, 35.389609999953883 ], [ -83.342746991127115, 35.38759299989686 ], [ -83.340632991352777, 35.384664000257779 ], [ -83.337407991642067, 35.382075000383267 ], [ -83.338526991388434, 35.37611500024412 ], [ -83.336850991002009, 35.373205000297688 ], [ -83.337011991349044, 35.37107300009994 ], [ -83.334702990799954, 35.368916000008682 ], [ -83.335389990675523, 35.367214000020162 ], [ -83.334690991560549, 35.365846000272462 ], [ -83.335570990935352, 35.363155000521338 ], [ -83.334562991308246, 35.360584000637317 ], [ -83.335145991550519, 35.359842000142898 ], [ -83.331507990842965, 35.354262000021194 ], [ -83.333553990933439, 35.34932600022001 ], [ -83.336109990848939, 35.347123000444341 ], [ -83.336658991370726, 35.345027000509909 ] ] ] } }
]
}
