{
"type": "FeatureCollection",
"name": "tyrrell_county_board_of_education",
"crs": { "type": "name", "properties": { "name": "urn:ogc:def:crs:OGC:1.3:CRS84" } },
"features": [
{ "type": "Feature", "properties": { "county": "TYRRELL", "precinct": "1", "enr_desc": "Alligator", "winner": "Jana Liverman Rawls", "winner_votes": 33, "winner_share": 78.571428571428569, "runner_up": "Karen Page Clough", "runner_up_votes": 6, "runner_up_share": 14.285714285714285, "contest_votes": 42, "margin_of_victory": 64.285714285714278, "is_tie": false, "results": [ { "candidate": "Jana Liverman Rawls", "votes": 33, "share": 78.57142857142857 }, { "candidate": "Karen Page Clough", "votes": 6, "share": 14.285714285714285 }, { "candidate": "Joni Marie Liverman", "votes": 2, "share": 4.761904761904762 }, { "candidate": "Monica Liverman", "votes": 1, "share": 2.380952380952381 }, { "candidate": "Write-In (Miscellaneous)", "votes": 0, "share": 0.0 } ], "participated": true, "map_key": "TYRRELL_1" }, "geometry": { "type": "Polygon", "coordinates": [ [ [ -76.020572991086667, 35.84108499970413 ], [ -76.158792990895506, 35.815260999586336 ], [ -76.179069990813773, 35.875158999762043 ], [ -76.202677990843952, 35.92329799997551 ], [ -76.125755990733253, 36.064905999401105 ], [ -76.101064991231866, 36.069526000092409 ], [ -76.058216990643956, 36.080592999425981 ], [ -76.041880990745355, 36.087234999692889 ], [ -76.03014399059704, 36.093897999766746 ], [ -76.022606991036866, 36.096725000139429 ], [ -76.02239799166847, 36.086653999511888 ], [ -75.950458991293573, 36.087958000123471 ], [ -75.906294991383689, 36.085876999638892 ], [ -75.901959990638346, 36.074107999369097 ], [ -75.889533991025047, 36.05533899932442 ], [ -75.874805990613737, 36.041788999773765 ], [ -75.864668991319249, 36.03616399982085 ], [ -75.840045990914859, 36.028833999742901 ], [ -75.87463099083935, 36.018067000102036 ], [ -75.92750699126988, 36.000158999949825 ], [ -75.934691991171647, 35.996831999380689 ], [ -75.954373990970467, 35.990064000171522 ], [ -75.965581990687895, 35.983411999907538 ], [ -75.973151990887203, 35.976642999611812 ], [ -75.980720991315494, 35.959652999391771 ], [ -75.985773991116929, 35.922018999351053 ], [ -75.987465991606513, 35.916452999965145 ], [ -75.992283990968701, 35.909854999505612 ], [ -76.008347991025616, 35.895801999626634 ], [ -76.009880991488444, 35.892855000102074 ], [ -76.017693991614152, 35.865355999537648 ], [ -76.020572991086667, 35.84108499970413 ] ] ] } },
{ "type": "Feature", "properties": { "county": "TYRRELL", "precinct": "14", "enr_desc": "Kilkenny", "winner": "Joni Marie Liverman", "winner_votes": 11, "winner_share": 57.894736842105267, "runner_up": "Karen Page Clough", "runner_up_votes": 4, "runner_up_share": 21.052631578947366, "contest_votes": 19, "margin_of_victory": 36.842105263157904, "is_tie": false, "results": [ { "candidate": "Joni Marie Liverman", "votes": 11, "share": 57.89473684210527 }, { "candidate": "Karen Page Clough", "votes": 4, "share": 21.052631578947366 }, { "candidate": "Monica Liverman", "votes": 3, "share": 15.789473684210526 }, { "candidate": "Jana Liverman Rawls", "votes": 1, "share": 5.263157894736842 }, { "candidate": "Write-In (Miscellaneous)", "votes": 0, "share": 0.0 } ], "participated": true, "map_key": "TYRRELL_14" }, "geometry": { "type": "Polygon", "coordinates": [ [ [ -76.269315990993647, 35.690555999470284 ], [ -76.259479990891649, 35.696052999767147 ], [ -76.257540991341116, 35.698226000057858 ], [ -76.251417991613422, 35.700418999624915 ], [ -76.247180991084619, 35.699999999945369 ], [ -76.243702990911999, 35.701651999768075 ], [ -76.240956991683319, 35.704951999469188 ], [ -76.24186499148999, 35.711614999374852 ], [ -76.240045991353128, 35.715441000233056 ], [ -76.240330991679286, 35.717936000222771 ], [ -76.237191991370182, 35.721855000221431 ], [ -76.235149990975415, 35.727283999676224 ], [ -76.232931990715016, 35.727422999946278 ], [ -76.233017990746987, 35.728683000140464 ], [ -76.231446991162329, 35.729576999426399 ], [ -76.23091699071081, 35.73221099980244 ], [ -76.229428991451613, 35.7327849994006 ], [ -76.226591991386897, 35.7323069993639 ], [ -76.224767991685738, 35.733384000148043 ], [ -76.222127991165522, 35.733019999392383 ], [ -76.218948990720222, 35.728717999554277 ], [ -76.215154991497897, 35.72675200021321 ], [ -76.210606990676567, 35.727762999889102 ], [ -76.206196991424193, 35.726507000042503 ], [ -76.204035991139449, 35.727492999558343 ], [ -76.199485991133272, 35.727748000120052 ], [ -76.196677990900483, 35.727314999558807 ], [ -76.195777991602554, 35.72589499965806 ], [ -76.196029990784396, 35.725070999738797 ], [ -76.198387991598793, 35.72461099996071 ], [ -76.198105991238947, 35.723969999368933 ], [ -76.195353991165348, 35.723582999834001 ], [ -76.194624991310548, 35.724590999651745 ], [ -76.191367991561549, 35.72489099994813 ], [ -76.191591991441214, 35.724088999532206 ], [ -76.194257991300802, 35.722987999644971 ], [ -76.193582991117509, 35.721500000014139 ], [ -76.192599991455808, 35.721363999871109 ], [ -76.190326991100363, 35.723035999360953 ], [ -76.187967991724037, 35.722969000156837 ], [ -76.187629991107997, 35.721915999648779 ], [ -76.190043991248359, 35.720975999926139 ], [ -76.190321991584426, 35.717540999801223 ], [ -76.185746990653627, 35.719878999390886 ], [ -76.185520990940063, 35.718275999476077 ], [ -76.187204991217698, 35.716901000202576 ], [ -76.185658991302816, 35.715802999496518 ], [ -76.18610699146636, 35.713695999673881 ], [ -76.182821990823356, 35.713811999344912 ], [ -76.183578991037322, 35.712186000115864 ], [ -76.18121799084345, 35.709965999597458 ], [ -76.177764991276447, 35.70980799946912 ], [ -76.178240990959537, 35.707861000144149 ], [ -76.180710991396481, 35.707195999388837 ], [ -76.181158991713531, 35.70616500021206 ], [ -76.177564991081795, 35.705731999541051 ], [ -76.176692990909785, 35.703739999596429 ], [ -76.175262990801897, 35.705205999665154 ], [ -76.174447991206549, 35.705045999888668 ], [ -76.174559990897706, 35.703969999737929 ], [ -76.17705699070666, 35.701609999701304 ], [ -76.176213991200129, 35.700694999411191 ], [ -76.175202991267042, 35.700740999547037 ], [ -76.173042991136001, 35.703168999954549 ], [ -76.170206990934034, 35.702711999990861 ], [ -76.168554990693806, 35.698873999804427 ], [ -76.171711991703305, 35.697632000070101 ], [ -76.172906990721515, 35.695657999430715 ], [ -76.170944991464552, 35.693854999933286 ], [ -76.167268991361595, 35.692355000172029 ], [ -76.166996991613104, 35.69117299971979 ], [ -76.168703990896006, 35.690467999655446 ], [ -76.174772990788128, 35.691230999675071 ], [ -76.176083991273615, 35.690447000058839 ], [ -76.176470991695922, 35.688949000024714 ], [ -76.176172990808155, 35.685024999566842 ], [ -76.171880990998375, 35.681974000176048 ], [ -76.175234991259217, 35.679817999517589 ], [ -76.175491991590832, 35.678600999651856 ], [ -76.173517991344539, 35.676139999745338 ], [ -76.169901990740598, 35.673746000162438 ], [ -76.169610990870609, 35.672271999403748 ], [ -76.171197991321677, 35.671738999680557 ], [ -76.173999991013474, 35.673153999687372 ], [ -76.175694990945104, 35.672367000225087 ], [ -76.176389991188771, 35.667552999965807 ], [ -76.1754719913462, 35.665680999498008 ], [ -76.175858990744828, 35.664805000043607 ], [ -76.178333991245623, 35.665373999752234 ], [ -76.179831990887365, 35.666968999805995 ], [ -76.181643990702284, 35.666498999345194 ], [ -76.180428991272137, 35.661291000054383 ], [ -76.178757991153688, 35.659727000075229 ], [ -76.180229991237667, 35.656542999513299 ], [ -76.177847990900915, 35.655573999673408 ], [ -76.177827990763589, 35.654932999827807 ], [ -76.181325991394999, 35.652901999589687 ], [ -76.184346991653442, 35.648623999548427 ], [ -76.188202991475819, 35.648189999530146 ], [ -76.189889991599344, 35.646287999397117 ], [ -76.191983991539828, 35.646606999923556 ], [ -76.193400991181335, 35.64560899937311 ], [ -76.193333991031182, 35.643226999901444 ], [ -76.19472799096846, 35.641149999526661 ], [ -76.192783991510922, 35.640589999792205 ], [ -76.194037991456341, 35.639260000091696 ], [ -76.193404991478445, 35.637903999364987 ], [ -76.194424991581471, 35.637461999817397 ], [ -76.194241991329235, 35.63583699967861 ], [ -76.195287991688829, 35.635453000183716 ], [ -76.197451991318076, 35.636238999777426 ], [ -76.195890990932824, 35.633991999514159 ], [ -76.19630999163013, 35.633209999721792 ], [ -76.198753991472074, 35.634028999548512 ], [ -76.196910991449826, 35.631082000055166 ], [ -76.194823991425409, 35.631074999382008 ], [ -76.195425991624276, 35.629846000100642 ], [ -76.194753991677743, 35.628552999473179 ], [ -76.196491991107521, 35.628377999673944 ], [ -76.195824991281299, 35.627454999462806 ], [ -76.196675991317633, 35.625931999409545 ], [ -76.196455991560313, 35.623237999501313 ], [ -76.199726991376167, 35.622477999715251 ], [ -76.195778991380493, 35.621694999360166 ], [ -76.195619990836576, 35.620328999993973 ], [ -76.198470991276537, 35.619439999370847 ], [ -76.198877991260019, 35.618390000031539 ], [ -76.199911990970705, 35.618978999526796 ], [ -76.200134991727083, 35.617476999556423 ], [ -76.19815499157032, 35.617040999810392 ], [ -76.199171991164846, 35.616583999379984 ], [ -76.199191990810448, 35.61538599965801 ], [ -76.200030991203178, 35.616044999849422 ], [ -76.200361991431961, 35.615235000170017 ], [ -76.201516991355689, 35.615204000243331 ], [ -76.201321991635425, 35.612573999691982 ], [ -76.203253991721667, 35.611500999729429 ], [ -76.202325991320606, 35.609494999693609 ], [ -76.204192990783113, 35.610922999780968 ], [ -76.204964991216599, 35.610416999912303 ], [ -76.206420990950775, 35.611262999407089 ], [ -76.207582990931584, 35.609992000103851 ], [ -76.20517899070984, 35.607834999805391 ], [ -76.207702991517735, 35.605692999911042 ], [ -76.208007990680287, 35.60356200011087 ], [ -76.210220990785828, 35.601535000055243 ], [ -76.212341991469472, 35.60085300019643 ], [ -76.21214599102251, 35.600114999642166 ], [ -76.213764991056919, 35.598309999679728 ], [ -76.215636991468045, 35.598000999995207 ], [ -76.220451990820962, 35.598928999689463 ], [ -76.221794991559975, 35.600137999814194 ], [ -76.224137991128529, 35.599816000137501 ], [ -76.224087991315642, 35.601281999878054 ], [ -76.225535991277908, 35.601838999399206 ], [ -76.229556991638447, 35.59972799995797 ], [ -76.236440991426136, 35.601988000251552 ], [ -76.237423991616382, 35.60156299972784 ], [ -76.239145990868977, 35.602655000076034 ], [ -76.246826991233434, 35.602555999472266 ], [ -76.248967991087866, 35.604603000184603 ], [ -76.25070599065225, 35.60481199976023 ], [ -76.252253991579281, 35.606094999747135 ], [ -76.256135991444665, 35.603766999726894 ], [ -76.259171990843654, 35.604222999436431 ], [ -76.260630991469228, 35.603638999830217 ], [ -76.26261399152871, 35.604381999406215 ], [ -76.265357990814877, 35.603256999627675 ], [ -76.270149991605336, 35.608057999541735 ], [ -76.273720990954544, 35.607108000035744 ], [ -76.276833990787296, 35.605175999500034 ], [ -76.278832991079867, 35.60502300021296 ], [ -76.281409991169099, 35.606325999738225 ], [ -76.285838991163814, 35.604464000158238 ], [ -76.287265991269948, 35.605443999848724 ], [ -76.29278299085135, 35.606369999972067 ], [ -76.29600599087658, 35.608690999416524 ], [ -76.2978989908286, 35.608894999553478 ], [ -76.269315990993647, 35.690555999470284 ] ] ] } },
{ "type": "Feature", "properties": { "county": "TYRRELL", "precinct": "15", "enr_desc": "Scuppernong", "winner": "Jana Liverman Rawls", "winner_votes": 28, "winner_share": 32.558139534883722, "runner_up": "Joni Marie Liverman", "runner_up_votes": 26, "runner_up_share": 30.232558139534881, "contest_votes": 86, "margin_of_victory": 2.3255813953488413, "is_tie": false, "results": [ { "candidate": "Jana Liverman Rawls", "votes": 28, "share": 32.55813953488372 }, { "candidate": "Joni Marie Liverman", "votes": 26, "share": 30.23255813953488 }, { "candidate": "Karen Page Clough", "votes": 23, "share": 26.744186046511626 }, { "candidate": "Monica Liverman", "votes": 9, "share": 10.465116279069768 }, { "candidate": "Write-In (Miscellaneous)", "votes": 0, "share": 0.0 } ], "participated": true, "map_key": "TYRRELL_15" }, "geometry": { "type": "Polygon", "coordinates": [ [ [ -76.342388991678064, 35.864419000246748 ], [ -76.346157990989425, 35.865473000106718 ], [ -76.346917991264917, 35.863962000165579 ], [ -76.348520991530563, 35.864488999990108 ], [ -76.351924990713357, 35.863711000071305 ], [ -76.352008991267112, 35.861993999662879 ], [ -76.353553991130269, 35.861301000228238 ], [ -76.360221991426272, 35.875569999886039 ], [ -76.369645991570081, 35.883232999659462 ], [ -76.373103991529746, 35.899226999553584 ], [ -76.380008991409369, 35.914665999406857 ], [ -76.370653990920687, 35.925930999367736 ], [ -76.370714990700762, 35.927181999683832 ], [ -76.369209991125331, 35.929384000105685 ], [ -76.367702990643195, 35.929999000164656 ], [ -76.366185990650408, 35.934876999402725 ], [ -76.36549999070165, 35.944083000234698 ], [ -76.363346991289689, 35.947557999555549 ], [ -76.358140990876919, 35.951563999906377 ], [ -76.358439991133949, 36.002688999968385 ], [ -76.354176990714834, 35.988130999490345 ], [ -76.350223991256811, 35.978059999973091 ], [ -76.345125991193925, 35.968889999373054 ], [ -76.330599991675641, 35.950078000229489 ], [ -76.324571991346957, 35.94427600001854 ], [ -76.320759991300179, 35.942170000125046 ], [ -76.31930899136205, 35.940402999993871 ], [ -76.313179991041991, 35.939375000007125 ], [ -76.310033991022294, 35.937951999609211 ], [ -76.306285991283119, 35.934512999550826 ], [ -76.288792991563668, 35.932340999544088 ], [ -76.284526991149704, 35.929706999880892 ], [ -76.281744991713808, 35.926300999724013 ], [ -76.28205899141328, 35.923287999529514 ], [ -76.280123991136037, 35.920918000158011 ], [ -76.272722990642947, 35.9210789999238 ], [ -76.263442991662245, 35.924116999845822 ], [ -76.26145099065495, 35.923781999704303 ], [ -76.256380991654524, 35.919350999824402 ], [ -76.254906991037799, 35.917057999498887 ], [ -76.255809991332015, 35.916060000004975 ], [ -76.259775991449061, 35.915578000172275 ], [ -76.261324990832208, 35.912133000244751 ], [ -76.261470991655699, 35.907940999821164 ], [ -76.260608990853171, 35.905752000017053 ], [ -76.256467990740958, 35.900837999592689 ], [ -76.257395991067554, 35.897927999666543 ], [ -76.263513991619604, 35.894741000256928 ], [ -76.265537991078716, 35.887670999739925 ], [ -76.270953991382257, 35.886537999553461 ], [ -76.272468991711705, 35.883215999881159 ], [ -76.275708990880858, 35.881843999695384 ], [ -76.280124991270341, 35.882075999463765 ], [ -76.280833990973548, 35.884239999842578 ], [ -76.279656991024865, 35.885063999564544 ], [ -76.279697990972593, 35.886731999455904 ], [ -76.28164799140535, 35.887826999945105 ], [ -76.286861990941432, 35.885636999827753 ], [ -76.291648991704719, 35.888102999665968 ], [ -76.294315990773029, 35.888295999740393 ], [ -76.295427991322271, 35.887715999595926 ], [ -76.296716991357528, 35.885249999443609 ], [ -76.299513991619776, 35.884952999946442 ], [ -76.302181991522147, 35.887573999843077 ], [ -76.308347990609334, 35.890270000049142 ], [ -76.31115199153389, 35.889335999680455 ], [ -76.312948990940285, 35.887374999392158 ], [ -76.314383991156205, 35.887008999979187 ], [ -76.319082991534032, 35.888362000054336 ], [ -76.323416991183961, 35.88678400000164 ], [ -76.330562991514469, 35.888022999587051 ], [ -76.334390990993057, 35.884658000195046 ], [ -76.333322991686273, 35.881749999452779 ], [ -76.333632990747475, 35.880421999885748 ], [ -76.336643991312684, 35.879094999634091 ], [ -76.338249991563487, 35.873278999471339 ], [ -76.34095199117013, 35.870944999586897 ], [ -76.340783991639356, 35.869226999586743 ], [ -76.343033990770209, 35.868220000239084 ], [ -76.343034991530587, 35.867555999779448 ], [ -76.341149990614753, 35.86668600010772 ], [ -76.342388991678064, 35.864419000246748 ] ] ] } },
{ "type": "Feature", "properties": { "county": "TYRRELL", "precinct": "16", "enr_desc": "South Fork", "winner": "Jana Liverman Rawls", "winner_votes": 0, "winner_share": null, "runner_up": "Joni Marie Liverman", "runner_up_votes": 0, "runner_up_share": null, "contest_votes": 0, "margin_of_victory": null, "is_tie": false, "results": [ { "candidate": "Jana Liverman Rawls", "votes": 0, "share": "0" }, { "candidate": "Joni Marie Liverman", "votes": 0, "share": "0" }, { "candidate": "Karen Page Clough", "votes": 0, "share": "0" }, { "candidate": "Monica Liverman", "votes": 0, "share": "0" }, { "candidate": "Write-In (Miscellaneous)", "votes": 0, "share": "0" } ], "participated": true, "map_key": "TYRRELL_16" }, "geometry": { "type": "Polygon", "coordinates": [ [ [ -76.353553991130269, 35.861301000228238 ], [ -76.352008991267112, 35.861993999662879 ], [ -76.351924990713357, 35.863711000071305 ], [ -76.348520991530563, 35.864488999990108 ], [ -76.346917991264917, 35.863962000165579 ], [ -76.346157990989425, 35.865473000106718 ], [ -76.342388991678064, 35.864419000246748 ], [ -76.338173991419481, 35.834404999912756 ], [ -76.317052990787317, 35.693047999966559 ], [ -76.405970991390362, 35.697578999436729 ], [ -76.405602990918553, 35.786293999608901 ], [ -76.353553991130269, 35.861301000228238 ] ] ] } },
{ "type": "Feature", "properties": { "county": "TYRRELL", "precinct": "2", "enr_desc": "Columbia", "winner": "Joni Marie Liverman", "winner_votes": 92, "winner_share": 45.544554455445549, "runner_up": "Jana Liverman Rawls", "runner_up_votes": 65, "runner_up_share": 32.178217821782177, "contest_votes": 202, "margin_of_victory": 13.366336633663373, "is_tie": false, "results": [ { "candidate": "Joni Marie Liverman", "votes": 92, "share": 45.54455445544555 }, { "candidate": "Jana Liverman Rawls", "votes": 65, "share": 32.17821782178218 }, { "candidate": "Karen Page Clough", "votes": 26, "share": 12.871287128712872 }, { "candidate": "Monica Liverman", "votes": 19, "share": 9.405940594059405 }, { "candidate": "Write-In (Miscellaneous)", "votes": 0, "share": 0.0 } ], "participated": true, "map_key": "TYRRELL_2" }, "geometry": { "type": "Polygon", "coordinates": [ [ [ -76.338173991419481, 35.834404999912756 ], [ -76.342388991678064, 35.864419000246748 ], [ -76.341149990614753, 35.86668600010772 ], [ -76.343034991530587, 35.867555999779448 ], [ -76.343033990770209, 35.868220000239084 ], [ -76.340783991639356, 35.869226999586743 ], [ -76.34095199117013, 35.870944999586897 ], [ -76.338249991563487, 35.873278999471339 ], [ -76.336643991312684, 35.879094999634091 ], [ -76.333632990747475, 35.880421999885748 ], [ -76.333322991686273, 35.881749999452779 ], [ -76.334390990993057, 35.884658000195046 ], [ -76.330562991514469, 35.888022999587051 ], [ -76.323416991183961, 35.88678400000164 ], [ -76.319082991534032, 35.888362000054336 ], [ -76.314383991156205, 35.887008999979187 ], [ -76.312948990940285, 35.887374999392158 ], [ -76.31115199153389, 35.889335999680455 ], [ -76.308347990609334, 35.890270000049142 ], [ -76.302181991522147, 35.887573999843077 ], [ -76.299513991619776, 35.884952999946442 ], [ -76.296716991357528, 35.885249999443609 ], [ -76.295427991322271, 35.887715999595926 ], [ -76.294315990773029, 35.888295999740393 ], [ -76.291648991704719, 35.888102999665968 ], [ -76.286861990941432, 35.885636999827753 ], [ -76.28164799140535, 35.887826999945105 ], [ -76.279697990972593, 35.886731999455904 ], [ -76.279656991024865, 35.885063999564544 ], [ -76.280833990973548, 35.884239999842578 ], [ -76.280124991270341, 35.882075999463765 ], [ -76.275708990880858, 35.881843999695384 ], [ -76.272468991711705, 35.883215999881159 ], [ -76.270953991382257, 35.886537999553461 ], [ -76.265537991078716, 35.887670999739925 ], [ -76.263513991619604, 35.894741000256928 ], [ -76.257395991067554, 35.897927999666543 ], [ -76.256467990740958, 35.900837999592689 ], [ -76.260608990853171, 35.905752000017053 ], [ -76.261470991655699, 35.907940999821164 ], [ -76.261324990832208, 35.912133000244751 ], [ -76.259775991449061, 35.915578000172275 ], [ -76.255809991332015, 35.916060000004975 ], [ -76.254906991037799, 35.917057999498887 ], [ -76.256380991654524, 35.919350999824402 ], [ -76.26145099065495, 35.923781999704303 ], [ -76.263442991662245, 35.924116999845822 ], [ -76.272722990642947, 35.9210789999238 ], [ -76.280123991136037, 35.920918000158011 ], [ -76.28205899141328, 35.923287999529514 ], [ -76.281744991713808, 35.926300999724013 ], [ -76.284526991149704, 35.929706999880892 ], [ -76.288792991563668, 35.932340999544088 ], [ -76.306285991283119, 35.934512999550826 ], [ -76.310033991022294, 35.937951999609211 ], [ -76.313179991041991, 35.939375000007125 ], [ -76.31930899136205, 35.940402999993871 ], [ -76.320759991300179, 35.942170000125046 ], [ -76.324571991346957, 35.94427600001854 ], [ -76.330599991675641, 35.950078000229489 ], [ -76.345125991193925, 35.968889999373054 ], [ -76.350223991256811, 35.978059999973091 ], [ -76.354176990714834, 35.988130999490345 ], [ -76.358439991133949, 36.002688999968385 ], [ -76.358392991224264, 36.020019000032022 ], [ -76.349146991399394, 36.019072999863688 ], [ -76.333653991644255, 36.019871999961126 ], [ -76.283838991202629, 36.03136499944079 ], [ -76.229782991033588, 36.040664999533085 ], [ -76.209925991070605, 36.042026999683785 ], [ -76.181728991384531, 36.04900699977496 ], [ -76.163653991426287, 36.057565999973761 ], [ -76.156444991386337, 36.059933000219161 ], [ -76.125755990733253, 36.064905999401105 ], [ -76.202677990843952, 35.92329799997551 ], [ -76.179069990813773, 35.875158999762043 ], [ -76.158792990895506, 35.815260999586336 ], [ -76.195243991566301, 35.807817000160583 ], [ -76.200180990851493, 35.824099999547776 ], [ -76.204765991678514, 35.833512999986766 ], [ -76.338173991419481, 35.834404999912756 ] ] ] } },
{ "type": "Feature", "properties": { "county": "TYRRELL", "precinct": "3", "enr_desc": "Gumneck", "winner": "Joni Marie Liverman", "winner_votes": 19, "winner_share": 39.583333333333329, "runner_up": "Karen Page Clough", "runner_up_votes": 12, "runner_up_share": 25.0, "contest_votes": 48, "margin_of_victory": 14.583333333333329, "is_tie": false, "results": [ { "candidate": "Joni Marie Liverman", "votes": 19, "share": 39.58333333333333 }, { "candidate": "Karen Page Clough", "votes": 12, "share": 25.0 }, { "candidate": "Jana Liverman Rawls", "votes": 11, "share": 22.916666666666664 }, { "candidate": "Monica Liverman", "votes": 6, "share": 12.5 }, { "candidate": "Write-In (Miscellaneous)", "votes": 0, "share": 0.0 } ], "participated": true, "map_key": "TYRRELL_3" }, "geometry": { "type": "Polygon", "coordinates": [ [ [ -76.269315990993647, 35.690555999470284 ], [ -76.317052990787317, 35.693047999966559 ], [ -76.338173991419481, 35.834404999912756 ], [ -76.204765991678514, 35.833512999986766 ], [ -76.200180990851493, 35.824099999547776 ], [ -76.195243991566301, 35.807817000160583 ], [ -76.158792990895506, 35.815260999586336 ], [ -76.020572991086667, 35.84108499970413 ], [ -76.021662990870396, 35.831843000002316 ], [ -76.022389991233837, 35.810659999538352 ], [ -76.019275991127927, 35.752762999355227 ], [ -76.022077990650715, 35.740144999720094 ], [ -76.026297991633456, 35.72761199998839 ], [ -76.027414990923162, 35.71889399997179 ], [ -76.022572991178706, 35.699926999720482 ], [ -76.020501991422805, 35.687349999827958 ], [ -76.021398990952321, 35.682644999865154 ], [ -76.024428991347435, 35.675037999815807 ], [ -76.027863990807788, 35.668105999787933 ], [ -76.031588991317378, 35.663023999675772 ], [ -76.035563991115112, 35.661494999544615 ], [ -76.040308991584524, 35.662709999863566 ], [ -76.056975991025595, 35.674004999958569 ], [ -76.061094991738585, 35.67522199983113 ], [ -76.07339299137567, 35.671816999975064 ], [ -76.076519991094443, 35.672077999475242 ], [ -76.082293990732623, 35.67482400018018 ], [ -76.085370991350899, 35.674898000030929 ], [ -76.087394991689948, 35.674108000209188 ], [ -76.092626991521072, 35.669763999895487 ], [ -76.096681991098038, 35.66958099991944 ], [ -76.099706990719341, 35.671097000200753 ], [ -76.101951991503569, 35.676469999525054 ], [ -76.104097991589171, 35.678254999416517 ], [ -76.108186990829338, 35.67913199966334 ], [ -76.114614990696197, 35.677980999364678 ], [ -76.119609991300834, 35.679857000048862 ], [ -76.120635990876238, 35.681464999788936 ], [ -76.120669990913711, 35.683315999576095 ], [ -76.11787999130253, 35.690012999450062 ], [ -76.118267991523993, 35.691908000012646 ], [ -76.12268299087151, 35.693280999582846 ], [ -76.127933991214164, 35.69077499945935 ], [ -76.130071990923057, 35.690779000169698 ], [ -76.132395991205755, 35.69271100007829 ], [ -76.137044991719577, 35.699852999537562 ], [ -76.141554991407617, 35.702770000165856 ], [ -76.144262991452948, 35.702619000214547 ], [ -76.150022991465434, 35.699627999742233 ], [ -76.162783991258763, 35.695915999705448 ], [ -76.165259990898193, 35.696393999751912 ], [ -76.168554990693806, 35.698873999804427 ], [ -76.170206990934034, 35.702711999990861 ], [ -76.173042991136001, 35.703168999954549 ], [ -76.175202991267042, 35.700740999547037 ], [ -76.176213991200129, 35.700694999411191 ], [ -76.17705699070666, 35.701609999701304 ], [ -76.174559990897706, 35.703969999737929 ], [ -76.174447991206549, 35.705045999888668 ], [ -76.175262990801897, 35.705205999665154 ], [ -76.176692990909785, 35.703739999596429 ], [ -76.177564991081795, 35.705731999541051 ], [ -76.181158991713531, 35.70616500021206 ], [ -76.180710991396481, 35.707195999388837 ], [ -76.178240990959537, 35.707861000144149 ], [ -76.177764991276447, 35.70980799946912 ], [ -76.18121799084345, 35.709965999597458 ], [ -76.183578991037322, 35.712186000115864 ], [ -76.182821990823356, 35.713811999344912 ], [ -76.18610699146636, 35.713695999673881 ], [ -76.185658991302816, 35.715802999496518 ], [ -76.187204991217698, 35.716901000202576 ], [ -76.185520990940063, 35.718275999476077 ], [ -76.185746990653627, 35.719878999390886 ], [ -76.190321991584426, 35.717540999801223 ], [ -76.190043991248359, 35.720975999926139 ], [ -76.187629991107997, 35.721915999648779 ], [ -76.187967991724037, 35.722969000156837 ], [ -76.190326991100363, 35.723035999360953 ], [ -76.192599991455808, 35.721363999871109 ], [ -76.193582991117509, 35.721500000014139 ], [ -76.194257991300802, 35.722987999644971 ], [ -76.191591991441214, 35.724088999532206 ], [ -76.191367991561549, 35.72489099994813 ], [ -76.194624991310548, 35.724590999651745 ], [ -76.195353991165348, 35.723582999834001 ], [ -76.198105991238947, 35.723969999368933 ], [ -76.198387991598793, 35.72461099996071 ], [ -76.196029990784396, 35.725070999738797 ], [ -76.195777991602554, 35.72589499965806 ], [ -76.196677990900483, 35.727314999558807 ], [ -76.199485991133272, 35.727748000120052 ], [ -76.204035991139449, 35.727492999558343 ], [ -76.206196991424193, 35.726507000042503 ], [ -76.210606990676567, 35.727762999889102 ], [ -76.215154991497897, 35.72675200021321 ], [ -76.218948990720222, 35.728717999554277 ], [ -76.222127991165522, 35.733019999392383 ], [ -76.224767991685738, 35.733384000148043 ], [ -76.226591991386897, 35.7323069993639 ], [ -76.229428991451613, 35.7327849994006 ], [ -76.23091699071081, 35.73221099980244 ], [ -76.231446991162329, 35.729576999426399 ], [ -76.233017990746987, 35.728683000140464 ], [ -76.232931990715016, 35.727422999946278 ], [ -76.235149990975415, 35.727283999676224 ], [ -76.237191991370182, 35.721855000221431 ], [ -76.240330991679286, 35.717936000222771 ], [ -76.240045991353128, 35.715441000233056 ], [ -76.24186499148999, 35.711614999374852 ], [ -76.240956991683319, 35.704951999469188 ], [ -76.243702990911999, 35.701651999768075 ], [ -76.247180991084619, 35.699999999945369 ], [ -76.251417991613422, 35.700418999624915 ], [ -76.257540991341116, 35.698226000057858 ], [ -76.259479990891649, 35.696052999767147 ], [ -76.269315990993647, 35.690555999470284 ] ] ] } }
]
}
