{
"type": "FeatureCollection",
"name": "vance_county_board_of_education_district_02_dem",
"crs": { "type": "name", "properties": { "name": "urn:ogc:def:crs:OGC:1.3:CRS84" } },
"features": [
{ "type": "Feature", "properties": { "county": null, "precinct": null, "enr_desc": "Community College", "winner": null, "winner_votes": null, "winner_share": null, "runner_up": null, "runner_up_votes": null, "runner_up_share": null, "contest_votes": null, "margin_of_victory": null, "is_tie": false, "results": null, "participated": false, "map_key": null }, "geometry": { "type": "Polygon", "coordinates": [ [ [ -78.508941991502198, 36.240591999975834 ], [ -78.510452991184934, 36.382352999935335 ], [ -78.44622799075519, 36.384725000136605 ], [ -78.446142990832442, 36.375137999708322 ], [ -78.446390990577214, 36.373479999832483 ], [ -78.448737991176685, 36.370469000125048 ], [ -78.452114991057044, 36.36842300030299 ], [ -78.453848990721511, 36.364450000350615 ], [ -78.454581990679031, 36.355913999917739 ], [ -78.451968991390828, 36.352873000369172 ], [ -78.447000990996671, 36.340391999695335 ], [ -78.445252990650332, 36.338334000405958 ], [ -78.450739991631153, 36.321698000402385 ], [ -78.454921991610718, 36.320569999590425 ], [ -78.456569991438116, 36.318494000338106 ], [ -78.455676990836764, 36.309170000167661 ], [ -78.458129991245173, 36.303703999781249 ], [ -78.455855991042057, 36.303590999619637 ], [ -78.458213991397386, 36.296723000134456 ], [ -78.459861991022962, 36.294332000037429 ], [ -78.463226990746719, 36.292519999664513 ], [ -78.463910991227976, 36.291377000212009 ], [ -78.46441099145234, 36.286339999869014 ], [ -78.46577499121986, 36.284395999744781 ], [ -78.46967399166212, 36.282088000213314 ], [ -78.478962990657152, 36.257451000053273 ], [ -78.483309991054597, 36.25867499986812 ], [ -78.484170991219244, 36.257708000131636 ], [ -78.484020991142231, 36.256296000284756 ], [ -78.486529990760161, 36.255492999568666 ], [ -78.484337991125514, 36.254191999802927 ], [ -78.484396990673829, 36.251094999750826 ], [ -78.479791991386008, 36.248679999667353 ], [ -78.478774991049093, 36.246758000150272 ], [ -78.479120990950776, 36.245774999758069 ], [ -78.481769991355776, 36.246091999720932 ], [ -78.484488990648515, 36.244817000349116 ], [ -78.483321991590927, 36.242004999527488 ], [ -78.483027990808196, 36.237639000120545 ], [ -78.483507991106407, 36.233371000213459 ], [ -78.485165991634744, 36.230491999725302 ], [ -78.487465990661704, 36.230650999930326 ], [ -78.489167991151419, 36.231749000310487 ], [ -78.488618991406753, 36.23413199962517 ], [ -78.490009990775548, 36.235516999966428 ], [ -78.493907991292218, 36.234338999681668 ], [ -78.495216991684373, 36.235298999691999 ], [ -78.495709990802908, 36.233053999852373 ], [ -78.502161991012855, 36.238343000119798 ], [ -78.505971991518877, 36.239044000070571 ], [ -78.506017990916916, 36.241288999886905 ], [ -78.50793599090386, 36.241883999559455 ], [ -78.508941991502198, 36.240591999975834 ] ] ] } },
{ "type": "Feature", "properties": { "county": null, "precinct": null, "enr_desc": "Kittrell", "winner": null, "winner_votes": null, "winner_share": null, "runner_up": null, "runner_up_votes": null, "runner_up_share": null, "contest_votes": null, "margin_of_victory": null, "is_tie": false, "results": null, "participated": false, "map_key": null }, "geometry": { "type": "Polygon", "coordinates": [ [ [ -78.508941991502198, 36.240591999975834 ], [ -78.50793599090386, 36.241883999559455 ], [ -78.506017990916916, 36.241288999886905 ], [ -78.505971991518877, 36.239044000070571 ], [ -78.502161991012855, 36.238343000119798 ], [ -78.495709990802908, 36.233053999852373 ], [ -78.495216991684373, 36.235298999691999 ], [ -78.493907991292218, 36.234338999681668 ], [ -78.490009990775548, 36.235516999966428 ], [ -78.488618991406753, 36.23413199962517 ], [ -78.489167991151419, 36.231749000310487 ], [ -78.487465990661704, 36.230650999930326 ], [ -78.485165991634744, 36.230491999725302 ], [ -78.483507991106407, 36.233371000213459 ], [ -78.483027990808196, 36.237639000120545 ], [ -78.483321991590927, 36.242004999527488 ], [ -78.484488990648515, 36.244817000349116 ], [ -78.481769991355776, 36.246091999720932 ], [ -78.479120990950776, 36.245774999758069 ], [ -78.478774991049093, 36.246758000150272 ], [ -78.479791991386008, 36.248679999667353 ], [ -78.484396990673829, 36.251094999750826 ], [ -78.484337991125514, 36.254191999802927 ], [ -78.486529990760161, 36.255492999568666 ], [ -78.484020991142231, 36.256296000284756 ], [ -78.484170991219244, 36.257708000131636 ], [ -78.483309991054597, 36.25867499986812 ], [ -78.478962990657152, 36.257451000053273 ], [ -78.46967399166212, 36.282088000213314 ], [ -78.46577499121986, 36.284395999744781 ], [ -78.433917991495989, 36.281545999732089 ], [ -78.419294990706661, 36.277122000051115 ], [ -78.405070991202237, 36.277002999806847 ], [ -78.402114991414749, 36.276044999733173 ], [ -78.387580990635783, 36.274615000038054 ], [ -78.361090990649345, 36.265814999943068 ], [ -78.357977991629923, 36.259217999669247 ], [ -78.35789599061053, 36.256559000260957 ], [ -78.358756991413188, 36.254438999591123 ], [ -78.356067991148379, 36.248363000195354 ], [ -78.356295990862563, 36.24557899987154 ], [ -78.358580991077133, 36.243612000038851 ], [ -78.358776990730377, 36.242266000032693 ], [ -78.356707990668596, 36.234719000119213 ], [ -78.37813999146357, 36.235064999521057 ], [ -78.412094990788262, 36.169596999857056 ], [ -78.416552991242568, 36.169335999620458 ], [ -78.418128990910375, 36.167459000296404 ], [ -78.42200899157227, 36.168091000197784 ], [ -78.422227991263497, 36.165999999727006 ], [ -78.421336991489255, 36.164572000031875 ], [ -78.424930991299817, 36.163637000336024 ], [ -78.432504991603565, 36.164424999512136 ], [ -78.431316990760777, 36.166141999770396 ], [ -78.431816991382988, 36.166685999926237 ], [ -78.435926990657492, 36.166290000361819 ], [ -78.440761991223695, 36.167798999632282 ], [ -78.451480991681947, 36.168960999996649 ], [ -78.45401299112369, 36.167996999675488 ], [ -78.455420991021583, 36.165082999671817 ], [ -78.457655991118756, 36.163648000275934 ], [ -78.460415990755962, 36.165947999816979 ], [ -78.460685990753603, 36.1699649998544 ], [ -78.46606499161085, 36.172324999751091 ], [ -78.473962991237627, 36.172581999875909 ], [ -78.476206990670946, 36.173664999822186 ], [ -78.485607991342022, 36.175094000070565 ], [ -78.484529991275096, 36.179007999572832 ], [ -78.487580990728176, 36.179984999839519 ], [ -78.492349991269236, 36.183941999983787 ], [ -78.495734991327282, 36.180234999593189 ], [ -78.495459991605202, 36.175786000387859 ], [ -78.496183991585013, 36.175109000088213 ], [ -78.499299991016088, 36.175770000248384 ], [ -78.508331990826889, 36.182922999656562 ], [ -78.508941991502198, 36.240591999975834 ] ] ] } },
{ "type": "Feature", "properties": { "county": "VANCE", "precinct": "MIDD", "enr_desc": "Middleburg", "winner": "Randy Oxendine", "winner_votes": 242.0, "winner_share": 68.945868945868952, "runner_up": "William Earl Purvis", "runner_up_votes": 109.0, "runner_up_share": 31.054131054131055, "contest_votes": 351.0, "margin_of_victory": 37.891737891737897, "is_tie": false, "results": [ { "candidate": "Randy Oxendine", "votes": 242, "share": 68.94586894586895 }, { "candidate": "William Earl Purvis", "votes": 109, "share": 31.054131054131055 } ], "participated": true, "map_key": "VANCE_MIDD" }, "geometry": { "type": "Polygon", "coordinates": [ [ [ -78.400513991338016, 36.384746000402707 ], [ -78.40079099088176, 36.39037999992189 ], [ -78.399330990852519, 36.394179999939212 ], [ -78.399168990609994, 36.398882000198576 ], [ -78.392769991376497, 36.408507999915876 ], [ -78.390410990660484, 36.415804000291232 ], [ -78.384301990644914, 36.42697200019181 ], [ -78.378047990615173, 36.441981000096881 ], [ -78.375098991374884, 36.45168400004723 ], [ -78.374192991427577, 36.45271400017289 ], [ -78.371208991228045, 36.473310000378902 ], [ -78.365819990562642, 36.486652000170977 ], [ -78.34992499157002, 36.515917999621877 ], [ -78.323990990891417, 36.543822000227344 ], [ -78.287439991198099, 36.358356999900145 ], [ -78.297514991605212, 36.358087000237227 ], [ -78.306578991068676, 36.354056999657367 ], [ -78.325957990791025, 36.353324999892628 ], [ -78.334837991108202, 36.354494999821235 ], [ -78.343600991147639, 36.353071999989957 ], [ -78.348819991059131, 36.35360500025353 ], [ -78.350868991037402, 36.352958999687992 ], [ -78.348453990805879, 36.354499999787336 ], [ -78.348115991406686, 36.357124999735596 ], [ -78.349381991109937, 36.3605320003984 ], [ -78.350922990964008, 36.361384999818306 ], [ -78.344562990766477, 36.366911000143787 ], [ -78.343371990692788, 36.36967099953592 ], [ -78.34647099066288, 36.377922999682262 ], [ -78.346211991504816, 36.380827000361371 ], [ -78.3747809909312, 36.380345999620857 ], [ -78.400513991338016, 36.384746000402707 ] ] ] } },
{ "type": "Feature", "properties": { "county": "VANCE", "precinct": "NH", "enr_desc": "New Hope", "winner": "Randy Oxendine", "winner_votes": 0.0, "winner_share": null, "runner_up": "William Earl Purvis", "runner_up_votes": 0.0, "runner_up_share": null, "contest_votes": 0.0, "margin_of_victory": null, "is_tie": false, "results": [ { "candidate": "Randy Oxendine", "votes": 0, "share": "0" }, { "candidate": "William Earl Purvis", "votes": 0, "share": "0" } ], "participated": true, "map_key": "VANCE_NH" }, "geometry": { "type": "Polygon", "coordinates": [ [ [ -78.510452991184934, 36.382352999935335 ], [ -78.511223991035408, 36.454807999984467 ], [ -78.500928990692415, 36.486956999833822 ], [ -78.504060991347004, 36.488280999528961 ], [ -78.504186990561323, 36.489581999793543 ], [ -78.502344990837898, 36.491091000055846 ], [ -78.504477991281789, 36.491846000072464 ], [ -78.504202991614306, 36.495160999642899 ], [ -78.502314990889616, 36.498146999742026 ], [ -78.50055799058309, 36.49826999987026 ], [ -78.501534990978456, 36.501648000412544 ], [ -78.500222990628444, 36.504000999553071 ], [ -78.494856991475316, 36.508216000124996 ], [ -78.496886990632319, 36.508356999924601 ], [ -78.496180991365677, 36.510375999745243 ], [ -78.497728991144385, 36.514672999830815 ], [ -78.493796990949008, 36.51605299959845 ], [ -78.493324991636612, 36.51830699953949 ], [ -78.491349990547988, 36.51824099978932 ], [ -78.489956991321989, 36.517280000252754 ], [ -78.488787991345845, 36.51822599964774 ], [ -78.486256991326016, 36.518184999792041 ], [ -78.485468991565554, 36.516761000346484 ], [ -78.483767990638455, 36.516971000203796 ], [ -78.483476991254676, 36.518162000330506 ], [ -78.480243990797945, 36.517968000398724 ], [ -78.479831991116725, 36.51944700005555 ], [ -78.478624990682889, 36.519465999785751 ], [ -78.475458990689845, 36.522057000271104 ], [ -78.474129991027056, 36.522246000139582 ], [ -78.472906991572614, 36.521232000157454 ], [ -78.472482991021266, 36.522397000339929 ], [ -78.470500990696223, 36.522671000231149 ], [ -78.470090991201317, 36.523576999617944 ], [ -78.470821991023342, 36.524957999765597 ], [ -78.47020599085856, 36.525809999931624 ], [ -78.468289991379152, 36.523587000359271 ], [ -78.466348991330321, 36.524119999583604 ], [ -78.465199990688802, 36.525641999712271 ], [ -78.468628990852665, 36.525692000090757 ], [ -78.469312991087293, 36.526684999767816 ], [ -78.467077991308315, 36.53218099961483 ], [ -78.463996991609022, 36.533627999808161 ], [ -78.458856991582493, 36.53181300006905 ], [ -78.458598991107934, 36.533456999611751 ], [ -78.457388991037504, 36.533985000237855 ], [ -78.456011991625445, 36.533361999787843 ], [ -78.455339990699798, 36.534109000086616 ], [ -78.454909991096343, 36.535704999667736 ], [ -78.455995991346711, 36.538311999959802 ], [ -78.453390990649041, 36.540057999944615 ], [ -78.457301990580973, 36.541462999598352 ], [ -78.456912990583135, 36.542541000369468 ], [ -78.323990990891417, 36.543822000227344 ], [ -78.34992499157002, 36.515917999621877 ], [ -78.365819990562642, 36.486652000170977 ], [ -78.371208991228045, 36.473310000378902 ], [ -78.374192991427577, 36.45271400017289 ], [ -78.375098991374884, 36.45168400004723 ], [ -78.378047990615173, 36.441981000096881 ], [ -78.384301990644914, 36.42697200019181 ], [ -78.390410990660484, 36.415804000291232 ], [ -78.392769991376497, 36.408507999915876 ], [ -78.399168990609994, 36.398882000198576 ], [ -78.399330990852519, 36.394179999939212 ], [ -78.40079099088176, 36.39037999992189 ], [ -78.400513991338016, 36.384746000402707 ], [ -78.400571991491759, 36.382640999575898 ], [ -78.402128990995635, 36.381497000349725 ], [ -78.404719991027619, 36.375573000228698 ], [ -78.417396991247287, 36.375370000158355 ], [ -78.446142990832442, 36.375137999708322 ], [ -78.44622799075519, 36.384725000136605 ], [ -78.510452991184934, 36.382352999935335 ] ] ] } },
{ "type": "Feature", "properties": { "county": "VANCE", "precinct": "NV", "enr_desc": "Northern Vance", "winner": "Randy Oxendine", "winner_votes": 74.0, "winner_share": 80.434782608695656, "runner_up": "William Earl Purvis", "runner_up_votes": 18.0, "runner_up_share": 19.565217391304348, "contest_votes": 92.0, "margin_of_victory": 60.869565217391312, "is_tie": false, "results": [ { "candidate": "Randy Oxendine", "votes": 74, "share": 80.43478260869566 }, { "candidate": "William Earl Purvis", "votes": 18, "share": 19.565217391304348 } ], "participated": true, "map_key": "VANCE_NV" }, "geometry": { "type": "Polygon", "coordinates": [ [ [ -78.414133990564721, 36.34643200028448 ], [ -78.415484990787562, 36.348688999864898 ], [ -78.419513990860978, 36.352296000050615 ], [ -78.420350991220772, 36.354252000283317 ], [ -78.418748991118889, 36.363569999895525 ], [ -78.418967991375894, 36.370288000095542 ], [ -78.417396991247287, 36.375370000158355 ], [ -78.404719991027619, 36.375573000228698 ], [ -78.402128990995635, 36.381497000349725 ], [ -78.400571991491759, 36.382640999575898 ], [ -78.400513991338016, 36.384746000402707 ], [ -78.3747809909312, 36.380345999620857 ], [ -78.346211991504816, 36.380827000361371 ], [ -78.34647099066288, 36.377922999682262 ], [ -78.343371990692788, 36.36967099953592 ], [ -78.344562990766477, 36.366911000143787 ], [ -78.350922990964008, 36.361384999818306 ], [ -78.361725991118163, 36.351768999712291 ], [ -78.366349991153072, 36.349227000311565 ], [ -78.365686991140123, 36.341083000342806 ], [ -78.366267991091377, 36.334505999644001 ], [ -78.36793599070657, 36.321446999672652 ], [ -78.369329991337466, 36.316417999712954 ], [ -78.372435991050622, 36.316936999745067 ], [ -78.37192299057007, 36.318177999507142 ], [ -78.373588991116193, 36.319442999932221 ], [ -78.374416990731788, 36.317005999925335 ], [ -78.379320990645098, 36.316887000194477 ], [ -78.378806991608201, 36.317347000191567 ], [ -78.381300991548827, 36.318764000200318 ], [ -78.380575990798135, 36.321642999956069 ], [ -78.382662991113975, 36.320899000363688 ], [ -78.382930991666157, 36.319605999533088 ], [ -78.383568991630938, 36.320060999913707 ], [ -78.382726990605306, 36.321942999642609 ], [ -78.387343991200424, 36.323573000185654 ], [ -78.38621599128453, 36.32640299980217 ], [ -78.383860991134952, 36.325002000243053 ], [ -78.382771990979393, 36.331123000280563 ], [ -78.38728799099043, 36.330994000375014 ], [ -78.387324991113161, 36.333750999553843 ], [ -78.388715990663272, 36.333663999710126 ], [ -78.388671990750581, 36.335285999729187 ], [ -78.390773990992869, 36.33557799991874 ], [ -78.390710991548815, 36.336563000192427 ], [ -78.390011990996925, 36.336560000139841 ], [ -78.390137990606348, 36.339353000333034 ], [ -78.392699991484562, 36.340226000307347 ], [ -78.389021990728679, 36.346479000134885 ], [ -78.389428991594968, 36.347751999569134 ], [ -78.391214990908097, 36.347460000364329 ], [ -78.390670990776897, 36.348229999739836 ], [ -78.391721991301466, 36.349308999924041 ], [ -78.390758991249868, 36.350103999971964 ], [ -78.389982990971134, 36.349528999588074 ], [ -78.389257991600473, 36.350631000213035 ], [ -78.390034991137412, 36.351073999918512 ], [ -78.392405990714181, 36.348932999989877 ], [ -78.395558990909066, 36.348651999666259 ], [ -78.395799991020738, 36.346745000298206 ], [ -78.407966990766425, 36.341646999935072 ], [ -78.41182399164073, 36.34586299956905 ], [ -78.413396990697805, 36.346870999535462 ], [ -78.414133990564721, 36.34643200028448 ] ] ] } },
{ "type": "Feature", "properties": { "county": "VANCE", "precinct": "SCRK", "enr_desc": "Sandy Creek", "winner": "Randy Oxendine", "winner_votes": 63.0, "winner_share": 63.636363636363633, "runner_up": "William Earl Purvis", "runner_up_votes": 36.0, "runner_up_share": 36.363636363636367, "contest_votes": 99.0, "margin_of_victory": 27.272727272727266, "is_tie": false, "results": [ { "candidate": "Randy Oxendine", "votes": 63, "share": 63.63636363636363 }, { "candidate": "William Earl Purvis", "votes": 36, "share": 36.36363636363637 } ], "participated": true, "map_key": "VANCE_SCRK" }, "geometry": { "type": "Polygon", "coordinates": [ [ [ -78.387580990635783, 36.274615000038054 ], [ -78.378401990939466, 36.298270000224079 ], [ -78.379062990682456, 36.300241999989872 ], [ -78.374821991544323, 36.308011999656067 ], [ -78.370464991172341, 36.312857999926855 ], [ -78.369329991337466, 36.316417999712954 ], [ -78.36793599070657, 36.321446999672652 ], [ -78.366267991091377, 36.334505999644001 ], [ -78.365686991140123, 36.341083000342806 ], [ -78.366349991153072, 36.349227000311565 ], [ -78.361725991118163, 36.351768999712291 ], [ -78.350922990964008, 36.361384999818306 ], [ -78.349381991109937, 36.3605320003984 ], [ -78.348115991406686, 36.357124999735596 ], [ -78.348453990805879, 36.354499999787336 ], [ -78.350868991037402, 36.352958999687992 ], [ -78.348819991059131, 36.35360500025353 ], [ -78.343600991147639, 36.353071999989957 ], [ -78.334837991108202, 36.354494999821235 ], [ -78.325957990791025, 36.353324999892628 ], [ -78.306578991068676, 36.354056999657367 ], [ -78.297514991605212, 36.358087000237227 ], [ -78.287439991198099, 36.358356999900145 ], [ -78.277164990846273, 36.306131999721174 ], [ -78.290940991265259, 36.290262999956461 ], [ -78.292241990919734, 36.284982000223685 ], [ -78.302137990738728, 36.27470800020717 ], [ -78.304986991003929, 36.267923999706198 ], [ -78.308550991135846, 36.264925000082165 ], [ -78.314800990802567, 36.256171000225748 ], [ -78.332566990951264, 36.241677000049101 ], [ -78.338134991190614, 36.234447999920583 ], [ -78.356707990668596, 36.234719000119213 ], [ -78.358776990730377, 36.242266000032693 ], [ -78.358580991077133, 36.243612000038851 ], [ -78.356295990862563, 36.24557899987154 ], [ -78.356067991148379, 36.248363000195354 ], [ -78.358756991413188, 36.254438999591123 ], [ -78.35789599061053, 36.256559000260957 ], [ -78.357977991629923, 36.259217999669247 ], [ -78.361090990649345, 36.265814999943068 ], [ -78.387580990635783, 36.274615000038054 ] ] ] } },
{ "type": "Feature", "properties": { "county": null, "precinct": null, "enr_desc": "West Henderson", "winner": null, "winner_votes": null, "winner_share": null, "runner_up": null, "runner_up_votes": null, "runner_up_share": null, "contest_votes": null, "margin_of_victory": null, "is_tie": false, "results": null, "participated": false, "map_key": null }, "geometry": { "type": "Polygon", "coordinates": [ [ [ -78.446142990832442, 36.375137999708322 ], [ -78.417396991247287, 36.375370000158355 ], [ -78.418967991375894, 36.370288000095542 ], [ -78.418748991118889, 36.363569999895525 ], [ -78.420350991220772, 36.354252000283317 ], [ -78.419513990860978, 36.352296000050615 ], [ -78.415484990787562, 36.348688999864898 ], [ -78.414133990564721, 36.34643200028448 ], [ -78.420926991587095, 36.342597999662701 ], [ -78.419187991068199, 36.34060000021671 ], [ -78.420400990679113, 36.339486999641622 ], [ -78.416831991623113, 36.339453999594099 ], [ -78.416362990665675, 36.335140999511189 ], [ -78.41874599069304, 36.326814999758483 ], [ -78.415950991664928, 36.326647000285178 ], [ -78.416872991300181, 36.323837000248204 ], [ -78.416006990594738, 36.32373100032747 ], [ -78.414118991216853, 36.320669999682764 ], [ -78.415691991281463, 36.320001999797732 ], [ -78.414590990923841, 36.319144000277447 ], [ -78.419241991185785, 36.316641000118771 ], [ -78.432458991616031, 36.312049999859795 ], [ -78.438985991270243, 36.308036000170631 ], [ -78.442719990892542, 36.306769999708031 ], [ -78.449641990639051, 36.306479000161168 ], [ -78.455855991042057, 36.303590999619637 ], [ -78.458129991245173, 36.303703999781249 ], [ -78.455676990836764, 36.309170000167661 ], [ -78.456569991438116, 36.318494000338106 ], [ -78.454921991610718, 36.320569999590425 ], [ -78.450739991631153, 36.321698000402385 ], [ -78.445252990650332, 36.338334000405958 ], [ -78.447000990996671, 36.340391999695335 ], [ -78.451968991390828, 36.352873000369172 ], [ -78.454581990679031, 36.355913999917739 ], [ -78.453848990721511, 36.364450000350615 ], [ -78.452114991057044, 36.36842300030299 ], [ -78.448737991176685, 36.370469000125048 ], [ -78.446390990577214, 36.373479999832483 ], [ -78.446142990832442, 36.375137999708322 ] ] ] } },
{ "type": "Feature", "properties": { "county": "VANCE", "precinct": "CH", "enr_desc": "Central Henderson", "winner": "Randy Oxendine", "winner_votes": 72.0, "winner_share": 66.666666666666657, "runner_up": "William Earl Purvis", "runner_up_votes": 36.0, "runner_up_share": 33.333333333333329, "contest_votes": 108.0, "margin_of_victory": 33.333333333333329, "is_tie": false, "results": [ { "candidate": "Randy Oxendine", "votes": 72, "share": 66.66666666666666 }, { "candidate": "William Earl Purvis", "votes": 36, "share": 33.33333333333333 } ], "participated": true, "map_key": "VANCE_CH" }, "geometry": { "type": "Polygon", "coordinates": [ [ [ -78.379320990645098, 36.316887000194477 ], [ -78.383040990665478, 36.310102999979883 ], [ -78.384100991436028, 36.310249000168405 ], [ -78.387013991108716, 36.313673000144526 ], [ -78.386474991557833, 36.316042000118671 ], [ -78.391052991419556, 36.318917999915449 ], [ -78.391041991412365, 36.320489000186711 ], [ -78.395029991009295, 36.320098000081138 ], [ -78.400987991369689, 36.322381000021167 ], [ -78.404620991050194, 36.325911999649698 ], [ -78.411463990723078, 36.321745999528183 ], [ -78.415950991664928, 36.326647000285178 ], [ -78.41874599069304, 36.326814999758483 ], [ -78.416362990665675, 36.335140999511189 ], [ -78.416831991623113, 36.339453999594099 ], [ -78.420400990679113, 36.339486999641622 ], [ -78.419187991068199, 36.34060000021671 ], [ -78.420926991587095, 36.342597999662701 ], [ -78.414133990564721, 36.34643200028448 ], [ -78.413396990697805, 36.346870999535462 ], [ -78.41182399164073, 36.34586299956905 ], [ -78.407966990766425, 36.341646999935072 ], [ -78.395799991020738, 36.346745000298206 ], [ -78.395558990909066, 36.348651999666259 ], [ -78.392405990714181, 36.348932999989877 ], [ -78.390034991137412, 36.351073999918512 ], [ -78.389257991600473, 36.350631000213035 ], [ -78.389982990971134, 36.349528999588074 ], [ -78.390758991249868, 36.350103999971964 ], [ -78.391721991301466, 36.349308999924041 ], [ -78.390670990776897, 36.348229999739836 ], [ -78.391214990908097, 36.347460000364329 ], [ -78.389428991594968, 36.347751999569134 ], [ -78.389021990728679, 36.346479000134885 ], [ -78.392699991484562, 36.340226000307347 ], [ -78.390137990606348, 36.339353000333034 ], [ -78.390011990996925, 36.336560000139841 ], [ -78.390710991548815, 36.336563000192427 ], [ -78.390773990992869, 36.33557799991874 ], [ -78.388671990750581, 36.335285999729187 ], [ -78.388715990663272, 36.333663999710126 ], [ -78.387324991113161, 36.333750999553843 ], [ -78.38728799099043, 36.330994000375014 ], [ -78.382771990979393, 36.331123000280563 ], [ -78.383860991134952, 36.325002000243053 ], [ -78.38621599128453, 36.32640299980217 ], [ -78.387343991200424, 36.323573000185654 ], [ -78.382726990605306, 36.321942999642609 ], [ -78.383568991630938, 36.320060999913707 ], [ -78.382930991666157, 36.319605999533088 ], [ -78.382662991113975, 36.320899000363688 ], [ -78.380575990798135, 36.321642999956069 ], [ -78.381300991548827, 36.318764000200318 ], [ -78.378806991608201, 36.317347000191567 ], [ -78.379320990645098, 36.316887000194477 ] ] ] } },
{ "type": "Feature", "properties": { "county": "VANCE", "precinct": "SH", "enr_desc": "South Henderson", "winner": "Randy Oxendine", "winner_votes": 0.0, "winner_share": null, "runner_up": "William Earl Purvis", "runner_up_votes": 0.0, "runner_up_share": null, "contest_votes": 0.0, "margin_of_victory": null, "is_tie": false, "results": [ { "candidate": "Randy Oxendine", "votes": 0, "share": "0" }, { "candidate": "William Earl Purvis", "votes": 0, "share": "0" } ], "participated": true, "map_key": "VANCE_SH" }, "geometry": { "type": "Polygon", "coordinates": [ [ [ -78.379320990645098, 36.316887000194477 ], [ -78.374416990731788, 36.317005999925335 ], [ -78.373588991116193, 36.319442999932221 ], [ -78.37192299057007, 36.318177999507142 ], [ -78.372435991050622, 36.316936999745067 ], [ -78.369329991337466, 36.316417999712954 ], [ -78.370464991172341, 36.312857999926855 ], [ -78.374821991544323, 36.308011999656067 ], [ -78.379062990682456, 36.300241999989872 ], [ -78.378401990939466, 36.298270000224079 ], [ -78.387580990635783, 36.274615000038054 ], [ -78.402114991414749, 36.276044999733173 ], [ -78.405070991202237, 36.277002999806847 ], [ -78.419294990706661, 36.277122000051115 ], [ -78.433917991495989, 36.281545999732089 ], [ -78.46577499121986, 36.284395999744781 ], [ -78.46441099145234, 36.286339999869014 ], [ -78.463910991227976, 36.291377000212009 ], [ -78.463226990746719, 36.292519999664513 ], [ -78.459861991022962, 36.294332000037429 ], [ -78.458213991397386, 36.296723000134456 ], [ -78.455855991042057, 36.303590999619637 ], [ -78.449641990639051, 36.306479000161168 ], [ -78.442719990892542, 36.306769999708031 ], [ -78.438985991270243, 36.308036000170631 ], [ -78.432458991616031, 36.312049999859795 ], [ -78.419241991185785, 36.316641000118771 ], [ -78.414590990923841, 36.319144000277447 ], [ -78.415691991281463, 36.320001999797732 ], [ -78.414118991216853, 36.320669999682764 ], [ -78.416006990594738, 36.32373100032747 ], [ -78.416872991300181, 36.323837000248204 ], [ -78.415950991664928, 36.326647000285178 ], [ -78.411463990723078, 36.321745999528183 ], [ -78.404620991050194, 36.325911999649698 ], [ -78.400987991369689, 36.322381000021167 ], [ -78.395029991009295, 36.320098000081138 ], [ -78.391041991412365, 36.320489000186711 ], [ -78.391052991419556, 36.318917999915449 ], [ -78.386474991557833, 36.316042000118671 ], [ -78.387013991108716, 36.313673000144526 ], [ -78.384100991436028, 36.310249000168405 ], [ -78.383040990665478, 36.310102999979883 ], [ -78.379320990645098, 36.316887000194477 ] ] ] } }
]
}
