{
"type": "FeatureCollection",
"name": "warren_county_board_of_commissioners_district_02_dem",
"crs": { "type": "name", "properties": { "name": "urn:ogc:def:crs:OGC:1.3:CRS84" } },
"features": [
{ "type": "Feature", "properties": { "county": "WARREN", "precinct": "7", "enr_desc": "Shocco", "winner": "R. Lorenzo Wilkins", "winner_votes": 143, "winner_share": 89.375, "runner_up": "Douglass Gross", "runner_up_votes": 17, "runner_up_share": 10.625, "contest_votes": 160, "margin_of_victory": 78.75, "is_tie": false, "results": [ { "candidate": "R. Lorenzo Wilkins", "votes": 143, "share": 89.375 }, { "candidate": "Douglass Gross", "votes": 17, "share": 10.625 } ], "participated": true, "map_key": "WARREN_7" }, "geometry": { "type": "Polygon", "coordinates": [ [ [ -78.224563991403059, 36.349009000286308 ], [ -78.213188991134444, 36.34935400036882 ], [ -78.212907991106718, 36.351648000099395 ], [ -78.208366991382448, 36.353926999677626 ], [ -78.196865991054139, 36.352829999527373 ], [ -78.194212991029104, 36.354570999655046 ], [ -78.190154991195996, 36.354549000082322 ], [ -78.187110991170172, 36.354350999750935 ], [ -78.185039990733145, 36.356129999604491 ], [ -78.181489990946474, 36.353620000037409 ], [ -78.178916991167711, 36.354097999831872 ], [ -78.174706990658692, 36.353410999691334 ], [ -78.172948991526312, 36.355128999802403 ], [ -78.167333991051478, 36.355568000141822 ], [ -78.164788990842865, 36.356626999549739 ], [ -78.16038999103057, 36.355274999778374 ], [ -78.160784990573887, 36.352485000135751 ], [ -78.158211991367054, 36.351935000159223 ], [ -78.155474990778316, 36.35334599971744 ], [ -78.154578990711968, 36.355503999844046 ], [ -78.152730991636432, 36.356223000293745 ], [ -78.152859991456268, 36.357376000380455 ], [ -78.151772991213534, 36.358001000071795 ], [ -78.14952899092934, 36.358548000101671 ], [ -78.14915999156193, 36.356846999527633 ], [ -78.144576990791919, 36.357476999639772 ], [ -78.142459991439381, 36.355807000358318 ], [ -78.138692990564692, 36.355024999888165 ], [ -78.138102991327699, 36.353707000105565 ], [ -78.13952899115138, 36.353126000278472 ], [ -78.139964991593004, 36.351000999584301 ], [ -78.13729099117289, 36.350405999796891 ], [ -78.13616499161877, 36.348347000023118 ], [ -78.133112990933967, 36.345763999744449 ], [ -78.132970990677094, 36.344374999506826 ], [ -78.130976991165838, 36.342758999806769 ], [ -78.133827990665949, 36.341404000229751 ], [ -78.132017991439994, 36.339712000315195 ], [ -78.131787991464549, 36.337965999525679 ], [ -78.131156991593372, 36.337585999874008 ], [ -78.127964990917121, 36.33925399960156 ], [ -78.127233991084921, 36.338682999743426 ], [ -78.127912991100615, 36.33795299998242 ], [ -78.127139991168193, 36.335992000157383 ], [ -78.125473991244732, 36.337202999778171 ], [ -78.125401991296911, 36.283771999901766 ], [ -78.127820991217675, 36.281406999989123 ], [ -78.128258990626406, 36.27449400005581 ], [ -78.132276990814233, 36.268816999815954 ], [ -78.138541991131135, 36.264269999978133 ], [ -78.151015991453036, 36.259173999674225 ], [ -78.156602991094289, 36.259739000099259 ], [ -78.15809599072837, 36.251486999847295 ], [ -78.162139991623008, 36.247927999944174 ], [ -78.167920991072805, 36.252555999997611 ], [ -78.171524991610895, 36.253928000125931 ], [ -78.173171991464656, 36.255492000193598 ], [ -78.176497991511866, 36.253152999979179 ], [ -78.178368990681548, 36.2523629999733 ], [ -78.179522991430801, 36.25289999976409 ], [ -78.180915991432713, 36.251425999551294 ], [ -78.182961991085406, 36.251107000248759 ], [ -78.188941991156142, 36.24772399972985 ], [ -78.193921990993914, 36.246773000027453 ], [ -78.197666991544637, 36.24939699958648 ], [ -78.198795990941946, 36.251692000038133 ], [ -78.200655990973644, 36.250731000305976 ], [ -78.210338991219231, 36.252552000150281 ], [ -78.215728991487381, 36.251899999619134 ], [ -78.218910991544604, 36.25426200031297 ], [ -78.22478899123827, 36.256546999934493 ], [ -78.230257990921686, 36.255934999771881 ], [ -78.231954990955728, 36.257455999833525 ], [ -78.235704991154535, 36.258281000274302 ], [ -78.240425991350349, 36.257818999640328 ], [ -78.247193991605002, 36.258922000274602 ], [ -78.241787991135766, 36.264759000381723 ], [ -78.238486991461386, 36.270345999613063 ], [ -78.236536990677834, 36.268298000251633 ], [ -78.224813990875518, 36.275509999592373 ], [ -78.219989990674136, 36.279053000229595 ], [ -78.218860990968906, 36.28162600021686 ], [ -78.21551799130944, 36.284993999694024 ], [ -78.21802599094805, 36.293028999882125 ], [ -78.217349990907593, 36.297132999825031 ], [ -78.217775991217152, 36.304142999844707 ], [ -78.220548990592235, 36.30655299949526 ], [ -78.219445991027285, 36.312276999713113 ], [ -78.213204991310732, 36.327242999968114 ], [ -78.213574990917465, 36.333246999496787 ], [ -78.21607999112085, 36.33887699977808 ], [ -78.221272990593448, 36.343390000245535 ], [ -78.224563991403059, 36.349009000286308 ] ] ] } },
{ "type": "Feature", "properties": { "county": "WARREN", "precinct": "1", "enr_desc": "River", "winner": "R. Lorenzo Wilkins", "winner_votes": 130, "winner_share": 78.787878787878782, "runner_up": "Douglass Gross", "runner_up_votes": 35, "runner_up_share": 21.212121212121211, "contest_votes": 165, "margin_of_victory": 57.575757575757571, "is_tie": false, "results": [ { "candidate": "R. Lorenzo Wilkins", "votes": 130, "share": 78.78787878787878 }, { "candidate": "Douglass Gross", "votes": 35, "share": 21.21212121212121 } ], "participated": true, "map_key": "WARREN_1" }, "geometry": { "type": "Polygon", "coordinates": [ [ [ -77.979235991136889, 36.517356999967888 ], [ -77.972894991282587, 36.518421000006555 ], [ -77.954849990725378, 36.518097999795835 ], [ -77.925673990762263, 36.513226999861736 ], [ -77.922549990753694, 36.51212100023249 ], [ -77.91726199088744, 36.508271999845498 ], [ -77.909811990919195, 36.506237999839051 ], [ -77.904072990680774, 36.506201000323863 ], [ -77.899595990694337, 36.507715999714172 ], [ -77.899522990898149, 36.504202000125744 ], [ -77.905551990590808, 36.490946999706892 ], [ -77.909244990746174, 36.47393699948995 ], [ -77.91179499138579, 36.442806999615001 ], [ -77.916226991299453, 36.441460000289183 ], [ -77.91912899079405, 36.438752000054606 ], [ -77.920103990571931, 36.436050999903131 ], [ -77.919207990873218, 36.431529999639665 ], [ -77.926675991500716, 36.430686000317358 ], [ -77.946230991591364, 36.432765999488907 ], [ -77.969609990584232, 36.429692999730513 ], [ -77.972579991173561, 36.428587999648208 ], [ -77.983248991518764, 36.421105000041969 ], [ -77.988008990817974, 36.420371000178413 ], [ -77.997498991185651, 36.421777999629128 ], [ -78.002008991412239, 36.425807000052387 ], [ -78.013371990722973, 36.43048499976485 ], [ -78.031948990957829, 36.429743999688611 ], [ -78.028068990704767, 36.430308000067846 ], [ -78.02882799084837, 36.434121999981635 ], [ -78.027667990959657, 36.442096999742837 ], [ -78.022128991639889, 36.455203000147051 ], [ -78.023511991495866, 36.459349000040618 ], [ -78.023986991388625, 36.464046999644111 ], [ -78.01914199080781, 36.470821999811221 ], [ -78.011230990717152, 36.479678000150862 ], [ -78.010082990665239, 36.489114000055402 ], [ -78.008483990661318, 36.492528000088505 ], [ -78.004773990933572, 36.49588400011023 ], [ -78.002141990704516, 36.500146999937272 ], [ -77.986219991291378, 36.508724000245849 ], [ -77.979235991136889, 36.517356999967888 ] ] ] } },
{ "type": "Feature", "properties": { "county": "WARREN", "precinct": "2", "enr_desc": "Sixpound", "winner": "R. Lorenzo Wilkins", "winner_votes": 105, "winner_share": 77.205882352941174, "runner_up": "Douglass Gross", "runner_up_votes": 31, "runner_up_share": 22.794117647058822, "contest_votes": 136, "margin_of_victory": 54.411764705882348, "is_tie": false, "results": [ { "candidate": "R. Lorenzo Wilkins", "votes": 105, "share": 77.20588235294117 }, { "candidate": "Douglass Gross", "votes": 31, "share": 22.794117647058822 } ], "participated": true, "map_key": "WARREN_2" }, "geometry": { "type": "Polygon", "coordinates": [ [ [ -78.106709991633991, 36.436054000150804 ], [ -78.107169991564177, 36.441096999715334 ], [ -78.106313991156156, 36.445671999862917 ], [ -78.104754990784869, 36.450053999933644 ], [ -78.100420990793722, 36.454384999856877 ], [ -78.100261991611788, 36.460175000166963 ], [ -78.097057991165983, 36.466844000081416 ], [ -78.097873990630291, 36.468809999539268 ], [ -78.103277991186346, 36.473410999866843 ], [ -78.105684991307157, 36.482349999875147 ], [ -78.101493990552001, 36.490390999556674 ], [ -78.100377990556112, 36.497698999836004 ], [ -78.09675099097305, 36.500150999945369 ], [ -78.097476991414311, 36.500147999648782 ], [ -78.094907991037033, 36.504464999945874 ], [ -78.093738991615325, 36.514700000150135 ], [ -78.095384990677417, 36.519997000244544 ], [ -78.095220991325704, 36.5249949997282 ], [ -78.100154991510763, 36.531557000053027 ], [ -78.105797991466446, 36.533573999507944 ], [ -78.105344991021369, 36.543679999904505 ], [ -78.046461990579417, 36.543550999975928 ], [ -78.047737990995856, 36.536951000326987 ], [ -78.045499991178971, 36.532922000055692 ], [ -78.042750991539336, 36.531465999685899 ], [ -78.039163991063674, 36.530972999984598 ], [ -78.035763991367688, 36.531553999743466 ], [ -78.021833990856891, 36.53897800016734 ], [ -78.017604991533958, 36.539638000307789 ], [ -78.01313899092645, 36.539236999905349 ], [ -78.008566990981251, 36.537285999597167 ], [ -78.00654699059865, 36.535298999477966 ], [ -78.00445399062464, 36.526135999918893 ], [ -77.999713990893483, 36.52010199957995 ], [ -77.994212990837909, 36.517688000281538 ], [ -77.990062991581325, 36.517052000303472 ], [ -77.979235991136889, 36.517356999967888 ], [ -77.986219991291378, 36.508724000245849 ], [ -78.002141990704516, 36.500146999937272 ], [ -78.004773990933572, 36.49588400011023 ], [ -78.008483990661318, 36.492528000088505 ], [ -78.010082990665239, 36.489114000055402 ], [ -78.011230990717152, 36.479678000150862 ], [ -78.01914199080781, 36.470821999811221 ], [ -78.023986991388625, 36.464046999644111 ], [ -78.023511991495866, 36.459349000040618 ], [ -78.022128991639889, 36.455203000147051 ], [ -78.027667990959657, 36.442096999742837 ], [ -78.02882799084837, 36.434121999981635 ], [ -78.028068990704767, 36.430308000067846 ], [ -78.031948990957829, 36.429743999688611 ], [ -78.031936990819474, 36.427125000156863 ], [ -78.031167991189648, 36.426594999787142 ], [ -78.042255991647366, 36.425968999568212 ], [ -78.04903999067416, 36.423804999783691 ], [ -78.066375990909094, 36.426831999575327 ], [ -78.096181990726393, 36.423582999831368 ], [ -78.095356990643936, 36.42921899987487 ], [ -78.091654991436855, 36.43503899961555 ], [ -78.093988991308606, 36.433511999791705 ], [ -78.10195699143722, 36.435860999786783 ], [ -78.106709991633991, 36.436054000150804 ] ] ] } },
{ "type": "Feature", "properties": { "county": "WARREN", "precinct": "3", "enr_desc": "Hawtree", "winner": "R. Lorenzo Wilkins", "winner_votes": 187, "winner_share": 91.666666666666657, "runner_up": "Douglass Gross", "runner_up_votes": 17, "runner_up_share": 8.3333333333333321, "contest_votes": 204, "margin_of_victory": 83.333333333333329, "is_tie": false, "results": [ { "candidate": "R. Lorenzo Wilkins", "votes": 187, "share": 91.66666666666666 }, { "candidate": "Douglass Gross", "votes": 17, "share": 8.333333333333332 } ], "participated": true, "map_key": "WARREN_3" }, "geometry": { "type": "Polygon", "coordinates": [ [ [ -78.189519990744259, 36.437814999758174 ], [ -78.184989990664491, 36.437858999946158 ], [ -78.185903991566278, 36.452026999738067 ], [ -78.176183991418114, 36.460939000226041 ], [ -78.178065990573216, 36.46365699984046 ], [ -78.180718991372515, 36.464827000149292 ], [ -78.182638990748529, 36.467760999494921 ], [ -78.18378699159895, 36.470954000236453 ], [ -78.184663990577505, 36.479969000057103 ], [ -78.187467991110921, 36.484201999910937 ], [ -78.190215991433107, 36.485506999616895 ], [ -78.19173899121715, 36.489935999750344 ], [ -78.190805990647576, 36.492864000243223 ], [ -78.193417991331842, 36.495734999969471 ], [ -78.193644990688227, 36.499098000108233 ], [ -78.195634991233234, 36.502803999773249 ], [ -78.194473991459233, 36.504726000276143 ], [ -78.196315990692199, 36.506212999516855 ], [ -78.198837991339261, 36.506418999641326 ], [ -78.201889990588555, 36.511208999751517 ], [ -78.202654991440923, 36.518455999826969 ], [ -78.204282991119655, 36.522609000379937 ], [ -78.202043991636131, 36.525141999999462 ], [ -78.202497991164321, 36.52797199951987 ], [ -78.199806991422292, 36.53642200005168 ], [ -78.200487990818459, 36.53796200037273 ], [ -78.198350990753752, 36.539961999933006 ], [ -78.198339991421335, 36.544314999902291 ], [ -78.105344991021369, 36.543679999904505 ], [ -78.105797991466446, 36.533573999507944 ], [ -78.100154991510763, 36.531557000053027 ], [ -78.095220991325704, 36.5249949997282 ], [ -78.095384990677417, 36.519997000244544 ], [ -78.093738991615325, 36.514700000150135 ], [ -78.094907991037033, 36.504464999945874 ], [ -78.097476991414311, 36.500147999648782 ], [ -78.09675099097305, 36.500150999945369 ], [ -78.100377990556112, 36.497698999836004 ], [ -78.101493990552001, 36.490390999556674 ], [ -78.105684991307157, 36.482349999875147 ], [ -78.103277991186346, 36.473410999866843 ], [ -78.097873990630291, 36.468809999539268 ], [ -78.097057991165983, 36.466844000081416 ], [ -78.100261991611788, 36.460175000166963 ], [ -78.100420990793722, 36.454384999856877 ], [ -78.104754990784869, 36.450053999933644 ], [ -78.106313991156156, 36.445671999862917 ], [ -78.107169991564177, 36.441096999715334 ], [ -78.106709991633991, 36.436054000150804 ], [ -78.128666991642291, 36.434826999802887 ], [ -78.146855991167641, 36.43739799951458 ], [ -78.157956990545387, 36.435770000262124 ], [ -78.169351991419305, 36.433893999566372 ], [ -78.180822990699454, 36.433910999558286 ], [ -78.184233990913896, 36.434683999955318 ], [ -78.189519990744259, 36.437814999758174 ] ] ] } },
{ "type": "Feature", "properties": { "county": "WARREN", "precinct": "4", "enr_desc": "Smith Creek", "winner": "R. Lorenzo Wilkins", "winner_votes": 159, "winner_share": 86.41304347826086, "runner_up": "Douglass Gross", "runner_up_votes": 25, "runner_up_share": 13.586956521739129, "contest_votes": 184, "margin_of_victory": 72.826086956521735, "is_tie": false, "results": [ { "candidate": "R. Lorenzo Wilkins", "votes": 159, "share": 86.41304347826086 }, { "candidate": "Douglass Gross", "votes": 25, "share": 13.586956521739129 } ], "participated": true, "map_key": "WARREN_4" }, "geometry": { "type": "Polygon", "coordinates": [ [ [ -78.239786990838596, 36.433815999834962 ], [ -78.243507991352871, 36.431904999674565 ], [ -78.246685990899621, 36.448452999670131 ], [ -78.247203991399743, 36.458377000375222 ], [ -78.250281991338298, 36.462997999716336 ], [ -78.250915991374185, 36.489628000303313 ], [ -78.250083990544539, 36.489628000183913 ], [ -78.250051990903472, 36.496955000213141 ], [ -78.257439990931886, 36.512215999542754 ], [ -78.256010991161531, 36.513931000097507 ], [ -78.255916990975365, 36.516298000046504 ], [ -78.261755991651029, 36.5212669995745 ], [ -78.273069990829214, 36.532967999808477 ], [ -78.276183991515722, 36.534950000378466 ], [ -78.264316990656653, 36.544325000108422 ], [ -78.198339991421335, 36.544314999902291 ], [ -78.198350990753752, 36.539961999933006 ], [ -78.200487990818459, 36.53796200037273 ], [ -78.199806991422292, 36.53642200005168 ], [ -78.202497991164321, 36.52797199951987 ], [ -78.202043991636131, 36.525141999999462 ], [ -78.204282991119655, 36.522609000379937 ], [ -78.202654991440923, 36.518455999826969 ], [ -78.201889990588555, 36.511208999751517 ], [ -78.198837991339261, 36.506418999641326 ], [ -78.196315990692199, 36.506212999516855 ], [ -78.194473991459233, 36.504726000276143 ], [ -78.195634991233234, 36.502803999773249 ], [ -78.193644990688227, 36.499098000108233 ], [ -78.193417991331842, 36.495734999969471 ], [ -78.190805990647576, 36.492864000243223 ], [ -78.19173899121715, 36.489935999750344 ], [ -78.190215991433107, 36.485506999616895 ], [ -78.187467991110921, 36.484201999910937 ], [ -78.184663990577505, 36.479969000057103 ], [ -78.18378699159895, 36.470954000236453 ], [ -78.182638990748529, 36.467760999494921 ], [ -78.180718991372515, 36.464827000149292 ], [ -78.178065990573216, 36.46365699984046 ], [ -78.176183991418114, 36.460939000226041 ], [ -78.185903991566278, 36.452026999738067 ], [ -78.186868990818638, 36.452701999546647 ], [ -78.205216990751666, 36.452461999647312 ], [ -78.20480699101104, 36.444163999808644 ], [ -78.235124991570586, 36.436470000116245 ], [ -78.239786990838596, 36.433815999834962 ] ] ] } },
{ "type": "Feature", "properties": { "county": "WARREN", "precinct": "5", "enr_desc": "Nutbush", "winner": "R. Lorenzo Wilkins", "winner_votes": 250, "winner_share": 92.592592592592595, "runner_up": "Douglass Gross", "runner_up_votes": 20, "runner_up_share": 7.4074074074074066, "contest_votes": 270, "margin_of_victory": 85.18518518518519, "is_tie": false, "results": [ { "candidate": "R. Lorenzo Wilkins", "votes": 250, "share": 92.5925925925926 }, { "candidate": "Douglass Gross", "votes": 20, "share": 7.4074074074074066 } ], "participated": true, "map_key": "WARREN_5" }, "geometry": { "type": "Polygon", "coordinates": [ [ [ -78.264316990656653, 36.544325000108422 ], [ -78.276183991515722, 36.534950000378466 ], [ -78.273069990829214, 36.532967999808477 ], [ -78.261755991651029, 36.5212669995745 ], [ -78.255916990975365, 36.516298000046504 ], [ -78.256010991161531, 36.513931000097507 ], [ -78.257439990931886, 36.512215999542754 ], [ -78.250051990903472, 36.496955000213141 ], [ -78.250083990544539, 36.489628000183913 ], [ -78.250915991374185, 36.489628000303313 ], [ -78.250281991338298, 36.462997999716336 ], [ -78.247203991399743, 36.458377000375222 ], [ -78.246685990899621, 36.448452999670131 ], [ -78.243507991352871, 36.431904999674565 ], [ -78.239786990838596, 36.433815999834962 ], [ -78.239953990785494, 36.432241999588321 ], [ -78.237401991610682, 36.424541000073326 ], [ -78.23372699156684, 36.41797099985321 ], [ -78.231585990556297, 36.415663999690381 ], [ -78.230598991139786, 36.412544999495729 ], [ -78.232010991606771, 36.40393700029577 ], [ -78.235634990912729, 36.400143999662902 ], [ -78.23972799057826, 36.401248000040617 ], [ -78.24768199159297, 36.399124999868718 ], [ -78.249802991573119, 36.399937999591174 ], [ -78.251447991354084, 36.398867999812865 ], [ -78.252414990780721, 36.396962999861763 ], [ -78.254234990726943, 36.396556999715294 ], [ -78.25872399107817, 36.39906900017661 ], [ -78.261923990847137, 36.397762999913219 ], [ -78.264986991080931, 36.398796999869674 ], [ -78.269028991329463, 36.398671999545272 ], [ -78.271910991405989, 36.39582299992091 ], [ -78.274477990900721, 36.395784999654232 ], [ -78.274623991641576, 36.394823999607411 ], [ -78.276625991552706, 36.394160999962651 ], [ -78.278031990721885, 36.394259999499916 ], [ -78.279348990945465, 36.396193000086271 ], [ -78.281908991105453, 36.397342000097566 ], [ -78.287235990866321, 36.394865999997265 ], [ -78.289864991269923, 36.394948999889714 ], [ -78.291188991146214, 36.396656999895832 ], [ -78.294796991177378, 36.395783000071624 ], [ -78.323990990891417, 36.543822000227344 ], [ -78.264316990656653, 36.544325000108422 ] ] ] } },
{ "type": "Feature", "properties": { "county": "WARREN", "precinct": "6", "enr_desc": "Sandy Creek", "winner": "R. Lorenzo Wilkins", "winner_votes": 231, "winner_share": 93.522267206477736, "runner_up": "Douglass Gross", "runner_up_votes": 16, "runner_up_share": 6.4777327935222671, "contest_votes": 247, "margin_of_victory": 87.044534412955471, "is_tie": false, "results": [ { "candidate": "R. Lorenzo Wilkins", "votes": 231, "share": 93.52226720647774 }, { "candidate": "Douglass Gross", "votes": 16, "share": 6.477732793522267 } ], "participated": true, "map_key": "WARREN_6" }, "geometry": { "type": "Polygon", "coordinates": [ [ [ -78.247193991605002, 36.258922000274602 ], [ -78.306964991064575, 36.26619099956541 ], [ -78.304830991553757, 36.26816700019809 ], [ -78.302137990738728, 36.27470800020717 ], [ -78.292241990919734, 36.284982000223685 ], [ -78.290940991265259, 36.290262999956461 ], [ -78.277164990846273, 36.306131999721174 ], [ -78.294796991177378, 36.395783000071624 ], [ -78.291188991146214, 36.396656999895832 ], [ -78.289864991269923, 36.394948999889714 ], [ -78.287235990866321, 36.394865999997265 ], [ -78.281908991105453, 36.397342000097566 ], [ -78.279348990945465, 36.396193000086271 ], [ -78.278031990721885, 36.394259999499916 ], [ -78.276625991552706, 36.394160999962651 ], [ -78.274623991641576, 36.394823999607411 ], [ -78.274477990900721, 36.395784999654232 ], [ -78.271910991405989, 36.39582299992091 ], [ -78.269028991329463, 36.398671999545272 ], [ -78.264986991080931, 36.398796999869674 ], [ -78.261923990847137, 36.397762999913219 ], [ -78.25872399107817, 36.39906900017661 ], [ -78.254234990726943, 36.396556999715294 ], [ -78.252414990780721, 36.396962999861763 ], [ -78.251447991354084, 36.398867999812865 ], [ -78.249802991573119, 36.399937999591174 ], [ -78.24768199159297, 36.399124999868718 ], [ -78.23972799057826, 36.401248000040617 ], [ -78.235634990912729, 36.400143999662902 ], [ -78.235085991357977, 36.389459999978058 ], [ -78.236479990834894, 36.385858999887994 ], [ -78.236219990677853, 36.376073000291385 ], [ -78.234644990695031, 36.372311000043169 ], [ -78.233263991467666, 36.370920999563957 ], [ -78.224563991403059, 36.349009000286308 ], [ -78.221272990593448, 36.343390000245535 ], [ -78.21607999112085, 36.33887699977808 ], [ -78.213574990917465, 36.333246999496787 ], [ -78.213204991310732, 36.327242999968114 ], [ -78.219445991027285, 36.312276999713113 ], [ -78.220548990592235, 36.30655299949526 ], [ -78.217775991217152, 36.304142999844707 ], [ -78.217349990907593, 36.297132999825031 ], [ -78.21802599094805, 36.293028999882125 ], [ -78.21551799130944, 36.284993999694024 ], [ -78.218860990968906, 36.28162600021686 ], [ -78.219989990674136, 36.279053000229595 ], [ -78.224813990875518, 36.275509999592373 ], [ -78.236536990677834, 36.268298000251633 ], [ -78.238486991461386, 36.270345999613063 ], [ -78.241787991135766, 36.264759000381723 ], [ -78.247193991605002, 36.258922000274602 ] ] ] } },
{ "type": "Feature", "properties": { "county": "WARREN", "precinct": "8", "enr_desc": "Fishing Creek", "winner": "R. Lorenzo Wilkins", "winner_votes": 292, "winner_share": 93.890675241157567, "runner_up": "Douglass Gross", "runner_up_votes": 19, "runner_up_share": 6.109324758842444, "contest_votes": 311, "margin_of_victory": 87.781350482315119, "is_tie": false, "results": [ { "candidate": "R. Lorenzo Wilkins", "votes": 292, "share": 93.89067524115757 }, { "candidate": "Douglass Gross", "votes": 19, "share": 6.109324758842444 } ], "participated": true, "map_key": "WARREN_8" }, "geometry": { "type": "Polygon", "coordinates": [ [ [ -78.014471990961013, 36.207216999606352 ], [ -78.013071991519965, 36.209142000025345 ], [ -78.013693991252225, 36.210938000048941 ], [ -78.017747991421871, 36.209237999777137 ], [ -78.01855299057037, 36.210292000353441 ], [ -78.012613990974017, 36.215106000153718 ], [ -78.015757991167675, 36.216233000080791 ], [ -78.017919990607723, 36.214997999542852 ], [ -78.018004991495985, 36.220670999716475 ], [ -78.019888991187074, 36.22170900029964 ], [ -78.020935991347173, 36.224712999691221 ], [ -78.021994990939717, 36.224367999716719 ], [ -78.022432991024942, 36.225778999639367 ], [ -78.023625990792922, 36.225389999705243 ], [ -78.024702991362958, 36.226829000349923 ], [ -78.025800991347168, 36.226829000372476 ], [ -78.026762990578248, 36.22880599959425 ], [ -78.025473990722247, 36.229580000073923 ], [ -78.025553991514045, 36.232002000035401 ], [ -78.02359999080501, 36.235196999740253 ], [ -78.027089990601183, 36.237515000142658 ], [ -78.02666199104857, 36.240063000071224 ], [ -78.028138991207641, 36.240360000249964 ], [ -78.028184990973372, 36.242765999512699 ], [ -78.027553990704803, 36.243714999479025 ], [ -78.02667999122859, 36.24305599998646 ], [ -78.025493991099395, 36.243506000262201 ], [ -78.024446990629997, 36.247513999970472 ], [ -78.027082990727536, 36.250565999574746 ], [ -78.025082990951901, 36.251509999774505 ], [ -78.02481699071771, 36.253299999643595 ], [ -78.023032990743246, 36.255973999668825 ], [ -78.023758991526307, 36.256643999831837 ], [ -78.021316990941187, 36.257356999916688 ], [ -78.021227991384265, 36.260651000123133 ], [ -78.025259991503191, 36.264227999501259 ], [ -78.025237991491124, 36.267072000262793 ], [ -78.024234991388937, 36.266253000254629 ], [ -78.023149991134275, 36.26670300011979 ], [ -78.023250991677784, 36.26794400020718 ], [ -78.024348991601187, 36.268498999957565 ], [ -78.022503991126257, 36.268937999539517 ], [ -78.022985991536743, 36.269420999904519 ], [ -78.022266991218785, 36.270195000006233 ], [ -78.022930990670403, 36.270524999797544 ], [ -78.022108991458538, 36.27313300006692 ], [ -78.023227990938921, 36.27423200014934 ], [ -78.023008990898845, 36.275378999504611 ], [ -78.025307991194495, 36.276548999657543 ], [ -78.025835991540987, 36.278488000344502 ], [ -78.026575990983559, 36.278615000033312 ], [ -78.026105991100451, 36.279378000085153 ], [ -78.02706299123696, 36.280394000349325 ], [ -78.028411990813723, 36.280481999831942 ], [ -78.028214990837, 36.281612999614048 ], [ -78.029455991019816, 36.281954000362568 ], [ -78.028478990671218, 36.282458999563481 ], [ -78.029271990589677, 36.283666999751944 ], [ -78.032173991415846, 36.285947000090445 ], [ -78.032688990996903, 36.287929000336682 ], [ -78.030999991316222, 36.288724999980943 ], [ -78.030774991400733, 36.290613999697072 ], [ -78.034178991545559, 36.292245999589866 ], [ -78.033819991158396, 36.293646000168053 ], [ -78.034774991646927, 36.294458999922533 ], [ -78.035460990727643, 36.293958999792203 ], [ -78.03623999125773, 36.295908999996804 ], [ -78.037182990765288, 36.295353999509352 ], [ -78.038410990623731, 36.297227000270347 ], [ -78.040132991376183, 36.297365000284785 ], [ -78.041997991057755, 36.299540000375188 ], [ -78.044935990842006, 36.300121999494074 ], [ -78.047098991147735, 36.302900999602052 ], [ -78.053101991275312, 36.303407000162707 ], [ -78.057368991245895, 36.306893999934751 ], [ -78.060401990951931, 36.306871999565708 ], [ -78.062070990750456, 36.305631000284428 ], [ -78.066249990675885, 36.307317000246016 ], [ -78.070984991546396, 36.306219000115682 ], [ -78.070625990872486, 36.307778999532836 ], [ -78.072110990674858, 36.308689999633394 ], [ -78.073949991065945, 36.307669000366062 ], [ -78.075360990591093, 36.307833000369669 ], [ -78.075618991487218, 36.307174000150859 ], [ -78.07708399124283, 36.307470999950091 ], [ -78.076819991654347, 36.308119000374575 ], [ -78.078441991503738, 36.309100999908786 ], [ -78.078047990912381, 36.309810000193025 ], [ -78.082269991230177, 36.313114999506446 ], [ -78.094040991612204, 36.312816000229411 ], [ -78.097754991614536, 36.319267999676711 ], [ -78.10295299104196, 36.319226999813935 ], [ -78.10344199139054, 36.320523000204446 ], [ -78.104526991555019, 36.320336000246868 ], [ -78.104093991174125, 36.321978000122172 ], [ -78.105656991575628, 36.326552000273075 ], [ -78.10813899081721, 36.328089999707039 ], [ -78.103792991285673, 36.352701999516171 ], [ -78.086792991476102, 36.362920000072968 ], [ -78.080363991505308, 36.361097999668225 ], [ -78.080777991117756, 36.360345000185639 ], [ -78.076866990982722, 36.360196999871405 ], [ -78.074062991476154, 36.357330999662672 ], [ -78.070376991151306, 36.35657900004351 ], [ -78.067009991323175, 36.357078999847261 ], [ -78.061890991199178, 36.355238999744564 ], [ -78.056609991059076, 36.349834999864605 ], [ -78.052326991492137, 36.350225000198449 ], [ -78.049462991313717, 36.348802000247929 ], [ -78.041832991141575, 36.350113000286882 ], [ -78.034550991075676, 36.346745000109131 ], [ -78.031631990922705, 36.347996000106342 ], [ -78.028432990670638, 36.351098000370818 ], [ -78.019989991593349, 36.348606999729512 ], [ -78.01645899162024, 36.350993999796017 ], [ -78.017026991132425, 36.353393999586373 ], [ -78.016361991540478, 36.353937999969695 ], [ -78.013842991660582, 36.354738000292912 ], [ -78.011596990630778, 36.353945999584994 ], [ -78.009829991415813, 36.356196999785823 ], [ -78.008023991431784, 36.357085000356832 ], [ -78.001710991542552, 36.356559999888674 ], [ -77.996289990811846, 36.352535999677777 ], [ -77.993260991022993, 36.351334999597839 ], [ -77.989012991446359, 36.352116999514692 ], [ -77.984829990565999, 36.349802000086086 ], [ -77.981652991337342, 36.351560999833289 ], [ -77.977369990716426, 36.350485999827761 ], [ -77.976587990835242, 36.347844999708109 ], [ -77.974909991324665, 36.347374000079981 ], [ -77.975547991603406, 36.346011999741386 ], [ -77.975160990985458, 36.344413999634924 ], [ -77.967684991019539, 36.339622999556958 ], [ -77.966550990672815, 36.337805999636451 ], [ -77.961982990691283, 36.338647000099655 ], [ -77.95820199081426, 36.338219999753129 ], [ -77.95127999110764, 36.339896000069288 ], [ -77.947247990642182, 36.336975000074922 ], [ -77.938281990975597, 36.334899999916502 ], [ -77.934826990792331, 36.331628000237536 ], [ -77.932645990717276, 36.328025000258791 ], [ -77.942405991309329, 36.298526000213563 ], [ -77.944711991378597, 36.294333000064427 ], [ -77.978084991289776, 36.246058000024519 ], [ -78.006550991054425, 36.202632999816117 ], [ -78.007720991199861, 36.204325999902878 ], [ -78.008767990840497, 36.20401999948151 ], [ -78.008719990590876, 36.204982999474183 ], [ -78.011666991032371, 36.20508600001093 ], [ -78.011665991567952, 36.20609399990888 ], [ -78.014091991269481, 36.20515999991278 ], [ -78.014471990961013, 36.207216999606352 ] ] ] } },
{ "type": "Feature", "properties": { "county": "WARREN", "precinct": "9", "enr_desc": "Judkins", "winner": "R. Lorenzo Wilkins", "winner_votes": 107, "winner_share": 89.166666666666671, "runner_up": "Douglass Gross", "runner_up_votes": 13, "runner_up_share": 10.833333333333334, "contest_votes": 120, "margin_of_victory": 78.333333333333343, "is_tie": false, "results": [ { "candidate": "R. Lorenzo Wilkins", "votes": 107, "share": 89.16666666666667 }, { "candidate": "Douglass Gross", "votes": 13, "share": 10.833333333333334 } ], "participated": true, "map_key": "WARREN_9" }, "geometry": { "type": "Polygon", "coordinates": [ [ [ -77.932645990717276, 36.328025000258791 ], [ -77.934826990792331, 36.331628000237536 ], [ -77.938281990975597, 36.334899999916502 ], [ -77.947247990642182, 36.336975000074922 ], [ -77.95127999110764, 36.339896000069288 ], [ -77.95820199081426, 36.338219999753129 ], [ -77.961982990691283, 36.338647000099655 ], [ -77.966550990672815, 36.337805999636451 ], [ -77.967684991019539, 36.339622999556958 ], [ -77.975160990985458, 36.344413999634924 ], [ -77.975547991603406, 36.346011999741386 ], [ -77.974909991324665, 36.347374000079981 ], [ -77.976587990835242, 36.347844999708109 ], [ -77.977369990716426, 36.350485999827761 ], [ -77.981652991337342, 36.351560999833289 ], [ -77.984829990565999, 36.349802000086086 ], [ -77.989012991446359, 36.352116999514692 ], [ -77.993260991022993, 36.351334999597839 ], [ -77.996289990811846, 36.352535999677777 ], [ -78.001710991542552, 36.356559999888674 ], [ -78.008023991431784, 36.357085000356832 ], [ -78.009829991415813, 36.356196999785823 ], [ -78.011596990630778, 36.353945999584994 ], [ -78.013842991660582, 36.354738000292912 ], [ -78.016361991540478, 36.353937999969695 ], [ -78.017026991132425, 36.353393999586373 ], [ -78.01645899162024, 36.350993999796017 ], [ -78.019989991593349, 36.348606999729512 ], [ -78.028432990670638, 36.351098000370818 ], [ -78.031631990922705, 36.347996000106342 ], [ -78.034550991075676, 36.346745000109131 ], [ -78.041832991141575, 36.350113000286882 ], [ -78.049462991313717, 36.348802000247929 ], [ -78.052326991492137, 36.350225000198449 ], [ -78.056609991059076, 36.349834999864605 ], [ -78.061890991199178, 36.355238999744564 ], [ -78.067009991323175, 36.357078999847261 ], [ -78.070376991151306, 36.35657900004351 ], [ -78.074062991476154, 36.357330999662672 ], [ -78.076866990982722, 36.360196999871405 ], [ -78.080777991117756, 36.360345000185639 ], [ -78.080363991505308, 36.361097999668225 ], [ -78.086792991476102, 36.362920000072968 ], [ -78.087465991114385, 36.36531400021353 ], [ -78.090080991388177, 36.368290000001807 ], [ -78.090563991149438, 36.3710350001341 ], [ -78.098129991329785, 36.376394000040662 ], [ -78.100071991368665, 36.37663500000334 ], [ -78.101974991558137, 36.378696000381638 ], [ -78.084461991558641, 36.398657000112159 ], [ -78.089008991024912, 36.400906999613539 ], [ -78.092110990966759, 36.403798999957743 ], [ -78.097941990569183, 36.419433000026295 ], [ -78.097505991418387, 36.423242000319561 ], [ -78.096181990726393, 36.423582999831368 ], [ -78.066375990909094, 36.426831999575327 ], [ -78.04903999067416, 36.423804999783691 ], [ -78.042255991647366, 36.425968999568212 ], [ -78.031167991189648, 36.426594999787142 ], [ -78.031936990819474, 36.427125000156863 ], [ -78.031948990957829, 36.429743999688611 ], [ -78.013371990722973, 36.43048499976485 ], [ -78.002008991412239, 36.425807000052387 ], [ -77.997498991185651, 36.421777999629128 ], [ -77.988008990817974, 36.420371000178413 ], [ -77.983248991518764, 36.421105000041969 ], [ -77.972579991173561, 36.428587999648208 ], [ -77.969609990584232, 36.429692999730513 ], [ -77.946230991591364, 36.432765999488907 ], [ -77.926675991500716, 36.430686000317358 ], [ -77.919207990873218, 36.431529999639665 ], [ -77.916663991595172, 36.427902000282998 ], [ -77.912063990911719, 36.42485900006956 ], [ -77.911962991615766, 36.382446000212319 ], [ -77.932645990717276, 36.328025000258791 ] ] ] } },
{ "type": "Feature", "properties": { "county": "WARREN", "precinct": "10", "enr_desc": "West Warrenton", "winner": "R. Lorenzo Wilkins", "winner_votes": 423, "winner_share": 88.865546218487395, "runner_up": "Douglass Gross", "runner_up_votes": 53, "runner_up_share": 11.134453781512606, "contest_votes": 476, "margin_of_victory": 77.731092436974791, "is_tie": false, "results": [ { "candidate": "R. Lorenzo Wilkins", "votes": 423, "share": 88.8655462184874 }, { "candidate": "Douglass Gross", "votes": 53, "share": 11.134453781512606 } ], "participated": true, "map_key": "WARREN_10" }, "geometry": { "type": "Polygon", "coordinates": [ [ [ -78.190154991195996, 36.354549000082322 ], [ -78.194212991029104, 36.354570999655046 ], [ -78.196865991054139, 36.352829999527373 ], [ -78.208366991382448, 36.353926999677626 ], [ -78.212907991106718, 36.351648000099395 ], [ -78.213188991134444, 36.34935400036882 ], [ -78.224563991403059, 36.349009000286308 ], [ -78.233263991467666, 36.370920999563957 ], [ -78.234644990695031, 36.372311000043169 ], [ -78.236219990677853, 36.376073000291385 ], [ -78.236479990834894, 36.385858999887994 ], [ -78.235085991357977, 36.389459999978058 ], [ -78.235634990912729, 36.400143999662902 ], [ -78.232010991606771, 36.40393700029577 ], [ -78.230598991139786, 36.412544999495729 ], [ -78.231585990556297, 36.415663999690381 ], [ -78.23372699156684, 36.41797099985321 ], [ -78.237401991610682, 36.424541000073326 ], [ -78.239953990785494, 36.432241999588321 ], [ -78.239786990838596, 36.433815999834962 ], [ -78.235124991570586, 36.436470000116245 ], [ -78.20480699101104, 36.444163999808644 ], [ -78.204391991258703, 36.437451999980119 ], [ -78.189519990744259, 36.437814999758174 ], [ -78.184233990913896, 36.434683999955318 ], [ -78.180822990699454, 36.433910999558286 ], [ -78.169351991419305, 36.433893999566372 ], [ -78.157956990545387, 36.435770000262124 ], [ -78.157706990728641, 36.431972000299922 ], [ -78.155370991625077, 36.423357000265412 ], [ -78.152152991114704, 36.417581999751491 ], [ -78.154802990670831, 36.408957999779751 ], [ -78.153477991521086, 36.403208000300225 ], [ -78.156708990585997, 36.394234000222269 ], [ -78.159886990669278, 36.39078100006143 ], [ -78.162619990574669, 36.381805000217184 ], [ -78.164032990560401, 36.379430000165314 ], [ -78.190154991195996, 36.354549000082322 ] ] ] } },
{ "type": "Feature", "properties": { "county": "WARREN", "precinct": "11", "enr_desc": "Fork", "winner": "R. Lorenzo Wilkins", "winner_votes": 57, "winner_share": 83.82352941176471, "runner_up": "Douglass Gross", "runner_up_votes": 11, "runner_up_share": 16.176470588235293, "contest_votes": 68, "margin_of_victory": 67.64705882352942, "is_tie": false, "results": [ { "candidate": "R. Lorenzo Wilkins", "votes": 57, "share": 83.82352941176471 }, { "candidate": "Douglass Gross", "votes": 11, "share": 16.176470588235293 } ], "participated": true, "map_key": "WARREN_11" }, "geometry": { "type": "Polygon", "coordinates": [ [ [ -78.014471990961013, 36.207216999606352 ], [ -78.015251990618964, 36.207544999945291 ], [ -78.015813991144, 36.20621100036697 ], [ -78.016471990687364, 36.206983999598293 ], [ -78.016074990744755, 36.207709000226629 ], [ -78.01687499134394, 36.207793999950702 ], [ -78.01849599130837, 36.206212999485246 ], [ -78.018643990898724, 36.205024000288844 ], [ -78.020576990854948, 36.204734000016039 ], [ -78.022337991403617, 36.205444999825865 ], [ -78.02383299122863, 36.208322000142751 ], [ -78.025229991219277, 36.208224999772938 ], [ -78.024692990825457, 36.20947999998733 ], [ -78.027866991304734, 36.210862999806331 ], [ -78.02875999102217, 36.210279999824692 ], [ -78.029036991399906, 36.212476000077224 ], [ -78.030467991226814, 36.2145390002364 ], [ -78.031561991166001, 36.213336999861824 ], [ -78.030254991004, 36.211035000050757 ], [ -78.031177990611795, 36.20900499962417 ], [ -78.03241799157, 36.208818000274839 ], [ -78.032898991616378, 36.207168999578357 ], [ -78.035594990998703, 36.206973999545404 ], [ -78.037124990825163, 36.208835999984785 ], [ -78.037640990975973, 36.208333000173887 ], [ -78.038945990979911, 36.208828000023473 ], [ -78.037201990694797, 36.21050399986084 ], [ -78.043947991531752, 36.211569999746253 ], [ -78.045428990644709, 36.212546000276753 ], [ -78.043337991348011, 36.213877999646378 ], [ -78.044520990945259, 36.215411999833087 ], [ -78.046534990965398, 36.214482999754559 ], [ -78.047984991354426, 36.214986000228485 ], [ -78.049230991479106, 36.213244999883372 ], [ -78.051114991289239, 36.214016999703183 ], [ -78.05635599080226, 36.211026999593422 ], [ -78.057034991418931, 36.211002999743258 ], [ -78.057097991326643, 36.211899000118926 ], [ -78.058236991043373, 36.210991999874338 ], [ -78.058336991401333, 36.212822999734151 ], [ -78.05996699127553, 36.212481000379405 ], [ -78.060916990789337, 36.214240000329468 ], [ -78.063735991551667, 36.213906999755295 ], [ -78.06336499070612, 36.214464999526697 ], [ -78.064271990900494, 36.214718000034026 ], [ -78.064200991363748, 36.215651999557771 ], [ -78.065150990662715, 36.215430999754972 ], [ -78.066221991308694, 36.216486000007144 ], [ -78.068515990962609, 36.215046000101708 ], [ -78.070788990828561, 36.215717000213395 ], [ -78.071009990626223, 36.216584999691129 ], [ -78.0718399910984, 36.216109000021177 ], [ -78.071327990605198, 36.215278999976022 ], [ -78.072254991573672, 36.215905999505786 ], [ -78.074019990650001, 36.215417000328209 ], [ -78.073640991588164, 36.214686000259576 ], [ -78.074510991150134, 36.214987999713578 ], [ -78.075245990699827, 36.213311000370425 ], [ -78.076384991463428, 36.213447999737618 ], [ -78.077013991613725, 36.211465000142582 ], [ -78.078872990738574, 36.211282000066262 ], [ -78.083225991074229, 36.212622999514267 ], [ -78.0839829916669, 36.210921999728761 ], [ -78.084503990938387, 36.211196000191308 ], [ -78.084283991039655, 36.210275000332388 ], [ -78.085427990783174, 36.209915000312982 ], [ -78.08491499091285, 36.209231999780485 ], [ -78.086379991058593, 36.209517999718805 ], [ -78.086958991502627, 36.208745000201603 ], [ -78.089438990854489, 36.208290999535564 ], [ -78.090548991159963, 36.208859999942128 ], [ -78.090459990991164, 36.20811200002067 ], [ -78.091605991037326, 36.207687999669453 ], [ -78.091854991250983, 36.209243999772333 ], [ -78.094269991150497, 36.21031499962757 ], [ -78.097427991661633, 36.208921000058204 ], [ -78.098364991104575, 36.210827000346036 ], [ -78.099860991039051, 36.210503000199218 ], [ -78.099420991288568, 36.209762000106544 ], [ -78.102681991439866, 36.208939999754172 ], [ -78.104906990863327, 36.210680999875244 ], [ -78.106991991482332, 36.209797999667103 ], [ -78.110068991530184, 36.210203999824252 ], [ -78.110765991213327, 36.211901000318846 ], [ -78.109367991611961, 36.213200000107236 ], [ -78.110412991010676, 36.213966000073967 ], [ -78.110549991404568, 36.216071999787339 ], [ -78.111667990579605, 36.215962000355212 ], [ -78.112351991132087, 36.216645999558466 ], [ -78.112026991478118, 36.217498999585921 ], [ -78.113349990948919, 36.217430000004029 ], [ -78.114213991658488, 36.216186999751024 ], [ -78.114838991551537, 36.216692999948563 ], [ -78.116492990660348, 36.218603999886852 ], [ -78.117346990993497, 36.222584999968952 ], [ -78.118844991076529, 36.223176000275814 ], [ -78.118906990707558, 36.22416100013951 ], [ -78.121699991584265, 36.223994000200264 ], [ -78.123024990793596, 36.2262589999903 ], [ -78.123795991503854, 36.226566999745899 ], [ -78.124640991149391, 36.225647999606572 ], [ -78.125703991681391, 36.226325000249489 ], [ -78.125240991636105, 36.227104999786434 ], [ -78.126207990650045, 36.228675999821107 ], [ -78.125133990935907, 36.228888000363675 ], [ -78.126801991148781, 36.229771000174019 ], [ -78.126138990805373, 36.232074999725008 ], [ -78.126619991619222, 36.23328099977951 ], [ -78.124969990934289, 36.235241999882113 ], [ -78.126768991339034, 36.236014000218702 ], [ -78.130759991348569, 36.240424999907233 ], [ -78.131320990703344, 36.243368999634299 ], [ -78.132688991358478, 36.244313999565662 ], [ -78.132738990965322, 36.246281000339003 ], [ -78.136256991214054, 36.245918999855604 ], [ -78.137640990990619, 36.247569999746098 ], [ -78.140651990959029, 36.247126000155241 ], [ -78.142340991547997, 36.24603799987262 ], [ -78.148726991363034, 36.24691699995423 ], [ -78.151093990995264, 36.245465000223952 ], [ -78.156982990668624, 36.244415999873169 ], [ -78.15955899089073, 36.245731999707381 ], [ -78.160873990655247, 36.245602999880177 ], [ -78.162139991623008, 36.247927999944174 ], [ -78.15809599072837, 36.251486999847295 ], [ -78.156602991094289, 36.259739000099259 ], [ -78.151015991453036, 36.259173999674225 ], [ -78.138541991131135, 36.264269999978133 ], [ -78.132276990814233, 36.268816999815954 ], [ -78.128258990626406, 36.27449400005581 ], [ -78.127820991217675, 36.281406999989123 ], [ -78.125401991296911, 36.283771999901766 ], [ -78.125473991244732, 36.337202999778171 ], [ -78.123803991597256, 36.336906999950791 ], [ -78.124371990789072, 36.334500999981039 ], [ -78.119267990902088, 36.334372000262846 ], [ -78.116592991414279, 36.332516999909551 ], [ -78.112113990888915, 36.332975000290375 ], [ -78.11296099076911, 36.329640999952012 ], [ -78.10813899081721, 36.328089999707039 ], [ -78.105656991575628, 36.326552000273075 ], [ -78.104093991174125, 36.321978000122172 ], [ -78.104526991555019, 36.320336000246868 ], [ -78.10344199139054, 36.320523000204446 ], [ -78.10295299104196, 36.319226999813935 ], [ -78.097754991614536, 36.319267999676711 ], [ -78.094040991612204, 36.312816000229411 ], [ -78.082269991230177, 36.313114999506446 ], [ -78.078047990912381, 36.309810000193025 ], [ -78.078441991503738, 36.309100999908786 ], [ -78.076819991654347, 36.308119000374575 ], [ -78.07708399124283, 36.307470999950091 ], [ -78.075618991487218, 36.307174000150859 ], [ -78.075360990591093, 36.307833000369669 ], [ -78.073949991065945, 36.307669000366062 ], [ -78.072110990674858, 36.308689999633394 ], [ -78.070625990872486, 36.307778999532836 ], [ -78.070984991546396, 36.306219000115682 ], [ -78.066249990675885, 36.307317000246016 ], [ -78.062070990750456, 36.305631000284428 ], [ -78.060401990951931, 36.306871999565708 ], [ -78.057368991245895, 36.306893999934751 ], [ -78.053101991275312, 36.303407000162707 ], [ -78.047098991147735, 36.302900999602052 ], [ -78.044935990842006, 36.300121999494074 ], [ -78.041997991057755, 36.299540000375188 ], [ -78.040132991376183, 36.297365000284785 ], [ -78.038410990623731, 36.297227000270347 ], [ -78.037182990765288, 36.295353999509352 ], [ -78.03623999125773, 36.295908999996804 ], [ -78.035460990727643, 36.293958999792203 ], [ -78.034774991646927, 36.294458999922533 ], [ -78.033819991158396, 36.293646000168053 ], [ -78.034178991545559, 36.292245999589866 ], [ -78.030774991400733, 36.290613999697072 ], [ -78.030999991316222, 36.288724999980943 ], [ -78.032688990996903, 36.287929000336682 ], [ -78.032173991415846, 36.285947000090445 ], [ -78.029271990589677, 36.283666999751944 ], [ -78.028478990671218, 36.282458999563481 ], [ -78.029455991019816, 36.281954000362568 ], [ -78.028214990837, 36.281612999614048 ], [ -78.028411990813723, 36.280481999831942 ], [ -78.02706299123696, 36.280394000349325 ], [ -78.026105991100451, 36.279378000085153 ], [ -78.026575990983559, 36.278615000033312 ], [ -78.025835991540987, 36.278488000344502 ], [ -78.025307991194495, 36.276548999657543 ], [ -78.023008990898845, 36.275378999504611 ], [ -78.023227990938921, 36.27423200014934 ], [ -78.022108991458538, 36.27313300006692 ], [ -78.022930990670403, 36.270524999797544 ], [ -78.022266991218785, 36.270195000006233 ], [ -78.022985991536743, 36.269420999904519 ], [ -78.022503991126257, 36.268937999539517 ], [ -78.024348991601187, 36.268498999957565 ], [ -78.023250991677784, 36.26794400020718 ], [ -78.023149991134275, 36.26670300011979 ], [ -78.024234991388937, 36.266253000254629 ], [ -78.025237991491124, 36.267072000262793 ], [ -78.025259991503191, 36.264227999501259 ], [ -78.021227991384265, 36.260651000123133 ], [ -78.021316990941187, 36.257356999916688 ], [ -78.023758991526307, 36.256643999831837 ], [ -78.023032990743246, 36.255973999668825 ], [ -78.02481699071771, 36.253299999643595 ], [ -78.025082990951901, 36.251509999774505 ], [ -78.027082990727536, 36.250565999574746 ], [ -78.024446990629997, 36.247513999970472 ], [ -78.025493991099395, 36.243506000262201 ], [ -78.02667999122859, 36.24305599998646 ], [ -78.027553990704803, 36.243714999479025 ], [ -78.028184990973372, 36.242765999512699 ], [ -78.028138991207641, 36.240360000249964 ], [ -78.02666199104857, 36.240063000071224 ], [ -78.027089990601183, 36.237515000142658 ], [ -78.02359999080501, 36.235196999740253 ], [ -78.025553991514045, 36.232002000035401 ], [ -78.025473990722247, 36.229580000073923 ], [ -78.026762990578248, 36.22880599959425 ], [ -78.025800991347168, 36.226829000372476 ], [ -78.024702991362958, 36.226829000349923 ], [ -78.023625990792922, 36.225389999705243 ], [ -78.022432991024942, 36.225778999639367 ], [ -78.021994990939717, 36.224367999716719 ], [ -78.020935991347173, 36.224712999691221 ], [ -78.019888991187074, 36.22170900029964 ], [ -78.018004991495985, 36.220670999716475 ], [ -78.017919990607723, 36.214997999542852 ], [ -78.015757991167675, 36.216233000080791 ], [ -78.012613990974017, 36.215106000153718 ], [ -78.01855299057037, 36.210292000353441 ], [ -78.017747991421871, 36.209237999777137 ], [ -78.013693991252225, 36.210938000048941 ], [ -78.013071991519965, 36.209142000025345 ], [ -78.014471990961013, 36.207216999606352 ] ] ] } },
{ "type": "Feature", "properties": { "county": "WARREN", "precinct": "12", "enr_desc": "Roanoke", "winner": "R. Lorenzo Wilkins", "winner_votes": 89, "winner_share": 83.962264150943398, "runner_up": "Douglass Gross", "runner_up_votes": 17, "runner_up_share": 16.037735849056602, "contest_votes": 106, "margin_of_victory": 67.924528301886795, "is_tie": false, "results": [ { "candidate": "R. Lorenzo Wilkins", "votes": 89, "share": 83.9622641509434 }, { "candidate": "Douglass Gross", "votes": 17, "share": 16.037735849056602 } ], "participated": true, "map_key": "WARREN_12" }, "geometry": { "type": "Polygon", "coordinates": [ [ [ -77.899595990694337, 36.507715999714172 ], [ -77.904072990680774, 36.506201000323863 ], [ -77.909811990919195, 36.506237999839051 ], [ -77.91726199088744, 36.508271999845498 ], [ -77.922549990753694, 36.51212100023249 ], [ -77.925673990762263, 36.513226999861736 ], [ -77.954849990725378, 36.518097999795835 ], [ -77.972894991282587, 36.518421000006555 ], [ -77.979235991136889, 36.517356999967888 ], [ -77.990062991581325, 36.517052000303472 ], [ -77.994212990837909, 36.517688000281538 ], [ -77.999713990893483, 36.52010199957995 ], [ -78.00445399062464, 36.526135999918893 ], [ -78.00654699059865, 36.535298999477966 ], [ -78.008566990981251, 36.537285999597167 ], [ -78.01313899092645, 36.539236999905349 ], [ -78.017604991533958, 36.539638000307789 ], [ -78.021833990856891, 36.53897800016734 ], [ -78.035763991367688, 36.531553999743466 ], [ -78.039163991063674, 36.530972999984598 ], [ -78.042750991539336, 36.531465999685899 ], [ -78.045499991178971, 36.532922000055692 ], [ -78.047737990995856, 36.536951000326987 ], [ -78.046461990579417, 36.543550999975928 ], [ -77.999719991539294, 36.544386999822393 ], [ -77.899772991298335, 36.544595999971143 ], [ -77.899595990694337, 36.507715999714172 ] ] ] } },
{ "type": "Feature", "properties": { "county": "WARREN", "precinct": "13", "enr_desc": "Norlina", "winner": "R. Lorenzo Wilkins", "winner_votes": 94, "winner_share": 88.679245283018872, "runner_up": "Douglass Gross", "runner_up_votes": 12, "runner_up_share": 11.320754716981133, "contest_votes": 106, "margin_of_victory": 77.358490566037744, "is_tie": false, "results": [ { "candidate": "R. Lorenzo Wilkins", "votes": 94, "share": 88.67924528301887 }, { "candidate": "Douglass Gross", "votes": 12, "share": 11.320754716981133 } ], "participated": true, "map_key": "WARREN_13" }, "geometry": { "type": "Polygon", "coordinates": [ [ [ -78.189519990744259, 36.437814999758174 ], [ -78.204391991258703, 36.437451999980119 ], [ -78.20480699101104, 36.444163999808644 ], [ -78.205216990751666, 36.452461999647312 ], [ -78.186868990818638, 36.452701999546647 ], [ -78.185903991566278, 36.452026999738067 ], [ -78.184989990664491, 36.437858999946158 ], [ -78.189519990744259, 36.437814999758174 ] ] ] } },
{ "type": "Feature", "properties": { "county": "WARREN", "precinct": "14", "enr_desc": "East Warrenton", "winner": "R. Lorenzo Wilkins", "winner_votes": 253, "winner_share": 86.348122866894201, "runner_up": "Douglass Gross", "runner_up_votes": 40, "runner_up_share": 13.651877133105803, "contest_votes": 293, "margin_of_victory": 72.696245733788402, "is_tie": false, "results": [ { "candidate": "R. Lorenzo Wilkins", "votes": 253, "share": 86.3481228668942 }, { "candidate": "Douglass Gross", "votes": 40, "share": 13.651877133105803 } ], "participated": true, "map_key": "WARREN_14" }, "geometry": { "type": "Polygon", "coordinates": [ [ [ -78.190154991195996, 36.354549000082322 ], [ -78.164032990560401, 36.379430000165314 ], [ -78.162619990574669, 36.381805000217184 ], [ -78.159886990669278, 36.39078100006143 ], [ -78.156708990585997, 36.394234000222269 ], [ -78.153477991521086, 36.403208000300225 ], [ -78.154802990670831, 36.408957999779751 ], [ -78.152152991114704, 36.417581999751491 ], [ -78.155370991625077, 36.423357000265412 ], [ -78.157706990728641, 36.431972000299922 ], [ -78.157956990545387, 36.435770000262124 ], [ -78.146855991167641, 36.43739799951458 ], [ -78.128666991642291, 36.434826999802887 ], [ -78.106709991633991, 36.436054000150804 ], [ -78.10195699143722, 36.435860999786783 ], [ -78.093988991308606, 36.433511999791705 ], [ -78.091654991436855, 36.43503899961555 ], [ -78.095356990643936, 36.42921899987487 ], [ -78.096181990726393, 36.423582999831368 ], [ -78.097505991418387, 36.423242000319561 ], [ -78.097941990569183, 36.419433000026295 ], [ -78.092110990966759, 36.403798999957743 ], [ -78.089008991024912, 36.400906999613539 ], [ -78.084461991558641, 36.398657000112159 ], [ -78.101974991558137, 36.378696000381638 ], [ -78.100071991368665, 36.37663500000334 ], [ -78.098129991329785, 36.376394000040662 ], [ -78.090563991149438, 36.3710350001341 ], [ -78.090080991388177, 36.368290000001807 ], [ -78.087465991114385, 36.36531400021353 ], [ -78.086792991476102, 36.362920000072968 ], [ -78.103792991285673, 36.352701999516171 ], [ -78.10813899081721, 36.328089999707039 ], [ -78.11296099076911, 36.329640999952012 ], [ -78.112113990888915, 36.332975000290375 ], [ -78.116592991414279, 36.332516999909551 ], [ -78.119267990902088, 36.334372000262846 ], [ -78.124371990789072, 36.334500999981039 ], [ -78.123803991597256, 36.336906999950791 ], [ -78.125473991244732, 36.337202999778171 ], [ -78.127139991168193, 36.335992000157383 ], [ -78.127912991100615, 36.33795299998242 ], [ -78.127233991084921, 36.338682999743426 ], [ -78.127964990917121, 36.33925399960156 ], [ -78.131156991593372, 36.337585999874008 ], [ -78.131787991464549, 36.337965999525679 ], [ -78.132017991439994, 36.339712000315195 ], [ -78.133827990665949, 36.341404000229751 ], [ -78.130976991165838, 36.342758999806769 ], [ -78.132970990677094, 36.344374999506826 ], [ -78.133112990933967, 36.345763999744449 ], [ -78.13616499161877, 36.348347000023118 ], [ -78.13729099117289, 36.350405999796891 ], [ -78.139964991593004, 36.351000999584301 ], [ -78.13952899115138, 36.353126000278472 ], [ -78.138102991327699, 36.353707000105565 ], [ -78.138692990564692, 36.355024999888165 ], [ -78.142459991439381, 36.355807000358318 ], [ -78.144576990791919, 36.357476999639772 ], [ -78.14915999156193, 36.356846999527633 ], [ -78.14952899092934, 36.358548000101671 ], [ -78.151772991213534, 36.358001000071795 ], [ -78.152859991456268, 36.357376000380455 ], [ -78.152730991636432, 36.356223000293745 ], [ -78.154578990711968, 36.355503999844046 ], [ -78.155474990778316, 36.35334599971744 ], [ -78.158211991367054, 36.351935000159223 ], [ -78.160784990573887, 36.352485000135751 ], [ -78.16038999103057, 36.355274999778374 ], [ -78.164788990842865, 36.356626999549739 ], [ -78.167333991051478, 36.355568000141822 ], [ -78.172948991526312, 36.355128999802403 ], [ -78.174706990658692, 36.353410999691334 ], [ -78.178916991167711, 36.354097999831872 ], [ -78.181489990946474, 36.353620000037409 ], [ -78.185039990733145, 36.356129999604491 ], [ -78.187110991170172, 36.354350999750935 ], [ -78.190154991195996, 36.354549000082322 ] ] ] } }
]
}
