{
"type": "FeatureCollection",
"name": "washington_county_board_of_education_district_02_dem",
"crs": { "type": "name", "properties": { "name": "urn:ogc:def:crs:OGC:1.3:CRS84" } },
"features": [
{ "type": "Feature", "properties": { "county": "WASHINGTON", "precinct": "LM", "enr_desc": "Lees Mill", "winner": "Lois Clark", "winner_votes": 98, "winner_share": 73.68421052631578, "runner_up": "Julie Tallerico Simpson", "runner_up_votes": 35, "runner_up_share": 26.315789473684209, "contest_votes": 133, "margin_of_victory": 47.368421052631575, "is_tie": false, "results": [ { "candidate": "Lois Clark", "votes": 98, "share": 73.68421052631578 }, { "candidate": "Julie Tallerico Simpson", "votes": 35, "share": 26.31578947368421 } ], "participated": true, "map_key": "WASHINGTON_LM" }, "geometry": { "type": "Polygon", "coordinates": [ [ [ -76.693935991654854, 35.871547000127933 ], [ -76.695973991173346, 35.882651999527496 ], [ -76.702805990741794, 35.891840999525009 ], [ -76.696217991679717, 35.895766999673022 ], [ -76.691094991354177, 35.900449999712833 ], [ -76.685464991319691, 35.902734999687283 ], [ -76.711060990989822, 35.922778999882638 ], [ -76.708494991194556, 35.923317000052457 ], [ -76.701831990947809, 35.922782999758908 ], [ -76.70070499165837, 35.923578999743263 ], [ -76.698975991116114, 35.927878999869073 ], [ -76.694533991065825, 35.933966999659127 ], [ -76.692494990694982, 35.94377899975597 ], [ -76.687507990824813, 35.95066699939504 ], [ -76.670063991602234, 35.960336999678724 ], [ -76.64730999094499, 35.969162999399636 ], [ -76.629379990871769, 35.974530999727449 ], [ -76.612561991282845, 35.977675000152857 ], [ -76.606213991419438, 35.978051000027783 ], [ -76.591535991233414, 35.974709999471713 ], [ -76.568165991577942, 35.974561999515196 ], [ -76.568229991063134, 35.934990999910191 ], [ -76.570783991514261, 35.93409399988316 ], [ -76.574247991223189, 35.930806999479962 ], [ -76.564012991680954, 35.927647000057796 ], [ -76.556217991156629, 35.928262000237062 ], [ -76.552841991502106, 35.925870000233822 ], [ -76.549112991267066, 35.92515899968538 ], [ -76.545674990971406, 35.923414999805843 ], [ -76.542242990889974, 35.922305000222266 ], [ -76.539504990819779, 35.922852000170451 ], [ -76.540841990712551, 35.917033000063867 ], [ -76.538652990804536, 35.911987000224308 ], [ -76.53559699169378, 35.908560000146835 ], [ -76.536313991038483, 35.899775999879871 ], [ -76.537842991572617, 35.89527299982575 ], [ -76.534752991497939, 35.88364800010573 ], [ -76.545890991455948, 35.843877000015731 ], [ -76.540418991556791, 35.838616999712499 ], [ -76.553952991626545, 35.844341999788696 ], [ -76.561536991154071, 35.849182999646239 ], [ -76.569224991510282, 35.817214999685362 ], [ -76.617009991334001, 35.723064999560705 ], [ -76.60052299123781, 35.717489000235091 ], [ -76.606774990902849, 35.705158000081056 ], [ -76.655443991383848, 35.705282999892724 ], [ -76.648927991583747, 35.718153000278356 ], [ -76.703431991180494, 35.774666999455839 ], [ -76.682046991171219, 35.873201000276616 ], [ -76.693935991654854, 35.871547000127933 ] ] ] } },
{ "type": "Feature", "properties": { "county": "WASHINGTON", "precinct": "P1", "enr_desc": "Plymouth 1", "winner": "Lois Clark", "winner_votes": 83, "winner_share": 61.940298507462686, "runner_up": "Julie Tallerico Simpson", "runner_up_votes": 51, "runner_up_share": 38.059701492537314, "contest_votes": 134, "margin_of_victory": 23.880597014925371, "is_tie": false, "results": [ { "candidate": "Lois Clark", "votes": 83, "share": 61.940298507462686 }, { "candidate": "Julie Tallerico Simpson", "votes": 51, "share": 38.059701492537314 } ], "participated": true, "map_key": "WASHINGTON_P1" }, "geometry": { "type": "Polygon", "coordinates": [ [ [ -76.745441991096314, 35.858441999468603 ], [ -76.75099299166682, 35.867167999964458 ], [ -76.745763990978716, 35.868973999639579 ], [ -76.744710991104498, 35.870975000090539 ], [ -76.743323991195822, 35.871722999516329 ], [ -76.741691991142574, 35.871150999835393 ], [ -76.740932991288403, 35.868925000261449 ], [ -76.737460991010906, 35.869698999970311 ], [ -76.737904990781615, 35.871009000269609 ], [ -76.735967991389941, 35.871460999658709 ], [ -76.736725990966605, 35.87369299974192 ], [ -76.7391349908347, 35.876593999402537 ], [ -76.736983990912449, 35.878785999693832 ], [ -76.734930991711892, 35.883316999769171 ], [ -76.731066991465099, 35.88842499982227 ], [ -76.728263991443413, 35.897956999414802 ], [ -76.723615991041783, 35.906167999809881 ], [ -76.722722990925718, 35.91289499939009 ], [ -76.719265990652943, 35.91798099971718 ], [ -76.711060990989822, 35.922778999882638 ], [ -76.685464991319691, 35.902734999687283 ], [ -76.691094991354177, 35.900449999712833 ], [ -76.696217991679717, 35.895766999673022 ], [ -76.702805990741794, 35.891840999525009 ], [ -76.695973991173346, 35.882651999527496 ], [ -76.693935991654854, 35.871547000127933 ], [ -76.720982991267022, 35.867626999678727 ], [ -76.738381990776745, 35.860324999501195 ], [ -76.745441991096314, 35.858441999468603 ] ] ] } },
{ "type": "Feature", "properties": { "county": "WASHINGTON", "precinct": "P2", "enr_desc": "Plymouth 2", "winner": "Lois Clark", "winner_votes": 66, "winner_share": 66.666666666666657, "runner_up": "Julie Tallerico Simpson", "runner_up_votes": 33, "runner_up_share": 33.333333333333329, "contest_votes": 99, "margin_of_victory": 33.333333333333329, "is_tie": false, "results": [ { "candidate": "Lois Clark", "votes": 66, "share": 66.66666666666666 }, { "candidate": "Julie Tallerico Simpson", "votes": 33, "share": 33.33333333333333 } ], "participated": true, "map_key": "WASHINGTON_P2" }, "geometry": { "type": "Polygon", "coordinates": [ [ [ -76.784821991244769, 35.828937000225814 ], [ -76.784544991019132, 35.830558999840925 ], [ -76.78545399131302, 35.831220999399946 ], [ -76.78466099162101, 35.832888999419701 ], [ -76.786542991157049, 35.834020999653639 ], [ -76.786834990962589, 35.835627000263564 ], [ -76.78927999121484, 35.837974000220939 ], [ -76.786247991170882, 35.840873000066964 ], [ -76.785722990823629, 35.843931999509373 ], [ -76.784260990890516, 35.844843999672499 ], [ -76.784713991480217, 35.846214999992661 ], [ -76.783728991094463, 35.84893900025137 ], [ -76.782168990980153, 35.849885999844837 ], [ -76.782431991362117, 35.850611000245735 ], [ -76.780269991386092, 35.851361999748484 ], [ -76.780072990998519, 35.852751999625426 ], [ -76.781167990829459, 35.853447000256054 ], [ -76.778437990879667, 35.85410799958261 ], [ -76.778349991259802, 35.857113999978353 ], [ -76.776991990703891, 35.856642000180742 ], [ -76.777403991455131, 35.857839000241427 ], [ -76.776258991447961, 35.857417999934547 ], [ -76.776403991378572, 35.858688999474765 ], [ -76.774976991244387, 35.859188999434124 ], [ -76.774222991559199, 35.857658000219459 ], [ -76.773129991220685, 35.858718999793219 ], [ -76.771906990806826, 35.858331000052097 ], [ -76.771450991650994, 35.861064999448622 ], [ -76.767193990644301, 35.861176999929114 ], [ -76.766430991066699, 35.861821999981139 ], [ -76.765391991113731, 35.861341000128043 ], [ -76.763169990647228, 35.864103999704014 ], [ -76.761308991613177, 35.862916000075842 ], [ -76.760597991301466, 35.864886999414622 ], [ -76.751121991275028, 35.867541999931007 ], [ -76.745410991248917, 35.870828999508696 ], [ -76.7391349908347, 35.876593999402537 ], [ -76.736725990966605, 35.87369299974192 ], [ -76.735967991389941, 35.871460999658709 ], [ -76.737904990781615, 35.871009000269609 ], [ -76.737460991010906, 35.869698999970311 ], [ -76.740932991288403, 35.868925000261449 ], [ -76.741691991142574, 35.871150999835393 ], [ -76.743323991195822, 35.871722999516329 ], [ -76.744710991104498, 35.870975000090539 ], [ -76.745763990978716, 35.868973999639579 ], [ -76.75099299166682, 35.867167999964458 ], [ -76.745441991096314, 35.858441999468603 ], [ -76.747735991702399, 35.857366999681631 ], [ -76.753758990747031, 35.851927000015984 ], [ -76.759086991562029, 35.841319999712113 ], [ -76.762736990832693, 35.837181000229947 ], [ -76.778678990814399, 35.83018799990748 ], [ -76.784821991244769, 35.828937000225814 ] ] ] } },
{ "type": "Feature", "properties": { "county": "WASHINGTON", "precinct": "P3", "enr_desc": "Plymouth 3", "winner": "Julie Tallerico Simpson", "winner_votes": 117, "winner_share": 66.857142857142861, "runner_up": "Lois Clark", "runner_up_votes": 58, "runner_up_share": 33.142857142857139, "contest_votes": 175, "margin_of_victory": 33.714285714285722, "is_tie": false, "results": [ { "candidate": "Julie Tallerico Simpson", "votes": 117, "share": 66.85714285714286 }, { "candidate": "Lois Clark", "votes": 58, "share": 33.14285714285714 } ], "participated": true, "map_key": "WASHINGTON_P3" }, "geometry": { "type": "Polygon", "coordinates": [ [ [ -76.655443991383848, 35.705282999892724 ], [ -76.844619990628516, 35.705719000107344 ], [ -76.847263990975577, 35.71998199970789 ], [ -76.831327991355437, 35.730702000256343 ], [ -76.833682990681154, 35.733179999846421 ], [ -76.832597990802256, 35.736694999710849 ], [ -76.831044991350794, 35.738200000234059 ], [ -76.827730991615724, 35.738578999826487 ], [ -76.825925991327594, 35.74017199949558 ], [ -76.82618099155961, 35.74220500003991 ], [ -76.825222991237837, 35.744906000274625 ], [ -76.817772990688596, 35.747583999965485 ], [ -76.817116991595114, 35.749127999903152 ], [ -76.819195990807643, 35.751001999569766 ], [ -76.820186990931916, 35.754017999724113 ], [ -76.817087990759489, 35.759875999547148 ], [ -76.814952991647928, 35.761488000114959 ], [ -76.812951990961849, 35.761350000139274 ], [ -76.809181991294309, 35.762998999951925 ], [ -76.80795999146811, 35.768204999477874 ], [ -76.803470991333967, 35.772679999832356 ], [ -76.803471991550566, 35.774479999936638 ], [ -76.802262990696249, 35.776322999598698 ], [ -76.804002990921916, 35.779583999478497 ], [ -76.803479991349803, 35.780731999912007 ], [ -76.804297991150193, 35.781925999738142 ], [ -76.803456991634789, 35.783929999753084 ], [ -76.802132991369746, 35.784857999572928 ], [ -76.798471990631953, 35.784608000014671 ], [ -76.794963991615404, 35.787531999965026 ], [ -76.795331991151684, 35.788764999731235 ], [ -76.79354499093759, 35.788716999490894 ], [ -76.793652991313593, 35.78968900001945 ], [ -76.792762991564715, 35.790067000292687 ], [ -76.794111990685579, 35.791233999441275 ], [ -76.792820991569556, 35.792444999449593 ], [ -76.793503991359927, 35.79541299989171 ], [ -76.795559991425378, 35.796358000045366 ], [ -76.796309990729199, 35.798342000219513 ], [ -76.798481991423699, 35.799552999488405 ], [ -76.799378991055676, 35.801977999540085 ], [ -76.802605990641766, 35.805164999730827 ], [ -76.799447991686804, 35.813560000161395 ], [ -76.796849990748328, 35.816198999510682 ], [ -76.794675991336135, 35.817072999400054 ], [ -76.791304991236558, 35.820403999668265 ], [ -76.788620990693616, 35.82135099996448 ], [ -76.786619991183244, 35.821090000040719 ], [ -76.785044991296871, 35.822002999464196 ], [ -76.784191991479432, 35.823742999667694 ], [ -76.783503990977437, 35.823386999929269 ], [ -76.782651991618479, 35.824269999414447 ], [ -76.78192999077929, 35.826883000101915 ], [ -76.784821991244769, 35.828937000225814 ], [ -76.778678990814399, 35.83018799990748 ], [ -76.762736990832693, 35.837181000229947 ], [ -76.759086991562029, 35.841319999712113 ], [ -76.753758990747031, 35.851927000015984 ], [ -76.747735991702399, 35.857366999681631 ], [ -76.745441991096314, 35.858441999468603 ], [ -76.738381990776745, 35.860324999501195 ], [ -76.720982991267022, 35.867626999678727 ], [ -76.693935991654854, 35.871547000127933 ], [ -76.682046991171219, 35.873201000276616 ], [ -76.703431991180494, 35.774666999455839 ], [ -76.648927991583747, 35.718153000278356 ], [ -76.655443991383848, 35.705282999892724 ] ] ] } },
{ "type": "Feature", "properties": { "county": "WASHINGTON", "precinct": "SK", "enr_desc": "Skinnersville", "winner": "Julie Tallerico Simpson", "winner_votes": 32, "winner_share": 53.333333333333336, "runner_up": "Lois Clark", "runner_up_votes": 28, "runner_up_share": 46.666666666666664, "contest_votes": 60, "margin_of_victory": 6.6666666666666714, "is_tie": false, "results": [ { "candidate": "Julie Tallerico Simpson", "votes": 32, "share": 53.333333333333336 }, { "candidate": "Lois Clark", "votes": 28, "share": 46.666666666666664 } ], "participated": true, "map_key": "WASHINGTON_SK" }, "geometry": { "type": "Polygon", "coordinates": [ [ [ -76.504061991426028, 35.703206000273653 ], [ -76.545620991587299, 35.705083999837065 ], [ -76.606774990902849, 35.705158000081056 ], [ -76.60052299123781, 35.717489000235091 ], [ -76.617009991334001, 35.723064999560705 ], [ -76.569224991510282, 35.817214999685362 ], [ -76.561536991154071, 35.849182999646239 ], [ -76.553952991626545, 35.844341999788696 ], [ -76.540418991556791, 35.838616999712499 ], [ -76.545890991455948, 35.843877000015731 ], [ -76.534752991497939, 35.88364800010573 ], [ -76.537842991572617, 35.89527299982575 ], [ -76.536313991038483, 35.899775999879871 ], [ -76.53559699169378, 35.908560000146835 ], [ -76.538652990804536, 35.911987000224308 ], [ -76.540841990712551, 35.917033000063867 ], [ -76.539504990819779, 35.922852000170451 ], [ -76.542242990889974, 35.922305000222266 ], [ -76.545674990971406, 35.923414999805843 ], [ -76.549112991267066, 35.92515899968538 ], [ -76.552841991502106, 35.925870000233822 ], [ -76.556217991156629, 35.928262000237062 ], [ -76.564012991680954, 35.927647000057796 ], [ -76.574247991223189, 35.930806999479962 ], [ -76.570783991514261, 35.93409399988316 ], [ -76.568229991063134, 35.934990999910191 ], [ -76.568165991577942, 35.974561999515196 ], [ -76.545098990864304, 35.975950999956723 ], [ -76.511898991600447, 35.98072599994213 ], [ -76.457951990664782, 35.995305999912432 ], [ -76.44544999063551, 35.999944999629278 ], [ -76.436943991182972, 36.004232000072392 ], [ -76.418736991032901, 36.017786999627248 ], [ -76.402100990986142, 36.025333000003691 ], [ -76.391746991142057, 36.026896999663748 ], [ -76.381395991598652, 36.026228999727955 ], [ -76.366869990855719, 36.021700999431353 ], [ -76.358392991224264, 36.020019000032022 ], [ -76.358140990876919, 35.951563999906377 ], [ -76.363346991289689, 35.947557999555549 ], [ -76.36549999070165, 35.944083000234698 ], [ -76.366185990650408, 35.934876999402725 ], [ -76.367702990643195, 35.929999000164656 ], [ -76.369209991125331, 35.929384000105685 ], [ -76.370714990700762, 35.927181999683832 ], [ -76.370653990920687, 35.925930999367736 ], [ -76.380008991409369, 35.914665999406857 ], [ -76.384606990944732, 35.915344000122154 ], [ -76.387878991107272, 35.918261000203792 ], [ -76.389747990789374, 35.922131999765256 ], [ -76.391365990813455, 35.923078999992775 ], [ -76.398437991616547, 35.92252300025762 ], [ -76.402323991438621, 35.92344300003888 ], [ -76.406500991211018, 35.922451999757172 ], [ -76.415972991237481, 35.923187000043043 ], [ -76.417008991586826, 35.92229499951884 ], [ -76.416859991061159, 35.921111999758594 ], [ -76.421608991514304, 35.920244000237084 ], [ -76.428007990960936, 35.920781999414352 ], [ -76.43034499135085, 35.919243999718006 ], [ -76.436825991301603, 35.919522000243902 ], [ -76.437762991464709, 35.918598999959187 ], [ -76.43788899101483, 35.916222000018024 ], [ -76.435398990670677, 35.904111999854145 ], [ -76.436972990674334, 35.900653999471309 ], [ -76.437213990665654, 35.893975000084744 ], [ -76.451765991031365, 35.902218999813414 ], [ -76.457281991327108, 35.909159999917044 ], [ -76.467394990858537, 35.915169999986027 ], [ -76.470950990665514, 35.916082999642491 ], [ -76.470847991330828, 35.91463999988953 ], [ -76.474295990872136, 35.912805999712305 ], [ -76.491101990679027, 35.834475999968696 ], [ -76.496381990745675, 35.834589000064781 ], [ -76.510633991660299, 35.827789999997236 ], [ -76.513697991424166, 35.827415999835068 ], [ -76.518774991515855, 35.787953000119927 ], [ -76.525602990799499, 35.77739700024167 ], [ -76.527264990890629, 35.773083999676871 ], [ -76.526447990712924, 35.767656999784393 ], [ -76.51578999106917, 35.755703999902202 ], [ -76.508318991732622, 35.751123999676444 ], [ -76.494150991626867, 35.745605000201152 ], [ -76.504061991426028, 35.703206000273653 ] ] ] } },
{ "type": "Feature", "properties": { "county": "WASHINGTON", "precinct": "SC", "enr_desc": "Scuppernong", "winner": "Julie Tallerico Simpson", "winner_votes": 48, "winner_share": 56.470588235294116, "runner_up": "Lois Clark", "runner_up_votes": 37, "runner_up_share": 43.529411764705884, "contest_votes": 85, "margin_of_victory": 12.941176470588232, "is_tie": false, "results": [ { "candidate": "Julie Tallerico Simpson", "votes": 48, "share": 56.470588235294116 }, { "candidate": "Lois Clark", "votes": 37, "share": 43.529411764705884 } ], "participated": true, "map_key": "WASHINGTON_SC" }, "geometry": { "type": "Polygon", "coordinates": [ [ [ -76.380008991409369, 35.914665999406857 ], [ -76.373103991529746, 35.899226999553584 ], [ -76.369645991570081, 35.883232999659462 ], [ -76.360221991426272, 35.875569999886039 ], [ -76.353553991130269, 35.861301000228238 ], [ -76.405602990918553, 35.786293999608901 ], [ -76.405970991390362, 35.697578999436729 ], [ -76.504061991426028, 35.703206000273653 ], [ -76.494150991626867, 35.745605000201152 ], [ -76.508318991732622, 35.751123999676444 ], [ -76.51578999106917, 35.755703999902202 ], [ -76.526447990712924, 35.767656999784393 ], [ -76.527264990890629, 35.773083999676871 ], [ -76.525602990799499, 35.77739700024167 ], [ -76.518774991515855, 35.787953000119927 ], [ -76.513697991424166, 35.827415999835068 ], [ -76.510633991660299, 35.827789999997236 ], [ -76.496381990745675, 35.834589000064781 ], [ -76.491101990679027, 35.834475999968696 ], [ -76.474295990872136, 35.912805999712305 ], [ -76.470847991330828, 35.91463999988953 ], [ -76.470950990665514, 35.916082999642491 ], [ -76.467394990858537, 35.915169999986027 ], [ -76.457281991327108, 35.909159999917044 ], [ -76.451765991031365, 35.902218999813414 ], [ -76.437213990665654, 35.893975000084744 ], [ -76.436972990674334, 35.900653999471309 ], [ -76.435398990670677, 35.904111999854145 ], [ -76.43788899101483, 35.916222000018024 ], [ -76.437762991464709, 35.918598999959187 ], [ -76.436825991301603, 35.919522000243902 ], [ -76.43034499135085, 35.919243999718006 ], [ -76.428007990960936, 35.920781999414352 ], [ -76.421608991514304, 35.920244000237084 ], [ -76.416859991061159, 35.921111999758594 ], [ -76.417008991586826, 35.92229499951884 ], [ -76.415972991237481, 35.923187000043043 ], [ -76.406500991211018, 35.922451999757172 ], [ -76.402323991438621, 35.92344300003888 ], [ -76.398437991616547, 35.92252300025762 ], [ -76.391365990813455, 35.923078999992775 ], [ -76.389747990789374, 35.922131999765256 ], [ -76.387878991107272, 35.918261000203792 ], [ -76.384606990944732, 35.915344000122154 ], [ -76.380008991409369, 35.914665999406857 ] ] ] } }
]
}
