{
"type": "FeatureCollection",
"name": "watauga_county_board_of_education_district_01",
"crs": { "type": "name", "properties": { "name": "urn:ogc:def:crs:OGC:1.3:CRS84" } },
"features": [
{ "type": "Feature", "properties": { "county": null, "precinct": null, "enr_desc": "Bald Mountain", "winner": null, "winner_votes": null, "winner_share": null, "runner_up": null, "runner_up_votes": null, "runner_up_share": null, "contest_votes": null, "margin_of_victory": null, "is_tie": false, "results": null, "participated": false, "map_key": null }, "geometry": { "type": "Polygon", "coordinates": [ [ [ -81.593401990752966, 36.242922999831769 ], [ -81.594082991179448, 36.245509000466697 ], [ -81.595043990900308, 36.245943999830239 ], [ -81.620394990754875, 36.293898000128067 ], [ -81.619558991471948, 36.297128000118171 ], [ -81.622452991272937, 36.300597000587885 ], [ -81.623285990741806, 36.304679000414566 ], [ -81.625788991537476, 36.30641400031918 ], [ -81.62892299133911, 36.307141999759189 ], [ -81.635610991350276, 36.304120999784743 ], [ -81.638531991405046, 36.306585000344576 ], [ -81.639435991584435, 36.309272000396646 ], [ -81.643864991584024, 36.30986500002976 ], [ -81.646575990801551, 36.315355999951706 ], [ -81.649330990586577, 36.31857200057523 ], [ -81.648382991132067, 36.320284999811804 ], [ -81.649512990837181, 36.321750999918329 ], [ -81.650788991034531, 36.326410000514244 ], [ -81.647923991057652, 36.32816599993199 ], [ -81.646719991675596, 36.330034000349038 ], [ -81.647270990780001, 36.331757000474546 ], [ -81.650189990852056, 36.334476000407214 ], [ -81.649935990839111, 36.338716000365004 ], [ -81.644818990813292, 36.34256200050261 ], [ -81.640850990833499, 36.341346000151603 ], [ -81.639090990941796, 36.341751999858978 ], [ -81.637381991003224, 36.343378000020813 ], [ -81.635972990786513, 36.347425000493367 ], [ -81.606125990987834, 36.318298000043455 ], [ -81.59736799094253, 36.30873900000033 ], [ -81.589235991595245, 36.303089000063011 ], [ -81.585950990604658, 36.298844000075988 ], [ -81.582158991067502, 36.291111000351357 ], [ -81.57416999110778, 36.283720999838657 ], [ -81.573979990882236, 36.281628000577122 ], [ -81.571480991014937, 36.279868000463317 ], [ -81.566571991182997, 36.27242299998646 ], [ -81.582437991656008, 36.265473000463111 ], [ -81.593401990752966, 36.242922999831769 ] ] ] } },
{ "type": "Feature", "properties": { "county": null, "precinct": null, "enr_desc": "Blue Ridge", "winner": null, "winner_votes": null, "winner_share": null, "runner_up": null, "runner_up_votes": null, "runner_up_share": null, "contest_votes": null, "margin_of_victory": null, "is_tie": false, "results": null, "participated": false, "map_key": null }, "geometry": { "type": "Polygon", "coordinates": [ [ [ -81.652446990864831, 36.193082000584347 ], [ -81.649109991645574, 36.193701000294666 ], [ -81.645315990613639, 36.191947000576754 ], [ -81.634701990988745, 36.204183000585246 ], [ -81.62458499059727, 36.199024000629436 ], [ -81.621960991159725, 36.199249000390061 ], [ -81.618608991444106, 36.198282000197949 ], [ -81.599969990621361, 36.199291999978151 ], [ -81.60013799140691, 36.20287400032467 ], [ -81.551106991627094, 36.146148000306205 ], [ -81.546549991201417, 36.145985000382169 ], [ -81.543847991682796, 36.144238000288276 ], [ -81.543223990765014, 36.142920000533358 ], [ -81.541746990996529, 36.143080000323614 ], [ -81.537902991007115, 36.140949999920394 ], [ -81.533075990794018, 36.139229000306791 ], [ -81.531895991217667, 36.139543999740901 ], [ -81.527051990650335, 36.137242000092336 ], [ -81.527151991491706, 36.136220000181389 ], [ -81.524443991581563, 36.132970000069484 ], [ -81.521365991196788, 36.130867999843829 ], [ -81.545487991230317, 36.117475000578665 ], [ -81.654904991236407, 36.118379999771101 ], [ -81.652656991312853, 36.124902999761076 ], [ -81.651629991438057, 36.124887000560392 ], [ -81.651814991551191, 36.129627000076397 ], [ -81.650362990833273, 36.130483000196897 ], [ -81.650770990724965, 36.131936000153949 ], [ -81.652573991524534, 36.131912000248754 ], [ -81.651399990691047, 36.136336999880584 ], [ -81.648911991599661, 36.137245000423235 ], [ -81.644381990689567, 36.136132000132726 ], [ -81.640619991654063, 36.137627000175222 ], [ -81.640242990710107, 36.13876500042371 ], [ -81.64626699137149, 36.152499999782776 ], [ -81.644966991506479, 36.153938000605393 ], [ -81.64621199139998, 36.157642000524604 ], [ -81.645418990911509, 36.15883999999977 ], [ -81.645905991596251, 36.159961000210728 ], [ -81.642488991109332, 36.162670000164461 ], [ -81.647759990624834, 36.166259999991823 ], [ -81.646503991602046, 36.170404000266487 ], [ -81.644951990946254, 36.171073999978972 ], [ -81.648223990991937, 36.174477000074162 ], [ -81.646377990718449, 36.179735999831493 ], [ -81.648064990931843, 36.181577000541878 ], [ -81.65097299154759, 36.180571999920836 ], [ -81.65343299084968, 36.182111999970651 ], [ -81.652247991478461, 36.183739999940286 ], [ -81.653845991550369, 36.185562999809811 ], [ -81.653390990651317, 36.187031000124257 ], [ -81.658840991162322, 36.190169999955195 ], [ -81.657341991538999, 36.191522000077555 ], [ -81.655171991087343, 36.191520999762595 ], [ -81.652446990864831, 36.193082000584347 ] ] ] } },
{ "type": "Feature", "properties": { "county": null, "precinct": null, "enr_desc": "Beaver Dam", "winner": null, "winner_votes": null, "winner_share": null, "runner_up": null, "runner_up_votes": null, "runner_up_share": null, "contest_votes": null, "margin_of_victory": null, "is_tie": false, "results": null, "participated": false, "map_key": null }, "geometry": { "type": "Polygon", "coordinates": [ [ [ -81.804904991691856, 36.276789000494993 ], [ -81.816187990909285, 36.279156999969977 ], [ -81.820464991059112, 36.278527000302923 ], [ -81.822468991477479, 36.277213000110457 ], [ -81.827096990746696, 36.277716000055285 ], [ -81.828826991158735, 36.276546999796764 ], [ -81.825457991076419, 36.271812000486058 ], [ -81.825216991225474, 36.270210000623628 ], [ -81.826236990961718, 36.268743999972024 ], [ -81.828478991520228, 36.269768000050156 ], [ -81.832040991565663, 36.273432000618897 ], [ -81.836031991467692, 36.272797999770653 ], [ -81.839144991092965, 36.274052000133779 ], [ -81.848907991414634, 36.272380000459663 ], [ -81.853494991240552, 36.26816800020422 ], [ -81.859702991313412, 36.268633999817574 ], [ -81.864007991481685, 36.267361000358505 ], [ -81.869054990736814, 36.268888000380208 ], [ -81.871857990871632, 36.271509000427407 ], [ -81.874837990860925, 36.267025000274991 ], [ -81.878940991621363, 36.264948000276355 ], [ -81.880405991063611, 36.265249000415267 ], [ -81.881731990664107, 36.267861999819445 ], [ -81.884255990995285, 36.269173000195757 ], [ -81.889170991312426, 36.265749999970495 ], [ -81.893488990805963, 36.264531000304551 ], [ -81.895478991256851, 36.269470000485072 ], [ -81.895356991538151, 36.272115999986084 ], [ -81.900071991504291, 36.280731999947193 ], [ -81.902448990946937, 36.281034000651665 ], [ -81.907324991344495, 36.278475000005564 ], [ -81.910123991696949, 36.280678000633316 ], [ -81.912612991302979, 36.281303999806411 ], [ -81.917575991443186, 36.28550700048276 ], [ -81.918118990730719, 36.287128999997421 ], [ -81.908166991410539, 36.301965999864137 ], [ -81.898345990673647, 36.307252000594779 ], [ -81.8945479916121, 36.307202000424752 ], [ -81.887235990858613, 36.309237999795087 ], [ -81.884017991370484, 36.312136000575343 ], [ -81.879519990915483, 36.313789000191392 ], [ -81.876641991493543, 36.31580500042481 ], [ -81.875049991397972, 36.318566000502344 ], [ -81.8666279910546, 36.326223000300615 ], [ -81.865508991255297, 36.329193000177462 ], [ -81.859128990915096, 36.332831000501351 ], [ -81.854987991253523, 36.337211000173895 ], [ -81.853552990582003, 36.336437000301572 ], [ -81.851910991008751, 36.337012000066899 ], [ -81.849401991435045, 36.338980000479637 ], [ -81.848158991168788, 36.338909000640299 ], [ -81.833048991657094, 36.34733200056052 ], [ -81.826151991254903, 36.348890000239827 ], [ -81.822171990901822, 36.348814000593471 ], [ -81.815921991171763, 36.351122000521592 ], [ -81.810275991037116, 36.351850000641001 ], [ -81.80807199163128, 36.354191000639986 ], [ -81.802918990611801, 36.35554900020945 ], [ -81.800931991063436, 36.357999000423163 ], [ -81.797279990985942, 36.358545000402984 ], [ -81.795258991073467, 36.361686999787096 ], [ -81.793084990753613, 36.362408000139112 ], [ -81.793546990696996, 36.358812000169593 ], [ -81.792322990865628, 36.356649000053395 ], [ -81.790755991651153, 36.355642000526359 ], [ -81.790887991184505, 36.351131000046372 ], [ -81.789932990757961, 36.348530000493966 ], [ -81.788599991537865, 36.348163000215592 ], [ -81.790950991043943, 36.345040999767463 ], [ -81.794345991120409, 36.342355999757196 ], [ -81.796013991270726, 36.339245999931144 ], [ -81.794728990612015, 36.335993000613541 ], [ -81.794841991138981, 36.330712000622036 ], [ -81.793169991530263, 36.329313000442504 ], [ -81.793788991508961, 36.327618999798702 ], [ -81.792002990736052, 36.325813999908746 ], [ -81.791117991502162, 36.323298000588764 ], [ -81.788674991286172, 36.321613999970793 ], [ -81.787962990619292, 36.318912000450837 ], [ -81.788522991389158, 36.317119000063592 ], [ -81.791713991017659, 36.316467000401175 ], [ -81.793110990885651, 36.313133000176698 ], [ -81.797437990931201, 36.313041000197366 ], [ -81.795735991130911, 36.306777999862106 ], [ -81.796137990976973, 36.302275000025389 ], [ -81.795346990819283, 36.299207000479662 ], [ -81.797769991660431, 36.294250000115291 ], [ -81.801665991238139, 36.291619000593393 ], [ -81.801831990654563, 36.290389000525238 ], [ -81.798660991472531, 36.287362000131715 ], [ -81.800895991283468, 36.284711999992808 ], [ -81.802062991495589, 36.280184999767606 ], [ -81.804568990926953, 36.278366000244183 ], [ -81.804904991691856, 36.276789000494993 ] ] ] } },
{ "type": "Feature", "properties": { "county": null, "precinct": null, "enr_desc": "Blowing Rock", "winner": null, "winner_votes": null, "winner_share": null, "runner_up": null, "runner_up_votes": null, "runner_up_share": null, "contest_votes": null, "margin_of_victory": null, "is_tie": false, "results": null, "participated": false, "map_key": null }, "geometry": { "type": "Polygon", "coordinates": [ [ [ -81.779931990718509, 36.114014000563877 ], [ -81.779394991568523, 36.116486000471042 ], [ -81.781435990753508, 36.118569999841824 ], [ -81.781154990749286, 36.119994000350253 ], [ -81.779096990803239, 36.121633000073082 ], [ -81.776243990640126, 36.121619000661667 ], [ -81.773284990840608, 36.123033000613276 ], [ -81.772962990996447, 36.126114000118378 ], [ -81.769577991301887, 36.129080000122542 ], [ -81.758513991407042, 36.132107000090407 ], [ -81.751445991318519, 36.131311999888723 ], [ -81.746508990930764, 36.132237000596092 ], [ -81.742679990707813, 36.133619999919098 ], [ -81.738298990677649, 36.137417999901821 ], [ -81.734511990760339, 36.139393000518126 ], [ -81.732831991190793, 36.13953899988266 ], [ -81.72937099075881, 36.137974000305682 ], [ -81.725430990825203, 36.138177000524863 ], [ -81.718872990774074, 36.143136999816839 ], [ -81.713522990692496, 36.145687000197199 ], [ -81.710570991171082, 36.145426000543139 ], [ -81.70872999126847, 36.161344000135678 ], [ -81.711685991178356, 36.165414000405825 ], [ -81.707772991298185, 36.172698999840996 ], [ -81.705648991374559, 36.174842999825096 ], [ -81.698922990726317, 36.17503999989394 ], [ -81.695502990834569, 36.176166000315945 ], [ -81.69318499144461, 36.175647000428278 ], [ -81.686366990704002, 36.181278000461646 ], [ -81.684496990999065, 36.183721000332021 ], [ -81.681126990634155, 36.182696999812634 ], [ -81.676229991654921, 36.183410999866823 ], [ -81.6750139914313, 36.185058999953689 ], [ -81.671476990662626, 36.186120000371425 ], [ -81.671174990873936, 36.190759999944028 ], [ -81.6687079905969, 36.192613999887108 ], [ -81.663601990991111, 36.191944000278902 ], [ -81.6582159913482, 36.193418999771922 ], [ -81.652446990864831, 36.193082000584347 ], [ -81.655171991087343, 36.191520999762595 ], [ -81.657341991538999, 36.191522000077555 ], [ -81.658840991162322, 36.190169999955195 ], [ -81.653390990651317, 36.187031000124257 ], [ -81.653845991550369, 36.185562999809811 ], [ -81.652247991478461, 36.183739999940286 ], [ -81.65343299084968, 36.182111999970651 ], [ -81.65097299154759, 36.180571999920836 ], [ -81.648064990931843, 36.181577000541878 ], [ -81.646377990718449, 36.179735999831493 ], [ -81.648223990991937, 36.174477000074162 ], [ -81.644951990946254, 36.171073999978972 ], [ -81.646503991602046, 36.170404000266487 ], [ -81.647759990624834, 36.166259999991823 ], [ -81.642488991109332, 36.162670000164461 ], [ -81.645905991596251, 36.159961000210728 ], [ -81.645418990911509, 36.15883999999977 ], [ -81.64621199139998, 36.157642000524604 ], [ -81.644966991506479, 36.153938000605393 ], [ -81.64626699137149, 36.152499999782776 ], [ -81.640242990710107, 36.13876500042371 ], [ -81.640619991654063, 36.137627000175222 ], [ -81.644381990689567, 36.136132000132726 ], [ -81.648911991599661, 36.137245000423235 ], [ -81.651399990691047, 36.136336999880584 ], [ -81.652573991524534, 36.131912000248754 ], [ -81.650770990724965, 36.131936000153949 ], [ -81.650362990833273, 36.130483000196897 ], [ -81.651814991551191, 36.129627000076397 ], [ -81.651629991438057, 36.124887000560392 ], [ -81.652656991312853, 36.124902999761076 ], [ -81.654904991236407, 36.118379999771101 ], [ -81.660631991586087, 36.118399000598814 ], [ -81.662875991421572, 36.119956000311731 ], [ -81.669901991607375, 36.120558000377663 ], [ -81.674832991593348, 36.12261900022834 ], [ -81.779931990718509, 36.114014000563877 ] ] ] } },
{ "type": "Feature", "properties": { "county": "WATAUGA", "precinct": "5", "enr_desc": "Boone 1", "winner": "Ellen Lamont", "winner_votes": 220.0, "winner_share": 62.678062678062673, "runner_up": "Yolanda Adams", "runner_up_votes": 91.0, "runner_up_share": 25.925925925925924, "contest_votes": 351.0, "margin_of_victory": 36.752136752136749, "is_tie": false, "results": [ { "candidate": "Ellen Lamont", "votes": 220, "share": 62.67806267806267 }, { "candidate": "Yolanda Adams", "votes": 91, "share": 25.925925925925924 }, { "candidate": "Carrie McClain", "votes": 40, "share": 11.396011396011396 } ], "participated": true, "map_key": "WATAUGA_5" }, "geometry": { "type": "Polygon", "coordinates": [ [ [ -81.667702990647228, 36.216572000464772 ], [ -81.669010990622937, 36.216442000207181 ], [ -81.678271990641434, 36.216590000375668 ], [ -81.682556990765605, 36.217835000541314 ], [ -81.686041991275545, 36.219886999959925 ], [ -81.695580991080689, 36.22208800055472 ], [ -81.695564991113656, 36.22547899991303 ], [ -81.682154991547918, 36.225636999851801 ], [ -81.674509991484101, 36.22166399986412 ], [ -81.673359991649122, 36.223970000462892 ], [ -81.671581990753751, 36.22174199976827 ], [ -81.671969990912643, 36.221041000456431 ], [ -81.667702990647228, 36.216572000464772 ] ] ] } },
{ "type": "Feature", "properties": { "county": "WATAUGA", "precinct": "6", "enr_desc": "Boone 2", "winner": "Ellen Lamont", "winner_votes": 159.0, "winner_share": 58.029197080291972, "runner_up": "Yolanda Adams", "runner_up_votes": 84.0, "runner_up_share": 30.656934306569344, "contest_votes": 274.0, "margin_of_victory": 27.372262773722628, "is_tie": false, "results": [ { "candidate": "Ellen Lamont", "votes": 159, "share": 58.02919708029197 }, { "candidate": "Yolanda Adams", "votes": 84, "share": 30.656934306569344 }, { "candidate": "Carrie McClain", "votes": 31, "share": 11.313868613138686 } ], "participated": true, "map_key": "WATAUGA_6" }, "geometry": { "type": "Polygon", "coordinates": [ [ [ -81.66959799153031, 36.205616000425408 ], [ -81.670300990958708, 36.204880000543554 ], [ -81.676922990805139, 36.211331000326453 ], [ -81.68158399095789, 36.213148000422592 ], [ -81.683748991091633, 36.216475999946802 ], [ -81.687047991399695, 36.218609000432679 ], [ -81.686041991275545, 36.219886999959925 ], [ -81.682556990765605, 36.217835000541314 ], [ -81.678271990641434, 36.216590000375668 ], [ -81.669010990622937, 36.216442000207181 ], [ -81.66700899075542, 36.20852400028599 ], [ -81.66959799153031, 36.205616000425408 ] ] ] } },
{ "type": "Feature", "properties": { "county": "WATAUGA", "precinct": "7", "enr_desc": "Brushy Fork", "winner": "Ellen Lamont", "winner_votes": 49.0, "winner_share": 49.494949494949495, "runner_up": "Yolanda Adams", "runner_up_votes": 27.0, "runner_up_share": 27.27272727272727, "contest_votes": 99.0, "margin_of_victory": 22.222222222222225, "is_tie": false, "results": [ { "candidate": "Ellen Lamont", "votes": 49, "share": 49.494949494949495 }, { "candidate": "Yolanda Adams", "votes": 27, "share": 27.27272727272727 }, { "candidate": "Carrie McClain", "votes": 23, "share": 23.232323232323232 } ], "participated": true, "map_key": "WATAUGA_7" }, "geometry": { "type": "Polygon", "coordinates": [ [ [ -81.776898991303668, 36.24086999995238 ], [ -81.776437991368681, 36.242245999826878 ], [ -81.774172991241855, 36.244067999940654 ], [ -81.773499990845593, 36.246495000093987 ], [ -81.774228990786952, 36.249132999899402 ], [ -81.776257991457243, 36.252098999877006 ], [ -81.777729991119031, 36.257990999824052 ], [ -81.77944899126453, 36.260517999998619 ], [ -81.774685990620611, 36.264124000500097 ], [ -81.765717990808611, 36.265453000303786 ], [ -81.763920991078308, 36.264033000501989 ], [ -81.763534990738492, 36.262421000091557 ], [ -81.760146991226534, 36.260419000072936 ], [ -81.762382991485694, 36.259756000162284 ], [ -81.763516991529997, 36.257857999919523 ], [ -81.761371990814268, 36.256821000225123 ], [ -81.75372399085748, 36.256605000331042 ], [ -81.747441991550787, 36.252899000078685 ], [ -81.74349499083732, 36.253654000554263 ], [ -81.738997991102138, 36.253225999985617 ], [ -81.735604990980633, 36.255132999793304 ], [ -81.732494990856367, 36.254966000395648 ], [ -81.729305990932033, 36.253638000575357 ], [ -81.72594599094225, 36.253920000209597 ], [ -81.724728991216494, 36.250892000125923 ], [ -81.72660799114729, 36.247579000363558 ], [ -81.724333990655779, 36.243550999794394 ], [ -81.714027991554701, 36.241441000536298 ], [ -81.710148991105768, 36.239207000011668 ], [ -81.705776991682157, 36.235231000194105 ], [ -81.700177991475485, 36.234737000365577 ], [ -81.698393991241517, 36.233188000347994 ], [ -81.691035990618815, 36.231396999948174 ], [ -81.688855991412893, 36.231953000545026 ], [ -81.684536991307354, 36.230700000620011 ], [ -81.676344991633528, 36.230745000020832 ], [ -81.675575990863592, 36.226886999992757 ], [ -81.673359991649122, 36.223970000462892 ], [ -81.674509991484101, 36.22166399986412 ], [ -81.682154991547918, 36.225636999851801 ], [ -81.695564991113656, 36.22547899991303 ], [ -81.695580991080689, 36.22208800055472 ], [ -81.69039899125849, 36.215713000505396 ], [ -81.698507990848285, 36.215971999952835 ], [ -81.699957991303819, 36.212971000491173 ], [ -81.699301990905241, 36.209468000133697 ], [ -81.699980990785193, 36.207645000256861 ], [ -81.706886991551656, 36.205567000162212 ], [ -81.70602199125068, 36.20172600053121 ], [ -81.704200990705004, 36.200694000328546 ], [ -81.706679991399483, 36.200563000078574 ], [ -81.707493991352649, 36.199716000450387 ], [ -81.707276991162431, 36.198649999926126 ], [ -81.712101991286062, 36.195909999865108 ], [ -81.715559991066698, 36.19650900034906 ], [ -81.717021991433811, 36.196011000614725 ], [ -81.721007990993897, 36.191905000605296 ], [ -81.72011099118015, 36.190064000606988 ], [ -81.721943991338037, 36.186959000603608 ], [ -81.718236991240317, 36.1822540003621 ], [ -81.716382991147896, 36.181215000171989 ], [ -81.717431990757134, 36.178507000241403 ], [ -81.715953990681768, 36.177624000394765 ], [ -81.717348991625926, 36.174088000011977 ], [ -81.716555991520366, 36.171842000033344 ], [ -81.717498991674347, 36.171231000130199 ], [ -81.731446990788271, 36.187270999854277 ], [ -81.740584991024178, 36.218660000238735 ], [ -81.75712499085256, 36.228767000337612 ], [ -81.754676991234945, 36.232221000030201 ], [ -81.758412991547658, 36.234931000129919 ], [ -81.760558990636582, 36.234852000617401 ], [ -81.766253990702907, 36.236588999950712 ], [ -81.772799991333741, 36.241095999803754 ], [ -81.776898991303668, 36.24086999995238 ] ] ] } },
{ "type": "Feature", "properties": { "county": null, "precinct": null, "enr_desc": "Cove Creek", "winner": null, "winner_votes": null, "winner_share": null, "runner_up": null, "runner_up_votes": null, "runner_up_share": null, "contest_votes": null, "margin_of_victory": null, "is_tie": false, "results": null, "participated": false, "map_key": null }, "geometry": { "type": "Polygon", "coordinates": [ [ [ -81.725672991527063, 36.25513099989427 ], [ -81.72594599094225, 36.253920000209597 ], [ -81.729305990932033, 36.253638000575357 ], [ -81.732494990856367, 36.254966000395648 ], [ -81.735604990980633, 36.255132999793304 ], [ -81.738997991102138, 36.253225999985617 ], [ -81.74349499083732, 36.253654000554263 ], [ -81.747441991550787, 36.252899000078685 ], [ -81.75372399085748, 36.256605000331042 ], [ -81.761371990814268, 36.256821000225123 ], [ -81.763516991529997, 36.257857999919523 ], [ -81.762382991485694, 36.259756000162284 ], [ -81.760146991226534, 36.260419000072936 ], [ -81.763534990738492, 36.262421000091557 ], [ -81.763920991078308, 36.264033000501989 ], [ -81.765717990808611, 36.265453000303786 ], [ -81.774685990620611, 36.264124000500097 ], [ -81.77944899126453, 36.260517999998619 ], [ -81.785913991462891, 36.256847000600239 ], [ -81.788375990830474, 36.258000000415862 ], [ -81.789974991149705, 36.260319000005424 ], [ -81.795640990966064, 36.261910000573977 ], [ -81.800489991074912, 36.26646200036285 ], [ -81.799528990894132, 36.270247000506387 ], [ -81.804904991691856, 36.276789000494993 ], [ -81.804568990926953, 36.278366000244183 ], [ -81.802062991495589, 36.280184999767606 ], [ -81.800895991283468, 36.284711999992808 ], [ -81.798660991472531, 36.287362000131715 ], [ -81.801831990654563, 36.290389000525238 ], [ -81.801665991238139, 36.291619000593393 ], [ -81.797769991660431, 36.294250000115291 ], [ -81.795346990819283, 36.299207000479662 ], [ -81.796137990976973, 36.302275000025389 ], [ -81.795735991130911, 36.306777999862106 ], [ -81.797437990931201, 36.313041000197366 ], [ -81.793110990885651, 36.313133000176698 ], [ -81.791713991017659, 36.316467000401175 ], [ -81.788522991389158, 36.317119000063592 ], [ -81.787962990619292, 36.318912000450837 ], [ -81.788674991286172, 36.321613999970793 ], [ -81.791117991502162, 36.323298000588764 ], [ -81.792002990736052, 36.325813999908746 ], [ -81.793788991508961, 36.327618999798702 ], [ -81.793169991530263, 36.329313000442504 ], [ -81.794841991138981, 36.330712000622036 ], [ -81.794728990612015, 36.335993000613541 ], [ -81.796013991270726, 36.339245999931144 ], [ -81.794345991120409, 36.342355999757196 ], [ -81.790950991043943, 36.345040999767463 ], [ -81.788599991537865, 36.348163000215592 ], [ -81.782566991273995, 36.347524000122874 ], [ -81.778888990794584, 36.348566000419638 ], [ -81.774076991572571, 36.343824000327729 ], [ -81.769169990799895, 36.342462999824491 ], [ -81.768926991099335, 36.340974999856059 ], [ -81.764953990952705, 36.338721999968797 ], [ -81.76206899144664, 36.340135000406946 ], [ -81.759392991054014, 36.340050000228501 ], [ -81.757712990630367, 36.33966599998098 ], [ -81.754469991639027, 36.336999000202418 ], [ -81.750226990977922, 36.337857000051258 ], [ -81.744274990904117, 36.337854000041581 ], [ -81.739605990725991, 36.339757000195888 ], [ -81.736028991042701, 36.342972000207737 ], [ -81.731204991107973, 36.341342000399592 ], [ -81.727837991022426, 36.341383000464162 ], [ -81.723594991070286, 36.338981000417732 ], [ -81.721030991259497, 36.338677999744419 ], [ -81.718493991172963, 36.336122000363801 ], [ -81.708955991263835, 36.335178000492711 ], [ -81.707474990891797, 36.335225000485401 ], [ -81.707449991350842, 36.335849000406945 ], [ -81.706765991570421, 36.335214999945464 ], [ -81.706872991454929, 36.332911000017532 ], [ -81.707558991009009, 36.330880000175448 ], [ -81.706992990703114, 36.327616999873946 ], [ -81.70907399064528, 36.324341999767981 ], [ -81.709511990662122, 36.320676000124422 ], [ -81.711021991130409, 36.318497000402786 ], [ -81.711322991256822, 36.314502999769665 ], [ -81.712875991682992, 36.313269000532841 ], [ -81.717408991441047, 36.312034000529643 ], [ -81.719053990584285, 36.310531000167408 ], [ -81.721368991070548, 36.303353999777855 ], [ -81.724344991468826, 36.299187000049891 ], [ -81.724170991476583, 36.296210000414291 ], [ -81.728216991419458, 36.291723000063051 ], [ -81.728320991295774, 36.290395999883216 ], [ -81.726882991199048, 36.287654000390575 ], [ -81.728178990688789, 36.282815000097209 ], [ -81.726146991548831, 36.276868000456588 ], [ -81.733117990676774, 36.275056000357559 ], [ -81.734229991451045, 36.271729000208623 ], [ -81.733192991173553, 36.270193999956902 ], [ -81.73788899157384, 36.269508000399767 ], [ -81.73669999074923, 36.26713700056753 ], [ -81.73374399095934, 36.26442400011608 ], [ -81.730486990898711, 36.264404000601154 ], [ -81.728374991209662, 36.263294000045043 ], [ -81.725672991527063, 36.25513099989427 ] ] ] } },
{ "type": "Feature", "properties": { "county": null, "precinct": null, "enr_desc": "Elk", "winner": null, "winner_votes": null, "winner_share": null, "runner_up": null, "runner_up_votes": null, "runner_up_share": null, "contest_votes": null, "margin_of_victory": null, "is_tie": false, "results": null, "participated": false, "map_key": null }, "geometry": { "type": "Polygon", "coordinates": [ [ [ -81.486838991599697, 36.159909000246131 ], [ -81.500365991103081, 36.142527000016955 ], [ -81.521365991196788, 36.130867999843829 ], [ -81.524443991581563, 36.132970000069484 ], [ -81.527151991491706, 36.136220000181389 ], [ -81.527051990650335, 36.137242000092336 ], [ -81.531895991217667, 36.139543999740901 ], [ -81.533075990794018, 36.139229000306791 ], [ -81.537902991007115, 36.140949999920394 ], [ -81.541746990996529, 36.143080000323614 ], [ -81.543223990765014, 36.142920000533358 ], [ -81.543847991682796, 36.144238000288276 ], [ -81.546549991201417, 36.145985000382169 ], [ -81.551106991627094, 36.146148000306205 ], [ -81.60013799140691, 36.20287400032467 ], [ -81.584321991099927, 36.212991000316627 ], [ -81.582459990680036, 36.21768600061732 ], [ -81.583959991538421, 36.21946199980713 ], [ -81.5842169908112, 36.222088000244057 ], [ -81.533084991213485, 36.224918000602962 ], [ -81.532783990732199, 36.221639000587572 ], [ -81.530804990844899, 36.219993000199693 ], [ -81.530641991226176, 36.217541000007891 ], [ -81.528206991371988, 36.215627999786506 ], [ -81.52433499154516, 36.210074000250401 ], [ -81.52216599136321, 36.210059000373022 ], [ -81.519615990767875, 36.20842899990712 ], [ -81.520281990759997, 36.205543000638919 ], [ -81.519701990883163, 36.203380999796124 ], [ -81.511808990953369, 36.199989000162162 ], [ -81.512193990643595, 36.198489999899202 ], [ -81.508476990818039, 36.196058000111485 ], [ -81.50764799150943, 36.193676000289877 ], [ -81.50460599078022, 36.193219000197779 ], [ -81.502435991675597, 36.191485000150699 ], [ -81.503530990941996, 36.190935000628471 ], [ -81.503752991142832, 36.188115000146979 ], [ -81.50199899127017, 36.185208000095585 ], [ -81.49994399140445, 36.184198999910237 ], [ -81.493682990687049, 36.17467800014083 ], [ -81.494312990885589, 36.171197000333684 ], [ -81.489990990889979, 36.16769900026673 ], [ -81.488714990601878, 36.164457000047712 ], [ -81.488857991053763, 36.162486000021921 ], [ -81.486838991599697, 36.159909000246131 ] ] ] } },
{ "type": "Feature", "properties": { "county": null, "precinct": null, "enr_desc": "Laurel Creek", "winner": null, "winner_votes": null, "winner_share": null, "runner_up": null, "runner_up_votes": null, "runner_up_share": null, "contest_votes": null, "margin_of_victory": null, "is_tie": false, "results": null, "participated": false, "map_key": null }, "geometry": { "type": "Polygon", "coordinates": [ [ [ -81.907947991607983, 36.233988999893164 ], [ -81.907606990603057, 36.238754000620979 ], [ -81.902236991611204, 36.239175000202181 ], [ -81.897025991474223, 36.242738000400067 ], [ -81.89988899070967, 36.248600000254015 ], [ -81.903389991600349, 36.249370000148772 ], [ -81.903942991013679, 36.251427000173472 ], [ -81.90220399082078, 36.254301999812867 ], [ -81.900946990706259, 36.252165999942434 ], [ -81.900036991010538, 36.254011000330735 ], [ -81.897833991573336, 36.254110000018891 ], [ -81.896674990818454, 36.255080000492676 ], [ -81.896077991255169, 36.256429999927782 ], [ -81.897931990654641, 36.257522000397188 ], [ -81.895856990785418, 36.258250000179913 ], [ -81.895508991211145, 36.260350000509462 ], [ -81.897059991315047, 36.262010000489397 ], [ -81.894310990901175, 36.263195000395875 ], [ -81.893488990805963, 36.264531000304551 ], [ -81.889170991312426, 36.265749999970495 ], [ -81.884255990995285, 36.269173000195757 ], [ -81.881731990664107, 36.267861999819445 ], [ -81.880405991063611, 36.265249000415267 ], [ -81.878940991621363, 36.264948000276355 ], [ -81.874837990860925, 36.267025000274991 ], [ -81.871857990871632, 36.271509000427407 ], [ -81.869054990736814, 36.268888000380208 ], [ -81.864007991481685, 36.267361000358505 ], [ -81.859702991313412, 36.268633999817574 ], [ -81.853494991240552, 36.26816800020422 ], [ -81.848907991414634, 36.272380000459663 ], [ -81.839144991092965, 36.274052000133779 ], [ -81.836031991467692, 36.272797999770653 ], [ -81.832040991565663, 36.273432000618897 ], [ -81.828478991520228, 36.269768000050156 ], [ -81.826236990961718, 36.268743999972024 ], [ -81.825216991225474, 36.270210000623628 ], [ -81.825457991076419, 36.271812000486058 ], [ -81.828826991158735, 36.276546999796764 ], [ -81.827096990746696, 36.277716000055285 ], [ -81.822468991477479, 36.277213000110457 ], [ -81.820464991059112, 36.278527000302923 ], [ -81.816187990909285, 36.279156999969977 ], [ -81.804904991691856, 36.276789000494993 ], [ -81.799528990894132, 36.270247000506387 ], [ -81.800489991074912, 36.26646200036285 ], [ -81.795640990966064, 36.261910000573977 ], [ -81.789974991149705, 36.260319000005424 ], [ -81.788375990830474, 36.258000000415862 ], [ -81.785913991462891, 36.256847000600239 ], [ -81.77944899126453, 36.260517999998619 ], [ -81.777729991119031, 36.257990999824052 ], [ -81.776257991457243, 36.252098999877006 ], [ -81.774228990786952, 36.249132999899402 ], [ -81.773499990845593, 36.246495000093987 ], [ -81.774172991241855, 36.244067999940654 ], [ -81.776437991368681, 36.242245999826878 ], [ -81.776898991303668, 36.24086999995238 ], [ -81.77879399153899, 36.238741000190274 ], [ -81.780423990796592, 36.239047000636148 ], [ -81.784235991196965, 36.242762000310677 ], [ -81.792846991425861, 36.241196999971969 ], [ -81.797090991377615, 36.244737000473897 ], [ -81.797949990721023, 36.243506000568786 ], [ -81.802325990579973, 36.24164400032825 ], [ -81.803078991480362, 36.239800000404557 ], [ -81.804773991045721, 36.239203999776869 ], [ -81.806642991685365, 36.236332000319955 ], [ -81.810776990675322, 36.234753000473773 ], [ -81.812087990583265, 36.233362000046569 ], [ -81.812738990573948, 36.226524999961342 ], [ -81.814850991172577, 36.221514000567986 ], [ -81.813197991626978, 36.218304000124363 ], [ -81.859198990929372, 36.208683999771807 ], [ -81.86147299137869, 36.2091099997741 ], [ -81.864267990792911, 36.212024000451159 ], [ -81.864862991277548, 36.220493999983908 ], [ -81.870625991589591, 36.220586000106842 ], [ -81.870608991695434, 36.22132000062895 ], [ -81.873322990753024, 36.223598999838046 ], [ -81.877109990679784, 36.223930000066169 ], [ -81.877115991624891, 36.220946000022963 ], [ -81.883156990674223, 36.220684000552438 ], [ -81.884911991260765, 36.223679000640971 ], [ -81.889936991103937, 36.223807000147431 ], [ -81.893244990716568, 36.228208000253098 ], [ -81.892344991548072, 36.23068399987968 ], [ -81.900396990676086, 36.234497000406996 ], [ -81.903909990991451, 36.23531200021722 ], [ -81.907947991607983, 36.233988999893164 ] ] ] } },
{ "type": "Feature", "properties": { "county": null, "precinct": null, "enr_desc": "Meat Camp", "winner": null, "winner_votes": null, "winner_share": null, "runner_up": null, "runner_up_votes": null, "runner_up_share": null, "contest_votes": null, "margin_of_victory": null, "is_tie": false, "results": null, "participated": false, "map_key": null }, "geometry": { "type": "Polygon", "coordinates": [ [ [ -81.725672991527063, 36.25513099989427 ], [ -81.728374991209662, 36.263294000045043 ], [ -81.730486990898711, 36.264404000601154 ], [ -81.73374399095934, 36.26442400011608 ], [ -81.73669999074923, 36.26713700056753 ], [ -81.73788899157384, 36.269508000399767 ], [ -81.733192991173553, 36.270193999956902 ], [ -81.734229991451045, 36.271729000208623 ], [ -81.733117990676774, 36.275056000357559 ], [ -81.726146991548831, 36.276868000456588 ], [ -81.728178990688789, 36.282815000097209 ], [ -81.726882991199048, 36.287654000390575 ], [ -81.728320991295774, 36.290395999883216 ], [ -81.728216991419458, 36.291723000063051 ], [ -81.724170991476583, 36.296210000414291 ], [ -81.724344991468826, 36.299187000049891 ], [ -81.721368991070548, 36.303353999777855 ], [ -81.719053990584285, 36.310531000167408 ], [ -81.717408991441047, 36.312034000529643 ], [ -81.712875991682992, 36.313269000532841 ], [ -81.711322991256822, 36.314502999769665 ], [ -81.711021991130409, 36.318497000402786 ], [ -81.709511990662122, 36.320676000124422 ], [ -81.70907399064528, 36.324341999767981 ], [ -81.706992990703114, 36.327616999873946 ], [ -81.707558991009009, 36.330880000175448 ], [ -81.706872991454929, 36.332911000017532 ], [ -81.690572990986311, 36.332544999855898 ], [ -81.685615991548943, 36.329184000458149 ], [ -81.676115990768551, 36.327190000525341 ], [ -81.669776990645033, 36.327970000165351 ], [ -81.667934990598951, 36.327233000321186 ], [ -81.666300990789424, 36.32506100056699 ], [ -81.660296991246383, 36.324076999752009 ], [ -81.658237991388674, 36.324274000186932 ], [ -81.655632991287575, 36.326309999742335 ], [ -81.650788991034531, 36.326410000514244 ], [ -81.649512990837181, 36.321750999918329 ], [ -81.648382991132067, 36.320284999811804 ], [ -81.649330990586577, 36.31857200057523 ], [ -81.646575990801551, 36.315355999951706 ], [ -81.643864991584024, 36.30986500002976 ], [ -81.639435991584435, 36.309272000396646 ], [ -81.638531991405046, 36.306585000344576 ], [ -81.635610991350276, 36.304120999784743 ], [ -81.62892299133911, 36.307141999759189 ], [ -81.625788991537476, 36.30641400031918 ], [ -81.623285990741806, 36.304679000414566 ], [ -81.622452991272937, 36.300597000587885 ], [ -81.619558991471948, 36.297128000118171 ], [ -81.620394990754875, 36.293898000128067 ], [ -81.595043990900308, 36.245943999830239 ], [ -81.598382991661907, 36.246067000065651 ], [ -81.598719990865376, 36.240292000644416 ], [ -81.601982991061917, 36.239387000075205 ], [ -81.602606991617293, 36.236609000553123 ], [ -81.603668991292906, 36.236051000124945 ], [ -81.608247991028165, 36.238233000523458 ], [ -81.607827991593197, 36.240891000338429 ], [ -81.610487991061518, 36.242659000551001 ], [ -81.612861991650362, 36.246097999785327 ], [ -81.617503991265892, 36.248243000462757 ], [ -81.625892991242907, 36.248573000461782 ], [ -81.631327991540658, 36.251763000464031 ], [ -81.632970990710476, 36.25015600001727 ], [ -81.632788990980472, 36.245668999905583 ], [ -81.643591991492343, 36.24646100022548 ], [ -81.651734991041124, 36.249568000515495 ], [ -81.658528991678125, 36.250354000380916 ], [ -81.668502990874202, 36.254498000168901 ], [ -81.675791991334648, 36.254532000583701 ], [ -81.681166991522701, 36.257296000463192 ], [ -81.690326991007524, 36.257078999753148 ], [ -81.702275990944628, 36.258403999840581 ], [ -81.704676990654946, 36.257095999873052 ], [ -81.708103991400705, 36.257532000495061 ], [ -81.713262990636991, 36.256563000293696 ], [ -81.714767990770156, 36.25730100041276 ], [ -81.717039990919631, 36.2562659998773 ], [ -81.723296991318875, 36.256289000317551 ], [ -81.725672991527063, 36.25513099989427 ] ] ] } },
{ "type": "Feature", "properties": { "county": "WATAUGA", "precinct": "12", "enr_desc": "Boone 3", "winner": "Ellen Lamont", "winner_votes": 144.0, "winner_share": 52.747252747252752, "runner_up": "Yolanda Adams", "runner_up_votes": 88.0, "runner_up_share": 32.234432234432234, "contest_votes": 273.0, "margin_of_victory": 20.512820512820518, "is_tie": false, "results": [ { "candidate": "Ellen Lamont", "votes": 144, "share": 52.74725274725275 }, { "candidate": "Yolanda Adams", "votes": 88, "share": 32.234432234432234 }, { "candidate": "Carrie McClain", "votes": 41, "share": 15.018315018315018 } ], "participated": true, "map_key": "WATAUGA_12" }, "geometry": { "type": "Polygon", "coordinates": [ [ [ -81.69039899125849, 36.215713000505396 ], [ -81.695580991080689, 36.22208800055472 ], [ -81.686041991275545, 36.219886999959925 ], [ -81.687047991399695, 36.218609000432679 ], [ -81.683748991091633, 36.216475999946802 ], [ -81.68158399095789, 36.213148000422592 ], [ -81.676922990805139, 36.211331000326453 ], [ -81.670300990958708, 36.204880000543554 ], [ -81.672146990597867, 36.203603000014581 ], [ -81.677433991058464, 36.20247100031834 ], [ -81.676510990759382, 36.203677000651858 ], [ -81.677471991532187, 36.204677000360817 ], [ -81.682631991103236, 36.20511900007039 ], [ -81.682933991690518, 36.207592000448386 ], [ -81.685331990667223, 36.208555000449792 ], [ -81.69039899125849, 36.215713000505396 ] ] ] } },
{ "type": "Feature", "properties": { "county": null, "precinct": null, "enr_desc": "New River I", "winner": null, "winner_votes": null, "winner_share": null, "runner_up": null, "runner_up_votes": null, "runner_up_share": null, "contest_votes": null, "margin_of_victory": null, "is_tie": false, "results": null, "participated": false, "map_key": null }, "geometry": { "type": "Polygon", "coordinates": [ [ [ -81.652446990864831, 36.193082000584347 ], [ -81.6582159913482, 36.193418999771922 ], [ -81.663601990991111, 36.191944000278902 ], [ -81.6687079905969, 36.192613999887108 ], [ -81.671174990873936, 36.190759999944028 ], [ -81.671476990662626, 36.186120000371425 ], [ -81.6750139914313, 36.185058999953689 ], [ -81.676229991654921, 36.183410999866823 ], [ -81.681126990634155, 36.182696999812634 ], [ -81.684496990999065, 36.183721000332021 ], [ -81.686366990704002, 36.181278000461646 ], [ -81.69318499144461, 36.175647000428278 ], [ -81.695502990834569, 36.176166000315945 ], [ -81.698922990726317, 36.17503999989394 ], [ -81.705648991374559, 36.174842999825096 ], [ -81.707772991298185, 36.172698999840996 ], [ -81.711685991178356, 36.165414000405825 ], [ -81.70872999126847, 36.161344000135678 ], [ -81.717498991674347, 36.171231000130199 ], [ -81.716555991520366, 36.171842000033344 ], [ -81.717348991625926, 36.174088000011977 ], [ -81.715953990681768, 36.177624000394765 ], [ -81.717431990757134, 36.178507000241403 ], [ -81.716382991147896, 36.181215000171989 ], [ -81.718236991240317, 36.1822540003621 ], [ -81.721943991338037, 36.186959000603608 ], [ -81.72011099118015, 36.190064000606988 ], [ -81.721007990993897, 36.191905000605296 ], [ -81.717021991433811, 36.196011000614725 ], [ -81.715559991066698, 36.19650900034906 ], [ -81.712101991286062, 36.195909999865108 ], [ -81.707276991162431, 36.198649999926126 ], [ -81.707493991352649, 36.199716000450387 ], [ -81.706679991399483, 36.200563000078574 ], [ -81.704200990705004, 36.200694000328546 ], [ -81.70602199125068, 36.20172600053121 ], [ -81.706886991551656, 36.205567000162212 ], [ -81.699980990785193, 36.207645000256861 ], [ -81.699301990905241, 36.209468000133697 ], [ -81.699957991303819, 36.212971000491173 ], [ -81.698507990848285, 36.215971999952835 ], [ -81.69039899125849, 36.215713000505396 ], [ -81.685331990667223, 36.208555000449792 ], [ -81.682933991690518, 36.207592000448386 ], [ -81.682631991103236, 36.20511900007039 ], [ -81.677471991532187, 36.204677000360817 ], [ -81.676510990759382, 36.203677000651858 ], [ -81.677433991058464, 36.20247100031834 ], [ -81.672146990597867, 36.203603000014581 ], [ -81.670300990958708, 36.204880000543554 ], [ -81.66959799153031, 36.205616000425408 ], [ -81.653519991683865, 36.196056000220729 ], [ -81.652382990921538, 36.194740999875023 ], [ -81.652446990864831, 36.193082000584347 ] ] ] } },
{ "type": "Feature", "properties": { "county": null, "precinct": null, "enr_desc": "Watauga", "winner": null, "winner_votes": null, "winner_share": null, "runner_up": null, "runner_up_votes": null, "runner_up_share": null, "contest_votes": null, "margin_of_victory": null, "is_tie": false, "results": null, "participated": false, "map_key": null }, "geometry": { "type": "Polygon", "coordinates": [ [ [ -81.779931990718509, 36.114014000563877 ], [ -81.811521991555651, 36.11145900036319 ], [ -81.823656991177998, 36.151388000388224 ], [ -81.804083990758755, 36.157637000426234 ], [ -81.803017990978134, 36.160777000612498 ], [ -81.799571991164242, 36.160711000504328 ], [ -81.79725799064812, 36.1629620003607 ], [ -81.797690991318959, 36.163550000559788 ], [ -81.793499990696063, 36.166946000430471 ], [ -81.790367990742936, 36.166540000253264 ], [ -81.789716990684312, 36.174231000178558 ], [ -81.78686699122953, 36.179049000327772 ], [ -81.783329991200489, 36.182273000266342 ], [ -81.784261991640975, 36.184407999994711 ], [ -81.782654990877916, 36.187101000102864 ], [ -81.784916991423572, 36.189201000249959 ], [ -81.783638991203091, 36.191398999855998 ], [ -81.785543990591947, 36.194573000079743 ], [ -81.786820991049112, 36.199139000099365 ], [ -81.785510991457855, 36.201792000627712 ], [ -81.786963990688932, 36.205416999858393 ], [ -81.793562991316833, 36.209691000268954 ], [ -81.800397991670394, 36.211054999741449 ], [ -81.806544991606856, 36.210008000578085 ], [ -81.811348991610743, 36.207240000592385 ], [ -81.811689991109745, 36.209052000292324 ], [ -81.810622991135318, 36.211614000634142 ], [ -81.813197991626978, 36.218304000124363 ], [ -81.814850991172577, 36.221514000567986 ], [ -81.812738990573948, 36.226524999961342 ], [ -81.812087990583265, 36.233362000046569 ], [ -81.810776990675322, 36.234753000473773 ], [ -81.806642991685365, 36.236332000319955 ], [ -81.804773991045721, 36.239203999776869 ], [ -81.803078991480362, 36.239800000404557 ], [ -81.802325990579973, 36.24164400032825 ], [ -81.797949990721023, 36.243506000568786 ], [ -81.797090991377615, 36.244737000473897 ], [ -81.792846991425861, 36.241196999971969 ], [ -81.784235991196965, 36.242762000310677 ], [ -81.780423990796592, 36.239047000636148 ], [ -81.77879399153899, 36.238741000190274 ], [ -81.776898991303668, 36.24086999995238 ], [ -81.772799991333741, 36.241095999803754 ], [ -81.766253990702907, 36.236588999950712 ], [ -81.760558990636582, 36.234852000617401 ], [ -81.758412991547658, 36.234931000129919 ], [ -81.754676991234945, 36.232221000030201 ], [ -81.75712499085256, 36.228767000337612 ], [ -81.740584991024178, 36.218660000238735 ], [ -81.731446990788271, 36.187270999854277 ], [ -81.717498991674347, 36.171231000130199 ], [ -81.70872999126847, 36.161344000135678 ], [ -81.710570991171082, 36.145426000543139 ], [ -81.713522990692496, 36.145687000197199 ], [ -81.718872990774074, 36.143136999816839 ], [ -81.725430990825203, 36.138177000524863 ], [ -81.72937099075881, 36.137974000305682 ], [ -81.732831991190793, 36.13953899988266 ], [ -81.734511990760339, 36.139393000518126 ], [ -81.738298990677649, 36.137417999901821 ], [ -81.742679990707813, 36.133619999919098 ], [ -81.746508990930764, 36.132237000596092 ], [ -81.751445991318519, 36.131311999888723 ], [ -81.758513991407042, 36.132107000090407 ], [ -81.769577991301887, 36.129080000122542 ], [ -81.772962990996447, 36.126114000118378 ], [ -81.773284990840608, 36.123033000613276 ], [ -81.776243990640126, 36.121619000661667 ], [ -81.779096990803239, 36.121633000073082 ], [ -81.781154990749286, 36.119994000350253 ], [ -81.781435990753508, 36.118569999841824 ], [ -81.779394991568523, 36.116486000471042 ], [ -81.779931990718509, 36.114014000563877 ] ] ] } },
{ "type": "Feature", "properties": { "county": null, "precinct": null, "enr_desc": "New River Ii", "winner": null, "winner_votes": null, "winner_share": null, "runner_up": null, "runner_up_votes": null, "runner_up_share": null, "contest_votes": null, "margin_of_victory": null, "is_tie": false, "results": null, "participated": false, "map_key": null }, "geometry": { "type": "Polygon", "coordinates": [ [ [ -81.667702990647228, 36.216572000464772 ], [ -81.671969990912643, 36.221041000456431 ], [ -81.671581990753751, 36.22174199976827 ], [ -81.673359991649122, 36.223970000462892 ], [ -81.675575990863592, 36.226886999992757 ], [ -81.676344991633528, 36.230745000020832 ], [ -81.684536991307354, 36.230700000620011 ], [ -81.688855991412893, 36.231953000545026 ], [ -81.691035990618815, 36.231396999948174 ], [ -81.698393991241517, 36.233188000347994 ], [ -81.700177991475485, 36.234737000365577 ], [ -81.705776991682157, 36.235231000194105 ], [ -81.710148991105768, 36.239207000011668 ], [ -81.714027991554701, 36.241441000536298 ], [ -81.724333990655779, 36.243550999794394 ], [ -81.72660799114729, 36.247579000363558 ], [ -81.724728991216494, 36.250892000125923 ], [ -81.72594599094225, 36.253920000209597 ], [ -81.725672991527063, 36.25513099989427 ], [ -81.723296991318875, 36.256289000317551 ], [ -81.717039990919631, 36.2562659998773 ], [ -81.714767990770156, 36.25730100041276 ], [ -81.713262990636991, 36.256563000293696 ], [ -81.708103991400705, 36.257532000495061 ], [ -81.704676990654946, 36.257095999873052 ], [ -81.702275990944628, 36.258403999840581 ], [ -81.690326991007524, 36.257078999753148 ], [ -81.681166991522701, 36.257296000463192 ], [ -81.675791991334648, 36.254532000583701 ], [ -81.668502990874202, 36.254498000168901 ], [ -81.658528991678125, 36.250354000380916 ], [ -81.651734991041124, 36.249568000515495 ], [ -81.643591991492343, 36.24646100022548 ], [ -81.632788990980472, 36.245668999905583 ], [ -81.632970990710476, 36.25015600001727 ], [ -81.631327991540658, 36.251763000464031 ], [ -81.625892991242907, 36.248573000461782 ], [ -81.617503991265892, 36.248243000462757 ], [ -81.612861991650362, 36.246097999785327 ], [ -81.610487991061518, 36.242659000551001 ], [ -81.607827991593197, 36.240891000338429 ], [ -81.608247991028165, 36.238233000523458 ], [ -81.603668991292906, 36.236051000124945 ], [ -81.602606991617293, 36.236609000553123 ], [ -81.601982991061917, 36.239387000075205 ], [ -81.598719990865376, 36.240292000644416 ], [ -81.598382991661907, 36.246067000065651 ], [ -81.595043990900308, 36.245943999830239 ], [ -81.594082991179448, 36.245509000466697 ], [ -81.593401990752966, 36.242922999831769 ], [ -81.592824990967799, 36.241720000378919 ], [ -81.595375990628909, 36.241464000518391 ], [ -81.593215991594207, 36.240564000615471 ], [ -81.59286099076499, 36.239098000194865 ], [ -81.595655991164563, 36.238420000351063 ], [ -81.599783990586459, 36.232358000288343 ], [ -81.595324991615826, 36.224515000616059 ], [ -81.601372991647153, 36.224985000328189 ], [ -81.628643990725109, 36.231130999961522 ], [ -81.631483991132356, 36.22966299988871 ], [ -81.635211991430467, 36.223130000128833 ], [ -81.640391991512288, 36.220678999769007 ], [ -81.646674991172503, 36.220586000386184 ], [ -81.65142999108312, 36.219420999939082 ], [ -81.657398991068021, 36.21959799986746 ], [ -81.667702990647228, 36.216572000464772 ] ] ] } },
{ "type": "Feature", "properties": { "county": null, "precinct": null, "enr_desc": "New River Iii", "winner": null, "winner_votes": null, "winner_share": null, "runner_up": null, "runner_up_votes": null, "runner_up_share": null, "contest_votes": null, "margin_of_victory": null, "is_tie": false, "results": null, "participated": false, "map_key": null }, "geometry": { "type": "Polygon", "coordinates": [ [ [ -81.652446990864831, 36.193082000584347 ], [ -81.652382990921538, 36.194740999875023 ], [ -81.653519991683865, 36.196056000220729 ], [ -81.66959799153031, 36.205616000425408 ], [ -81.66700899075542, 36.20852400028599 ], [ -81.669010990622937, 36.216442000207181 ], [ -81.667702990647228, 36.216572000464772 ], [ -81.657398991068021, 36.21959799986746 ], [ -81.65142999108312, 36.219420999939082 ], [ -81.646674991172503, 36.220586000386184 ], [ -81.640391991512288, 36.220678999769007 ], [ -81.635211991430467, 36.223130000128833 ], [ -81.631483991132356, 36.22966299988871 ], [ -81.628643990725109, 36.231130999961522 ], [ -81.601372991647153, 36.224985000328189 ], [ -81.595324991615826, 36.224515000616059 ], [ -81.592256991669771, 36.222697999905833 ], [ -81.587472991160297, 36.223805000302072 ], [ -81.585285990583657, 36.223220000017257 ], [ -81.5842169908112, 36.222088000244057 ], [ -81.583959991538421, 36.21946199980713 ], [ -81.582459990680036, 36.21768600061732 ], [ -81.584321991099927, 36.212991000316627 ], [ -81.60013799140691, 36.20287400032467 ], [ -81.599969990621361, 36.199291999978151 ], [ -81.618608991444106, 36.198282000197949 ], [ -81.621960991159725, 36.199249000390061 ], [ -81.62458499059727, 36.199024000629436 ], [ -81.634701990988745, 36.204183000585246 ], [ -81.645315990613639, 36.191947000576754 ], [ -81.649109991645574, 36.193701000294666 ], [ -81.652446990864831, 36.193082000584347 ] ] ] } },
{ "type": "Feature", "properties": { "county": null, "precinct": null, "enr_desc": "North Fork", "winner": null, "winner_votes": null, "winner_share": null, "runner_up": null, "runner_up_votes": null, "runner_up_share": null, "contest_votes": null, "margin_of_victory": null, "is_tie": false, "results": null, "participated": false, "map_key": null }, "geometry": { "type": "Polygon", "coordinates": [ [ [ -81.635972990786513, 36.347425000493367 ], [ -81.637381991003224, 36.343378000020813 ], [ -81.639090990941796, 36.341751999858978 ], [ -81.640850990833499, 36.341346000151603 ], [ -81.644818990813292, 36.34256200050261 ], [ -81.649935990839111, 36.338716000365004 ], [ -81.650189990852056, 36.334476000407214 ], [ -81.647270990780001, 36.331757000474546 ], [ -81.646719991675596, 36.330034000349038 ], [ -81.647923991057652, 36.32816599993199 ], [ -81.650788991034531, 36.326410000514244 ], [ -81.655632991287575, 36.326309999742335 ], [ -81.658237991388674, 36.324274000186932 ], [ -81.660296991246383, 36.324076999752009 ], [ -81.666300990789424, 36.32506100056699 ], [ -81.667934990598951, 36.327233000321186 ], [ -81.669776990645033, 36.327970000165351 ], [ -81.676115990768551, 36.327190000525341 ], [ -81.685615991548943, 36.329184000458149 ], [ -81.690572990986311, 36.332544999855898 ], [ -81.706872991454929, 36.332911000017532 ], [ -81.706765991570421, 36.335214999945464 ], [ -81.707449991350842, 36.335849000406945 ], [ -81.705322991516951, 36.341415000208087 ], [ -81.706111990766132, 36.343724000497346 ], [ -81.708241990974585, 36.346332999789496 ], [ -81.716798990796164, 36.347595000084979 ], [ -81.721520990828054, 36.351304000372707 ], [ -81.724372991165268, 36.357694999786951 ], [ -81.722519991035895, 36.358639999895701 ], [ -81.722882990549707, 36.361236999759988 ], [ -81.727115991576056, 36.365586000428401 ], [ -81.726065991058391, 36.368785000416686 ], [ -81.728908990870764, 36.371240999978639 ], [ -81.729045990672532, 36.373542999998463 ], [ -81.731245991108267, 36.374145000200485 ], [ -81.732783991401718, 36.378289000564735 ], [ -81.734659991413025, 36.379442000221935 ], [ -81.733655990670016, 36.382130000127667 ], [ -81.730900991046539, 36.382990999764012 ], [ -81.729497991016686, 36.385439000580597 ], [ -81.730477990722946, 36.386675000008459 ], [ -81.730512990930762, 36.388284999860325 ], [ -81.728780990824333, 36.391309000399879 ], [ -81.638185991444331, 36.349605999742941 ], [ -81.635972990786513, 36.347425000493367 ] ] ] } },
{ "type": "Feature", "properties": { "county": null, "precinct": null, "enr_desc": "Shawneehaw", "winner": null, "winner_votes": null, "winner_share": null, "runner_up": null, "runner_up_votes": null, "runner_up_share": null, "contest_votes": null, "margin_of_victory": null, "is_tie": false, "results": null, "participated": false, "map_key": null }, "geometry": { "type": "Polygon", "coordinates": [ [ [ -81.856780991031883, 36.193680000379523 ], [ -81.855974991372875, 36.193821000174545 ], [ -81.8568419908176, 36.195324000343305 ], [ -81.859996991019102, 36.196056000113146 ], [ -81.859743991158069, 36.19912000035513 ], [ -81.856092990735917, 36.199006000460123 ], [ -81.853409991303678, 36.200246000085919 ], [ -81.856960990834537, 36.202105000076465 ], [ -81.859856990733306, 36.200937999890684 ], [ -81.859198990929372, 36.208683999771807 ], [ -81.813197991626978, 36.218304000124363 ], [ -81.810622991135318, 36.211614000634142 ], [ -81.811689991109745, 36.209052000292324 ], [ -81.811348991610743, 36.207240000592385 ], [ -81.806544991606856, 36.210008000578085 ], [ -81.800397991670394, 36.211054999741449 ], [ -81.793562991316833, 36.209691000268954 ], [ -81.786963990688932, 36.205416999858393 ], [ -81.785510991457855, 36.201792000627712 ], [ -81.786820991049112, 36.199139000099365 ], [ -81.785543990591947, 36.194573000079743 ], [ -81.783638991203091, 36.191398999855998 ], [ -81.784916991423572, 36.189201000249959 ], [ -81.782654990877916, 36.187101000102864 ], [ -81.784261991640975, 36.184407999994711 ], [ -81.783329991200489, 36.182273000266342 ], [ -81.78686699122953, 36.179049000327772 ], [ -81.789716990684312, 36.174231000178558 ], [ -81.790367990742936, 36.166540000253264 ], [ -81.793499990696063, 36.166946000430471 ], [ -81.797690991318959, 36.163550000559788 ], [ -81.79725799064812, 36.1629620003607 ], [ -81.799571991164242, 36.160711000504328 ], [ -81.803017990978134, 36.160777000612498 ], [ -81.804083990758755, 36.157637000426234 ], [ -81.823656991177998, 36.151388000388224 ], [ -81.825989991453, 36.16178599991099 ], [ -81.826953991260552, 36.164151999904476 ], [ -81.828748991379626, 36.165498999983271 ], [ -81.829376991669221, 36.169011000216955 ], [ -81.835646990772375, 36.168496000383577 ], [ -81.835356991122197, 36.170349000562766 ], [ -81.837253991124541, 36.1728960000193 ], [ -81.856780991031883, 36.193680000379523 ] ] ] } },
{ "type": "Feature", "properties": { "county": null, "precinct": null, "enr_desc": "Stony Fork", "winner": null, "winner_votes": null, "winner_share": null, "runner_up": null, "runner_up_votes": null, "runner_up_share": null, "contest_votes": null, "margin_of_victory": null, "is_tie": false, "results": null, "participated": false, "map_key": null }, "geometry": { "type": "Polygon", "coordinates": [ [ [ -81.5842169908112, 36.222088000244057 ], [ -81.585285990583657, 36.223220000017257 ], [ -81.587472991160297, 36.223805000302072 ], [ -81.592256991669771, 36.222697999905833 ], [ -81.595324991615826, 36.224515000616059 ], [ -81.599783990586459, 36.232358000288343 ], [ -81.595655991164563, 36.238420000351063 ], [ -81.59286099076499, 36.239098000194865 ], [ -81.593215991594207, 36.240564000615471 ], [ -81.595375990628909, 36.241464000518391 ], [ -81.592824990967799, 36.241720000378919 ], [ -81.593401990752966, 36.242922999831769 ], [ -81.582437991656008, 36.265473000463111 ], [ -81.566571991182997, 36.27242299998646 ], [ -81.562670991447192, 36.272900000587363 ], [ -81.557532991057343, 36.275401000587507 ], [ -81.552236990656695, 36.276386999830017 ], [ -81.546771991546578, 36.272229000473089 ], [ -81.532607991000944, 36.265704999934627 ], [ -81.52168499111022, 36.255329000604299 ], [ -81.515131990593432, 36.256894000244806 ], [ -81.486318991586316, 36.241256000203947 ], [ -81.477515991598608, 36.240250000391782 ], [ -81.477701991550717, 36.235829999945814 ], [ -81.474975991026469, 36.23164199985694 ], [ -81.472099990764107, 36.229331000474119 ], [ -81.468205990977779, 36.228773999934646 ], [ -81.465586991516531, 36.226971000491801 ], [ -81.465374991556288, 36.226153000568992 ], [ -81.466746991043948, 36.22499000002572 ], [ -81.466391991624931, 36.220366999874351 ], [ -81.464012991094151, 36.216231000009472 ], [ -81.463506990952581, 36.212677000069299 ], [ -81.461209991034735, 36.211286000112935 ], [ -81.462088991379332, 36.209210000488703 ], [ -81.461806990631189, 36.206089000391998 ], [ -81.459908990787852, 36.202134000125021 ], [ -81.455791991058817, 36.200441000482066 ], [ -81.486838991599697, 36.159909000246131 ], [ -81.488857991053763, 36.162486000021921 ], [ -81.488714990601878, 36.164457000047712 ], [ -81.489990990889979, 36.16769900026673 ], [ -81.494312990885589, 36.171197000333684 ], [ -81.493682990687049, 36.17467800014083 ], [ -81.49994399140445, 36.184198999910237 ], [ -81.50199899127017, 36.185208000095585 ], [ -81.503752991142832, 36.188115000146979 ], [ -81.503530990941996, 36.190935000628471 ], [ -81.502435991675597, 36.191485000150699 ], [ -81.50460599078022, 36.193219000197779 ], [ -81.50764799150943, 36.193676000289877 ], [ -81.508476990818039, 36.196058000111485 ], [ -81.512193990643595, 36.198489999899202 ], [ -81.511808990953369, 36.199989000162162 ], [ -81.519701990883163, 36.203380999796124 ], [ -81.520281990759997, 36.205543000638919 ], [ -81.519615990767875, 36.20842899990712 ], [ -81.52216599136321, 36.210059000373022 ], [ -81.52433499154516, 36.210074000250401 ], [ -81.528206991371988, 36.215627999786506 ], [ -81.530641991226176, 36.217541000007891 ], [ -81.530804990844899, 36.219993000199693 ], [ -81.532783990732199, 36.221639000587572 ], [ -81.533084991213485, 36.224918000602962 ], [ -81.5842169908112, 36.222088000244057 ] ] ] } },
{ "type": "Feature", "properties": { "county": null, "precinct": null, "enr_desc": "Beech Mountain", "winner": null, "winner_votes": null, "winner_share": null, "runner_up": null, "runner_up_votes": null, "runner_up_share": null, "contest_votes": null, "margin_of_victory": null, "is_tie": false, "results": null, "participated": false, "map_key": null }, "geometry": { "type": "Polygon", "coordinates": [ [ [ -81.907947991607983, 36.233988999893164 ], [ -81.903909990991451, 36.23531200021722 ], [ -81.900396990676086, 36.234497000406996 ], [ -81.892344991548072, 36.23068399987968 ], [ -81.893244990716568, 36.228208000253098 ], [ -81.889936991103937, 36.223807000147431 ], [ -81.884911991260765, 36.223679000640971 ], [ -81.883156990674223, 36.220684000552438 ], [ -81.877115991624891, 36.220946000022963 ], [ -81.877109990679784, 36.223930000066169 ], [ -81.873322990753024, 36.223598999838046 ], [ -81.870608991695434, 36.22132000062895 ], [ -81.870625991589591, 36.220586000106842 ], [ -81.864862991277548, 36.220493999983908 ], [ -81.864267990792911, 36.212024000451159 ], [ -81.86147299137869, 36.2091099997741 ], [ -81.859198990929372, 36.208683999771807 ], [ -81.859856990733306, 36.200937999890684 ], [ -81.856960990834537, 36.202105000076465 ], [ -81.853409991303678, 36.200246000085919 ], [ -81.856092990735917, 36.199006000460123 ], [ -81.859743991158069, 36.19912000035513 ], [ -81.859996991019102, 36.196056000113146 ], [ -81.8568419908176, 36.195324000343305 ], [ -81.855974991372875, 36.193821000174545 ], [ -81.856780991031883, 36.193680000379523 ], [ -81.885382991673694, 36.189450999931438 ], [ -81.88832399109512, 36.19660700030316 ], [ -81.902845991182858, 36.207028000514178 ], [ -81.904340991413406, 36.210692000455893 ], [ -81.909007990797292, 36.216392000383223 ], [ -81.906762991393151, 36.218256000410115 ], [ -81.907593991571545, 36.219853000583015 ], [ -81.907447990941037, 36.223740000057759 ], [ -81.9102909909397, 36.226742999833746 ], [ -81.911237990807592, 36.229502000017376 ], [ -81.907947991607983, 36.233988999893164 ] ] ] } }
]
}
