{
"type": "FeatureCollection",
"name": "wayne_county_sheriff_rep",
"crs": { "type": "name", "properties": { "name": "urn:ogc:def:crs:OGC:1.3:CRS84" } },
"features": [
{ "type": "Feature", "properties": { "county": "WAYNE", "precinct": "7", "enr_desc": "07", "winner": "Larry M. Pierce", "winner_votes": 274, "winner_share": 46.757679180887372, "runner_up": "Ricky Hooks", "runner_up_votes": 267, "runner_up_share": 45.563139931740615, "contest_votes": 586, "margin_of_victory": 1.1945392491467572, "is_tie": false, "results": [ { "candidate": "Larry M. Pierce", "votes": 274, "share": 46.75767918088737 }, { "candidate": "Ricky Hooks", "votes": 267, "share": 45.563139931740615 }, { "candidate": "Stephen (Stevie) Howell", "votes": 45, "share": 7.679180887372014 } ], "participated": true, "map_key": "WAYNE_7" }, "geometry": { "type": "Polygon", "coordinates": [ [ [ -77.903617991186422, 35.389742999540282 ], [ -77.901810991273621, 35.392572999791348 ], [ -77.900080991611176, 35.40222399948879 ], [ -77.897931991125532, 35.40491299990169 ], [ -77.897454991600767, 35.411988000052531 ], [ -77.895888991491276, 35.415695999538372 ], [ -77.889115990950998, 35.424965999873471 ], [ -77.885243990905053, 35.427168999742072 ], [ -77.891875990674592, 35.435764999486125 ], [ -77.897149991335581, 35.44003200036579 ], [ -77.893337991661582, 35.442298000095974 ], [ -77.893909991103357, 35.447855999502906 ], [ -77.891880991526364, 35.459433999751688 ], [ -77.883624990842065, 35.470593999529363 ], [ -77.878782990781104, 35.469327999653721 ], [ -77.868859991496848, 35.469336999590595 ], [ -77.865429991624907, 35.468390000063728 ], [ -77.853159990855971, 35.47361899960103 ], [ -77.847955991191398, 35.473551999988167 ], [ -77.839209990941683, 35.475550999513395 ], [ -77.831377991601428, 35.475182000002015 ], [ -77.825370991543139, 35.476491999864983 ], [ -77.82674399127508, 35.424089999807471 ], [ -77.821835991063836, 35.421198999728496 ], [ -77.818041990699513, 35.415474000105476 ], [ -77.813330991108927, 35.413786999731556 ], [ -77.805221991177845, 35.406977000216763 ], [ -77.804314991338856, 35.404206000224846 ], [ -77.803862991559726, 35.395294999858201 ], [ -77.799858991673631, 35.382458999559177 ], [ -77.800962990769278, 35.378799999584771 ], [ -77.802099991033813, 35.377656999898548 ], [ -77.802814991068246, 35.372971000075886 ], [ -77.817626990713407, 35.377723999914302 ], [ -77.828162990742143, 35.378071000295833 ], [ -77.837021990814151, 35.376697999965948 ], [ -77.845198991188482, 35.376579999616503 ], [ -77.852427991051599, 35.380551999525899 ], [ -77.869898991029046, 35.380309999711017 ], [ -77.880298990701732, 35.388643999654576 ], [ -77.885012991415039, 35.389539999892499 ], [ -77.887353991690716, 35.389365999983696 ], [ -77.890211990973654, 35.387802000255135 ], [ -77.89313499104135, 35.388050000299899 ], [ -77.893390991573128, 35.388983999929685 ], [ -77.899010991223818, 35.387915000255369 ], [ -77.903617991186422, 35.389742999540282 ] ] ] } },
{ "type": "Feature", "properties": { "county": "WAYNE", "precinct": "1", "enr_desc": "01", "winner": "Larry M. Pierce", "winner_votes": 217, "winner_share": 60.955056179775283, "runner_up": "Ricky Hooks", "runner_up_votes": 90, "runner_up_share": 25.280898876404496, "contest_votes": 356, "margin_of_victory": 35.674157303370791, "is_tie": false, "results": [ { "candidate": "Larry M. Pierce", "votes": 217, "share": 60.95505617977528 }, { "candidate": "Ricky Hooks", "votes": 90, "share": 25.280898876404496 }, { "candidate": "Stephen (Stevie) Howell", "votes": 49, "share": 13.764044943820226 } ], "participated": true, "map_key": "WAYNE_1" }, "geometry": { "type": "Polygon", "coordinates": [ [ [ -77.948419990836172, 35.511599999844627 ], [ -77.952982990901589, 35.510494000243881 ], [ -77.955672991263015, 35.511564999891633 ], [ -77.957130990935667, 35.510386999830338 ], [ -77.967456991563722, 35.508691999549377 ], [ -77.977616991308864, 35.513218999645446 ], [ -77.991722991199211, 35.514448999676638 ], [ -77.997322991514466, 35.517489999951522 ], [ -77.999708990873756, 35.520631999701706 ], [ -78.009919991642747, 35.522523999848538 ], [ -78.014320990983492, 35.526762999848721 ], [ -78.017342991405016, 35.528388999993233 ], [ -78.025058991597717, 35.527793000126728 ], [ -78.031268991155102, 35.525021999986258 ], [ -78.042250991618104, 35.524429999666495 ], [ -78.047471990983638, 35.520840000071338 ], [ -78.057746991665141, 35.518098000349895 ], [ -78.059686990982428, 35.516269000235987 ], [ -78.06526599139643, 35.516859999527767 ], [ -78.066609990808843, 35.517096000228584 ], [ -78.071664990699148, 35.513922000136155 ], [ -78.072880990866068, 35.518022999831715 ], [ -78.076249991037002, 35.519719000185901 ], [ -78.079421990708838, 35.518578000344561 ], [ -78.081442991168558, 35.519197999782222 ], [ -78.083840990834119, 35.51786999977022 ], [ -78.088510991418502, 35.518257999977031 ], [ -78.094456991436772, 35.515859999614221 ], [ -78.098859991633248, 35.511610000385353 ], [ -78.103494991288002, 35.511511999919492 ], [ -78.105054991362422, 35.510437000319229 ], [ -78.058005991641295, 35.59780600001605 ], [ -77.998347991190442, 35.585596999926167 ], [ -77.953905991631316, 35.585842999953634 ], [ -77.967449991604582, 35.559737999875118 ], [ -77.966038990841184, 35.559061999893508 ], [ -77.958441991392363, 35.55896199968425 ], [ -77.960597990901732, 35.555794999654125 ], [ -77.960168990938669, 35.553236999541845 ], [ -77.965706991515901, 35.549772999909109 ], [ -77.956724990941154, 35.548740000107827 ], [ -77.943932991267957, 35.548818999925317 ], [ -77.93659099093945, 35.549128999479358 ], [ -77.934823990965853, 35.550311999745837 ], [ -77.933684991049532, 35.53684000005704 ], [ -77.930129990977804, 35.528540000033686 ], [ -77.933828991020079, 35.527171999929394 ], [ -77.937025991071536, 35.527235999632772 ], [ -77.944758991703225, 35.518668000173179 ], [ -77.948419990836172, 35.511599999844627 ] ] ] } },
{ "type": "Feature", "properties": { "county": "WAYNE", "precinct": "2", "enr_desc": "02", "winner": "Larry M. Pierce", "winner_votes": 255, "winner_share": 43.889845094664373, "runner_up": "Ricky Hooks", "runner_up_votes": 205, "runner_up_share": 35.283993115318417, "contest_votes": 581, "margin_of_victory": 8.6058519793459567, "is_tie": false, "results": [ { "candidate": "Larry M. Pierce", "votes": 255, "share": 43.88984509466437 }, { "candidate": "Ricky Hooks", "votes": 205, "share": 35.28399311531842 }, { "candidate": "Stephen (Stevie) Howell", "votes": 121, "share": 20.82616179001721 } ], "participated": true, "map_key": "WAYNE_2" }, "geometry": { "type": "Polygon", "coordinates": [ [ [ -77.825370991543139, 35.476491999864983 ], [ -77.831377991601428, 35.475182000002015 ], [ -77.839209990941683, 35.475550999513395 ], [ -77.847955991191398, 35.473551999988167 ], [ -77.853159990855971, 35.47361899960103 ], [ -77.865429991624907, 35.468390000063728 ], [ -77.868859991496848, 35.469336999590595 ], [ -77.878782990781104, 35.469327999653721 ], [ -77.883624990842065, 35.470593999529363 ], [ -77.891880991526364, 35.459433999751688 ], [ -77.893909991103357, 35.447855999502906 ], [ -77.893337991661582, 35.442298000095974 ], [ -77.897149991335581, 35.44003200036579 ], [ -77.90753999146628, 35.448561000154804 ], [ -77.917496991049362, 35.454271999791011 ], [ -77.918547991604868, 35.456994999858146 ], [ -77.922777991710987, 35.458917999827399 ], [ -77.924888991589683, 35.461596000022539 ], [ -77.926079991104928, 35.45965299963548 ], [ -77.938023991707297, 35.453690000154928 ], [ -77.951711991296733, 35.44838200021676 ], [ -77.957471991025514, 35.444938999658042 ], [ -77.96246299091429, 35.444338999493539 ], [ -77.962717990960584, 35.446298999479218 ], [ -77.963931991460285, 35.447509000059299 ], [ -77.974181991605207, 35.449646000105488 ], [ -77.976869991496145, 35.451944999921096 ], [ -77.97487899088496, 35.463747000361487 ], [ -77.973602991149832, 35.466731000221614 ], [ -77.96064299150251, 35.48740900025544 ], [ -77.951022990933197, 35.496680999618043 ], [ -77.950426990811494, 35.505760999718113 ], [ -77.948419990836172, 35.511599999844627 ], [ -77.944758991703225, 35.518668000173179 ], [ -77.937025991071536, 35.527235999632772 ], [ -77.933828991020079, 35.527171999929394 ], [ -77.930129990977804, 35.528540000033686 ], [ -77.933684991049532, 35.53684000005704 ], [ -77.934823990965853, 35.550311999745837 ], [ -77.93659099093945, 35.549128999479358 ], [ -77.943932991267957, 35.548818999925317 ], [ -77.956724990941154, 35.548740000107827 ], [ -77.965706991515901, 35.549772999909109 ], [ -77.960168990938669, 35.553236999541845 ], [ -77.960597990901732, 35.555794999654125 ], [ -77.958441991392363, 35.55896199968425 ], [ -77.966038990841184, 35.559061999893508 ], [ -77.967449991604582, 35.559737999875118 ], [ -77.953905991631316, 35.585842999953634 ], [ -77.824361991137678, 35.586460000231391 ], [ -77.822510991575143, 35.585382999740212 ], [ -77.825370991543139, 35.476491999864983 ] ] ] } },
{ "type": "Feature", "properties": { "county": "WAYNE", "precinct": "3", "enr_desc": "03", "winner": "Larry M. Pierce", "winner_votes": 380, "winner_share": 57.315233785822016, "runner_up": "Ricky Hooks", "runner_up_votes": 263, "runner_up_share": 39.668174962292611, "contest_votes": 663, "margin_of_victory": 17.647058823529406, "is_tie": false, "results": [ { "candidate": "Larry M. Pierce", "votes": 380, "share": 57.315233785822016 }, { "candidate": "Ricky Hooks", "votes": 263, "share": 39.66817496229261 }, { "candidate": "Stephen (Stevie) Howell", "votes": 20, "share": 3.0165912518853695 } ], "participated": true, "map_key": "WAYNE_3" }, "geometry": { "type": "Polygon", "coordinates": [ [ [ -78.134976990968752, 35.454509999529641 ], [ -78.105054991362422, 35.510437000319229 ], [ -78.103494991288002, 35.511511999919492 ], [ -78.098859991633248, 35.511610000385353 ], [ -78.094456991436772, 35.515859999614221 ], [ -78.088510991418502, 35.518257999977031 ], [ -78.083840990834119, 35.51786999977022 ], [ -78.081442991168558, 35.519197999782222 ], [ -78.079421990708838, 35.518578000344561 ], [ -78.076249991037002, 35.519719000185901 ], [ -78.072880990866068, 35.518022999831715 ], [ -78.071664990699148, 35.513922000136155 ], [ -78.066609990808843, 35.517096000228584 ], [ -78.06526599139643, 35.516859999527767 ], [ -78.064331991139724, 35.508549999522288 ], [ -78.058915991107611, 35.490659999698181 ], [ -78.054945990961471, 35.472748000159136 ], [ -78.044728991061731, 35.456969000348465 ], [ -78.044969991352488, 35.445549999745879 ], [ -78.045567991415211, 35.443365000230976 ], [ -78.048549990871066, 35.440375999483273 ], [ -78.063199990718672, 35.446722999987173 ], [ -78.065855991631196, 35.446177999860247 ], [ -78.070347991683647, 35.443545999848638 ], [ -78.07087999086049, 35.434769000044859 ], [ -78.063853991240052, 35.42785700012908 ], [ -78.06794899086664, 35.424202999852064 ], [ -78.068154991593019, 35.419596999802955 ], [ -78.070202991283637, 35.415650000195534 ], [ -78.071887991531298, 35.408655999924264 ], [ -78.071339990806649, 35.405990999844057 ], [ -78.068523991449041, 35.40338900030239 ], [ -78.076594991164072, 35.403152999788112 ], [ -78.083050990904894, 35.401547999958666 ], [ -78.092402991165983, 35.401071999486454 ], [ -78.092226991488758, 35.405970999856827 ], [ -78.090228991626461, 35.408363999920873 ], [ -78.087497990951036, 35.409261999529001 ], [ -78.084962991452656, 35.415996999712945 ], [ -78.097057990763531, 35.415615999793566 ], [ -78.101391990841236, 35.412325000160664 ], [ -78.102873990986083, 35.409792000184517 ], [ -78.108223991649012, 35.408895000246346 ], [ -78.108961991683685, 35.41275699964006 ], [ -78.113177991534101, 35.416720999719374 ], [ -78.11282799071958, 35.41934799975747 ], [ -78.114173990988647, 35.424130999877789 ], [ -78.110156990699139, 35.438294000234308 ], [ -78.10720399103667, 35.441173000351213 ], [ -78.103329991449016, 35.443260999962639 ], [ -78.112986991586851, 35.447120999514588 ], [ -78.129218990726031, 35.451495000367267 ], [ -78.134976990968752, 35.454509999529641 ] ] ] } },
{ "type": "Feature", "properties": { "county": "WAYNE", "precinct": "4", "enr_desc": "04", "winner": "Larry M. Pierce", "winner_votes": 421, "winner_share": 47.732426303854872, "runner_up": "Ricky Hooks", "runner_up_votes": 383, "runner_up_share": 43.424036281179141, "contest_votes": 882, "margin_of_victory": 4.3083900226757308, "is_tie": false, "results": [ { "candidate": "Larry M. Pierce", "votes": 421, "share": 47.73242630385487 }, { "candidate": "Ricky Hooks", "votes": 383, "share": 43.42403628117914 }, { "candidate": "Stephen (Stevie) Howell", "votes": 78, "share": 8.843537414965986 } ], "participated": true, "map_key": "WAYNE_4" }, "geometry": { "type": "Polygon", "coordinates": [ [ [ -78.02986399146404, 35.446381999547015 ], [ -78.031763990814326, 35.448456999649331 ], [ -78.033742990699523, 35.448833999931956 ], [ -78.039644990708027, 35.448113999566736 ], [ -78.044969991352488, 35.445549999745879 ], [ -78.044728991061731, 35.456969000348465 ], [ -78.054945990961471, 35.472748000159136 ], [ -78.058915991107611, 35.490659999698181 ], [ -78.064331991139724, 35.508549999522288 ], [ -78.06526599139643, 35.516859999527767 ], [ -78.059686990982428, 35.516269000235987 ], [ -78.057746991665141, 35.518098000349895 ], [ -78.047471990983638, 35.520840000071338 ], [ -78.042250991618104, 35.524429999666495 ], [ -78.031268991155102, 35.525021999986258 ], [ -78.025058991597717, 35.527793000126728 ], [ -78.017342991405016, 35.528388999993233 ], [ -78.014320990983492, 35.526762999848721 ], [ -78.009919991642747, 35.522523999848538 ], [ -77.999708990873756, 35.520631999701706 ], [ -77.997322991514466, 35.517489999951522 ], [ -77.991722991199211, 35.514448999676638 ], [ -77.977616991308864, 35.513218999645446 ], [ -77.967456991563722, 35.508691999549377 ], [ -77.957130990935667, 35.510386999830338 ], [ -77.955672991263015, 35.511564999891633 ], [ -77.952982990901589, 35.510494000243881 ], [ -77.948419990836172, 35.511599999844627 ], [ -77.950426990811494, 35.505760999718113 ], [ -77.951022990933197, 35.496680999618043 ], [ -77.96064299150251, 35.48740900025544 ], [ -77.973602991149832, 35.466731000221614 ], [ -77.983454991522549, 35.468056000189037 ], [ -77.983478991076709, 35.466906000131289 ], [ -77.987352991545279, 35.465843000239431 ], [ -77.989888991402708, 35.462674999706337 ], [ -77.993293991490575, 35.464544000220073 ], [ -77.99939499090722, 35.464408999597609 ], [ -78.005048990825046, 35.460023999878842 ], [ -78.010600991250357, 35.457648999504805 ], [ -78.013943991744142, 35.457705999863336 ], [ -78.016314991552846, 35.456684999680363 ], [ -78.020732990666943, 35.452298999741103 ], [ -78.023706991625914, 35.451097000185591 ], [ -78.02986399146404, 35.446381999547015 ] ] ] } },
{ "type": "Feature", "properties": { "county": "WAYNE", "precinct": "5", "enr_desc": "05", "winner": "Larry M. Pierce", "winner_votes": 391, "winner_share": 52.06391478029294, "runner_up": "Ricky Hooks", "runner_up_votes": 318, "runner_up_share": 42.343541944074573, "contest_votes": 751, "margin_of_victory": 9.7203728362183668, "is_tie": false, "results": [ { "candidate": "Larry M. Pierce", "votes": 391, "share": 52.06391478029294 }, { "candidate": "Ricky Hooks", "votes": 318, "share": 42.34354194407457 }, { "candidate": "Stephen (Stevie) Howell", "votes": 42, "share": 5.59254327563249 } ], "participated": true, "map_key": "WAYNE_5" }, "geometry": { "type": "Polygon", "coordinates": [ [ [ -77.963776991694417, 35.424720999550487 ], [ -77.97375699161492, 35.425488000345418 ], [ -77.973948990906848, 35.426304000105169 ], [ -77.981264991308691, 35.428448999627456 ], [ -77.981463991647416, 35.427254999680791 ], [ -77.99548599134485, 35.433148999656403 ], [ -77.997376991479726, 35.425099999794128 ], [ -77.996637991698805, 35.420067999495025 ], [ -78.001753991030625, 35.417285999632227 ], [ -78.002999990973478, 35.417934999565404 ], [ -78.001892991494159, 35.418376000062132 ], [ -78.002101991598948, 35.419279999998608 ], [ -78.001269990868934, 35.419767999621996 ], [ -78.002410990960911, 35.421040000253669 ], [ -78.006937991323198, 35.420085000315943 ], [ -78.008275991643259, 35.418744000362558 ], [ -78.009693991559331, 35.419882999783631 ], [ -78.009790991140534, 35.420965000321807 ], [ -78.013260991213116, 35.420857999901244 ], [ -78.017246991148951, 35.42364000032353 ], [ -78.016985990856696, 35.426972999777099 ], [ -78.011561990704777, 35.429273000085871 ], [ -78.012512991244691, 35.432526000126039 ], [ -78.01530199167911, 35.434216999884235 ], [ -78.014832991122589, 35.436512000197176 ], [ -78.018413991142609, 35.436451000103965 ], [ -78.019523990810839, 35.43573800020885 ], [ -78.02033499128197, 35.437006999657797 ], [ -78.022252990771563, 35.437743999567758 ], [ -78.021879991143408, 35.4367040000282 ], [ -78.023096991621301, 35.43630800027352 ], [ -78.026392991760062, 35.437010999536035 ], [ -78.026873991294394, 35.438230999688905 ], [ -78.024929990985811, 35.439567999979388 ], [ -78.030629991547102, 35.441912999816772 ], [ -78.031103991699112, 35.443718999730983 ], [ -78.029989991095107, 35.44479199958473 ], [ -78.030584991346942, 35.445742999928683 ], [ -78.02986399146404, 35.446381999547015 ], [ -78.023706991625914, 35.451097000185591 ], [ -78.020732990666943, 35.452298999741103 ], [ -78.016314991552846, 35.456684999680363 ], [ -78.013943991744142, 35.457705999863336 ], [ -78.010600991250357, 35.457648999504805 ], [ -78.005048990825046, 35.460023999878842 ], [ -77.99939499090722, 35.464408999597609 ], [ -77.993293991490575, 35.464544000220073 ], [ -77.989888991402708, 35.462674999706337 ], [ -77.987352991545279, 35.465843000239431 ], [ -77.983478991076709, 35.466906000131289 ], [ -77.983454991522549, 35.468056000189037 ], [ -77.973602991149832, 35.466731000221614 ], [ -77.97487899088496, 35.463747000361487 ], [ -77.976869991496145, 35.451944999921096 ], [ -77.974181991605207, 35.449646000105488 ], [ -77.963931991460285, 35.447509000059299 ], [ -77.962717990960584, 35.446298999479218 ], [ -77.96246299091429, 35.444338999493539 ], [ -77.957471991025514, 35.444938999658042 ], [ -77.962507990725356, 35.438882999886665 ], [ -77.963776991694417, 35.424720999550487 ] ] ] } },
{ "type": "Feature", "properties": { "county": "WAYNE", "precinct": "6", "enr_desc": "06", "winner": "Ricky Hooks", "winner_votes": 166, "winner_share": 43.799472295514512, "runner_up": "Larry M. Pierce", "runner_up_votes": 155, "runner_up_share": 40.897097625329813, "contest_votes": 379, "margin_of_victory": 2.9023746701846989, "is_tie": false, "results": [ { "candidate": "Ricky Hooks", "votes": 166, "share": 43.79947229551451 }, { "candidate": "Larry M. Pierce", "votes": 155, "share": 40.89709762532981 }, { "candidate": "Stephen (Stevie) Howell", "votes": 58, "share": 15.303430079155673 } ], "participated": true, "map_key": "WAYNE_6" }, "geometry": { "type": "Polygon", "coordinates": [ [ [ -77.963776991694417, 35.424720999550487 ], [ -77.962507990725356, 35.438882999886665 ], [ -77.957471991025514, 35.444938999658042 ], [ -77.951711991296733, 35.44838200021676 ], [ -77.938023991707297, 35.453690000154928 ], [ -77.926079991104928, 35.45965299963548 ], [ -77.924888991589683, 35.461596000022539 ], [ -77.922777991710987, 35.458917999827399 ], [ -77.918547991604868, 35.456994999858146 ], [ -77.917496991049362, 35.454271999791011 ], [ -77.90753999146628, 35.448561000154804 ], [ -77.897149991335581, 35.44003200036579 ], [ -77.891875990674592, 35.435764999486125 ], [ -77.885243990905053, 35.427168999742072 ], [ -77.889115990950998, 35.424965999873471 ], [ -77.895888991491276, 35.415695999538372 ], [ -77.897454991600767, 35.411988000052531 ], [ -77.897931991125532, 35.40491299990169 ], [ -77.900080991611176, 35.40222399948879 ], [ -77.920084991404408, 35.388797000002803 ], [ -77.923853990760989, 35.389758999609406 ], [ -77.928332991192477, 35.393074999680749 ], [ -77.93167299172697, 35.399347999563254 ], [ -77.931630990776952, 35.402144999934208 ], [ -77.932469991212216, 35.403695999653152 ], [ -77.939554991224114, 35.406398999546035 ], [ -77.943901991221679, 35.409245999599094 ], [ -77.938406991498596, 35.415429999996633 ], [ -77.945648990896771, 35.419795999693925 ], [ -77.963776991694417, 35.424720999550487 ] ] ] } },
{ "type": "Feature", "properties": { "county": "WAYNE", "precinct": "9", "enr_desc": "09", "winner": "Ricky Hooks", "winner_votes": 265, "winner_share": 52.683896620278325, "runner_up": "Larry M. Pierce", "runner_up_votes": 226, "runner_up_share": 44.930417495029822, "contest_votes": 503, "margin_of_victory": 7.7534791252485036, "is_tie": false, "results": [ { "candidate": "Ricky Hooks", "votes": 265, "share": 52.683896620278325 }, { "candidate": "Larry M. Pierce", "votes": 226, "share": 44.93041749502982 }, { "candidate": "Stephen (Stevie) Howell", "votes": 12, "share": 2.3856858846918487 } ], "participated": true, "map_key": "WAYNE_9" }, "geometry": { "type": "Polygon", "coordinates": [ [ [ -78.026140991639906, 35.39308899952011 ], [ -78.025527991562299, 35.389720999678872 ], [ -78.024151991244864, 35.389755000144817 ], [ -78.024381990958204, 35.388945999749325 ], [ -78.023341990989906, 35.388396999490993 ], [ -78.024398990757717, 35.387457999896228 ], [ -78.024028991432274, 35.386193000283875 ], [ -78.020313991512481, 35.383954999954078 ], [ -78.020409991541911, 35.382420999711968 ], [ -78.019553991160038, 35.381779000237444 ], [ -78.020641991516968, 35.379540000023773 ], [ -78.022559991480989, 35.380231999491492 ], [ -78.022349991547742, 35.379418999847374 ], [ -78.024120991053294, 35.37853199953576 ], [ -78.025240991762544, 35.376407999666768 ], [ -78.034093991319651, 35.374586999487398 ], [ -78.036640991204621, 35.37257200015226 ], [ -78.038501990899022, 35.369260999938696 ], [ -78.046589991490805, 35.366949000262188 ], [ -78.046741991575843, 35.363148999834848 ], [ -78.047581991083206, 35.361639000062048 ], [ -78.046909990763481, 35.360830000006096 ], [ -78.040487990725779, 35.360385000294158 ], [ -78.039127990930481, 35.361707000190407 ], [ -78.039173991398158, 35.36405700018836 ], [ -78.038349991756462, 35.364827999980783 ], [ -78.036152991447324, 35.364019000006749 ], [ -78.034356991701117, 35.362067000253099 ], [ -78.034870991568155, 35.361044000308482 ], [ -78.04079099104311, 35.358601999553898 ], [ -78.045759990982177, 35.351009999996364 ], [ -78.04729799118951, 35.350850999953771 ], [ -78.048221991621787, 35.351826999557311 ], [ -78.04605599145313, 35.355351999992237 ], [ -78.050495990781684, 35.35851799993506 ], [ -78.054338990830033, 35.356852999908945 ], [ -78.060658991064514, 35.352040999758017 ], [ -78.068578991171222, 35.349316999624655 ], [ -78.078025991541367, 35.349588999835682 ], [ -78.082116991484625, 35.350421999802627 ], [ -78.082833991508537, 35.351346999870081 ], [ -78.082891991756966, 35.35318199983957 ], [ -78.079165990757403, 35.355536999877614 ], [ -78.077388991456118, 35.358335999901037 ], [ -78.078823990867505, 35.362891999812355 ], [ -78.084210990992844, 35.364904000263813 ], [ -78.083431991570976, 35.366661000053817 ], [ -78.08077899115996, 35.368454999777612 ], [ -78.077647991242358, 35.369201000342592 ], [ -78.074824990882576, 35.368875999954959 ], [ -78.072779991262109, 35.367382999905459 ], [ -78.07000299093913, 35.367599999789178 ], [ -78.068198991075974, 35.366519000369877 ], [ -78.068369991619718, 35.370430000302527 ], [ -78.066599991414222, 35.371555999957863 ], [ -78.063745991681998, 35.370386999881681 ], [ -78.061764991733071, 35.372673999822567 ], [ -78.06015799145095, 35.376549999578863 ], [ -78.058479990877615, 35.376923000128564 ], [ -78.056593991506574, 35.37536399989245 ], [ -78.055639991533781, 35.378708999650087 ], [ -78.057044990679771, 35.38037400030511 ], [ -78.060754991190805, 35.381255999539398 ], [ -78.064521991591533, 35.380817000219345 ], [ -78.07017299165382, 35.378450000359109 ], [ -78.080241991393564, 35.381673000042397 ], [ -78.089850991431305, 35.381302000155046 ], [ -78.093882990715827, 35.382570999887456 ], [ -78.093754991347154, 35.385839999995852 ], [ -78.091362991056272, 35.387432000383534 ], [ -78.063311991741799, 35.397381999938546 ], [ -78.068523991449041, 35.40338900030239 ], [ -78.071339990806649, 35.405990999844057 ], [ -78.071887991531298, 35.408655999924264 ], [ -78.070202991283637, 35.415650000195534 ], [ -78.068154991593019, 35.419596999802955 ], [ -78.06794899086664, 35.424202999852064 ], [ -78.063853991240052, 35.42785700012908 ], [ -78.07087999086049, 35.434769000044859 ], [ -78.070347991683647, 35.443545999848638 ], [ -78.065855991631196, 35.446177999860247 ], [ -78.063199990718672, 35.446722999987173 ], [ -78.048549990871066, 35.440375999483273 ], [ -78.045567991415211, 35.443365000230976 ], [ -78.044969991352488, 35.445549999745879 ], [ -78.039644990708027, 35.448113999566736 ], [ -78.033742990699523, 35.448833999931956 ], [ -78.031763990814326, 35.448456999649331 ], [ -78.02986399146404, 35.446381999547015 ], [ -78.030584991346942, 35.445742999928683 ], [ -78.029989991095107, 35.44479199958473 ], [ -78.031103991699112, 35.443718999730983 ], [ -78.030629991547102, 35.441912999816772 ], [ -78.024929990985811, 35.439567999979388 ], [ -78.026873991294394, 35.438230999688905 ], [ -78.026392991760062, 35.437010999536035 ], [ -78.023096991621301, 35.43630800027352 ], [ -78.021879991143408, 35.4367040000282 ], [ -78.022252990771563, 35.437743999567758 ], [ -78.02033499128197, 35.437006999657797 ], [ -78.019523990810839, 35.43573800020885 ], [ -78.018413991142609, 35.436451000103965 ], [ -78.014832991122589, 35.436512000197176 ], [ -78.01530199167911, 35.434216999884235 ], [ -78.012512991244691, 35.432526000126039 ], [ -78.011561990704777, 35.429273000085871 ], [ -78.016985990856696, 35.426972999777099 ], [ -78.017246991148951, 35.42364000032353 ], [ -78.013260991213116, 35.420857999901244 ], [ -78.009790991140534, 35.420965000321807 ], [ -78.009693991559331, 35.419882999783631 ], [ -78.008275991643259, 35.418744000362558 ], [ -78.006937991323198, 35.420085000315943 ], [ -78.002410990960911, 35.421040000253669 ], [ -78.001269990868934, 35.419767999621996 ], [ -78.002101991598948, 35.419279999998608 ], [ -78.001892991494159, 35.418376000062132 ], [ -78.002999990973478, 35.417934999565404 ], [ -78.001753991030625, 35.417285999632227 ], [ -78.002141991519522, 35.41603500005607 ], [ -78.003691991246853, 35.415371000023242 ], [ -78.002710990670749, 35.414552000339675 ], [ -78.002671991630976, 35.413199000303131 ], [ -78.004361991587189, 35.410147999582662 ], [ -78.006015991001547, 35.409935999812696 ], [ -78.005426990924022, 35.408578999975177 ], [ -78.011490990772486, 35.407907999989924 ], [ -78.011841991575366, 35.406242999680224 ], [ -78.010424991066429, 35.405058999601728 ], [ -78.010157991015618, 35.403756000340287 ], [ -78.01411799122107, 35.404638999557406 ], [ -78.014638991696827, 35.407076999945119 ], [ -78.017470991101661, 35.405117000234554 ], [ -78.017788991628592, 35.406155999629874 ], [ -78.01969299091958, 35.405743000059744 ], [ -78.02022699122567, 35.404822999786987 ], [ -78.021159990931707, 35.405100999985777 ], [ -78.021017991675549, 35.403116999709987 ], [ -78.022797991682907, 35.401644000355255 ], [ -78.025663991064022, 35.401350999949805 ], [ -78.025455991237067, 35.400357999759493 ], [ -78.02731299136623, 35.401589999898547 ], [ -78.029081991000751, 35.400928000100883 ], [ -78.02942099157265, 35.40021000029661 ], [ -78.027674991266935, 35.398933999860461 ], [ -78.023455991084816, 35.397276999983845 ], [ -78.025673991347333, 35.39594300032384 ], [ -78.02662799176079, 35.394373000000108 ], [ -78.026140991639906, 35.39308899952011 ] ] ] } },
{ "type": "Feature", "properties": { "county": "WAYNE", "precinct": "8", "enr_desc": "08", "winner": "Ricky Hooks", "winner_votes": 256, "winner_share": 52.674897119341566, "runner_up": "Larry M. Pierce", "runner_up_votes": 216, "runner_up_share": 44.444444444444443, "contest_votes": 486, "margin_of_victory": 8.2304526748971227, "is_tie": false, "results": [ { "candidate": "Ricky Hooks", "votes": 256, "share": 52.674897119341566 }, { "candidate": "Larry M. Pierce", "votes": 216, "share": 44.44444444444444 }, { "candidate": "Stephen (Stevie) Howell", "votes": 14, "share": 2.880658436213992 } ], "participated": true, "map_key": "WAYNE_8" }, "geometry": { "type": "Polygon", "coordinates": [ [ [ -78.153242991599583, 35.350670999583514 ], [ -78.154354991404233, 35.353352999526024 ], [ -78.153276991528273, 35.355576999601105 ], [ -78.153716991082973, 35.35642299994467 ], [ -78.155173991424093, 35.357243999826679 ], [ -78.156647990776094, 35.355981000097493 ], [ -78.160077991112729, 35.356628000068646 ], [ -78.159967990820988, 35.359250999647543 ], [ -78.157659991179372, 35.360109999760233 ], [ -78.161657990729381, 35.364768999947941 ], [ -78.162407991703915, 35.367374999901955 ], [ -78.157837991703857, 35.375015999910751 ], [ -78.15072299092904, 35.378563000022154 ], [ -78.145816990871168, 35.382981000246545 ], [ -78.144201991662811, 35.386894000183808 ], [ -78.144838991008569, 35.388386000172552 ], [ -78.149759990934157, 35.391750999642511 ], [ -78.153671991665632, 35.39198700022704 ], [ -78.154909990684871, 35.417809999879402 ], [ -78.134976990968752, 35.454509999529641 ], [ -78.129218990726031, 35.451495000367267 ], [ -78.112986991586851, 35.447120999514588 ], [ -78.103329991449016, 35.443260999962639 ], [ -78.10720399103667, 35.441173000351213 ], [ -78.110156990699139, 35.438294000234308 ], [ -78.114173990988647, 35.424130999877789 ], [ -78.11282799071958, 35.41934799975747 ], [ -78.113177991534101, 35.416720999719374 ], [ -78.108961991683685, 35.41275699964006 ], [ -78.108223991649012, 35.408895000246346 ], [ -78.102873990986083, 35.409792000184517 ], [ -78.101391990841236, 35.412325000160664 ], [ -78.097057990763531, 35.415615999793566 ], [ -78.084962991452656, 35.415996999712945 ], [ -78.087497990951036, 35.409261999529001 ], [ -78.090228991626461, 35.408363999920873 ], [ -78.092226991488758, 35.405970999856827 ], [ -78.092402991165983, 35.401071999486454 ], [ -78.083050990904894, 35.401547999958666 ], [ -78.076594991164072, 35.403152999788112 ], [ -78.068523991449041, 35.40338900030239 ], [ -78.063311991741799, 35.397381999938546 ], [ -78.091362991056272, 35.387432000383534 ], [ -78.093754991347154, 35.385839999995852 ], [ -78.093882990715827, 35.382570999887456 ], [ -78.089850991431305, 35.381302000155046 ], [ -78.080241991393564, 35.381673000042397 ], [ -78.07017299165382, 35.378450000359109 ], [ -78.064521991591533, 35.380817000219345 ], [ -78.060754991190805, 35.381255999539398 ], [ -78.057044990679771, 35.38037400030511 ], [ -78.055639991533781, 35.378708999650087 ], [ -78.056593991506574, 35.37536399989245 ], [ -78.058479990877615, 35.376923000128564 ], [ -78.06015799145095, 35.376549999578863 ], [ -78.061764991733071, 35.372673999822567 ], [ -78.063745991681998, 35.370386999881681 ], [ -78.066599991414222, 35.371555999957863 ], [ -78.068369991619718, 35.370430000302527 ], [ -78.068198991075974, 35.366519000369877 ], [ -78.07000299093913, 35.367599999789178 ], [ -78.072779991262109, 35.367382999905459 ], [ -78.074824990882576, 35.368875999954959 ], [ -78.077647991242358, 35.369201000342592 ], [ -78.08077899115996, 35.368454999777612 ], [ -78.083431991570976, 35.366661000053817 ], [ -78.084210990992844, 35.364904000263813 ], [ -78.078823990867505, 35.362891999812355 ], [ -78.077388991456118, 35.358335999901037 ], [ -78.079165990757403, 35.355536999877614 ], [ -78.082891991756966, 35.35318199983957 ], [ -78.082833991508537, 35.351346999870081 ], [ -78.082116991484625, 35.350421999802627 ], [ -78.078025991541367, 35.349588999835682 ], [ -78.068578991171222, 35.349316999624655 ], [ -78.060658991064514, 35.352040999758017 ], [ -78.054338990830033, 35.356852999908945 ], [ -78.050495990781684, 35.35851799993506 ], [ -78.04605599145313, 35.355351999992237 ], [ -78.048221991621787, 35.351826999557311 ], [ -78.04729799118951, 35.350850999953771 ], [ -78.045759990982177, 35.351009999996364 ], [ -78.044486991041083, 35.349118999705276 ], [ -78.045062991062267, 35.347941000234243 ], [ -78.051405990806401, 35.344058999786313 ], [ -78.051593991413355, 35.342713999651075 ], [ -78.053450990839877, 35.341285999662844 ], [ -78.052980991208074, 35.340258999516905 ], [ -78.053764990898344, 35.340017999886385 ], [ -78.054600991403873, 35.337456999661363 ], [ -78.070977991661351, 35.33469800030074 ], [ -78.080135991093357, 35.33174500023712 ], [ -78.090703991747276, 35.336223999575019 ], [ -78.097610991496808, 35.337548999829728 ], [ -78.11222899116764, 35.333567000065152 ], [ -78.117985990842513, 35.330511000369903 ], [ -78.128054990772156, 35.32254299979784 ], [ -78.132977991447646, 35.326906000280232 ], [ -78.134983991248774, 35.329624999965738 ], [ -78.135399991711154, 35.33197100008308 ], [ -78.133172990892604, 35.334479999759381 ], [ -78.129875991014373, 35.334095000108491 ], [ -78.128780991332562, 35.333636999962529 ], [ -78.129089991468462, 35.330528999552982 ], [ -78.123011991410166, 35.328292999822331 ], [ -78.123143991662815, 35.331313999948627 ], [ -78.123954991446155, 35.33262700020375 ], [ -78.127894991322421, 35.334215999555788 ], [ -78.124281991303192, 35.337993000372578 ], [ -78.124408990854349, 35.341554999922671 ], [ -78.126140990754294, 35.343850000215085 ], [ -78.131667991233471, 35.346593999487311 ], [ -78.137439990711812, 35.347040999904088 ], [ -78.138364991283538, 35.348038999680767 ], [ -78.138229991301557, 35.350337000122494 ], [ -78.13973499104641, 35.353727999767372 ], [ -78.138850991463727, 35.354036999711191 ], [ -78.13638999165704, 35.35262200004793 ], [ -78.135438991518427, 35.354103000062508 ], [ -78.133058990909078, 35.355437999794269 ], [ -78.135957990800051, 35.357035999785353 ], [ -78.139098991171281, 35.356607999786945 ], [ -78.147817991661313, 35.348917000138918 ], [ -78.151829990699639, 35.349260999962276 ], [ -78.153242991599583, 35.350670999583514 ] ] ] } },
{ "type": "Feature", "properties": { "county": "WAYNE", "precinct": "10", "enr_desc": "10", "winner": "Larry M. Pierce", "winner_votes": 57, "winner_share": 53.271028037383175, "runner_up": "Ricky Hooks", "runner_up_votes": 43, "runner_up_share": 40.186915887850468, "contest_votes": 107, "margin_of_victory": 13.084112149532707, "is_tie": false, "results": [ { "candidate": "Larry M. Pierce", "votes": 57, "share": 53.271028037383175 }, { "candidate": "Ricky Hooks", "votes": 43, "share": 40.18691588785047 }, { "candidate": "Stephen (Stevie) Howell", "votes": 7, "share": 6.5420560747663545 } ], "participated": true, "map_key": "WAYNE_10" }, "geometry": { "type": "Polygon", "coordinates": [ [ [ -78.026140991639906, 35.39308899952011 ], [ -78.02662799176079, 35.394373000000108 ], [ -78.025673991347333, 35.39594300032384 ], [ -78.023455991084816, 35.397276999983845 ], [ -78.027674991266935, 35.398933999860461 ], [ -78.02942099157265, 35.40021000029661 ], [ -78.029081991000751, 35.400928000100883 ], [ -78.02731299136623, 35.401589999898547 ], [ -78.025455991237067, 35.400357999759493 ], [ -78.025663991064022, 35.401350999949805 ], [ -78.022797991682907, 35.401644000355255 ], [ -78.021017991675549, 35.403116999709987 ], [ -78.021159990931707, 35.405100999985777 ], [ -78.02022699122567, 35.404822999786987 ], [ -78.01969299091958, 35.405743000059744 ], [ -78.017788991628592, 35.406155999629874 ], [ -78.017470991101661, 35.405117000234554 ], [ -78.014638991696827, 35.407076999945119 ], [ -78.01411799122107, 35.404638999557406 ], [ -78.010157991015618, 35.403756000340287 ], [ -78.010424991066429, 35.405058999601728 ], [ -78.011841991575366, 35.406242999680224 ], [ -78.011490990772486, 35.407907999989924 ], [ -78.005426990924022, 35.408578999975177 ], [ -78.006015991001547, 35.409935999812696 ], [ -78.004361991587189, 35.410147999582662 ], [ -78.002671991630976, 35.413199000303131 ], [ -78.002710990670749, 35.414552000339675 ], [ -78.003691991246853, 35.415371000023242 ], [ -78.002141991519522, 35.41603500005607 ], [ -78.001753991030625, 35.417285999632227 ], [ -77.996637991698805, 35.420067999495025 ], [ -77.997376991479726, 35.425099999794128 ], [ -77.99548599134485, 35.433148999656403 ], [ -77.981463991647416, 35.427254999680791 ], [ -77.983071990786584, 35.41073800008801 ], [ -77.982864991428499, 35.405397000274505 ], [ -77.98761099151011, 35.396454999705369 ], [ -77.989472991270802, 35.392041999885123 ], [ -77.99189799132057, 35.392332999518359 ], [ -77.993582991132342, 35.391533000129321 ], [ -77.996314991120002, 35.385806000009701 ], [ -78.021727991270737, 35.393789999492441 ], [ -78.026140991639906, 35.39308899952011 ] ] ] } },
{ "type": "Feature", "properties": { "county": "WAYNE", "precinct": "11", "enr_desc": "11", "winner": "Larry M. Pierce", "winner_votes": 125, "winner_share": 51.652892561983464, "runner_up": "Ricky Hooks", "runner_up_votes": 96, "runner_up_share": 39.669421487603309, "contest_votes": 242, "margin_of_victory": 11.983471074380155, "is_tie": false, "results": [ { "candidate": "Larry M. Pierce", "votes": 125, "share": 51.652892561983464 }, { "candidate": "Ricky Hooks", "votes": 96, "share": 39.66942148760331 }, { "candidate": "Stephen (Stevie) Howell", "votes": 21, "share": 8.677685950413224 } ], "participated": true, "map_key": "WAYNE_11" }, "geometry": { "type": "Polygon", "coordinates": [ [ [ -77.976813991663988, 35.391634999631542 ], [ -77.979639991687179, 35.394702000362464 ], [ -77.98761099151011, 35.396454999705369 ], [ -77.982864991428499, 35.405397000274505 ], [ -77.983071990786584, 35.41073800008801 ], [ -77.981463991647416, 35.427254999680791 ], [ -77.981264991308691, 35.428448999627456 ], [ -77.973948990906848, 35.426304000105169 ], [ -77.97375699161492, 35.425488000345418 ], [ -77.963776991694417, 35.424720999550487 ], [ -77.945648990896771, 35.419795999693925 ], [ -77.938406991498596, 35.415429999996633 ], [ -77.943901991221679, 35.409245999599094 ], [ -77.950241991718826, 35.401901000170412 ], [ -77.958060990746745, 35.399375000295954 ], [ -77.956717990771082, 35.398755000243199 ], [ -77.953200991062047, 35.393247000259692 ], [ -77.953014991231015, 35.39081499956712 ], [ -77.952916991626552, 35.38851300015677 ], [ -77.954223991169812, 35.385514000316491 ], [ -77.963525990980614, 35.387188999925733 ], [ -77.962596990846706, 35.390567999932664 ], [ -77.96560699139809, 35.393844999540434 ], [ -77.965786991353255, 35.395137000224757 ], [ -77.970213991075383, 35.395370999776013 ], [ -77.976813991663988, 35.391634999631542 ] ] ] } },
{ "type": "Feature", "properties": { "county": "WAYNE", "precinct": "12", "enr_desc": "12", "winner": "Ricky Hooks", "winner_votes": 144, "winner_share": 49.826989619377159, "runner_up": "Larry M. Pierce", "runner_up_votes": 130, "runner_up_share": 44.982698961937714, "contest_votes": 289, "margin_of_victory": 4.8442906574394442, "is_tie": false, "results": [ { "candidate": "Ricky Hooks", "votes": 144, "share": 49.82698961937716 }, { "candidate": "Larry M. Pierce", "votes": 130, "share": 44.982698961937714 }, { "candidate": "Stephen (Stevie) Howell", "votes": 15, "share": 5.190311418685121 } ], "participated": true, "map_key": "WAYNE_12" }, "geometry": { "type": "Polygon", "coordinates": [ [ [ -77.936771991327149, 35.378199999677911 ], [ -77.939779991674669, 35.383701999678173 ], [ -77.942195991519114, 35.38624599966019 ], [ -77.953014991231015, 35.39081499956712 ], [ -77.953200991062047, 35.393247000259692 ], [ -77.956717990771082, 35.398755000243199 ], [ -77.958060990746745, 35.399375000295954 ], [ -77.950241991718826, 35.401901000170412 ], [ -77.943901991221679, 35.409245999599094 ], [ -77.939554991224114, 35.406398999546035 ], [ -77.932469991212216, 35.403695999653152 ], [ -77.931630990776952, 35.402144999934208 ], [ -77.93167299172697, 35.399347999563254 ], [ -77.928332991192477, 35.393074999680749 ], [ -77.923853990760989, 35.389758999609406 ], [ -77.920084991404408, 35.388797000002803 ], [ -77.900080991611176, 35.40222399948879 ], [ -77.901810991273621, 35.392572999791348 ], [ -77.903617991186422, 35.389742999540282 ], [ -77.905407991102578, 35.387608000028578 ], [ -77.917060991509999, 35.37905399954851 ], [ -77.929743990668584, 35.378007000233602 ], [ -77.934168991611728, 35.379649999993738 ], [ -77.936771991327149, 35.378199999677911 ] ] ] } },
{ "type": "Feature", "properties": { "county": "WAYNE", "precinct": "13", "enr_desc": "13", "winner": "Ricky Hooks", "winner_votes": 62, "winner_share": 53.913043478260867, "runner_up": "Larry M. Pierce", "runner_up_votes": 50, "runner_up_share": 43.478260869565219, "contest_votes": 115, "margin_of_victory": 10.434782608695649, "is_tie": false, "results": [ { "candidate": "Ricky Hooks", "votes": 62, "share": 53.91304347826087 }, { "candidate": "Larry M. Pierce", "votes": 50, "share": 43.47826086956522 }, { "candidate": "Stephen (Stevie) Howell", "votes": 3, "share": 2.608695652173913 } ], "participated": true, "map_key": "WAYNE_13" }, "geometry": { "type": "Polygon", "coordinates": [ [ [ -77.917985991399448, 35.346623999939929 ], [ -77.920553990938501, 35.348618999787554 ], [ -77.927016991655776, 35.357828000059506 ], [ -77.930001991192768, 35.365518999534196 ], [ -77.936771991327149, 35.378199999677911 ], [ -77.934168991611728, 35.379649999993738 ], [ -77.929743990668584, 35.378007000233602 ], [ -77.917060991509999, 35.37905399954851 ], [ -77.905407991102578, 35.387608000028578 ], [ -77.903617991186422, 35.389742999540282 ], [ -77.899010991223818, 35.387915000255369 ], [ -77.893390991573128, 35.388983999929685 ], [ -77.89313499104135, 35.388050000299899 ], [ -77.890211990973654, 35.387802000255135 ], [ -77.887353991690716, 35.389365999983696 ], [ -77.885012991415039, 35.389539999892499 ], [ -77.880298990701732, 35.388643999654576 ], [ -77.869898991029046, 35.380309999711017 ], [ -77.878882990748224, 35.374540999605202 ], [ -77.877300991628331, 35.369996999816927 ], [ -77.883397991707895, 35.369004000355275 ], [ -77.891101990916781, 35.36457199993761 ], [ -77.896579991063092, 35.362973999739758 ], [ -77.904767990766743, 35.357673000342821 ], [ -77.917985991399448, 35.346623999939929 ] ] ] } },
{ "type": "Feature", "properties": { "county": "WAYNE", "precinct": "14", "enr_desc": "14", "winner": "Ricky Hooks", "winner_votes": 306, "winner_share": 49.837133550488602, "runner_up": "Larry M. Pierce", "runner_up_votes": 271, "runner_up_share": 44.13680781758957, "contest_votes": 614, "margin_of_victory": 5.7003257328990316, "is_tie": false, "results": [ { "candidate": "Ricky Hooks", "votes": 306, "share": 49.8371335504886 }, { "candidate": "Larry M. Pierce", "votes": 271, "share": 44.13680781758957 }, { "candidate": "Stephen (Stevie) Howell", "votes": 37, "share": 6.026058631921824 } ], "participated": true, "map_key": "WAYNE_14" }, "geometry": { "type": "Polygon", "coordinates": [ [ [ -77.925546991405511, 35.323961000051412 ], [ -77.920752991344386, 35.335283999786434 ], [ -77.917985991399448, 35.346623999939929 ], [ -77.904767990766743, 35.357673000342821 ], [ -77.896579991063092, 35.362973999739758 ], [ -77.891101990916781, 35.36457199993761 ], [ -77.883397991707895, 35.369004000355275 ], [ -77.877300991628331, 35.369996999816927 ], [ -77.878882990748224, 35.374540999605202 ], [ -77.869898991029046, 35.380309999711017 ], [ -77.867383991633019, 35.378935999935756 ], [ -77.863080991484395, 35.372329000319745 ], [ -77.858612991453754, 35.368266000351284 ], [ -77.846230991177876, 35.358919999951176 ], [ -77.849219990887008, 35.355314000177515 ], [ -77.849492991697673, 35.35387500033471 ], [ -77.848242991443115, 35.343952999947248 ], [ -77.849901990901586, 35.334184999849505 ], [ -77.849577990888847, 35.321930999882852 ], [ -77.85494999142874, 35.311869000283991 ], [ -77.850965991774999, 35.303892999792318 ], [ -77.848607990962819, 35.301173000129964 ], [ -77.849371991440904, 35.298670999602827 ], [ -77.84769399170122, 35.290531000224064 ], [ -77.84913199144485, 35.288163999837558 ], [ -77.854388991625243, 35.283300000194686 ], [ -77.856996991689385, 35.276098000136663 ], [ -77.870329991557639, 35.282586999497575 ], [ -77.881558991683349, 35.289476999627794 ], [ -77.879625990948057, 35.29358099987364 ], [ -77.880328991698676, 35.295709000305912 ], [ -77.892660991673338, 35.303710999498044 ], [ -77.908218990949962, 35.317002000361754 ], [ -77.916621991639047, 35.321095000205744 ], [ -77.925546991405511, 35.323961000051412 ] ] ] } },
{ "type": "Feature", "properties": { "county": "WAYNE", "precinct": "15", "enr_desc": "15", "winner": "Larry M. Pierce", "winner_votes": 222, "winner_share": 53.365384615384613, "runner_up": "Ricky Hooks", "runner_up_votes": 161, "runner_up_share": 38.70192307692308, "contest_votes": 416, "margin_of_victory": 14.663461538461533, "is_tie": false, "results": [ { "candidate": "Larry M. Pierce", "votes": 222, "share": 53.36538461538461 }, { "candidate": "Ricky Hooks", "votes": 161, "share": 38.70192307692308 }, { "candidate": "Stephen (Stevie) Howell", "votes": 33, "share": 7.9326923076923075 } ], "participated": true, "map_key": "WAYNE_15" }, "geometry": { "type": "Polygon", "coordinates": [ [ [ -77.932213991529835, 35.172592999785891 ], [ -77.933806991517656, 35.177464999547794 ], [ -77.932535991153941, 35.179818999590118 ], [ -77.93138399151394, 35.187116000041229 ], [ -77.922655991422289, 35.1961580002951 ], [ -77.916330991002539, 35.199238000069691 ], [ -77.914655991173106, 35.203130999827827 ], [ -77.917612991582658, 35.209121000112866 ], [ -77.920481991343877, 35.212923999867435 ], [ -77.921775991228429, 35.21912699954914 ], [ -77.919321990894247, 35.222631999617185 ], [ -77.917045991269561, 35.230291999543184 ], [ -77.931110990977118, 35.232453000368444 ], [ -77.930234991051478, 35.23646599974294 ], [ -77.927569991142235, 35.241405999829325 ], [ -77.914116991602242, 35.251883000362739 ], [ -77.910620990859599, 35.258274999718701 ], [ -77.911267991333602, 35.292641000290466 ], [ -77.916919991474103, 35.300148999705627 ], [ -77.927085991333968, 35.309131999744857 ], [ -77.928977990952305, 35.313827999866255 ], [ -77.92864399167884, 35.317287999900699 ], [ -77.925546991405511, 35.323961000051412 ], [ -77.916621991639047, 35.321095000205744 ], [ -77.908218990949962, 35.317002000361754 ], [ -77.892660991673338, 35.303710999498044 ], [ -77.880328991698676, 35.295709000305912 ], [ -77.879625990948057, 35.29358099987364 ], [ -77.881558991683349, 35.289476999627794 ], [ -77.870329991557639, 35.282586999497575 ], [ -77.856996991689385, 35.276098000136663 ], [ -77.854388991625243, 35.283300000194686 ], [ -77.84913199144485, 35.288163999837558 ], [ -77.84769399170122, 35.290531000224064 ], [ -77.849371991440904, 35.298670999602827 ], [ -77.848607990962819, 35.301173000129964 ], [ -77.850965991774999, 35.303892999792318 ], [ -77.85494999142874, 35.311869000283991 ], [ -77.849577990888847, 35.321930999882852 ], [ -77.849901990901586, 35.334184999849505 ], [ -77.848242991443115, 35.343952999947248 ], [ -77.849492991697673, 35.35387500033471 ], [ -77.849219990887008, 35.355314000177515 ], [ -77.846230991177876, 35.358919999951176 ], [ -77.858612991453754, 35.368266000351284 ], [ -77.863080991484395, 35.372329000319745 ], [ -77.867383991633019, 35.378935999935756 ], [ -77.869898991029046, 35.380309999711017 ], [ -77.852427991051599, 35.380551999525899 ], [ -77.845198991188482, 35.376579999616503 ], [ -77.837021990814151, 35.376697999965948 ], [ -77.828162990742143, 35.378071000295833 ], [ -77.817626990713407, 35.377723999914302 ], [ -77.802814991068246, 35.372971000075886 ], [ -77.811029990983727, 35.364133999744972 ], [ -77.814742991003172, 35.361748999571795 ], [ -77.81804699147483, 35.357434999656967 ], [ -77.819269990853016, 35.351998999969247 ], [ -77.824179990960332, 35.343810999928657 ], [ -77.834248991724905, 35.177846000061706 ], [ -77.887396991232777, 35.16070800036902 ], [ -77.889310991325829, 35.159461999595621 ], [ -77.890113991796511, 35.157314999485024 ], [ -77.892962990722125, 35.156381999867399 ], [ -77.893907991130703, 35.154197000175103 ], [ -77.893594991689824, 35.149912999613115 ], [ -77.891282991097953, 35.146957999752971 ], [ -77.892198990779434, 35.146315000087107 ], [ -77.895561991080399, 35.148486000253591 ], [ -77.898142990821412, 35.148876000141478 ], [ -77.903964990929651, 35.154600999583771 ], [ -77.908945990824591, 35.157117000147259 ], [ -77.909667991411183, 35.158204999942484 ], [ -77.90960699114531, 35.162317999755018 ], [ -77.913163990819044, 35.165334000164222 ], [ -77.913223991526849, 35.16614699993238 ], [ -77.916701991688598, 35.167449000153383 ], [ -77.918888990964874, 35.169509000143591 ], [ -77.923450991783042, 35.171063000184759 ], [ -77.925670991305608, 35.172920000349208 ], [ -77.929871991039121, 35.173567999699252 ], [ -77.932213991529835, 35.172592999785891 ] ] ] } },
{ "type": "Feature", "properties": { "county": "WAYNE", "precinct": "16", "enr_desc": "16", "winner": "Larry M. Pierce", "winner_votes": 158, "winner_share": 55.633802816901415, "runner_up": "Ricky Hooks", "runner_up_votes": 112, "runner_up_share": 39.436619718309856, "contest_votes": 284, "margin_of_victory": 16.197183098591559, "is_tie": false, "results": [ { "candidate": "Larry M. Pierce", "votes": 158, "share": 55.633802816901415 }, { "candidate": "Ricky Hooks", "votes": 112, "share": 39.436619718309856 }, { "candidate": "Stephen (Stevie) Howell", "votes": 14, "share": 4.929577464788732 } ], "participated": true, "map_key": "WAYNE_16" }, "geometry": { "type": "Polygon", "coordinates": [ [ [ -78.069479991682599, 35.248209999593399 ], [ -78.075014990705895, 35.248281000325733 ], [ -78.077961990705433, 35.251573999563114 ], [ -78.081261991322378, 35.252852999899737 ], [ -78.091851990901162, 35.264736000063017 ], [ -78.092435991066878, 35.267565000165121 ], [ -78.096615990882881, 35.27023299959199 ], [ -78.099522991707133, 35.271006000036593 ], [ -78.099877991702101, 35.27212699982428 ], [ -78.10003999135111, 35.274538000339014 ], [ -78.101814991062966, 35.275997999924613 ], [ -78.103899991666012, 35.28015500017964 ], [ -78.10329199103812, 35.282285999920745 ], [ -78.104310990846969, 35.284569999893627 ], [ -78.107989991436128, 35.288643999492727 ], [ -78.108139990793134, 35.291812999776212 ], [ -78.109573990710132, 35.294630000249889 ], [ -78.109073991419123, 35.297975000355635 ], [ -78.112291991218854, 35.302070999765029 ], [ -78.11212699173764, 35.305014999827748 ], [ -78.114674991345652, 35.308292999531893 ], [ -78.117400990782883, 35.309884000194756 ], [ -78.117771991567579, 35.311756999879258 ], [ -78.119970990956602, 35.313777000346128 ], [ -78.120326990842386, 35.317115999503443 ], [ -78.120978991291182, 35.318686999831208 ], [ -78.121923990679136, 35.318878999949355 ], [ -78.122065990873097, 35.320532000235104 ], [ -78.128054990772156, 35.32254299979784 ], [ -78.117985990842513, 35.330511000369903 ], [ -78.11222899116764, 35.333567000065152 ], [ -78.097610991496808, 35.337548999829728 ], [ -78.090703991747276, 35.336223999575019 ], [ -78.080135991093357, 35.33174500023712 ], [ -78.070977991661351, 35.33469800030074 ], [ -78.054600991403873, 35.337456999661363 ], [ -78.053764990898344, 35.340017999886385 ], [ -78.052980991208074, 35.340258999516905 ], [ -78.053450990839877, 35.341285999662844 ], [ -78.051593991413355, 35.342713999651075 ], [ -78.051405990806401, 35.344058999786313 ], [ -78.045062991062267, 35.347941000234243 ], [ -78.044486991041083, 35.349118999705276 ], [ -78.045759990982177, 35.351009999996364 ], [ -78.04079099104311, 35.358601999553898 ], [ -78.034870991568155, 35.361044000308482 ], [ -78.034356991701117, 35.362067000253099 ], [ -78.036152991447324, 35.364019000006749 ], [ -78.038349991756462, 35.364827999980783 ], [ -78.039173991398158, 35.36405700018836 ], [ -78.039127990930481, 35.361707000190407 ], [ -78.040487990725779, 35.360385000294158 ], [ -78.046909990763481, 35.360830000006096 ], [ -78.047581991083206, 35.361639000062048 ], [ -78.046741991575843, 35.363148999834848 ], [ -78.046589991490805, 35.366949000262188 ], [ -78.038501990899022, 35.369260999938696 ], [ -78.036640991204621, 35.37257200015226 ], [ -78.034093991319651, 35.374586999487398 ], [ -78.025240991762544, 35.376407999666768 ], [ -78.022722991611289, 35.376286000163496 ], [ -78.021669991330242, 35.375034999572911 ], [ -78.021593990879765, 35.372760999502439 ], [ -78.022615990958883, 35.370082999858695 ], [ -78.02143999159297, 35.369641999801338 ], [ -78.018739990926619, 35.371120999993465 ], [ -78.017885991471928, 35.370801000298165 ], [ -78.019319991409702, 35.368313000179249 ], [ -78.021227991548173, 35.367015999951171 ], [ -78.020937991748511, 35.365055999883353 ], [ -78.0230749913474, 35.36438500033556 ], [ -78.021365990731638, 35.362378999599393 ], [ -78.022586991602509, 35.359776999599013 ], [ -78.021975991401405, 35.35503900021974 ], [ -78.023532991562462, 35.353947999679448 ], [ -78.026446990879691, 35.353848999758526 ], [ -78.024340990931606, 35.34830299988726 ], [ -78.027621991603411, 35.347257999631161 ], [ -78.028720991369227, 35.345863999507408 ], [ -78.023931990726737, 35.339883999836111 ], [ -78.030097991469873, 35.330966000276007 ], [ -78.032027990766039, 35.321308000268345 ], [ -78.037620991082292, 35.316735999751963 ], [ -78.038693990673821, 35.317348000334114 ], [ -78.04352099089094, 35.316528999989366 ], [ -78.053238990812758, 35.320174000243235 ], [ -78.059615991571462, 35.320297999536528 ], [ -78.067262990687937, 35.317690999873811 ], [ -78.079148990801542, 35.310375000162928 ], [ -78.080920991758347, 35.308315999784675 ], [ -78.082920991325508, 35.300737000038417 ], [ -78.082565991120134, 35.296883999864967 ], [ -78.085266990807156, 35.289428000306444 ], [ -78.084678991655537, 35.272380999939827 ], [ -78.081830991530765, 35.264238000258665 ], [ -78.069797991314687, 35.264897000007466 ], [ -78.066332991683694, 35.265908999954121 ], [ -78.066035991359598, 35.261662000097687 ], [ -78.063731991417242, 35.258387000019525 ], [ -78.069479991682599, 35.248209999593399 ] ] ] } },
{ "type": "Feature", "properties": { "county": "WAYNE", "precinct": "17", "enr_desc": "17", "winner": "Ricky Hooks", "winner_votes": 8, "winner_share": 66.666666666666657, "runner_up": "Larry M. Pierce", "runner_up_votes": 3, "runner_up_share": 25.0, "contest_votes": 12, "margin_of_victory": 41.666666666666657, "is_tie": false, "results": [ { "candidate": "Ricky Hooks", "votes": 8, "share": 66.66666666666666 }, { "candidate": "Larry M. Pierce", "votes": 3, "share": 25.0 }, { "candidate": "Stephen (Stevie) Howell", "votes": 1, "share": 8.333333333333332 } ], "participated": true, "map_key": "WAYNE_17" }, "geometry": { "type": "Polygon", "coordinates": [ [ [ -77.997450991405131, 35.33720199995166 ], [ -78.001619991376302, 35.336347000072244 ], [ -78.00581699101582, 35.33439399963892 ], [ -78.010302990821373, 35.334019999715657 ], [ -78.018191991372376, 35.336476999521388 ], [ -78.023931990726737, 35.339883999836111 ], [ -78.028720991369227, 35.345863999507408 ], [ -78.027621991603411, 35.347257999631161 ], [ -78.024340990931606, 35.34830299988726 ], [ -78.026446990879691, 35.353848999758526 ], [ -78.023532991562462, 35.353947999679448 ], [ -78.021975991401405, 35.35503900021974 ], [ -78.022586991602509, 35.359776999599013 ], [ -78.021365990731638, 35.362378999599393 ], [ -78.0230749913474, 35.36438500033556 ], [ -78.020937991748511, 35.365055999883353 ], [ -78.021227991548173, 35.367015999951171 ], [ -78.019319991409702, 35.368313000179249 ], [ -78.017885991471928, 35.370801000298165 ], [ -78.018739990926619, 35.371120999993465 ], [ -78.02143999159297, 35.369641999801338 ], [ -78.022615990958883, 35.370082999858695 ], [ -78.021593990879765, 35.372760999502439 ], [ -78.021669991330242, 35.375034999572911 ], [ -78.022722991611289, 35.376286000163496 ], [ -78.025240991762544, 35.376407999666768 ], [ -78.024120991053294, 35.37853199953576 ], [ -78.022349991547742, 35.379418999847374 ], [ -78.022559991480989, 35.380231999491492 ], [ -78.020641991516968, 35.379540000023773 ], [ -78.019553991160038, 35.381779000237444 ], [ -78.020409991541911, 35.382420999711968 ], [ -78.020313991512481, 35.383954999954078 ], [ -78.024028991432274, 35.386193000283875 ], [ -78.024398990757717, 35.387457999896228 ], [ -78.023341990989906, 35.388396999490993 ], [ -78.024381990958204, 35.388945999749325 ], [ -78.024151991244864, 35.389755000144817 ], [ -78.025527991562299, 35.389720999678872 ], [ -78.026140991639906, 35.39308899952011 ], [ -78.021727991270737, 35.393789999492441 ], [ -77.996314991120002, 35.385806000009701 ], [ -77.999309991471918, 35.377869000019949 ], [ -77.999498991703419, 35.376106999971455 ], [ -78.006392990768717, 35.361623000080414 ], [ -78.013376991260785, 35.352291000313812 ], [ -78.011369991763502, 35.352963999926061 ], [ -78.007943991665371, 35.351899000158163 ], [ -78.005893991126797, 35.357808000094302 ], [ -77.998153990799423, 35.357595999735906 ], [ -77.991070991009636, 35.359189999525626 ], [ -77.992103991538741, 35.363713999704657 ], [ -77.990472991398079, 35.363804000011605 ], [ -77.987681990997473, 35.363433000093515 ], [ -77.987367991697724, 35.360511999718121 ], [ -77.985148991327733, 35.357910000260432 ], [ -77.980985991106948, 35.358218999722041 ], [ -77.976600991177975, 35.355316000354961 ], [ -77.979708991365058, 35.351453999730204 ], [ -77.979017991509608, 35.350405000047758 ], [ -77.979859991737214, 35.348432000026577 ], [ -77.978881990896596, 35.347961999739837 ], [ -77.972246991706228, 35.353080999727943 ], [ -77.969596991748645, 35.353665000237342 ], [ -77.96804599157872, 35.352458000366077 ], [ -77.962697991157853, 35.357267999743627 ], [ -77.957334991766302, 35.35326299953244 ], [ -77.954327991578609, 35.355924999812096 ], [ -77.950732990934384, 35.353238000208691 ], [ -77.948413990733115, 35.351414999915868 ], [ -77.945306991710467, 35.351061999978953 ], [ -77.944106991003224, 35.347861999934054 ], [ -77.941506990823399, 35.346561999719306 ], [ -77.939536991687717, 35.347730000160198 ], [ -77.932939990884947, 35.349001000139225 ], [ -77.932475991074156, 35.348011000284608 ], [ -77.935744991046221, 35.347178999966623 ], [ -77.935386991279259, 35.346237000356275 ], [ -77.934259991637234, 35.346514999625938 ], [ -77.933853991497003, 35.345446999735408 ], [ -77.934990991047073, 35.345166000070847 ], [ -77.93434199162229, 35.343402000326222 ], [ -77.965458991526575, 35.336177000009648 ], [ -77.970231991466832, 35.332453000002587 ], [ -77.969280990687821, 35.323781999715017 ], [ -77.970587990737087, 35.321634000167819 ], [ -77.985069990755861, 35.334263999593439 ], [ -77.987027991128613, 35.33690899968898 ], [ -77.991474990882438, 35.337972999888784 ], [ -77.997450991405131, 35.33720199995166 ] ] ] } },
{ "type": "Feature", "properties": { "county": "WAYNE", "precinct": "18", "enr_desc": "18", "winner": "Ricky Hooks", "winner_votes": 22, "winner_share": 70.967741935483872, "runner_up": "Larry M. Pierce", "runner_up_votes": 7, "runner_up_share": 22.58064516129032, "contest_votes": 31, "margin_of_victory": 48.387096774193552, "is_tie": false, "results": [ { "candidate": "Ricky Hooks", "votes": 22, "share": 70.96774193548387 }, { "candidate": "Larry M. Pierce", "votes": 7, "share": 22.58064516129032 }, { "candidate": "Stephen (Stevie) Howell", "votes": 2, "share": 6.451612903225806 } ], "participated": true, "map_key": "WAYNE_18" }, "geometry": { "type": "Polygon", "coordinates": [ [ [ -77.978716991603079, 35.376436999554961 ], [ -77.98414699136336, 35.379115999755371 ], [ -77.984740991522813, 35.373660999541087 ], [ -77.986964991034881, 35.373778000367103 ], [ -77.999309991471918, 35.377869000019949 ], [ -77.996314991120002, 35.385806000009701 ], [ -77.993582991132342, 35.391533000129321 ], [ -77.99189799132057, 35.392332999518359 ], [ -77.989472991270802, 35.392041999885123 ], [ -77.98761099151011, 35.396454999705369 ], [ -77.979639991687179, 35.394702000362464 ], [ -77.976813991663988, 35.391634999631542 ], [ -77.978900991216321, 35.390012000302711 ], [ -77.981148991538049, 35.390443999906488 ], [ -77.98232099133152, 35.387648999962096 ], [ -77.988408990878298, 35.38939199970806 ], [ -77.991118991203692, 35.382973000254168 ], [ -77.977578990980376, 35.379156999618779 ], [ -77.978716991603079, 35.376436999554961 ] ] ] } },
{ "type": "Feature", "properties": { "county": "WAYNE", "precinct": "1920", "enr_desc": "1920", "winner": "Ricky Hooks", "winner_votes": 26, "winner_share": 63.414634146341463, "runner_up": "Larry M. Pierce", "runner_up_votes": 12, "runner_up_share": 29.268292682926827, "contest_votes": 41, "margin_of_victory": 34.146341463414636, "is_tie": false, "results": [ { "candidate": "Ricky Hooks", "votes": 26, "share": 63.41463414634146 }, { "candidate": "Larry M. Pierce", "votes": 12, "share": 29.268292682926827 }, { "candidate": "Stephen (Stevie) Howell", "votes": 3, "share": 7.317073170731707 } ], "participated": true, "map_key": "WAYNE_1920" }, "geometry": { "type": "Polygon", "coordinates": [ [ [ -77.999309991471918, 35.377869000019949 ], [ -77.986964991034881, 35.373778000367103 ], [ -77.984740991522813, 35.373660999541087 ], [ -77.98414699136336, 35.379115999755371 ], [ -77.978716991603079, 35.376436999554961 ], [ -77.977603991702736, 35.376128999910598 ], [ -77.979114990750034, 35.372535999549093 ], [ -77.972182990896187, 35.370975999589454 ], [ -77.976295991613298, 35.365327999971512 ], [ -77.981455991489483, 35.365636000287694 ], [ -77.981835990819576, 35.364362999832309 ], [ -77.979600991290127, 35.363729000055841 ], [ -77.980787990823231, 35.360791000111696 ], [ -77.97737599156838, 35.36029899976203 ], [ -77.976945991273027, 35.361294000204126 ], [ -77.971835990825866, 35.360078000317266 ], [ -77.970263990843648, 35.362720999753094 ], [ -77.963173990884926, 35.360333000091124 ], [ -77.960023991143942, 35.36076599970508 ], [ -77.959692991054226, 35.35994599977986 ], [ -77.956514991461049, 35.362951000211957 ], [ -77.957987990723169, 35.364531999956775 ], [ -77.955134991459829, 35.365077999688459 ], [ -77.952371991104016, 35.362757999637864 ], [ -77.951943991614201, 35.35931300031902 ], [ -77.949931991127187, 35.359428000285646 ], [ -77.949630991220062, 35.354724000144202 ], [ -77.950732990934384, 35.353238000208691 ], [ -77.954327991578609, 35.355924999812096 ], [ -77.957334991766302, 35.35326299953244 ], [ -77.962697991157853, 35.357267999743627 ], [ -77.96804599157872, 35.352458000366077 ], [ -77.969596991748645, 35.353665000237342 ], [ -77.972246991706228, 35.353080999727943 ], [ -77.978881990896596, 35.347961999739837 ], [ -77.979859991737214, 35.348432000026577 ], [ -77.979017991509608, 35.350405000047758 ], [ -77.979708991365058, 35.351453999730204 ], [ -77.976600991177975, 35.355316000354961 ], [ -77.980985991106948, 35.358218999722041 ], [ -77.985148991327733, 35.357910000260432 ], [ -77.987367991697724, 35.360511999718121 ], [ -77.987681990997473, 35.363433000093515 ], [ -77.990472991398079, 35.363804000011605 ], [ -77.992103991538741, 35.363713999704657 ], [ -77.991070991009636, 35.359189999525626 ], [ -77.998153990799423, 35.357595999735906 ], [ -78.005893991126797, 35.357808000094302 ], [ -78.007943991665371, 35.351899000158163 ], [ -78.011369991763502, 35.352963999926061 ], [ -78.013376991260785, 35.352291000313812 ], [ -78.006392990768717, 35.361623000080414 ], [ -77.999498991703419, 35.376106999971455 ], [ -77.999309991471918, 35.377869000019949 ] ] ] } },
{ "type": "Feature", "properties": { "county": "WAYNE", "precinct": "21", "enr_desc": "21", "winner": "Ricky Hooks", "winner_votes": 52, "winner_share": 50.980392156862742, "runner_up": "Larry M. Pierce", "runner_up_votes": 43, "runner_up_share": 42.156862745098039, "contest_votes": 102, "margin_of_victory": 8.823529411764703, "is_tie": false, "results": [ { "candidate": "Ricky Hooks", "votes": 52, "share": 50.98039215686274 }, { "candidate": "Larry M. Pierce", "votes": 43, "share": 42.15686274509804 }, { "candidate": "Stephen (Stevie) Howell", "votes": 7, "share": 6.862745098039216 } ], "participated": true, "map_key": "WAYNE_21" }, "geometry": { "type": "Polygon", "coordinates": [ [ [ -77.978716991603079, 35.376436999554961 ], [ -77.977578990980376, 35.379156999618779 ], [ -77.971293991394489, 35.377397999965801 ], [ -77.967775991039304, 35.385789999554319 ], [ -77.96287499108324, 35.384403999719446 ], [ -77.965916990842913, 35.377186000118257 ], [ -77.956518990698015, 35.374455999686816 ], [ -77.957363991510661, 35.373233999809543 ], [ -77.958680991613221, 35.373572000099834 ], [ -77.9638749908638, 35.367238000186745 ], [ -77.956715990831796, 35.367581000051871 ], [ -77.958251990939331, 35.365290000194292 ], [ -77.957987990723169, 35.364531999956775 ], [ -77.956514991461049, 35.362951000211957 ], [ -77.959692991054226, 35.35994599977986 ], [ -77.960023991143942, 35.36076599970508 ], [ -77.963173990884926, 35.360333000091124 ], [ -77.970263990843648, 35.362720999753094 ], [ -77.971835990825866, 35.360078000317266 ], [ -77.976945991273027, 35.361294000204126 ], [ -77.97737599156838, 35.36029899976203 ], [ -77.980787990823231, 35.360791000111696 ], [ -77.979600991290127, 35.363729000055841 ], [ -77.981835990819576, 35.364362999832309 ], [ -77.981455991489483, 35.365636000287694 ], [ -77.976295991613298, 35.365327999971512 ], [ -77.972182990896187, 35.370975999589454 ], [ -77.979114990750034, 35.372535999549093 ], [ -77.977603991702736, 35.376128999910598 ], [ -77.978716991603079, 35.376436999554961 ] ] ] } },
{ "type": "Feature", "properties": { "county": "WAYNE", "precinct": "22", "enr_desc": "22", "winner": "Larry M. Pierce", "winner_votes": 95, "winner_share": 50.264550264550266, "runner_up": "Ricky Hooks", "runner_up_votes": 85, "runner_up_share": 44.973544973544968, "contest_votes": 189, "margin_of_victory": 5.2910052910052983, "is_tie": false, "results": [ { "candidate": "Larry M. Pierce", "votes": 95, "share": 50.264550264550266 }, { "candidate": "Ricky Hooks", "votes": 85, "share": 44.97354497354497 }, { "candidate": "Stephen (Stevie) Howell", "votes": 9, "share": 4.761904761904762 } ], "participated": true, "map_key": "WAYNE_22" }, "geometry": { "type": "Polygon", "coordinates": [ [ [ -77.956715990831796, 35.367581000051871 ], [ -77.9638749908638, 35.367238000186745 ], [ -77.958680991613221, 35.373572000099834 ], [ -77.957363991510661, 35.373233999809543 ], [ -77.956518990698015, 35.374455999686816 ], [ -77.965916990842913, 35.377186000118257 ], [ -77.96287499108324, 35.384403999719446 ], [ -77.967775991039304, 35.385789999554319 ], [ -77.967016991518477, 35.387608000141 ], [ -77.969286990685617, 35.388305000179791 ], [ -77.963525990980614, 35.387188999925733 ], [ -77.954223991169812, 35.385514000316491 ], [ -77.952916991626552, 35.38851300015677 ], [ -77.953014991231015, 35.39081499956712 ], [ -77.942195991519114, 35.38624599966019 ], [ -77.939779991674669, 35.383701999678173 ], [ -77.936771991327149, 35.378199999677911 ], [ -77.930001991192768, 35.365518999534196 ], [ -77.927016991655776, 35.357828000059506 ], [ -77.935767991418302, 35.363230999976274 ], [ -77.939283991027779, 35.361693999860627 ], [ -77.953612990687517, 35.368934999780514 ], [ -77.956715990831796, 35.367581000051871 ] ] ] } },
{ "type": "Feature", "properties": { "county": "WAYNE", "precinct": "23", "enr_desc": "23", "winner": "Ricky Hooks", "winner_votes": 58, "winner_share": 46.031746031746032, "runner_up": "Larry M. Pierce", "runner_up_votes": 55, "runner_up_share": 43.650793650793652, "contest_votes": 126, "margin_of_victory": 2.3809523809523796, "is_tie": false, "results": [ { "candidate": "Ricky Hooks", "votes": 58, "share": 46.03174603174603 }, { "candidate": "Larry M. Pierce", "votes": 55, "share": 43.65079365079365 }, { "candidate": "Stephen (Stevie) Howell", "votes": 13, "share": 10.317460317460316 } ], "participated": true, "map_key": "WAYNE_23" }, "geometry": { "type": "Polygon", "coordinates": [ [ [ -77.950732990934384, 35.353238000208691 ], [ -77.949630991220062, 35.354724000144202 ], [ -77.949931991127187, 35.359428000285646 ], [ -77.951943991614201, 35.35931300031902 ], [ -77.952371991104016, 35.362757999637864 ], [ -77.955134991459829, 35.365077999688459 ], [ -77.957987990723169, 35.364531999956775 ], [ -77.958251990939331, 35.365290000194292 ], [ -77.956715990831796, 35.367581000051871 ], [ -77.953612990687517, 35.368934999780514 ], [ -77.939283991027779, 35.361693999860627 ], [ -77.935767991418302, 35.363230999976274 ], [ -77.927016991655776, 35.357828000059506 ], [ -77.920553990938501, 35.348618999787554 ], [ -77.917985991399448, 35.346623999939929 ], [ -77.920752991344386, 35.335283999786434 ], [ -77.925546991405511, 35.323961000051412 ], [ -77.92864399167884, 35.317287999900699 ], [ -77.928977990952305, 35.313827999866255 ], [ -77.938143991447546, 35.314694999571238 ], [ -77.944076990988734, 35.314190999604428 ], [ -77.94105099171631, 35.317971999698308 ], [ -77.946385991628304, 35.320116000304438 ], [ -77.952122991546602, 35.319619999810577 ], [ -77.956315991545651, 35.317351000356346 ], [ -77.963715991387275, 35.317136999923633 ], [ -77.966556991217175, 35.318146000091204 ], [ -77.970587990737087, 35.321634000167819 ], [ -77.969280990687821, 35.323781999715017 ], [ -77.970231991466832, 35.332453000002587 ], [ -77.965458991526575, 35.336177000009648 ], [ -77.93434199162229, 35.343402000326222 ], [ -77.934990991047073, 35.345166000070847 ], [ -77.933853991497003, 35.345446999735408 ], [ -77.934259991637234, 35.346514999625938 ], [ -77.935386991279259, 35.346237000356275 ], [ -77.935744991046221, 35.347178999966623 ], [ -77.932475991074156, 35.348011000284608 ], [ -77.932939990884947, 35.349001000139225 ], [ -77.939536991687717, 35.347730000160198 ], [ -77.941506990823399, 35.346561999719306 ], [ -77.944106991003224, 35.347861999934054 ], [ -77.945306991710467, 35.351061999978953 ], [ -77.948413990733115, 35.351414999915868 ], [ -77.950732990934384, 35.353238000208691 ] ] ] } },
{ "type": "Feature", "properties": { "county": "WAYNE", "precinct": "24", "enr_desc": "24", "winner": "Larry M. Pierce", "winner_votes": 322, "winner_share": 57.5, "runner_up": "Ricky Hooks", "runner_up_votes": 207, "runner_up_share": 36.964285714285715, "contest_votes": 560, "margin_of_victory": 20.535714285714278, "is_tie": false, "results": [ { "candidate": "Larry M. Pierce", "votes": 322, "share": 57.49999999999999 }, { "candidate": "Ricky Hooks", "votes": 207, "share": 36.964285714285715 }, { "candidate": "Stephen (Stevie) Howell", "votes": 31, "share": 5.535714285714286 } ], "participated": true, "map_key": "WAYNE_24" }, "geometry": { "type": "Polygon", "coordinates": [ [ [ -78.153242991599583, 35.350670999583514 ], [ -78.151829990699639, 35.349260999962276 ], [ -78.147817991661313, 35.348917000138918 ], [ -78.139098991171281, 35.356607999786945 ], [ -78.135957990800051, 35.357035999785353 ], [ -78.133058990909078, 35.355437999794269 ], [ -78.135438991518427, 35.354103000062508 ], [ -78.13638999165704, 35.35262200004793 ], [ -78.138850991463727, 35.354036999711191 ], [ -78.13973499104641, 35.353727999767372 ], [ -78.138229991301557, 35.350337000122494 ], [ -78.138364991283538, 35.348038999680767 ], [ -78.137439990711812, 35.347040999904088 ], [ -78.131667991233471, 35.346593999487311 ], [ -78.126140990754294, 35.343850000215085 ], [ -78.124408990854349, 35.341554999922671 ], [ -78.124281991303192, 35.337993000372578 ], [ -78.127894991322421, 35.334215999555788 ], [ -78.123954991446155, 35.33262700020375 ], [ -78.123143991662815, 35.331313999948627 ], [ -78.123011991410166, 35.328292999822331 ], [ -78.129089991468462, 35.330528999552982 ], [ -78.128780991332562, 35.333636999962529 ], [ -78.129875991014373, 35.334095000108491 ], [ -78.133172990892604, 35.334479999759381 ], [ -78.135399991711154, 35.33197100008308 ], [ -78.134983991248774, 35.329624999965738 ], [ -78.132977991447646, 35.326906000280232 ], [ -78.128054990772156, 35.32254299979784 ], [ -78.122065990873097, 35.320532000235104 ], [ -78.121923990679136, 35.318878999949355 ], [ -78.120978991291182, 35.318686999831208 ], [ -78.120326990842386, 35.317115999503443 ], [ -78.119970990956602, 35.313777000346128 ], [ -78.117771991567579, 35.311756999879258 ], [ -78.117400990782883, 35.309884000194756 ], [ -78.114674991345652, 35.308292999531893 ], [ -78.11212699173764, 35.305014999827748 ], [ -78.112291991218854, 35.302070999765029 ], [ -78.109073991419123, 35.297975000355635 ], [ -78.109573990710132, 35.294630000249889 ], [ -78.108139990793134, 35.291812999776212 ], [ -78.107989991436128, 35.288643999492727 ], [ -78.104310990846969, 35.284569999893627 ], [ -78.10329199103812, 35.282285999920745 ], [ -78.103899991666012, 35.28015500017964 ], [ -78.101814991062966, 35.275997999924613 ], [ -78.10003999135111, 35.274538000339014 ], [ -78.099877991702101, 35.27212699982428 ], [ -78.101625990719413, 35.270775000135387 ], [ -78.103497990819307, 35.265249000071044 ], [ -78.107567991471058, 35.262903000362471 ], [ -78.110437990808435, 35.259403000279129 ], [ -78.111583991359538, 35.259056999590939 ], [ -78.11112799127919, 35.257936000135189 ], [ -78.114098990827841, 35.254743999853005 ], [ -78.114097990702021, 35.252196000260227 ], [ -78.115821991289707, 35.249877000211228 ], [ -78.118753991573342, 35.248930999515032 ], [ -78.123898991493178, 35.243716000202461 ], [ -78.126771990943354, 35.242406000330291 ], [ -78.126459990827584, 35.239462000312862 ], [ -78.123531991389513, 35.234665000009159 ], [ -78.12465399128952, 35.230255000352372 ], [ -78.136765991644396, 35.225451000198404 ], [ -78.137818991559698, 35.223304000342274 ], [ -78.14086499127022, 35.221431999862894 ], [ -78.142667991539511, 35.218286000153839 ], [ -78.142575991387886, 35.211053000261671 ], [ -78.157141990931976, 35.209183999927802 ], [ -78.155459991129248, 35.207255999676306 ], [ -78.151660991227772, 35.198688000362743 ], [ -78.146607991505448, 35.191228999571159 ], [ -78.144498991250188, 35.186509000202918 ], [ -78.163419991181684, 35.18971599958023 ], [ -78.161844991718141, 35.204322999731893 ], [ -78.235671991200675, 35.223313999720659 ], [ -78.238275990968702, 35.223388999575626 ], [ -78.24621699162347, 35.225996000367687 ], [ -78.306579990935873, 35.287603999668725 ], [ -78.289710991739028, 35.315076999689083 ], [ -78.276033991525352, 35.315135999549057 ], [ -78.271741990942772, 35.321159000100515 ], [ -78.269104991434261, 35.322786000183051 ], [ -78.258002990982661, 35.325702999720392 ], [ -78.249953990912545, 35.322030000079138 ], [ -78.248786990840983, 35.320430000163689 ], [ -78.24476399152131, 35.320726999655527 ], [ -78.242629991022781, 35.319798999686128 ], [ -78.234408990798158, 35.322930999657011 ], [ -78.232592991381139, 35.32509399980966 ], [ -78.219085991065683, 35.332642000076383 ], [ -78.215670991177348, 35.333456999822708 ], [ -78.216722991346074, 35.336819000009982 ], [ -78.215477990732751, 35.341526999642397 ], [ -78.213558991088419, 35.340454999610927 ], [ -78.211797990689249, 35.34233099996225 ], [ -78.210244991428766, 35.341792000141815 ], [ -78.20956299140741, 35.339675999552838 ], [ -78.205635991322751, 35.33975200037888 ], [ -78.200760991443815, 35.34128199970835 ], [ -78.197281991581335, 35.340061000085527 ], [ -78.196492990701714, 35.341918999607486 ], [ -78.197376991633874, 35.342868000226183 ], [ -78.196273991696401, 35.34356800009359 ], [ -78.194519991670063, 35.343110999957474 ], [ -78.194811990802776, 35.342650999548653 ], [ -78.19224399079458, 35.343414999791086 ], [ -78.188609991695841, 35.343356999625023 ], [ -78.18700499103123, 35.342581999917648 ], [ -78.184552991481837, 35.344825000109601 ], [ -78.18480499089263, 35.345419999719567 ], [ -78.1815869908867, 35.343881000160479 ], [ -78.180251991736711, 35.34456899998326 ], [ -78.180024990806714, 35.34370699993859 ], [ -78.178633991639018, 35.34431400017413 ], [ -78.17772599119229, 35.34603899968247 ], [ -78.176838991769287, 35.345483000100032 ], [ -78.176585990714258, 35.346447000257733 ], [ -78.174023991758077, 35.347258000243528 ], [ -78.170161991296638, 35.346323999811297 ], [ -78.167898990735566, 35.347984000032042 ], [ -78.165556990785163, 35.346367000339299 ], [ -78.161814991515655, 35.347848999711999 ], [ -78.160571990750711, 35.349549999928861 ], [ -78.159447990914416, 35.349264999657024 ], [ -78.158788990931896, 35.347487999702849 ], [ -78.153242991599583, 35.350670999583514 ] ] ] } },
{ "type": "Feature", "properties": { "county": "WAYNE", "precinct": "2530", "enr_desc": "2530", "winner": "Larry M. Pierce", "winner_votes": 214, "winner_share": 58.152173913043484, "runner_up": "Ricky Hooks", "runner_up_votes": 140, "runner_up_share": 38.04347826086957, "contest_votes": 368, "margin_of_victory": 20.108695652173914, "is_tie": false, "results": [ { "candidate": "Larry M. Pierce", "votes": 214, "share": 58.152173913043484 }, { "candidate": "Ricky Hooks", "votes": 140, "share": 38.04347826086957 }, { "candidate": "Stephen (Stevie) Howell", "votes": 14, "share": 3.804347826086957 } ], "participated": true, "map_key": "WAYNE_2530" }, "geometry": { "type": "Polygon", "coordinates": [ [ [ -78.144498991250188, 35.186509000202918 ], [ -78.146607991505448, 35.191228999571159 ], [ -78.151660991227772, 35.198688000362743 ], [ -78.155459991129248, 35.207255999676306 ], [ -78.157141990931976, 35.209183999927802 ], [ -78.142575991387886, 35.211053000261671 ], [ -78.142667991539511, 35.218286000153839 ], [ -78.14086499127022, 35.221431999862894 ], [ -78.137818991559698, 35.223304000342274 ], [ -78.136765991644396, 35.225451000198404 ], [ -78.12465399128952, 35.230255000352372 ], [ -78.123531991389513, 35.234665000009159 ], [ -78.126459990827584, 35.239462000312862 ], [ -78.126771990943354, 35.242406000330291 ], [ -78.123898991493178, 35.243716000202461 ], [ -78.118753991573342, 35.248930999515032 ], [ -78.115821991289707, 35.249877000211228 ], [ -78.114097990702021, 35.252196000260227 ], [ -78.114098990827841, 35.254743999853005 ], [ -78.11112799127919, 35.257936000135189 ], [ -78.111583991359538, 35.259056999590939 ], [ -78.110437990808435, 35.259403000279129 ], [ -78.107567991471058, 35.262903000362471 ], [ -78.103497990819307, 35.265249000071044 ], [ -78.101625990719413, 35.270775000135387 ], [ -78.099877991702101, 35.27212699982428 ], [ -78.099522991707133, 35.271006000036593 ], [ -78.096615990882881, 35.27023299959199 ], [ -78.092435991066878, 35.267565000165121 ], [ -78.091851990901162, 35.264736000063017 ], [ -78.081261991322378, 35.252852999899737 ], [ -78.077961990705433, 35.251573999563114 ], [ -78.075014990705895, 35.248281000325733 ], [ -78.069479991682599, 35.248209999593399 ], [ -78.068721990862571, 35.242202999489578 ], [ -78.065623991209605, 35.241916999730293 ], [ -78.056477991255463, 35.237886000016701 ], [ -78.056946991273364, 35.220154999656899 ], [ -78.060506991101022, 35.215229999509504 ], [ -78.059019991263554, 35.214958000054295 ], [ -78.058451991280933, 35.216020999916083 ], [ -78.056741991132895, 35.215129000320026 ], [ -78.057608991352495, 35.214312000100001 ], [ -78.056922991019903, 35.213839000366619 ], [ -78.057357991576637, 35.213302999750901 ], [ -78.055188990984831, 35.211857000195145 ], [ -78.056217991474341, 35.210804999847454 ], [ -78.05839699109066, 35.212191999571374 ], [ -78.058813991744046, 35.21102499964217 ], [ -78.060125991658765, 35.21192800020458 ], [ -78.06112699134772, 35.211092999685938 ], [ -78.055420991182032, 35.208210999597114 ], [ -78.04785699093226, 35.204389999511179 ], [ -78.051777991608446, 35.200897000106387 ], [ -78.056741990766724, 35.20046899963036 ], [ -78.057807991182415, 35.197167000055494 ], [ -78.056905991309392, 35.1968249998448 ], [ -78.057479990968304, 35.195281999843935 ], [ -78.058389991368998, 35.195634999880333 ], [ -78.058729991104741, 35.194957999807094 ], [ -78.055787991651229, 35.19433000000123 ], [ -78.056592990787749, 35.19349200005113 ], [ -78.056644991142988, 35.190860000363372 ], [ -78.054039991702609, 35.18934899968972 ], [ -78.055688990883496, 35.187338999967295 ], [ -78.058042991664522, 35.188679000184521 ], [ -78.05948999089064, 35.187958000233941 ], [ -78.059622991665336, 35.185143999894706 ], [ -78.058626990798146, 35.185066000335858 ], [ -78.077388990834109, 35.175134999629897 ], [ -78.144498991250188, 35.186509000202918 ] ] ] } },
{ "type": "Feature", "properties": { "county": "WAYNE", "precinct": "29", "enr_desc": "29", "winner": "Larry M. Pierce", "winner_votes": 52, "winner_share": 46.846846846846844, "runner_up": "Ricky Hooks", "runner_up_votes": 52, "runner_up_share": 46.846846846846844, "contest_votes": 111, "margin_of_victory": 0.0, "is_tie": true, "results": [ { "candidate": "Larry M. Pierce", "votes": 52, "share": 46.846846846846844 }, { "candidate": "Ricky Hooks", "votes": 52, "share": 46.846846846846844 }, { "candidate": "Stephen (Stevie) Howell", "votes": 7, "share": 6.306306306306306 } ], "participated": true, "map_key": "WAYNE_29" }, "geometry": { "type": "Polygon", "coordinates": [ [ [ -77.977578990980376, 35.379156999618779 ], [ -77.991118991203692, 35.382973000254168 ], [ -77.988408990878298, 35.38939199970806 ], [ -77.98232099133152, 35.387648999962096 ], [ -77.981148991538049, 35.390443999906488 ], [ -77.978900991216321, 35.390012000302711 ], [ -77.976813991663988, 35.391634999631542 ], [ -77.970213991075383, 35.395370999776013 ], [ -77.965786991353255, 35.395137000224757 ], [ -77.96560699139809, 35.393844999540434 ], [ -77.962596990846706, 35.390567999932664 ], [ -77.963525990980614, 35.387188999925733 ], [ -77.969286990685617, 35.388305000179791 ], [ -77.967016991518477, 35.387608000141 ], [ -77.967775991039304, 35.385789999554319 ], [ -77.971293991394489, 35.377397999965801 ], [ -77.977578990980376, 35.379156999618779 ] ] ] } },
{ "type": "Feature", "properties": { "county": "WAYNE", "precinct": "26", "enr_desc": "26", "winner": "Ricky Hooks", "winner_votes": 106, "winner_share": 48.847926267281103, "runner_up": "Larry M. Pierce", "runner_up_votes": 99, "runner_up_share": 45.622119815668206, "contest_votes": 217, "margin_of_victory": 3.2258064516128968, "is_tie": false, "results": [ { "candidate": "Ricky Hooks", "votes": 106, "share": 48.8479262672811 }, { "candidate": "Larry M. Pierce", "votes": 99, "share": 45.622119815668206 }, { "candidate": "Stephen (Stevie) Howell", "votes": 12, "share": 5.529953917050691 } ], "participated": true, "map_key": "WAYNE_26" }, "geometry": { "type": "Polygon", "coordinates": [ [ [ -78.069479991682599, 35.248209999593399 ], [ -78.063731991417242, 35.258387000019525 ], [ -78.066035991359598, 35.261662000097687 ], [ -78.066332991683694, 35.265908999954121 ], [ -78.069797991314687, 35.264897000007466 ], [ -78.081830991530765, 35.264238000258665 ], [ -78.084678991655537, 35.272380999939827 ], [ -78.085266990807156, 35.289428000306444 ], [ -78.082565991120134, 35.296883999864967 ], [ -78.082920991325508, 35.300737000038417 ], [ -78.080920991758347, 35.308315999784675 ], [ -78.079148990801542, 35.310375000162928 ], [ -78.067262990687937, 35.317690999873811 ], [ -78.059615991571462, 35.320297999536528 ], [ -78.053238990812758, 35.320174000243235 ], [ -78.04352099089094, 35.316528999989366 ], [ -78.038693990673821, 35.317348000334114 ], [ -78.045857991042112, 35.305759999804998 ], [ -78.047228991221957, 35.299680000180864 ], [ -78.038721990818061, 35.296876999718251 ], [ -78.037661991429559, 35.288804000218583 ], [ -78.028509991470173, 35.286849999636161 ], [ -78.011277991189843, 35.293423000222056 ], [ -78.008229990951904, 35.2884579999767 ], [ -78.00845999169475, 35.282096999644587 ], [ -78.003285991634911, 35.281731000236427 ], [ -77.998600991439417, 35.280395000081143 ], [ -78.003938990776646, 35.274190999877099 ], [ -78.010258991246218, 35.270110000122834 ], [ -78.017825991357725, 35.263133999651778 ], [ -78.018425990971721, 35.261388999721227 ], [ -78.017402990915997, 35.256063000083955 ], [ -78.022822990799156, 35.248725000338496 ], [ -78.030297991103907, 35.244435999556757 ], [ -78.03487699090104, 35.236791999909549 ], [ -78.034505990927983, 35.230239000265605 ], [ -78.029792991432814, 35.225149000163263 ], [ -78.027785990965114, 35.2202299995609 ], [ -78.041827991161995, 35.214011000296757 ], [ -78.048845991440828, 35.215584999554125 ], [ -78.055420991182032, 35.208210999597114 ], [ -78.06112699134772, 35.211092999685938 ], [ -78.060125991658765, 35.21192800020458 ], [ -78.058813991744046, 35.21102499964217 ], [ -78.05839699109066, 35.212191999571374 ], [ -78.056217991474341, 35.210804999847454 ], [ -78.055188990984831, 35.211857000195145 ], [ -78.057357991576637, 35.213302999750901 ], [ -78.056922991019903, 35.213839000366619 ], [ -78.057608991352495, 35.214312000100001 ], [ -78.056741991132895, 35.215129000320026 ], [ -78.058451991280933, 35.216020999916083 ], [ -78.059019991263554, 35.214958000054295 ], [ -78.060506991101022, 35.215229999509504 ], [ -78.056946991273364, 35.220154999656899 ], [ -78.056477991255463, 35.237886000016701 ], [ -78.065623991209605, 35.241916999730293 ], [ -78.068721990862571, 35.242202999489578 ], [ -78.069479991682599, 35.248209999593399 ] ] ] } },
{ "type": "Feature", "properties": { "county": "WAYNE", "precinct": "27", "enr_desc": "27", "winner": "Larry M. Pierce", "winner_votes": 39, "winner_share": 50.0, "runner_up": "Ricky Hooks", "runner_up_votes": 33, "runner_up_share": 42.307692307692307, "contest_votes": 78, "margin_of_victory": 7.6923076923076934, "is_tie": false, "results": [ { "candidate": "Larry M. Pierce", "votes": 39, "share": 50.0 }, { "candidate": "Ricky Hooks", "votes": 33, "share": 42.30769230769231 }, { "candidate": "Stephen (Stevie) Howell", "votes": 6, "share": 7.6923076923076925 } ], "participated": true, "map_key": "WAYNE_27" }, "geometry": { "type": "Polygon", "coordinates": [ [ [ -78.038693990673821, 35.317348000334114 ], [ -78.037620991082292, 35.316735999751963 ], [ -78.032027990766039, 35.321308000268345 ], [ -78.030097991469873, 35.330966000276007 ], [ -78.023931990726737, 35.339883999836111 ], [ -78.018191991372376, 35.336476999521388 ], [ -78.010302990821373, 35.334019999715657 ], [ -78.00581699101582, 35.33439399963892 ], [ -78.001619991376302, 35.336347000072244 ], [ -77.997450991405131, 35.33720199995166 ], [ -77.994572990733417, 35.331813999705808 ], [ -77.992575990784189, 35.329939000360717 ], [ -77.995646990731146, 35.325919000252888 ], [ -78.007262990978944, 35.319978999970786 ], [ -78.016911991058151, 35.317080999984057 ], [ -78.016216990869552, 35.314410999920945 ], [ -78.016548991541271, 35.309508999776511 ], [ -78.011277991189843, 35.293423000222056 ], [ -78.028509991470173, 35.286849999636161 ], [ -78.037661991429559, 35.288804000218583 ], [ -78.038721990818061, 35.296876999718251 ], [ -78.047228991221957, 35.299680000180864 ], [ -78.045857991042112, 35.305759999804998 ], [ -78.038693990673821, 35.317348000334114 ] ] ] } },
{ "type": "Feature", "properties": { "county": "WAYNE", "precinct": "28", "enr_desc": "28", "winner": "Larry M. Pierce", "winner_votes": 206, "winner_share": 57.865168539325836, "runner_up": "Ricky Hooks", "runner_up_votes": 138, "runner_up_share": 38.764044943820224, "contest_votes": 356, "margin_of_victory": 19.101123595505612, "is_tie": false, "results": [ { "candidate": "Larry M. Pierce", "votes": 206, "share": 57.865168539325836 }, { "candidate": "Ricky Hooks", "votes": 138, "share": 38.764044943820224 }, { "candidate": "Stephen (Stevie) Howell", "votes": 12, "share": 3.3707865168539324 } ], "participated": true, "map_key": "WAYNE_28" }, "geometry": { "type": "Polygon", "coordinates": [ [ [ -77.932213991529835, 35.172592999785891 ], [ -77.936038991316735, 35.170980999928062 ], [ -77.945061991569872, 35.17239699987212 ], [ -77.947034991563854, 35.171375999857027 ], [ -77.950304991499763, 35.167903999999815 ], [ -77.952331990706853, 35.167151000298816 ], [ -77.952304991651204, 35.166180000328822 ], [ -77.95345499088765, 35.165514999842372 ], [ -77.970108991091536, 35.165922000001352 ], [ -77.978324990739964, 35.170785000054025 ], [ -77.981500991272, 35.180258000090355 ], [ -77.984272990922818, 35.183886999896636 ], [ -77.994634991359092, 35.18315699992656 ], [ -77.998665991495344, 35.187785000240083 ], [ -78.000898990801844, 35.188970999610241 ], [ -78.003032991447071, 35.188984000003913 ], [ -78.003895991638444, 35.190022000027774 ], [ -78.006443991143897, 35.190791999640496 ], [ -78.017088991228164, 35.190884999745627 ], [ -78.020632990832809, 35.193967000342575 ], [ -78.026032991569068, 35.193655999960811 ], [ -78.033793990934569, 35.191808000159504 ], [ -78.04436499132872, 35.192562999840426 ], [ -78.058626990798146, 35.185066000335858 ], [ -78.059622991665336, 35.185143999894706 ], [ -78.05948999089064, 35.187958000233941 ], [ -78.058042991664522, 35.188679000184521 ], [ -78.055688990883496, 35.187338999967295 ], [ -78.054039991702609, 35.18934899968972 ], [ -78.056644991142988, 35.190860000363372 ], [ -78.056592990787749, 35.19349200005113 ], [ -78.055787991651229, 35.19433000000123 ], [ -78.058729991104741, 35.194957999807094 ], [ -78.058389991368998, 35.195634999880333 ], [ -78.057479990968304, 35.195281999843935 ], [ -78.056905991309392, 35.1968249998448 ], [ -78.057807991182415, 35.197167000055494 ], [ -78.056741990766724, 35.20046899963036 ], [ -78.051777991608446, 35.200897000106387 ], [ -78.04785699093226, 35.204389999511179 ], [ -78.055420991182032, 35.208210999597114 ], [ -78.048845991440828, 35.215584999554125 ], [ -78.041827991161995, 35.214011000296757 ], [ -78.027785990965114, 35.2202299995609 ], [ -78.029792991432814, 35.225149000163263 ], [ -78.034505990927983, 35.230239000265605 ], [ -78.03487699090104, 35.236791999909549 ], [ -78.030297991103907, 35.244435999556757 ], [ -78.022822990799156, 35.248725000338496 ], [ -78.017402990915997, 35.256063000083955 ], [ -78.018425990971721, 35.261388999721227 ], [ -78.017825991357725, 35.263133999651778 ], [ -78.010258991246218, 35.270110000122834 ], [ -78.003938990776646, 35.274190999877099 ], [ -77.998600991439417, 35.280395000081143 ], [ -78.003285991634911, 35.281731000236427 ], [ -78.00845999169475, 35.282096999644587 ], [ -78.008229990951904, 35.2884579999767 ], [ -78.011277991189843, 35.293423000222056 ], [ -78.016548991541271, 35.309508999776511 ], [ -78.016216990869552, 35.314410999920945 ], [ -78.016911991058151, 35.317080999984057 ], [ -78.007262990978944, 35.319978999970786 ], [ -77.995646990731146, 35.325919000252888 ], [ -77.992575990784189, 35.329939000360717 ], [ -77.994572990733417, 35.331813999705808 ], [ -77.997450991405131, 35.33720199995166 ], [ -77.991474990882438, 35.337972999888784 ], [ -77.987027991128613, 35.33690899968898 ], [ -77.985069990755861, 35.334263999593439 ], [ -77.970587990737087, 35.321634000167819 ], [ -77.966556991217175, 35.318146000091204 ], [ -77.963715991387275, 35.317136999923633 ], [ -77.956315991545651, 35.317351000356346 ], [ -77.952122991546602, 35.319619999810577 ], [ -77.946385991628304, 35.320116000304438 ], [ -77.94105099171631, 35.317971999698308 ], [ -77.944076990988734, 35.314190999604428 ], [ -77.938143991447546, 35.314694999571238 ], [ -77.928977990952305, 35.313827999866255 ], [ -77.927085991333968, 35.309131999744857 ], [ -77.916919991474103, 35.300148999705627 ], [ -77.911267991333602, 35.292641000290466 ], [ -77.910620990859599, 35.258274999718701 ], [ -77.914116991602242, 35.251883000362739 ], [ -77.927569991142235, 35.241405999829325 ], [ -77.930234991051478, 35.23646599974294 ], [ -77.931110990977118, 35.232453000368444 ], [ -77.917045991269561, 35.230291999543184 ], [ -77.919321990894247, 35.222631999617185 ], [ -77.921775991228429, 35.21912699954914 ], [ -77.920481991343877, 35.212923999867435 ], [ -77.917612991582658, 35.209121000112866 ], [ -77.914655991173106, 35.203130999827827 ], [ -77.916330991002539, 35.199238000069691 ], [ -77.922655991422289, 35.1961580002951 ], [ -77.93138399151394, 35.187116000041229 ], [ -77.932535991153941, 35.179818999590118 ], [ -77.933806991517656, 35.177464999547794 ], [ -77.932213991529835, 35.172592999785891 ] ] ] } }
]
}
