{
"type": "FeatureCollection",
"name": "wilson_county_sheriff_rep",
"crs": { "type": "name", "properties": { "name": "urn:ogc:def:crs:OGC:1.3:CRS84" } },
"features": [
{ "type": "Feature", "properties": { "county": "WILSON", "precinct": "PRWA", "enr_desc": "Wilson A", "winner": "Bobby Knight", "winner_votes": 11, "winner_share": 73.333333333333329, "runner_up": "Kevin Travis Raper", "runner_up_votes": 4, "runner_up_share": 26.666666666666668, "contest_votes": 15, "margin_of_victory": 46.666666666666657, "is_tie": false, "results": [ { "candidate": "Bobby Knight", "votes": 11, "share": 73.33333333333333 }, { "candidate": "Kevin Travis Raper", "votes": 4, "share": 26.666666666666668 } ], "participated": true, "map_key": "WILSON_PRWA" }, "geometry": { "type": "Polygon", "coordinates": [ [ [ -77.91472499153015, 35.724852000167424 ], [ -77.916374990772525, 35.727025999829202 ], [ -77.918569991287086, 35.725959999866106 ], [ -77.924066991312614, 35.732903000313286 ], [ -77.915892990734321, 35.736839000191871 ], [ -77.91355599169475, 35.73788799967015 ], [ -77.910456990998696, 35.734721999755273 ], [ -77.91262999108811, 35.733659000038507 ], [ -77.906442990775986, 35.727532999928769 ], [ -77.905162990757816, 35.727706999676592 ], [ -77.907133990804908, 35.724053000272598 ], [ -77.910664990672117, 35.727533000292965 ], [ -77.91472499153015, 35.724852000167424 ] ] ] } },
{ "type": "Feature", "properties": { "county": "WILSON", "precinct": "PRWB", "enr_desc": "Wilson B", "winner": "Bobby Knight", "winner_votes": 3, "winner_share": 75.0, "runner_up": "Kevin Travis Raper", "runner_up_votes": 1, "runner_up_share": 25.0, "contest_votes": 4, "margin_of_victory": 50.0, "is_tie": false, "results": [ { "candidate": "Bobby Knight", "votes": 3, "share": 75.0 }, { "candidate": "Kevin Travis Raper", "votes": 1, "share": 25.0 } ], "participated": true, "map_key": "WILSON_PRWB" }, "geometry": { "type": "Polygon", "coordinates": [ [ [ -77.905714991333738, 35.716457000264917 ], [ -77.910831990810934, 35.717314999566504 ], [ -77.917324990774432, 35.705564000359701 ], [ -77.920147991201503, 35.705255999723562 ], [ -77.923057991333749, 35.708008000097642 ], [ -77.925863991466557, 35.709103999803908 ], [ -77.924014991574779, 35.715558999947376 ], [ -77.925556991494929, 35.71798700019589 ], [ -77.9256789907582, 35.721103999738496 ], [ -77.917619991032055, 35.723029999767817 ], [ -77.91472499153015, 35.724852000167424 ], [ -77.910664990672117, 35.727533000292965 ], [ -77.907133990804908, 35.724053000272598 ], [ -77.907901991111544, 35.722668999561044 ], [ -77.905564990645601, 35.720358999818266 ], [ -77.905714991333738, 35.716457000264917 ] ] ] } },
{ "type": "Feature", "properties": { "county": "WILSON", "precinct": "PRWC", "enr_desc": "Wilson C", "winner": "Bobby Knight", "winner_votes": 9, "winner_share": 64.285714285714292, "runner_up": "Kevin Travis Raper", "runner_up_votes": 5, "runner_up_share": 35.714285714285715, "contest_votes": 14, "margin_of_victory": 28.571428571428577, "is_tie": false, "results": [ { "candidate": "Bobby Knight", "votes": 9, "share": 64.28571428571429 }, { "candidate": "Kevin Travis Raper", "votes": 5, "share": 35.714285714285715 } ], "participated": true, "map_key": "WILSON_PRWC" }, "geometry": { "type": "Polygon", "coordinates": [ [ [ -77.9256789907582, 35.721103999738496 ], [ -77.935405990636866, 35.72189700009082 ], [ -77.935430991140464, 35.729394000302079 ], [ -77.9346179915063, 35.734128000192996 ], [ -77.924066991312614, 35.732903000313286 ], [ -77.918569991287086, 35.725959999866106 ], [ -77.916374990772525, 35.727025999829202 ], [ -77.91472499153015, 35.724852000167424 ], [ -77.917619991032055, 35.723029999767817 ], [ -77.9256789907582, 35.721103999738496 ] ] ] } },
{ "type": "Feature", "properties": { "county": "WILSON", "precinct": "PRWD", "enr_desc": "Wilson D", "winner": "Bobby Knight", "winner_votes": 92, "winner_share": 70.229007633587784, "runner_up": "Kevin Travis Raper", "runner_up_votes": 39, "runner_up_share": 29.770992366412212, "contest_votes": 131, "margin_of_victory": 40.458015267175568, "is_tie": false, "results": [ { "candidate": "Bobby Knight", "votes": 92, "share": 70.22900763358778 }, { "candidate": "Kevin Travis Raper", "votes": 39, "share": 29.770992366412212 } ], "participated": true, "map_key": "WILSON_PRWD" }, "geometry": { "type": "Polygon", "coordinates": [ [ [ -77.920861991110513, 35.742359999544895 ], [ -77.915892990734321, 35.736839000191871 ], [ -77.924066991312614, 35.732903000313286 ], [ -77.9346179915063, 35.734128000192996 ], [ -77.93686499116771, 35.74283599967341 ], [ -77.935721991615381, 35.746577999627583 ], [ -77.937884991401674, 35.750993999922699 ], [ -77.931844991240382, 35.750917999583251 ], [ -77.930746990947171, 35.748870999862049 ], [ -77.928568990812551, 35.749919000100789 ], [ -77.922609991285228, 35.741525000131269 ], [ -77.920861991110513, 35.742359999544895 ] ] ] } },
{ "type": "Feature", "properties": { "county": "WILSON", "precinct": "PRWL", "enr_desc": "Wilson L", "winner": "Bobby Knight", "winner_votes": 97, "winner_share": 56.725146198830409, "runner_up": "Kevin Travis Raper", "runner_up_votes": 74, "runner_up_share": 43.274853801169591, "contest_votes": 171, "margin_of_victory": 13.450292397660817, "is_tie": false, "results": [ { "candidate": "Bobby Knight", "votes": 97, "share": 56.72514619883041 }, { "candidate": "Kevin Travis Raper", "votes": 74, "share": 43.27485380116959 } ], "participated": true, "map_key": "WILSON_PRWL" }, "geometry": { "type": "Polygon", "coordinates": [ [ [ -77.937884991401674, 35.750993999922699 ], [ -77.945009991685581, 35.749168000046403 ], [ -77.945033990829785, 35.750766999647382 ], [ -77.94771499104624, 35.750912999936837 ], [ -77.948033990682646, 35.753302000324986 ], [ -77.947106991215634, 35.753622000159737 ], [ -77.948805991231609, 35.756182999581497 ], [ -77.951639991038093, 35.756804000194435 ], [ -77.951571990760542, 35.758538000092756 ], [ -77.953605990700524, 35.759478999850295 ], [ -77.949796991116358, 35.763611999882059 ], [ -77.940771991298007, 35.770477999777263 ], [ -77.934468991272524, 35.761754999780003 ], [ -77.93140599115344, 35.753867999482424 ], [ -77.928568990812551, 35.749919000100789 ], [ -77.930746990947171, 35.748870999862049 ], [ -77.931844991240382, 35.750917999583251 ], [ -77.937884991401674, 35.750993999922699 ] ] ] } },
{ "type": "Feature", "properties": { "county": "WILSON", "precinct": "PRWQ", "enr_desc": "Wilson Q", "winner": "Bobby Knight", "winner_votes": 2, "winner_share": 66.666666666666657, "runner_up": "Kevin Travis Raper", "runner_up_votes": 1, "runner_up_share": 33.333333333333329, "contest_votes": 3, "margin_of_victory": 33.333333333333329, "is_tie": false, "results": [ { "candidate": "Bobby Knight", "votes": 2, "share": 66.66666666666666 }, { "candidate": "Kevin Travis Raper", "votes": 1, "share": 33.33333333333333 } ], "participated": true, "map_key": "WILSON_PRWQ" }, "geometry": { "type": "Polygon", "coordinates": [ [ [ -77.9026209913592, 35.707905000297643 ], [ -77.902598991053964, 35.710434000018935 ], [ -77.899766991023498, 35.711384000060598 ], [ -77.901040991186946, 35.71403399981331 ], [ -77.903128990891744, 35.713476999552242 ], [ -77.903944991444135, 35.715391000057039 ], [ -77.903286991634104, 35.716169000234139 ], [ -77.905714991333738, 35.716457000264917 ], [ -77.905564990645601, 35.720358999818266 ], [ -77.8966039911042, 35.716108000060217 ], [ -77.89544599167337, 35.718081999906765 ], [ -77.894535990891725, 35.717709000250444 ], [ -77.894155991299655, 35.718346999731509 ], [ -77.891180991334849, 35.717151999786815 ], [ -77.893243991499958, 35.713737999667813 ], [ -77.895183991128746, 35.714500999881608 ], [ -77.897048991067464, 35.712065999678615 ], [ -77.896331991324132, 35.711346000290888 ], [ -77.900069991666214, 35.709384999655384 ], [ -77.900234990709762, 35.70788900000354 ], [ -77.9026209913592, 35.707905000297643 ] ] ] } },
{ "type": "Feature", "properties": { "county": "WILSON", "precinct": "PRBL", "enr_desc": "Black Creek", "winner": "Bobby Knight", "winner_votes": 143, "winner_share": 65.0, "runner_up": "Kevin Travis Raper", "runner_up_votes": 77, "runner_up_share": 35.0, "contest_votes": 220, "margin_of_victory": 30.0, "is_tie": false, "results": [ { "candidate": "Bobby Knight", "votes": 143, "share": 65.0 }, { "candidate": "Kevin Travis Raper", "votes": 77, "share": 35.0 } ], "participated": true, "map_key": "WILSON_PRBL" }, "geometry": { "type": "Polygon", "coordinates": [ [ [ -77.87375099074147, 35.586240999545986 ], [ -77.983163991600279, 35.585682999744932 ], [ -77.986624991144211, 35.597481999705685 ], [ -77.985594991352571, 35.60593399967307 ], [ -77.985484991469079, 35.617119999530978 ], [ -77.986396991292295, 35.620615999516232 ], [ -77.987786991547637, 35.622357999513945 ], [ -77.988142991076927, 35.625707999789277 ], [ -77.985969991552963, 35.62601899981339 ], [ -77.984343990826204, 35.627576000040349 ], [ -77.980872990985716, 35.633548999921658 ], [ -77.974988990753076, 35.636960999966924 ], [ -77.970448991211583, 35.638564000287772 ], [ -77.974071991444305, 35.654373999617576 ], [ -77.9732049908324, 35.658950999673067 ], [ -77.975141991503264, 35.66315999995691 ], [ -77.974637991162311, 35.664739999709781 ], [ -77.970540990826606, 35.669314999745716 ], [ -77.969879990979976, 35.671777999741458 ], [ -77.980871991344415, 35.682262000046599 ], [ -77.983974991674714, 35.683559000080265 ], [ -77.985179991366934, 35.68514199955623 ], [ -77.987211991013297, 35.685010000203015 ], [ -77.989515991577349, 35.690571000330003 ], [ -77.989560991468451, 35.698319000264718 ], [ -77.99242499159061, 35.705261999907201 ], [ -77.992838990705849, 35.711563999532203 ], [ -77.988859991193934, 35.712647000118274 ], [ -77.981292991029747, 35.710740000089437 ], [ -77.973949991123007, 35.711507999936089 ], [ -77.972669991330989, 35.712649999484867 ], [ -77.975323990699081, 35.714108000214637 ], [ -77.973565990663545, 35.714676999863237 ], [ -77.969914991235981, 35.713547999501515 ], [ -77.969773991368811, 35.715798999747022 ], [ -77.967449990652398, 35.715357000203973 ], [ -77.966272990863274, 35.712739000186026 ], [ -77.964310990762741, 35.714349999994283 ], [ -77.962163991259018, 35.710848999841033 ], [ -77.961171991334751, 35.706703000197962 ], [ -77.95965499115384, 35.70505900022615 ], [ -77.960674991558065, 35.70363199989341 ], [ -77.965494990735095, 35.701650999708434 ], [ -77.965349991412722, 35.70101600032676 ], [ -77.960947991423353, 35.698968999678954 ], [ -77.955893991191246, 35.692647000316541 ], [ -77.942829991170484, 35.685415999854136 ], [ -77.938823990884231, 35.681620000152868 ], [ -77.936246991078676, 35.680851000066482 ], [ -77.932377991310702, 35.681286000019263 ], [ -77.931247991188442, 35.680293999642423 ], [ -77.926351990895512, 35.678131999848596 ], [ -77.920995991209438, 35.678268999927944 ], [ -77.916957990977522, 35.677352999819966 ], [ -77.914264991326974, 35.678017000113776 ], [ -77.911318991576181, 35.672022000030687 ], [ -77.910811990850505, 35.66886400015953 ], [ -77.911823990650205, 35.665383999629974 ], [ -77.908125991519498, 35.660519999732259 ], [ -77.907006991314404, 35.655878999570881 ], [ -77.905634991605751, 35.654033999643509 ], [ -77.903868991580509, 35.654697000261073 ], [ -77.904710991380924, 35.652545999692926 ], [ -77.900336991043119, 35.652658999799144 ], [ -77.895150990696649, 35.65153600001765 ], [ -77.894813990989348, 35.653092000210172 ], [ -77.893075991087414, 35.652679999627154 ], [ -77.887051991144332, 35.646361999849951 ], [ -77.889913991658631, 35.643619999482347 ], [ -77.889831991509325, 35.641888999763047 ], [ -77.888401991239547, 35.64118799948757 ], [ -77.887223990949806, 35.64271799987111 ], [ -77.886241991363903, 35.642484999959436 ], [ -77.883972991472902, 35.639473000240358 ], [ -77.882458991195946, 35.639700999738416 ], [ -77.881871991248957, 35.638144000009738 ], [ -77.880580991377741, 35.638166999867074 ], [ -77.880441990905851, 35.636015999951312 ], [ -77.878677991559925, 35.634183999624888 ], [ -77.875174991189354, 35.633931000085042 ], [ -77.873977991396814, 35.632828000194216 ], [ -77.874170991749125, 35.628914999752439 ], [ -77.875037991729045, 35.627615000296878 ], [ -77.873412991483931, 35.626488999819387 ], [ -77.871730991611358, 35.626444999993247 ], [ -77.87053199082888, 35.62476900029624 ], [ -77.871483991448997, 35.624421999997836 ], [ -77.872574991729365, 35.622316000035461 ], [ -77.871508990678734, 35.620896999889695 ], [ -77.872797990889268, 35.620416000070321 ], [ -77.871927991113381, 35.619066999752398 ], [ -77.875976990954655, 35.618544000207336 ], [ -77.875978991294559, 35.616163999476143 ], [ -77.872771991284282, 35.610151999670983 ], [ -77.868513991412641, 35.608843000259448 ], [ -77.865015991039812, 35.609881999758656 ], [ -77.864374991494131, 35.607570999916717 ], [ -77.862191991388343, 35.609268000344933 ], [ -77.859558991743341, 35.608495000316125 ], [ -77.859839990912235, 35.606254999737025 ], [ -77.864742991680814, 35.605386000285989 ], [ -77.866029990663151, 35.602799000305964 ], [ -77.86303299082347, 35.603098000202117 ], [ -77.864566990815234, 35.60155599996861 ], [ -77.86635399120172, 35.601252000329509 ], [ -77.869623991200513, 35.602544000146288 ], [ -77.872553991379121, 35.600331999730322 ], [ -77.869134991531467, 35.597224999687839 ], [ -77.872952991106047, 35.593665999901773 ], [ -77.87375099074147, 35.586240999545986 ] ] ] } },
{ "type": "Feature", "properties": { "county": "WILSON", "precinct": "PRCR", "enr_desc": "Crossroads", "winner": "Bobby Knight", "winner_votes": 98, "winner_share": 57.647058823529406, "runner_up": "Kevin Travis Raper", "runner_up_votes": 72, "runner_up_share": 42.352941176470587, "contest_votes": 170, "margin_of_victory": 15.294117647058819, "is_tie": false, "results": [ { "candidate": "Bobby Knight", "votes": 98, "share": 57.647058823529406 }, { "candidate": "Kevin Travis Raper", "votes": 72, "share": 42.35294117647059 } ], "participated": true, "map_key": "WILSON_PRCR" }, "geometry": { "type": "Polygon", "coordinates": [ [ [ -77.983163991600279, 35.585682999744932 ], [ -77.998347991190442, 35.585596999926167 ], [ -78.058005991641295, 35.59780600001605 ], [ -78.057922990778692, 35.600451999813984 ], [ -78.055260991705111, 35.600931000091819 ], [ -78.053831991181383, 35.60271200003784 ], [ -78.056127990818055, 35.606872000145749 ], [ -78.055263991206715, 35.615424999607008 ], [ -78.052959991634111, 35.617133999864748 ], [ -78.049849991253936, 35.615714999852223 ], [ -78.048195991157215, 35.616927999924691 ], [ -78.046692991076839, 35.616456999778563 ], [ -78.047523991415531, 35.618096999829817 ], [ -78.045866990867538, 35.622447999517973 ], [ -78.037769991129252, 35.630014000083982 ], [ -78.036883990830844, 35.633541999999146 ], [ -78.037304990713238, 35.635319999903956 ], [ -78.034793990651252, 35.636333999778849 ], [ -78.036145990793273, 35.637078000169673 ], [ -78.038008991624679, 35.641111000137613 ], [ -78.043094990961379, 35.646666999666017 ], [ -78.045811990803685, 35.647219999935018 ], [ -78.047716990742728, 35.648709999660298 ], [ -78.055837991294524, 35.650015999850766 ], [ -78.057300990748644, 35.6517160002252 ], [ -78.055063990760019, 35.652140000102136 ], [ -78.055110991269785, 35.65671200013513 ], [ -78.054324990667325, 35.658941999515818 ], [ -78.054600990702397, 35.669476999689643 ], [ -78.053251991529237, 35.69138099985787 ], [ -78.050509991192584, 35.691721000300753 ], [ -78.044149990779232, 35.688009000058891 ], [ -78.043269991252103, 35.688470000265966 ], [ -78.043328991696086, 35.69039700017062 ], [ -78.041456991281436, 35.691178999683139 ], [ -78.031484990855262, 35.690970999856724 ], [ -78.028350991185889, 35.689398000128563 ], [ -78.023931990871134, 35.68981199977631 ], [ -78.019681990945486, 35.691552999522862 ], [ -78.0200809916211, 35.693774999607761 ], [ -78.018902991422124, 35.694666999745429 ], [ -78.015677991289323, 35.693590000328214 ], [ -78.013629990957654, 35.69448199989052 ], [ -78.009478991107983, 35.691527999753333 ], [ -78.007654991092707, 35.693151999819065 ], [ -78.005410991186153, 35.693538999830018 ], [ -78.002800991584806, 35.695985999587478 ], [ -78.001762991696509, 35.695299000154819 ], [ -77.999708991434716, 35.696029999925024 ], [ -77.999708990912254, 35.702527999892133 ], [ -77.994968991392284, 35.704657999959053 ], [ -77.994464990802115, 35.705573999967406 ], [ -77.995084991375151, 35.708457000012125 ], [ -77.992838990705849, 35.711563999532203 ], [ -77.99242499159061, 35.705261999907201 ], [ -77.989560991468451, 35.698319000264718 ], [ -77.989515991577349, 35.690571000330003 ], [ -77.987211991013297, 35.685010000203015 ], [ -77.985179991366934, 35.68514199955623 ], [ -77.983974991674714, 35.683559000080265 ], [ -77.980871991344415, 35.682262000046599 ], [ -77.969879990979976, 35.671777999741458 ], [ -77.970540990826606, 35.669314999745716 ], [ -77.974637991162311, 35.664739999709781 ], [ -77.975141991503264, 35.66315999995691 ], [ -77.9732049908324, 35.658950999673067 ], [ -77.974071991444305, 35.654373999617576 ], [ -77.970448991211583, 35.638564000287772 ], [ -77.974988990753076, 35.636960999966924 ], [ -77.980872990985716, 35.633548999921658 ], [ -77.984343990826204, 35.627576000040349 ], [ -77.985969991552963, 35.62601899981339 ], [ -77.988142991076927, 35.625707999789277 ], [ -77.987786991547637, 35.622357999513945 ], [ -77.986396991292295, 35.620615999516232 ], [ -77.985484991469079, 35.617119999530978 ], [ -77.985594991352571, 35.60593399967307 ], [ -77.986624991144211, 35.597481999705685 ], [ -77.983163991600279, 35.585682999744932 ] ] ] } },
{ "type": "Feature", "properties": { "county": "WILSON", "precinct": "PRGA", "enr_desc": "Gardners", "winner": "Bobby Knight", "winner_votes": 100, "winner_share": 64.102564102564102, "runner_up": "Kevin Travis Raper", "runner_up_votes": 56, "runner_up_share": 35.897435897435898, "contest_votes": 156, "margin_of_victory": 28.205128205128204, "is_tie": false, "results": [ { "candidate": "Bobby Knight", "votes": 100, "share": 64.1025641025641 }, { "candidate": "Kevin Travis Raper", "votes": 56, "share": 35.8974358974359 } ], "participated": true, "map_key": "WILSON_PRGA" }, "geometry": { "type": "Polygon", "coordinates": [ [ [ -77.825350991230124, 35.66263799968231 ], [ -77.835392991020342, 35.671835999617031 ], [ -77.849610991143066, 35.680163000048793 ], [ -77.85148699126718, 35.681969000304242 ], [ -77.853262991187563, 35.683683999724437 ], [ -77.853293991342383, 35.68915300016161 ], [ -77.855427991264648, 35.693592999924086 ], [ -77.854586991345627, 35.699276999784956 ], [ -77.855262991450132, 35.702386000074931 ], [ -77.862145991142157, 35.711505999997208 ], [ -77.860245991140317, 35.71325899992258 ], [ -77.861368990784229, 35.717084000258723 ], [ -77.855671991072057, 35.72588299967218 ], [ -77.857189990729424, 35.729023999534192 ], [ -77.856844990934761, 35.731569999986689 ], [ -77.85674499065162, 35.736307000164665 ], [ -77.857588990788287, 35.738809000226688 ], [ -77.855626991685995, 35.7420739995069 ], [ -77.856093991592616, 35.750609999606922 ], [ -77.853360991458757, 35.758167000139125 ], [ -77.846205991559557, 35.758434999737723 ], [ -77.841494990658603, 35.754651999468145 ], [ -77.837916990892566, 35.754922000336059 ], [ -77.829495990951457, 35.757674999485197 ], [ -77.818788990910846, 35.756615999610624 ], [ -77.810340991610587, 35.758242000323243 ], [ -77.805400991101351, 35.760789999996426 ], [ -77.802037991517011, 35.764946999944868 ], [ -77.795541991721251, 35.766923999703451 ], [ -77.791012991615972, 35.767350999515834 ], [ -77.789879991239459, 35.770706999472289 ], [ -77.784528991053008, 35.772753999511764 ], [ -77.78335499129723, 35.778014999610889 ], [ -77.777772991534619, 35.780699999817095 ], [ -77.776868990959088, 35.782644000176681 ], [ -77.778019991624788, 35.784609999780194 ], [ -77.776448991273469, 35.786306999512149 ], [ -77.775175990701385, 35.785861999503354 ], [ -77.770348991144132, 35.786646000002669 ], [ -77.768489991225408, 35.78513500019077 ], [ -77.766298990715583, 35.784770999674727 ], [ -77.763405990737979, 35.788071000314062 ], [ -77.76008199147185, 35.787690999912812 ], [ -77.754810991101394, 35.788957000204675 ], [ -77.746917990739036, 35.786407999841416 ], [ -77.745864991594331, 35.784821000095569 ], [ -77.743754991060754, 35.784085999920421 ], [ -77.742063990809839, 35.784630999933988 ], [ -77.741017991555353, 35.783797000183178 ], [ -77.738229990757389, 35.783963999828757 ], [ -77.719284991472989, 35.7311979997028 ], [ -77.722129991135887, 35.726241999779589 ], [ -77.728602990941084, 35.722507999742071 ], [ -77.73313499088033, 35.717115000282668 ], [ -77.744378991698454, 35.706373000094999 ], [ -77.750162991091258, 35.703480999501402 ], [ -77.755278991096631, 35.695893999796738 ], [ -77.758113990935144, 35.686599999916332 ], [ -77.765831991005626, 35.686632999687035 ], [ -77.769620990854946, 35.687439999880723 ], [ -77.775988991692884, 35.685541999846464 ], [ -77.779525991600764, 35.680782999591472 ], [ -77.791578990971317, 35.678247999999378 ], [ -77.793773991324329, 35.679733000021528 ], [ -77.79612899092534, 35.684744999672269 ], [ -77.801120991119859, 35.683624000015698 ], [ -77.806366991045522, 35.685981000058142 ], [ -77.809623990856736, 35.683347000227769 ], [ -77.81255199121648, 35.682596999713596 ], [ -77.81682899117898, 35.679985000158283 ], [ -77.818736990745563, 35.675527999696868 ], [ -77.818765991367897, 35.673630000357434 ], [ -77.821683991605468, 35.669400000300797 ], [ -77.82425899097386, 35.663463999471979 ], [ -77.825350991230124, 35.66263799968231 ] ] ] } },
{ "type": "Feature", "properties": { "county": "WILSON", "precinct": "PROL", "enr_desc": "Oldfields", "winner": "Bobby Knight", "winner_votes": 288, "winner_share": 72.727272727272734, "runner_up": "Kevin Travis Raper", "runner_up_votes": 108, "runner_up_share": 27.27272727272727, "contest_votes": 396, "margin_of_victory": 45.454545454545467, "is_tie": false, "results": [ { "candidate": "Bobby Knight", "votes": 288, "share": 72.72727272727273 }, { "candidate": "Kevin Travis Raper", "votes": 108, "share": 27.27272727272727 } ], "participated": true, "map_key": "WILSON_PROL" }, "geometry": { "type": "Polygon", "coordinates": [ [ [ -77.969773991368811, 35.715798999747022 ], [ -77.969914991235981, 35.713547999501515 ], [ -77.973565990663545, 35.714676999863237 ], [ -77.975323990699081, 35.714108000214637 ], [ -77.972669991330989, 35.712649999484867 ], [ -77.973949991123007, 35.711507999936089 ], [ -77.981292991029747, 35.710740000089437 ], [ -77.988859991193934, 35.712647000118274 ], [ -77.992838990705849, 35.711563999532203 ], [ -77.995084991375151, 35.708457000012125 ], [ -77.994464990802115, 35.705573999967406 ], [ -77.994968991392284, 35.704657999959053 ], [ -77.999708990912254, 35.702527999892133 ], [ -77.999708991434716, 35.696029999925024 ], [ -78.001762991696509, 35.695299000154819 ], [ -78.002800991584806, 35.695985999587478 ], [ -78.005410991186153, 35.693538999830018 ], [ -78.007654991092707, 35.693151999819065 ], [ -78.009478991107983, 35.691527999753333 ], [ -78.013629990957654, 35.69448199989052 ], [ -78.015677991289323, 35.693590000328214 ], [ -78.018902991422124, 35.694666999745429 ], [ -78.0200809916211, 35.693774999607761 ], [ -78.019681990945486, 35.691552999522862 ], [ -78.023931990871134, 35.68981199977631 ], [ -78.028350991185889, 35.689398000128563 ], [ -78.031484990855262, 35.690970999856724 ], [ -78.041456991281436, 35.691178999683139 ], [ -78.043328991696086, 35.69039700017062 ], [ -78.043269991252103, 35.688470000265966 ], [ -78.044149990779232, 35.688009000058891 ], [ -78.050509991192584, 35.691721000300753 ], [ -78.053251991529237, 35.69138099985787 ], [ -78.057190991687619, 35.691426000298044 ], [ -78.059210991401983, 35.696024999682372 ], [ -78.061288991495857, 35.697723000051653 ], [ -78.062381991085005, 35.697744999651057 ], [ -78.063276990714741, 35.696233999984813 ], [ -78.064985990832682, 35.695340000110434 ], [ -78.068824991277523, 35.696413999908771 ], [ -78.070110991343441, 35.699202999997773 ], [ -78.074649991626998, 35.698652000130203 ], [ -78.07647099074839, 35.697529999699583 ], [ -78.083419990829398, 35.700660000171773 ], [ -78.084368991163998, 35.69797999965143 ], [ -78.081529991175131, 35.696124999830651 ], [ -78.081721991495158, 35.693079999486315 ], [ -78.085252990781498, 35.692552000226804 ], [ -78.085444990782136, 35.689094000350444 ], [ -78.086088990738517, 35.68858999989687 ], [ -78.088019991451603, 35.691539999888697 ], [ -78.088944991373353, 35.691812999773823 ], [ -78.092901991096795, 35.689757000301007 ], [ -78.094874991387996, 35.686380999864063 ], [ -78.096005991648454, 35.686066999743964 ], [ -78.103751991557914, 35.688995000276492 ], [ -78.104677991182612, 35.690252999941826 ], [ -78.104258990774753, 35.692382000221876 ], [ -78.104791991715771, 35.692633000326495 ], [ -78.106267991052547, 35.691327999719206 ], [ -78.109643991574103, 35.691372999587188 ], [ -78.109997990935113, 35.693043000203311 ], [ -78.111269991055991, 35.692561999603107 ], [ -78.114606991300604, 35.693293000161887 ], [ -78.120164990825117, 35.690883000319097 ], [ -78.121305991294392, 35.6920109995201 ], [ -78.125430991269923, 35.692933000197819 ], [ -78.125782990800346, 35.694497999638649 ], [ -78.128639991374996, 35.696254999852883 ], [ -78.134454991014223, 35.69894599956104 ], [ -78.13776799095956, 35.699427999749986 ], [ -78.140979991701386, 35.701925999943739 ], [ -78.141517991471602, 35.704353000257946 ], [ -78.143981990956945, 35.705884000270835 ], [ -78.146265990653433, 35.708704999520684 ], [ -78.148217991274663, 35.70944599970813 ], [ -78.152853991152384, 35.709307000253382 ], [ -78.160019991603832, 35.713133000311842 ], [ -78.162193991695872, 35.713186000097018 ], [ -78.163872990992033, 35.714229000184424 ], [ -78.16447499071981, 35.714002000298322 ], [ -78.163921990639224, 35.712800999719178 ], [ -78.168112991149783, 35.713340999965475 ], [ -78.167948990934548, 35.714665000313332 ], [ -78.170043991136055, 35.715335999998523 ], [ -78.17063499170753, 35.717065999791224 ], [ -78.173427990683351, 35.718077999877657 ], [ -78.174030991004429, 35.717304999824329 ], [ -78.17498399112965, 35.717613999825609 ], [ -78.177489991532724, 35.720985999766796 ], [ -78.176226991668372, 35.721710000247739 ], [ -78.177448991272627, 35.722160999840355 ], [ -78.175720991343141, 35.722990000017894 ], [ -78.176417991616475, 35.724861999600037 ], [ -78.18036999109539, 35.72540499987128 ], [ -78.180344990931459, 35.727382999605418 ], [ -78.180959991020416, 35.727537999768359 ], [ -78.181273991545069, 35.726363999720895 ], [ -78.182304990758141, 35.728870999524005 ], [ -78.192116991036443, 35.730544999805232 ], [ -78.188966991558488, 35.73423999998915 ], [ -78.186507991462989, 35.734708999639956 ], [ -78.181971990670462, 35.737955999941711 ], [ -78.147101991223309, 35.745803000300846 ], [ -78.038022991583333, 35.787518999958991 ], [ -78.024189991640753, 35.777624999553538 ], [ -78.020276991022385, 35.776771000007969 ], [ -78.019702990634357, 35.775915999585749 ], [ -78.014282991366372, 35.775227000148497 ], [ -78.014985991462751, 35.774541000318685 ], [ -78.011955991448389, 35.770832999767421 ], [ -78.011770991536821, 35.767997000241472 ], [ -78.0099059915418, 35.768180000119777 ], [ -78.009205990913131, 35.769369999535321 ], [ -78.007462991606744, 35.768658999665469 ], [ -78.004665991722561, 35.769804999610464 ], [ -78.002003991124113, 35.768911999637545 ], [ -78.001093991337825, 35.767728999827099 ], [ -78.001177991524514, 35.765960999742795 ], [ -77.99138499154104, 35.759002000371694 ], [ -77.990878990870499, 35.757881999927086 ], [ -77.991382991455026, 35.755821999893399 ], [ -77.986022990854764, 35.749006999536604 ], [ -77.979733991190301, 35.746172999823891 ], [ -77.976797991355923, 35.740767999530782 ], [ -77.975460991129154, 35.739955000215822 ], [ -77.974303990964131, 35.737260999974573 ], [ -77.972460991611158, 35.736303000290285 ], [ -77.97229999120546, 35.734566999895563 ], [ -77.969508990766855, 35.729885000157537 ], [ -77.970125991293202, 35.728213999629041 ], [ -77.972004991191326, 35.726886999947894 ], [ -77.972994991670504, 35.718822000244003 ], [ -77.972911991492012, 35.716866999882505 ], [ -77.969773991368811, 35.715798999747022 ] ] ] } },
{ "type": "Feature", "properties": { "county": "WILSON", "precinct": "PRSA", "enr_desc": "Saratoga", "winner": "Kevin Travis Raper", "winner_votes": 37, "winner_share": 59.677419354838712, "runner_up": "Bobby Knight", "runner_up_votes": 25, "runner_up_share": 40.322580645161288, "contest_votes": 62, "margin_of_victory": 19.354838709677423, "is_tie": false, "results": [ { "candidate": "Kevin Travis Raper", "votes": 37, "share": 59.67741935483871 }, { "candidate": "Bobby Knight", "votes": 25, "share": 40.32258064516129 } ], "participated": true, "map_key": "WILSON_PRSA" }, "geometry": { "type": "Polygon", "coordinates": [ [ [ -77.825350991230124, 35.66263799968231 ], [ -77.82425899097386, 35.663463999471979 ], [ -77.821683991605468, 35.669400000300797 ], [ -77.818765991367897, 35.673630000357434 ], [ -77.818736990745563, 35.675527999696868 ], [ -77.81682899117898, 35.679985000158283 ], [ -77.81255199121648, 35.682596999713596 ], [ -77.809623990856736, 35.683347000227769 ], [ -77.806366991045522, 35.685981000058142 ], [ -77.801120991119859, 35.683624000015698 ], [ -77.79612899092534, 35.684744999672269 ], [ -77.793773991324329, 35.679733000021528 ], [ -77.791578990971317, 35.678247999999378 ], [ -77.779525991600764, 35.680782999591472 ], [ -77.775988991692884, 35.685541999846464 ], [ -77.769620990854946, 35.687439999880723 ], [ -77.765831991005626, 35.686632999687035 ], [ -77.758113990935144, 35.686599999916332 ], [ -77.755278991096631, 35.695893999796738 ], [ -77.750162991091258, 35.703480999501402 ], [ -77.744378991698454, 35.706373000094999 ], [ -77.73313499088033, 35.717115000282668 ], [ -77.728602990941084, 35.722507999742071 ], [ -77.722129991135887, 35.726241999779589 ], [ -77.719284991472989, 35.7311979997028 ], [ -77.718413990821617, 35.728801999541552 ], [ -77.674836990790794, 35.689104000274931 ], [ -77.665130991059499, 35.674934999804094 ], [ -77.688106991093306, 35.660946999536222 ], [ -77.753508990728392, 35.615957000231241 ], [ -77.801776991575565, 35.586205000158188 ], [ -77.80298599117161, 35.587321999918636 ], [ -77.802957991606476, 35.58933599974285 ], [ -77.798670991662618, 35.592081999836402 ], [ -77.796036991727192, 35.596200999469389 ], [ -77.797072991521048, 35.601280999909044 ], [ -77.798725990966801, 35.603501000343201 ], [ -77.800378991739606, 35.603729999700043 ], [ -77.800098990708619, 35.604873999941404 ], [ -77.801948991319861, 35.607391999513339 ], [ -77.801612991394975, 35.609199999531761 ], [ -77.802761990715069, 35.610137999871995 ], [ -77.80292999170004, 35.611807999652783 ], [ -77.806432990845721, 35.612090000142324 ], [ -77.808694991446401, 35.615037999533421 ], [ -77.809458991218293, 35.619589000297914 ], [ -77.810495990732548, 35.620596000069696 ], [ -77.812794991622042, 35.620686999910717 ], [ -77.81539499113012, 35.627099999689008 ], [ -77.816964991384168, 35.627763999960607 ], [ -77.821785991062697, 35.63259199967996 ], [ -77.822430991330023, 35.637375000122397 ], [ -77.824421991559191, 35.639113999744161 ], [ -77.826157990876425, 35.646615999975197 ], [ -77.825405990665146, 35.650296999509081 ], [ -77.826640991380771, 35.657586999656701 ], [ -77.825269991642145, 35.660252999734205 ], [ -77.825350991230124, 35.66263799968231 ] ] ] } },
{ "type": "Feature", "properties": { "county": "WILSON", "precinct": "PRSP", "enr_desc": "Spring Hill", "winner": "Kevin Travis Raper", "winner_votes": 76, "winner_share": 50.331125827814574, "runner_up": "Bobby Knight", "runner_up_votes": 75, "runner_up_share": 49.668874172185426, "contest_votes": 151, "margin_of_victory": 0.66225165562914867, "is_tie": false, "results": [ { "candidate": "Kevin Travis Raper", "votes": 76, "share": 50.331125827814574 }, { "candidate": "Bobby Knight", "votes": 75, "share": 49.668874172185426 } ], "participated": true, "map_key": "WILSON_PRSP" }, "geometry": { "type": "Polygon", "coordinates": [ [ [ -78.162193991695872, 35.713186000097018 ], [ -78.160019991603832, 35.713133000311842 ], [ -78.152853991152384, 35.709307000253382 ], [ -78.148217991274663, 35.70944599970813 ], [ -78.146265990653433, 35.708704999520684 ], [ -78.143981990956945, 35.705884000270835 ], [ -78.141517991471602, 35.704353000257946 ], [ -78.140979991701386, 35.701925999943739 ], [ -78.13776799095956, 35.699427999749986 ], [ -78.134454991014223, 35.69894599956104 ], [ -78.128639991374996, 35.696254999852883 ], [ -78.125782990800346, 35.694497999638649 ], [ -78.125430991269923, 35.692933000197819 ], [ -78.121305991294392, 35.6920109995201 ], [ -78.120164990825117, 35.690883000319097 ], [ -78.114606991300604, 35.693293000161887 ], [ -78.111269991055991, 35.692561999603107 ], [ -78.109997990935113, 35.693043000203311 ], [ -78.109643991574103, 35.691372999587188 ], [ -78.106267991052547, 35.691327999719206 ], [ -78.104791991715771, 35.692633000326495 ], [ -78.104258990774753, 35.692382000221876 ], [ -78.104677991182612, 35.690252999941826 ], [ -78.103751991557914, 35.688995000276492 ], [ -78.096005991648454, 35.686066999743964 ], [ -78.094874991387996, 35.686380999864063 ], [ -78.092901991096795, 35.689757000301007 ], [ -78.088944991373353, 35.691812999773823 ], [ -78.088019991451603, 35.691539999888697 ], [ -78.086088990738517, 35.68858999989687 ], [ -78.085444990782136, 35.689094000350444 ], [ -78.085252990781498, 35.692552000226804 ], [ -78.081721991495158, 35.693079999486315 ], [ -78.081529991175131, 35.696124999830651 ], [ -78.084368991163998, 35.69797999965143 ], [ -78.083419990829398, 35.700660000171773 ], [ -78.07647099074839, 35.697529999699583 ], [ -78.074649991626998, 35.698652000130203 ], [ -78.070110991343441, 35.699202999997773 ], [ -78.068824991277523, 35.696413999908771 ], [ -78.064985990832682, 35.695340000110434 ], [ -78.063276990714741, 35.696233999984813 ], [ -78.062381991085005, 35.697744999651057 ], [ -78.061288991495857, 35.697723000051653 ], [ -78.059210991401983, 35.696024999682372 ], [ -78.057190991687619, 35.691426000298044 ], [ -78.053251991529237, 35.69138099985787 ], [ -78.054600990702397, 35.669476999689643 ], [ -78.054324990667325, 35.658941999515818 ], [ -78.055110991269785, 35.65671200013513 ], [ -78.055063990760019, 35.652140000102136 ], [ -78.057300990748644, 35.6517160002252 ], [ -78.055837991294524, 35.650015999850766 ], [ -78.047716990742728, 35.648709999660298 ], [ -78.045811990803685, 35.647219999935018 ], [ -78.043094990961379, 35.646666999666017 ], [ -78.038008991624679, 35.641111000137613 ], [ -78.036145990793273, 35.637078000169673 ], [ -78.034793990651252, 35.636333999778849 ], [ -78.037304990713238, 35.635319999903956 ], [ -78.036883990830844, 35.633541999999146 ], [ -78.037769991129252, 35.630014000083982 ], [ -78.045866990867538, 35.622447999517973 ], [ -78.047523991415531, 35.618096999829817 ], [ -78.046692991076839, 35.616456999778563 ], [ -78.048195991157215, 35.616927999924691 ], [ -78.049849991253936, 35.615714999852223 ], [ -78.052959991634111, 35.617133999864748 ], [ -78.055263991206715, 35.615424999607008 ], [ -78.056127990818055, 35.606872000145749 ], [ -78.053831991181383, 35.60271200003784 ], [ -78.055260991705111, 35.600931000091819 ], [ -78.057922990778692, 35.600451999813984 ], [ -78.058005991641295, 35.59780600001605 ], [ -78.064783991673963, 35.585262999795773 ], [ -78.125586991519398, 35.603110999516979 ], [ -78.157837991121852, 35.685586999881103 ], [ -78.161341990861786, 35.698153000296493 ], [ -78.160311991459935, 35.711018000247066 ], [ -78.161850991720584, 35.710898999795752 ], [ -78.160828990715999, 35.712032999818582 ], [ -78.162193991695872, 35.713186000097018 ] ] ] } },
{ "type": "Feature", "properties": { "county": "WILSON", "precinct": "PRST", "enr_desc": "Stantonsburg", "winner": "Bobby Knight", "winner_votes": 46, "winner_share": 64.788732394366207, "runner_up": "Kevin Travis Raper", "runner_up_votes": 25, "runner_up_share": 35.2112676056338, "contest_votes": 71, "margin_of_victory": 29.577464788732406, "is_tie": false, "results": [ { "candidate": "Bobby Knight", "votes": 46, "share": 64.7887323943662 }, { "candidate": "Kevin Travis Raper", "votes": 25, "share": 35.2112676056338 } ], "participated": true, "map_key": "WILSON_PRST" }, "geometry": { "type": "Polygon", "coordinates": [ [ [ -77.801776991575565, 35.586205000158188 ], [ -77.806290991111041, 35.583436000287712 ], [ -77.808394991023377, 35.583958999795946 ], [ -77.815057990822581, 35.58828099948223 ], [ -77.816455990647668, 35.588371000013474 ], [ -77.822735991221066, 35.58535300034336 ], [ -77.824361991137678, 35.586460000231391 ], [ -77.87375099074147, 35.586240999545986 ], [ -77.872952991106047, 35.593665999901773 ], [ -77.869134991531467, 35.597224999687839 ], [ -77.872553991379121, 35.600331999730322 ], [ -77.869623991200513, 35.602544000146288 ], [ -77.86635399120172, 35.601252000329509 ], [ -77.864566990815234, 35.60155599996861 ], [ -77.86303299082347, 35.603098000202117 ], [ -77.866029990663151, 35.602799000305964 ], [ -77.864742991680814, 35.605386000285989 ], [ -77.859839990912235, 35.606254999737025 ], [ -77.859558991743341, 35.608495000316125 ], [ -77.862191991388343, 35.609268000344933 ], [ -77.864374991494131, 35.607570999916717 ], [ -77.865015991039812, 35.609881999758656 ], [ -77.868513991412641, 35.608843000259448 ], [ -77.872771991284282, 35.610151999670983 ], [ -77.875978991294559, 35.616163999476143 ], [ -77.875976990954655, 35.618544000207336 ], [ -77.871927991113381, 35.619066999752398 ], [ -77.872797990889268, 35.620416000070321 ], [ -77.871508990678734, 35.620896999889695 ], [ -77.872574991729365, 35.622316000035461 ], [ -77.871483991448997, 35.624421999997836 ], [ -77.87053199082888, 35.62476900029624 ], [ -77.871730991611358, 35.626444999993247 ], [ -77.873412991483931, 35.626488999819387 ], [ -77.875037991729045, 35.627615000296878 ], [ -77.874170991749125, 35.628914999752439 ], [ -77.873977991396814, 35.632828000194216 ], [ -77.875174991189354, 35.633931000085042 ], [ -77.878677991559925, 35.634183999624888 ], [ -77.880441990905851, 35.636015999951312 ], [ -77.880580991377741, 35.638166999867074 ], [ -77.881871991248957, 35.638144000009738 ], [ -77.882458991195946, 35.639700999738416 ], [ -77.883972991472902, 35.639473000240358 ], [ -77.886241991363903, 35.642484999959436 ], [ -77.887223990949806, 35.64271799987111 ], [ -77.888401991239547, 35.64118799948757 ], [ -77.889831991509325, 35.641888999763047 ], [ -77.889913991658631, 35.643619999482347 ], [ -77.887051991144332, 35.646361999849951 ], [ -77.893075991087414, 35.652679999627154 ], [ -77.894813990989348, 35.653092000210172 ], [ -77.895150990696649, 35.65153600001765 ], [ -77.900336991043119, 35.652658999799144 ], [ -77.901653991302183, 35.655062000168016 ], [ -77.899829991574933, 35.657921999867888 ], [ -77.901145991438923, 35.66146899960922 ], [ -77.899462991288203, 35.663780000230936 ], [ -77.898788991065672, 35.666571999879899 ], [ -77.896011990895133, 35.66899600034958 ], [ -77.894859991548969, 35.672726000117883 ], [ -77.884263991276825, 35.677068000331865 ], [ -77.881396991409687, 35.679445000294059 ], [ -77.859229991202, 35.680095999504516 ], [ -77.85148699126718, 35.681969000304242 ], [ -77.849610991143066, 35.680163000048793 ], [ -77.835392991020342, 35.671835999617031 ], [ -77.825350991230124, 35.66263799968231 ], [ -77.825269991642145, 35.660252999734205 ], [ -77.826640991380771, 35.657586999656701 ], [ -77.825405990665146, 35.650296999509081 ], [ -77.826157990876425, 35.646615999975197 ], [ -77.824421991559191, 35.639113999744161 ], [ -77.822430991330023, 35.637375000122397 ], [ -77.821785991062697, 35.63259199967996 ], [ -77.816964991384168, 35.627763999960607 ], [ -77.81539499113012, 35.627099999689008 ], [ -77.812794991622042, 35.620686999910717 ], [ -77.810495990732548, 35.620596000069696 ], [ -77.809458991218293, 35.619589000297914 ], [ -77.808694991446401, 35.615037999533421 ], [ -77.806432990845721, 35.612090000142324 ], [ -77.80292999170004, 35.611807999652783 ], [ -77.802761990715069, 35.610137999871995 ], [ -77.801612991394975, 35.609199999531761 ], [ -77.801948991319861, 35.607391999513339 ], [ -77.800098990708619, 35.604873999941404 ], [ -77.800378991739606, 35.603729999700043 ], [ -77.798725990966801, 35.603501000343201 ], [ -77.797072991521048, 35.601280999909044 ], [ -77.796036991727192, 35.596200999469389 ], [ -77.798670991662618, 35.592081999836402 ], [ -77.802957991606476, 35.58933599974285 ], [ -77.80298599117161, 35.587321999918636 ], [ -77.801776991575565, 35.586205000158188 ] ] ] } },
{ "type": "Feature", "properties": { "county": "WILSON", "precinct": "PRTA", "enr_desc": "Taylors", "winner": "Bobby Knight", "winner_votes": 256, "winner_share": 65.641025641025635, "runner_up": "Kevin Travis Raper", "runner_up_votes": 134, "runner_up_share": 34.358974358974358, "contest_votes": 390, "margin_of_victory": 31.282051282051277, "is_tie": false, "results": [ { "candidate": "Bobby Knight", "votes": 256, "share": 65.64102564102564 }, { "candidate": "Kevin Travis Raper", "votes": 134, "share": 34.35897435897436 } ], "participated": true, "map_key": "WILSON_PRTA" }, "geometry": { "type": "Polygon", "coordinates": [ [ [ -78.038022991583333, 35.787518999958991 ], [ -78.006684990783313, 35.799487999924068 ], [ -77.915656991356983, 35.83644999990117 ], [ -77.918451991390853, 35.831221000076965 ], [ -77.919042990774983, 35.821715999965178 ], [ -77.915500990710058, 35.813231000007939 ], [ -77.91524099147577, 35.802593000323 ], [ -77.914372990849458, 35.798376999657165 ], [ -77.911492990742374, 35.79149300013318 ], [ -77.919232991193397, 35.788953000253059 ], [ -77.928525991307779, 35.779509999850241 ], [ -77.934136991609947, 35.777332999677824 ], [ -77.939128990924132, 35.773521999610196 ], [ -77.940771991298007, 35.770477999777263 ], [ -77.949796991116358, 35.763611999882059 ], [ -77.953605990700524, 35.759478999850295 ], [ -77.957292990698519, 35.75668400016167 ], [ -77.965276991070013, 35.745182000142911 ], [ -77.975460991129154, 35.739955000215822 ], [ -77.976797991355923, 35.740767999530782 ], [ -77.979733991190301, 35.746172999823891 ], [ -77.986022990854764, 35.749006999536604 ], [ -77.991382991455026, 35.755821999893399 ], [ -77.990878990870499, 35.757881999927086 ], [ -77.99138499154104, 35.759002000371694 ], [ -78.001177991524514, 35.765960999742795 ], [ -78.001093991337825, 35.767728999827099 ], [ -78.002003991124113, 35.768911999637545 ], [ -78.004665991722561, 35.769804999610464 ], [ -78.007462991606744, 35.768658999665469 ], [ -78.009205990913131, 35.769369999535321 ], [ -78.0099059915418, 35.768180000119777 ], [ -78.011770991536821, 35.767997000241472 ], [ -78.011955991448389, 35.770832999767421 ], [ -78.014985991462751, 35.774541000318685 ], [ -78.014282991366372, 35.775227000148497 ], [ -78.019702990634357, 35.775915999585749 ], [ -78.020276991022385, 35.776771000007969 ], [ -78.024189991640753, 35.777624999553538 ], [ -78.038022991583333, 35.787518999958991 ] ] ] } },
{ "type": "Feature", "properties": { "county": "WILSON", "precinct": "PRTO", "enr_desc": "Toisnot", "winner": "Bobby Knight", "winner_votes": 136, "winner_share": 62.962962962962962, "runner_up": "Kevin Travis Raper", "runner_up_votes": 80, "runner_up_share": 37.037037037037038, "contest_votes": 216, "margin_of_victory": 25.925925925925924, "is_tie": false, "results": [ { "candidate": "Bobby Knight", "votes": 136, "share": 62.96296296296296 }, { "candidate": "Kevin Travis Raper", "votes": 80, "share": 37.03703703703704 } ], "participated": true, "map_key": "WILSON_PRTO" }, "geometry": { "type": "Polygon", "coordinates": [ [ [ -77.738229990757389, 35.783963999828757 ], [ -77.741017991555353, 35.783797000183178 ], [ -77.742063990809839, 35.784630999933988 ], [ -77.743754991060754, 35.784085999920421 ], [ -77.745864991594331, 35.784821000095569 ], [ -77.746917990739036, 35.786407999841416 ], [ -77.754810991101394, 35.788957000204675 ], [ -77.76008199147185, 35.787690999912812 ], [ -77.763405990737979, 35.788071000314062 ], [ -77.766298990715583, 35.784770999674727 ], [ -77.768489991225408, 35.78513500019077 ], [ -77.770348991144132, 35.786646000002669 ], [ -77.775175990701385, 35.785861999503354 ], [ -77.776448991273469, 35.786306999512149 ], [ -77.778019991624788, 35.784609999780194 ], [ -77.776868990959088, 35.782644000176681 ], [ -77.777772991534619, 35.780699999817095 ], [ -77.78335499129723, 35.778014999610889 ], [ -77.784528991053008, 35.772753999511764 ], [ -77.789879991239459, 35.770706999472289 ], [ -77.791012991615972, 35.767350999515834 ], [ -77.795541991721251, 35.766923999703451 ], [ -77.802037991517011, 35.764946999944868 ], [ -77.805400991101351, 35.760789999996426 ], [ -77.810340991610587, 35.758242000323243 ], [ -77.818788990910846, 35.756615999610624 ], [ -77.829495990951457, 35.757674999485197 ], [ -77.837916990892566, 35.754922000336059 ], [ -77.841494990658603, 35.754651999468145 ], [ -77.846205991559557, 35.758434999737723 ], [ -77.853360991458757, 35.758167000139125 ], [ -77.860558990872505, 35.759988000142933 ], [ -77.857613991691323, 35.768133999854655 ], [ -77.8575709908514, 35.776347000265162 ], [ -77.855860991078657, 35.77652700006972 ], [ -77.853544990751359, 35.779354000161263 ], [ -77.851502991317417, 35.786193999481441 ], [ -77.862901991590647, 35.78651999959515 ], [ -77.873948991533013, 35.784420000217672 ], [ -77.877619990760508, 35.785081000094983 ], [ -77.880272990801288, 35.787206999675817 ], [ -77.882232991592844, 35.787681999889287 ], [ -77.885895991177946, 35.786586999707211 ], [ -77.890796991674648, 35.786439999793807 ], [ -77.8965229910565, 35.783166999699965 ], [ -77.904685991353588, 35.781747999783661 ], [ -77.909033990789666, 35.786968999695532 ], [ -77.911492990742374, 35.79149300013318 ], [ -77.914372990849458, 35.798376999657165 ], [ -77.91524099147577, 35.802593000323 ], [ -77.915500990710058, 35.813231000007939 ], [ -77.919042990774983, 35.821715999965178 ], [ -77.918451991390853, 35.831221000076965 ], [ -77.915656991356983, 35.83644999990117 ], [ -77.897357990896168, 35.843852999782264 ], [ -77.883087990789633, 35.846216999722984 ], [ -77.873866990919893, 35.8497310003427 ], [ -77.853105991259142, 35.843888999710508 ], [ -77.844736991418955, 35.837617999622083 ], [ -77.828443990768903, 35.867207999597738 ], [ -77.821512991251637, 35.861699000137833 ], [ -77.806295990869245, 35.857319999911041 ], [ -77.751338990706117, 35.827794000303221 ], [ -77.751237991221927, 35.825576999922824 ], [ -77.749429991183689, 35.821059999571283 ], [ -77.750405991090929, 35.817831000233994 ], [ -77.738229990757389, 35.783963999828757 ] ] ] } },
{ "type": "Feature", "properties": { "county": "WILSON", "precinct": "PRWE", "enr_desc": "Wilson E", "winner": "Bobby Knight", "winner_votes": 25, "winner_share": 56.81818181818182, "runner_up": "Kevin Travis Raper", "runner_up_votes": 19, "runner_up_share": 43.18181818181818, "contest_votes": 44, "margin_of_victory": 13.63636363636364, "is_tie": false, "results": [ { "candidate": "Bobby Knight", "votes": 25, "share": 56.81818181818182 }, { "candidate": "Kevin Travis Raper", "votes": 19, "share": 43.18181818181818 } ], "participated": true, "map_key": "WILSON_PRWE" }, "geometry": { "type": "Polygon", "coordinates": [ [ [ -77.905162990757816, 35.727706999676592 ], [ -77.906442990775986, 35.727532999928769 ], [ -77.91262999108811, 35.733659000038507 ], [ -77.910456990998696, 35.734721999755273 ], [ -77.91355599169475, 35.73788799967015 ], [ -77.915892990734321, 35.736839000191871 ], [ -77.920861991110513, 35.742359999544895 ], [ -77.913922991500797, 35.7457740002096 ], [ -77.911201990673192, 35.741525999481325 ], [ -77.906522990637569, 35.747890000059272 ], [ -77.901022990705457, 35.761798000268961 ], [ -77.900738991496979, 35.770952999611687 ], [ -77.904685991353588, 35.781747999783661 ], [ -77.8965229910565, 35.783166999699965 ], [ -77.890796991674648, 35.786439999793807 ], [ -77.885895991177946, 35.786586999707211 ], [ -77.882232991592844, 35.787681999889287 ], [ -77.880272990801288, 35.787206999675817 ], [ -77.877619990760508, 35.785081000094983 ], [ -77.873948991533013, 35.784420000217672 ], [ -77.905162990757816, 35.727706999676592 ] ] ] } },
{ "type": "Feature", "properties": { "county": "WILSON", "precinct": "PRWH", "enr_desc": "Wilson H", "winner": "Bobby Knight", "winner_votes": 3, "winner_share": 50.0, "runner_up": "Kevin Travis Raper", "runner_up_votes": 3, "runner_up_share": 50.0, "contest_votes": 6, "margin_of_victory": 0.0, "is_tie": true, "results": [ { "candidate": "Bobby Knight", "votes": 3, "share": 50.0 }, { "candidate": "Kevin Travis Raper", "votes": 3, "share": 50.0 } ], "participated": true, "map_key": "WILSON_PRWH" }, "geometry": { "type": "Polygon", "coordinates": [ [ [ -77.931247991188442, 35.680293999642423 ], [ -77.917324990774432, 35.705564000359701 ], [ -77.910831990810934, 35.717314999566504 ], [ -77.905714991333738, 35.716457000264917 ], [ -77.903286991634104, 35.716169000234139 ], [ -77.903944991444135, 35.715391000057039 ], [ -77.903128990891744, 35.713476999552242 ], [ -77.901040991186946, 35.71403399981331 ], [ -77.899766991023498, 35.711384000060598 ], [ -77.902598991053964, 35.710434000018935 ], [ -77.9026209913592, 35.707905000297643 ], [ -77.892794990659922, 35.698924000304764 ], [ -77.886968991449749, 35.688402000045826 ], [ -77.885408990798936, 35.679321000194719 ], [ -77.884263991276825, 35.677068000331865 ], [ -77.894859991548969, 35.672726000117883 ], [ -77.896011990895133, 35.66899600034958 ], [ -77.898788991065672, 35.666571999879899 ], [ -77.899462991288203, 35.663780000230936 ], [ -77.901145991438923, 35.66146899960922 ], [ -77.899829991574933, 35.657921999867888 ], [ -77.901653991302183, 35.655062000168016 ], [ -77.900336991043119, 35.652658999799144 ], [ -77.904710991380924, 35.652545999692926 ], [ -77.903868991580509, 35.654697000261073 ], [ -77.905634991605751, 35.654033999643509 ], [ -77.907006991314404, 35.655878999570881 ], [ -77.908125991519498, 35.660519999732259 ], [ -77.911823990650205, 35.665383999629974 ], [ -77.910811990850505, 35.66886400015953 ], [ -77.911318991576181, 35.672022000030687 ], [ -77.914264991326974, 35.678017000113776 ], [ -77.916957990977522, 35.677352999819966 ], [ -77.920995991209438, 35.678268999927944 ], [ -77.926351990895512, 35.678131999848596 ], [ -77.931247991188442, 35.680293999642423 ] ] ] } },
{ "type": "Feature", "properties": { "county": "WILSON", "precinct": "PRWI", "enr_desc": "Wilson I", "winner": "Bobby Knight", "winner_votes": 29, "winner_share": 60.416666666666664, "runner_up": "Kevin Travis Raper", "runner_up_votes": 19, "runner_up_share": 39.583333333333329, "contest_votes": 48, "margin_of_victory": 20.833333333333336, "is_tie": false, "results": [ { "candidate": "Bobby Knight", "votes": 29, "share": 60.416666666666664 }, { "candidate": "Kevin Travis Raper", "votes": 19, "share": 39.58333333333333 } ], "participated": true, "map_key": "WILSON_PRWI" }, "geometry": { "type": "Polygon", "coordinates": [ [ [ -77.965349991412722, 35.70101600032676 ], [ -77.959101991284115, 35.703231000291325 ], [ -77.951571991073465, 35.707666000335735 ], [ -77.932134991548523, 35.713259999844787 ], [ -77.935405990636866, 35.72189700009082 ], [ -77.9256789907582, 35.721103999738496 ], [ -77.925556991494929, 35.71798700019589 ], [ -77.924014991574779, 35.715558999947376 ], [ -77.925863991466557, 35.709103999803908 ], [ -77.923057991333749, 35.708008000097642 ], [ -77.920147991201503, 35.705255999723562 ], [ -77.917324990774432, 35.705564000359701 ], [ -77.931247991188442, 35.680293999642423 ], [ -77.932377991310702, 35.681286000019263 ], [ -77.936246991078676, 35.680851000066482 ], [ -77.938823990884231, 35.681620000152868 ], [ -77.942829991170484, 35.685415999854136 ], [ -77.955893991191246, 35.692647000316541 ], [ -77.960947991423353, 35.698968999678954 ], [ -77.965349991412722, 35.70101600032676 ] ] ] } },
{ "type": "Feature", "properties": { "county": "WILSON", "precinct": "PRWJ", "enr_desc": "Wilson J", "winner": "Bobby Knight", "winner_votes": 129, "winner_share": 71.666666666666671, "runner_up": "Kevin Travis Raper", "runner_up_votes": 51, "runner_up_share": 28.333333333333332, "contest_votes": 180, "margin_of_victory": 43.333333333333343, "is_tie": false, "results": [ { "candidate": "Bobby Knight", "votes": 129, "share": 71.66666666666667 }, { "candidate": "Kevin Travis Raper", "votes": 51, "share": 28.333333333333332 } ], "participated": true, "map_key": "WILSON_PRWJ" }, "geometry": { "type": "Polygon", "coordinates": [ [ [ -77.975460991129154, 35.739955000215822 ], [ -77.965276991070013, 35.745182000142911 ], [ -77.958748991227807, 35.739688000161038 ], [ -77.945243991656284, 35.734467000319604 ], [ -77.945228991707808, 35.730937999502721 ], [ -77.935430991140464, 35.729394000302079 ], [ -77.935405990636866, 35.72189700009082 ], [ -77.932134991548523, 35.713259999844787 ], [ -77.951571991073465, 35.707666000335735 ], [ -77.959101991284115, 35.703231000291325 ], [ -77.965349991412722, 35.70101600032676 ], [ -77.965494990735095, 35.701650999708434 ], [ -77.960674991558065, 35.70363199989341 ], [ -77.95965499115384, 35.70505900022615 ], [ -77.961171991334751, 35.706703000197962 ], [ -77.962163991259018, 35.710848999841033 ], [ -77.964310990762741, 35.714349999994283 ], [ -77.966272990863274, 35.712739000186026 ], [ -77.967449990652398, 35.715357000203973 ], [ -77.969773991368811, 35.715798999747022 ], [ -77.972911991492012, 35.716866999882505 ], [ -77.972994991670504, 35.718822000244003 ], [ -77.972004991191326, 35.726886999947894 ], [ -77.970125991293202, 35.728213999629041 ], [ -77.969508990766855, 35.729885000157537 ], [ -77.97229999120546, 35.734566999895563 ], [ -77.972460991611158, 35.736303000290285 ], [ -77.974303990964131, 35.737260999974573 ], [ -77.975460991129154, 35.739955000215822 ] ] ] } },
{ "type": "Feature", "properties": { "county": "WILSON", "precinct": "PRWK", "enr_desc": "Wilson K", "winner": "Bobby Knight", "winner_votes": 74, "winner_share": 63.247863247863243, "runner_up": "Kevin Travis Raper", "runner_up_votes": 43, "runner_up_share": 36.752136752136757, "contest_votes": 117, "margin_of_victory": 26.495726495726487, "is_tie": false, "results": [ { "candidate": "Bobby Knight", "votes": 74, "share": 63.24786324786324 }, { "candidate": "Kevin Travis Raper", "votes": 43, "share": 36.75213675213676 } ], "participated": true, "map_key": "WILSON_PRWK" }, "geometry": { "type": "Polygon", "coordinates": [ [ [ -77.945009991685581, 35.749168000046403 ], [ -77.937884991401674, 35.750993999922699 ], [ -77.935721991615381, 35.746577999627583 ], [ -77.93686499116771, 35.74283599967341 ], [ -77.9346179915063, 35.734128000192996 ], [ -77.935430991140464, 35.729394000302079 ], [ -77.945228991707808, 35.730937999502721 ], [ -77.945243991656284, 35.734467000319604 ], [ -77.943682990935059, 35.738427999691204 ], [ -77.943507991413938, 35.74337899981812 ], [ -77.952011990749753, 35.742326000236822 ], [ -77.951361990761029, 35.748482000318347 ], [ -77.949553990676989, 35.749251000128716 ], [ -77.945009991685581, 35.749168000046403 ] ] ] } },
{ "type": "Feature", "properties": { "county": "WILSON", "precinct": "PRWM", "enr_desc": "Wilson M", "winner": "Bobby Knight", "winner_votes": 192, "winner_share": 64.214046822742475, "runner_up": "Kevin Travis Raper", "runner_up_votes": 107, "runner_up_share": 35.785953177257525, "contest_votes": 299, "margin_of_victory": 28.42809364548495, "is_tie": false, "results": [ { "candidate": "Bobby Knight", "votes": 192, "share": 64.21404682274247 }, { "candidate": "Kevin Travis Raper", "votes": 107, "share": 35.785953177257525 } ], "participated": true, "map_key": "WILSON_PRWM" }, "geometry": { "type": "Polygon", "coordinates": [ [ [ -77.920861991110513, 35.742359999544895 ], [ -77.922609991285228, 35.741525000131269 ], [ -77.928568990812551, 35.749919000100789 ], [ -77.93140599115344, 35.753867999482424 ], [ -77.934468991272524, 35.761754999780003 ], [ -77.940771991298007, 35.770477999777263 ], [ -77.939128990924132, 35.773521999610196 ], [ -77.934136991609947, 35.777332999677824 ], [ -77.928525991307779, 35.779509999850241 ], [ -77.919232991193397, 35.788953000253059 ], [ -77.911492990742374, 35.79149300013318 ], [ -77.909033990789666, 35.786968999695532 ], [ -77.904685991353588, 35.781747999783661 ], [ -77.900738991496979, 35.770952999611687 ], [ -77.901022990705457, 35.761798000268961 ], [ -77.906522990637569, 35.747890000059272 ], [ -77.911201990673192, 35.741525999481325 ], [ -77.913922991500797, 35.7457740002096 ], [ -77.920861991110513, 35.742359999544895 ] ] ] } },
{ "type": "Feature", "properties": { "county": "WILSON", "precinct": "PRWN", "enr_desc": "Wilson N", "winner": "Bobby Knight", "winner_votes": 9, "winner_share": 60.0, "runner_up": "Kevin Travis Raper", "runner_up_votes": 6, "runner_up_share": 40.0, "contest_votes": 15, "margin_of_victory": 20.0, "is_tie": false, "results": [ { "candidate": "Bobby Knight", "votes": 9, "share": 60.0 }, { "candidate": "Kevin Travis Raper", "votes": 6, "share": 40.0 } ], "participated": true, "map_key": "WILSON_PRWN" }, "geometry": { "type": "Polygon", "coordinates": [ [ [ -77.884263991276825, 35.677068000331865 ], [ -77.885408990798936, 35.679321000194719 ], [ -77.886968991449749, 35.688402000045826 ], [ -77.892794990659922, 35.698924000304764 ], [ -77.9026209913592, 35.707905000297643 ], [ -77.900234990709762, 35.70788900000354 ], [ -77.900069991666214, 35.709384999655384 ], [ -77.896331991324132, 35.711346000290888 ], [ -77.897048991067464, 35.712065999678615 ], [ -77.895183991128746, 35.714500999881608 ], [ -77.893243991499958, 35.713737999667813 ], [ -77.891180991334849, 35.717151999786815 ], [ -77.894155991299655, 35.718346999731509 ], [ -77.888500991584436, 35.727217000162291 ], [ -77.881532990717432, 35.732629000024886 ], [ -77.879197991355738, 35.735338999675164 ], [ -77.862421990777094, 35.731629000044393 ], [ -77.856844990934761, 35.731569999986689 ], [ -77.857189990729424, 35.729023999534192 ], [ -77.855671991072057, 35.72588299967218 ], [ -77.861368990784229, 35.717084000258723 ], [ -77.860245991140317, 35.71325899992258 ], [ -77.862145991142157, 35.711505999997208 ], [ -77.855262991450132, 35.702386000074931 ], [ -77.854586991345627, 35.699276999784956 ], [ -77.855427991264648, 35.693592999924086 ], [ -77.853293991342383, 35.68915300016161 ], [ -77.853262991187563, 35.683683999724437 ], [ -77.85148699126718, 35.681969000304242 ], [ -77.859229991202, 35.680095999504516 ], [ -77.881396991409687, 35.679445000294059 ], [ -77.884263991276825, 35.677068000331865 ] ] ] } },
{ "type": "Feature", "properties": { "county": "WILSON", "precinct": "PRWP", "enr_desc": "Wilson P", "winner": "Bobby Knight", "winner_votes": 96, "winner_share": 70.072992700729927, "runner_up": "Kevin Travis Raper", "runner_up_votes": 41, "runner_up_share": 29.927007299270077, "contest_votes": 137, "margin_of_victory": 40.145985401459853, "is_tie": false, "results": [ { "candidate": "Bobby Knight", "votes": 96, "share": 70.07299270072993 }, { "candidate": "Kevin Travis Raper", "votes": 41, "share": 29.927007299270077 } ], "participated": true, "map_key": "WILSON_PRWP" }, "geometry": { "type": "Polygon", "coordinates": [ [ [ -77.945243991656284, 35.734467000319604 ], [ -77.958748991227807, 35.739688000161038 ], [ -77.965276991070013, 35.745182000142911 ], [ -77.957292990698519, 35.75668400016167 ], [ -77.953605990700524, 35.759478999850295 ], [ -77.951571990760542, 35.758538000092756 ], [ -77.951639991038093, 35.756804000194435 ], [ -77.948805991231609, 35.756182999581497 ], [ -77.947106991215634, 35.753622000159737 ], [ -77.948033990682646, 35.753302000324986 ], [ -77.94771499104624, 35.750912999936837 ], [ -77.945033990829785, 35.750766999647382 ], [ -77.945009991685581, 35.749168000046403 ], [ -77.949553990676989, 35.749251000128716 ], [ -77.951361990761029, 35.748482000318347 ], [ -77.952011990749753, 35.742326000236822 ], [ -77.943507991413938, 35.74337899981812 ], [ -77.943682990935059, 35.738427999691204 ], [ -77.945243991656284, 35.734467000319604 ] ] ] } },
{ "type": "Feature", "properties": { "county": "WILSON", "precinct": "PRWR", "enr_desc": "Wilson R", "winner": "Bobby Knight", "winner_votes": 6, "winner_share": 75.0, "runner_up": "Kevin Travis Raper", "runner_up_votes": 2, "runner_up_share": 25.0, "contest_votes": 8, "margin_of_victory": 50.0, "is_tie": false, "results": [ { "candidate": "Bobby Knight", "votes": 6, "share": 75.0 }, { "candidate": "Kevin Travis Raper", "votes": 2, "share": 25.0 } ], "participated": true, "map_key": "WILSON_PRWR" }, "geometry": { "type": "Polygon", "coordinates": [ [ [ -77.894155991299655, 35.718346999731509 ], [ -77.894535990891725, 35.717709000250444 ], [ -77.89544599167337, 35.718081999906765 ], [ -77.8966039911042, 35.716108000060217 ], [ -77.905564990645601, 35.720358999818266 ], [ -77.907901991111544, 35.722668999561044 ], [ -77.907133990804908, 35.724053000272598 ], [ -77.905162990757816, 35.727706999676592 ], [ -77.873948991533013, 35.784420000217672 ], [ -77.862901991590647, 35.78651999959515 ], [ -77.851502991317417, 35.786193999481441 ], [ -77.853544990751359, 35.779354000161263 ], [ -77.855860991078657, 35.77652700006972 ], [ -77.8575709908514, 35.776347000265162 ], [ -77.857613991691323, 35.768133999854655 ], [ -77.860558990872505, 35.759988000142933 ], [ -77.853360991458757, 35.758167000139125 ], [ -77.856093991592616, 35.750609999606922 ], [ -77.855626991685995, 35.7420739995069 ], [ -77.857588990788287, 35.738809000226688 ], [ -77.85674499065162, 35.736307000164665 ], [ -77.856844990934761, 35.731569999986689 ], [ -77.862421990777094, 35.731629000044393 ], [ -77.879197991355738, 35.735338999675164 ], [ -77.881532990717432, 35.732629000024886 ], [ -77.888500991584436, 35.727217000162291 ], [ -77.894155991299655, 35.718346999731509 ] ] ] } }
]
}
