{
"type": "FeatureCollection",
"name": "yadkin_county_sheriff_rep",
"crs": { "type": "name", "properties": { "name": "urn:ogc:def:crs:OGC:1.3:CRS84" } },
"features": [
{ "type": "Feature", "properties": { "county": "YADKIN", "precinct": "DCRK", "enr_desc": "Deep Creek", "winner": "Nick Smitherman", "winner_votes": 143, "winner_share": 58.606557377049185, "runner_up": "Robert Reavis", "runner_up_votes": 101, "runner_up_share": 41.393442622950822, "contest_votes": 244, "margin_of_victory": 17.213114754098363, "is_tie": false, "results": [ { "candidate": "Nick Smitherman", "votes": 143, "share": 58.606557377049185 }, { "candidate": "Robert Reavis", "votes": 101, "share": 41.39344262295082 } ], "participated": true, "map_key": "YADKIN_DCRK" }, "geometry": { "type": "Polygon", "coordinates": [ [ [ -80.663709991559912, 36.050036999673964 ], [ -80.753893991075387, 36.052923000396675 ], [ -80.753227991396273, 36.055559000293094 ], [ -80.75096299105202, 36.057608000411584 ], [ -80.750282990973545, 36.059577999978764 ], [ -80.744815991272915, 36.064135000522313 ], [ -80.743938991469449, 36.067594999809508 ], [ -80.750048991231253, 36.075643000415958 ], [ -80.757322990986665, 36.08258599978037 ], [ -80.757789991650753, 36.08511699979374 ], [ -80.757170991179734, 36.093817999866332 ], [ -80.758143990876363, 36.095984999896551 ], [ -80.760348991623488, 36.098123000561969 ], [ -80.763216991424898, 36.10138200028215 ], [ -80.765436991483014, 36.106160000519971 ], [ -80.769438990715443, 36.109857999890657 ], [ -80.77162599127594, 36.114496999743359 ], [ -80.77755399148522, 36.134250000108544 ], [ -80.777815991327429, 36.137106000419102 ], [ -80.772928990941779, 36.137693000174195 ], [ -80.770920990649557, 36.139202000555173 ], [ -80.770266990622829, 36.140571000329892 ], [ -80.770469991652604, 36.147606000404693 ], [ -80.768183990692236, 36.148735000158027 ], [ -80.7612109906634, 36.147777000569036 ], [ -80.754930991120858, 36.150813000399914 ], [ -80.7523449908402, 36.153871000013872 ], [ -80.753679990955192, 36.160687999692399 ], [ -80.755131991221887, 36.16221000054523 ], [ -80.752372991536092, 36.164050999843859 ], [ -80.749811991577943, 36.164345000235144 ], [ -80.749242991385032, 36.171648000153176 ], [ -80.746437991606001, 36.173827999862965 ], [ -80.746615990772142, 36.176138999966895 ], [ -80.743038991053623, 36.176549000512132 ], [ -80.739808990743597, 36.178529000345549 ], [ -80.728973991564217, 36.174165000502036 ], [ -80.722987991391207, 36.168912999845176 ], [ -80.714235991059454, 36.158495000157203 ], [ -80.715674991569145, 36.153340000167063 ], [ -80.714652990857033, 36.148412999941122 ], [ -80.713857991155734, 36.146655000452661 ], [ -80.70878799110713, 36.142033999856224 ], [ -80.706061990961231, 36.137228000128175 ], [ -80.705441991608581, 36.134217000322408 ], [ -80.707758991516997, 36.133204999731944 ], [ -80.711883991312163, 36.128142000507943 ], [ -80.70735299140415, 36.12799199988546 ], [ -80.705214990724684, 36.127049000242621 ], [ -80.704847990690865, 36.122971000162927 ], [ -80.701981991629637, 36.11707000052175 ], [ -80.696085991376364, 36.115905999682994 ], [ -80.689954990903814, 36.110547000454012 ], [ -80.686817991336724, 36.111197999943109 ], [ -80.688036990987996, 36.104469999855219 ], [ -80.687351990672525, 36.101464000381775 ], [ -80.682427990773959, 36.09940600013401 ], [ -80.677201990960157, 36.098921000250186 ], [ -80.675417991060783, 36.096923000013497 ], [ -80.676229991485343, 36.093357000458077 ], [ -80.679229991513566, 36.088071999814503 ], [ -80.679592990783391, 36.084854999709435 ], [ -80.678482991243726, 36.082643000356661 ], [ -80.67465699123909, 36.079994000565783 ], [ -80.681655991584179, 36.073323999957793 ], [ -80.679053991449805, 36.071370999713039 ], [ -80.67348499093525, 36.069594000334583 ], [ -80.66409099102475, 36.057110000342192 ], [ -80.660693991604774, 36.054403000135387 ], [ -80.660488990758893, 36.052906999959546 ], [ -80.663709991559912, 36.050036999673964 ] ] ] } },
{ "type": "Feature", "properties": { "county": "YADKIN", "precinct": "BNVL", "enr_desc": "Boonville", "winner": "Nick Smitherman", "winner_votes": 260, "winner_share": 65.162907268170429, "runner_up": "Robert Reavis", "runner_up_votes": 139, "runner_up_share": 34.837092731829571, "contest_votes": 399, "margin_of_victory": 30.325814536340857, "is_tie": false, "results": [ { "candidate": "Nick Smitherman", "votes": 260, "share": 65.16290726817043 }, { "candidate": "Robert Reavis", "votes": 139, "share": 34.83709273182957 } ], "participated": true, "map_key": "YADKIN_BNVL" }, "geometry": { "type": "Polygon", "coordinates": [ [ [ -80.714235991059454, 36.158495000157203 ], [ -80.722987991391207, 36.168912999845176 ], [ -80.728973991564217, 36.174165000502036 ], [ -80.739808990743597, 36.178529000345549 ], [ -80.742654991565473, 36.181327000176886 ], [ -80.747895990908418, 36.188757999701757 ], [ -80.758735991186057, 36.19516499978544 ], [ -80.76207899138069, 36.198643000025406 ], [ -80.762403990940072, 36.204320000038443 ], [ -80.766234991204087, 36.212148000304985 ], [ -80.769852990972879, 36.214828000195432 ], [ -80.774421991315663, 36.21526500017621 ], [ -80.775115991177515, 36.224705000191882 ], [ -80.769800991287738, 36.226494999828937 ], [ -80.760268991413923, 36.226517000234644 ], [ -80.755634990847213, 36.230248000229565 ], [ -80.755132991586365, 36.233899000449938 ], [ -80.756070990893107, 36.235881000207527 ], [ -80.759108990975108, 36.237937000457428 ], [ -80.758277990984439, 36.239201000154772 ], [ -80.772267990783675, 36.242303000329066 ], [ -80.77253299073061, 36.243770999749138 ], [ -80.777638990673339, 36.251049999811961 ], [ -80.779557991400409, 36.255896999772801 ], [ -80.778072991152328, 36.258208000195467 ], [ -80.779751991498102, 36.263348000179356 ], [ -80.780035990987756, 36.268860999799223 ], [ -80.778696991663267, 36.271769999808868 ], [ -80.77645799113796, 36.27361399974459 ], [ -80.773820990772492, 36.274711999855569 ], [ -80.768728990994077, 36.275002999955596 ], [ -80.759893991526923, 36.269286999684333 ], [ -80.755443991311509, 36.264141999874248 ], [ -80.751777991451078, 36.263379000065285 ], [ -80.749908991474442, 36.26429399975396 ], [ -80.748585991473405, 36.266721999861602 ], [ -80.743853991619844, 36.271473000385441 ], [ -80.74181099061822, 36.277798000345101 ], [ -80.739874991333821, 36.279520000107446 ], [ -80.737282991021786, 36.280363000160968 ], [ -80.732067990859775, 36.276541000184977 ], [ -80.734550991513345, 36.268815000082832 ], [ -80.733347991102917, 36.267201000119989 ], [ -80.729934990691703, 36.267041000293091 ], [ -80.720743990876883, 36.270097000431505 ], [ -80.713035990631283, 36.266717000561535 ], [ -80.702814990751534, 36.265999000422845 ], [ -80.694377991405119, 36.266415000197284 ], [ -80.685154991141701, 36.268834000067322 ], [ -80.679144990959912, 36.264758000023321 ], [ -80.677637991428284, 36.261676999848277 ], [ -80.676485990790667, 36.25626100030329 ], [ -80.674035990629278, 36.252925000145389 ], [ -80.671969991110245, 36.251666000023 ], [ -80.66821599152297, 36.250937999692923 ], [ -80.663275990638809, 36.252056000292868 ], [ -80.6551449909783, 36.25206700041884 ], [ -80.652515991080989, 36.253026000179766 ], [ -80.648720991287448, 36.255983000203003 ], [ -80.64718799110679, 36.254604000053419 ], [ -80.649383991080995, 36.253875999892813 ], [ -80.65070699064897, 36.249237000151389 ], [ -80.654868991557947, 36.243957000255115 ], [ -80.654677991041623, 36.241363000091233 ], [ -80.652983990976253, 36.23776799993675 ], [ -80.656021990920493, 36.231870000085948 ], [ -80.656398991375852, 36.227052000292979 ], [ -80.654890990630705, 36.217097000232329 ], [ -80.649399991109803, 36.204090000104074 ], [ -80.650919990970891, 36.196894000256904 ], [ -80.648040990995696, 36.192692000154722 ], [ -80.6472169908334, 36.187247999793556 ], [ -80.651680991444792, 36.184114999921675 ], [ -80.656427990832015, 36.182154000573298 ], [ -80.656299990643447, 36.179762000567926 ], [ -80.6619829912336, 36.17913700039869 ], [ -80.669769990853112, 36.173423999678832 ], [ -80.673604991355504, 36.172686000028442 ], [ -80.674386990992531, 36.172069999800797 ], [ -80.672815991527926, 36.168770000368049 ], [ -80.674097991388237, 36.167440000163019 ], [ -80.678462990916287, 36.170033999703662 ], [ -80.679997990653717, 36.168368999890838 ], [ -80.683967991028993, 36.167933000144593 ], [ -80.686077990974539, 36.164054999862046 ], [ -80.691253991551903, 36.165893000376407 ], [ -80.69537099106519, 36.16412999982623 ], [ -80.699732990842833, 36.16439200040525 ], [ -80.705591991504278, 36.160922000110169 ], [ -80.712058991177159, 36.163426999843281 ], [ -80.714235991059454, 36.158495000157203 ] ] ] } },
{ "type": "Feature", "properties": { "county": "YADKIN", "precinct": "EBND", "enr_desc": "East Bend", "winner": "Nick Smitherman", "winner_votes": 422, "winner_share": 90.557939914163086, "runner_up": "Robert Reavis", "runner_up_votes": 44, "runner_up_share": 9.4420600858369106, "contest_votes": 466, "margin_of_victory": 81.115879828326172, "is_tie": false, "results": [ { "candidate": "Nick Smitherman", "votes": 422, "share": 90.55793991416309 }, { "candidate": "Robert Reavis", "votes": 44, "share": 9.44206008583691 } ], "participated": true, "map_key": "YADKIN_EBND" }, "geometry": { "type": "Polygon", "coordinates": [ [ [ -80.556024991061648, 36.177444000509865 ], [ -80.557567990958006, 36.183677000468336 ], [ -80.561484991514504, 36.193196999665041 ], [ -80.567347990601988, 36.195365000111138 ], [ -80.570316991301709, 36.198020999951851 ], [ -80.574054990710266, 36.19787200025921 ], [ -80.57523799065828, 36.199597999678858 ], [ -80.578363991538623, 36.200068000269425 ], [ -80.581019990750434, 36.203493999794063 ], [ -80.57431499076462, 36.207357999749405 ], [ -80.571110990624675, 36.207358000447265 ], [ -80.56914999120815, 36.206529000542162 ], [ -80.563887990865965, 36.208403000195375 ], [ -80.557620991153087, 36.215432000504308 ], [ -80.557657991611762, 36.219775000501301 ], [ -80.558554991348643, 36.224574000022834 ], [ -80.560544991340393, 36.225136999845411 ], [ -80.565303991132012, 36.229242999777767 ], [ -80.572524991139815, 36.233218000346589 ], [ -80.571934991050611, 36.233992999849512 ], [ -80.558299991563416, 36.235844999868064 ], [ -80.552579991411051, 36.237976000345753 ], [ -80.546660990977813, 36.242543999752669 ], [ -80.539185991485752, 36.244554000041639 ], [ -80.542190990736913, 36.250002999896857 ], [ -80.541147990969037, 36.257541000261256 ], [ -80.535173991006872, 36.25738299977337 ], [ -80.534176991577496, 36.25850500002889 ], [ -80.509192991349281, 36.258426000443414 ], [ -80.505169991316421, 36.259915999753254 ], [ -80.483685991083846, 36.256002000116538 ], [ -80.481107991567882, 36.25680300046961 ], [ -80.477071991074752, 36.260674999679885 ], [ -80.473636991630343, 36.261113999694587 ], [ -80.468212991633294, 36.26034600013984 ], [ -80.464376990784004, 36.258398999773043 ], [ -80.461628990745865, 36.254808000041137 ], [ -80.46085299105772, 36.247788000159197 ], [ -80.437418991046087, 36.229824000071602 ], [ -80.432240991467651, 36.217994999720773 ], [ -80.432550990782488, 36.215895999849614 ], [ -80.442145990840899, 36.213446000172063 ], [ -80.446009990974545, 36.209190000007247 ], [ -80.446160991608735, 36.20537799995931 ], [ -80.43958699148277, 36.190479999789744 ], [ -80.440646990992846, 36.185871999983497 ], [ -80.443476990942742, 36.183278999692419 ], [ -80.444371991448207, 36.18200300017358 ], [ -80.446136991306986, 36.182520000341945 ], [ -80.451299991665394, 36.189263000449515 ], [ -80.454444991505142, 36.191297000123242 ], [ -80.456220991429319, 36.191547000428095 ], [ -80.458223990745537, 36.190658999831008 ], [ -80.458797990938578, 36.187861999729236 ], [ -80.460090991636406, 36.188208999904028 ], [ -80.46193099142873, 36.186067999905056 ], [ -80.462552991219837, 36.183899000172957 ], [ -80.460676990813056, 36.181540000280194 ], [ -80.465297990746549, 36.181928000347362 ], [ -80.474307991646867, 36.185255000340447 ], [ -80.477938991066324, 36.182549000430647 ], [ -80.479023991591262, 36.179192000365411 ], [ -80.481018991550471, 36.180511999971429 ], [ -80.487519990973041, 36.182096000511834 ], [ -80.491147991048408, 36.181835000253187 ], [ -80.492340991633313, 36.184280000405991 ], [ -80.501497991369376, 36.189196000390197 ], [ -80.504393990859498, 36.189993000291999 ], [ -80.505359991271575, 36.195045999740415 ], [ -80.512212991613964, 36.193117999677256 ], [ -80.518739991586685, 36.193769999859015 ], [ -80.523031990625654, 36.192130000406614 ], [ -80.525220991468487, 36.189979000551034 ], [ -80.528379991526634, 36.188485999768496 ], [ -80.535064990838279, 36.18245500045154 ], [ -80.541000991111517, 36.179544999981573 ], [ -80.540745991216099, 36.177268999887303 ], [ -80.542082991326055, 36.17448000046258 ], [ -80.550829991546067, 36.175461999785568 ], [ -80.556024991061648, 36.177444000509865 ] ] ] } },
{ "type": "Feature", "properties": { "county": "YADKIN", "precinct": "FBSH", "enr_desc": "Forbush", "winner": "Nick Smitherman", "winner_votes": 322, "winner_share": 63.888888888888886, "runner_up": "Robert Reavis", "runner_up_votes": 182, "runner_up_share": 36.111111111111107, "contest_votes": 504, "margin_of_victory": 27.777777777777779, "is_tie": false, "results": [ { "candidate": "Nick Smitherman", "votes": 322, "share": 63.888888888888886 }, { "candidate": "Robert Reavis", "votes": 182, "share": 36.11111111111111 } ], "participated": true, "map_key": "YADKIN_FBSH" }, "geometry": { "type": "Polygon", "coordinates": [ [ [ -80.587707990679462, 36.106624999690411 ], [ -80.589213991061015, 36.111544000038009 ], [ -80.58829499165401, 36.116816000553939 ], [ -80.59404399104821, 36.117091000373208 ], [ -80.594109990878138, 36.121204000054803 ], [ -80.589966991632608, 36.12974900055341 ], [ -80.584592991374066, 36.13421299988314 ], [ -80.584321990770448, 36.136814999816622 ], [ -80.587776991088816, 36.138661000193309 ], [ -80.59355199146141, 36.140237999936765 ], [ -80.597645990998714, 36.146170999746694 ], [ -80.587564991137199, 36.147738000183708 ], [ -80.584922991425145, 36.149300999878818 ], [ -80.574548991085663, 36.14969000009615 ], [ -80.572336991001421, 36.148875999781644 ], [ -80.57152199061693, 36.151116999807222 ], [ -80.56925399088685, 36.151878999832022 ], [ -80.564799991074821, 36.149167000410294 ], [ -80.557466990727278, 36.151350000148952 ], [ -80.556269990738642, 36.160246000070956 ], [ -80.555092990964823, 36.162304000126241 ], [ -80.556720991623394, 36.170362000033997 ], [ -80.555798991329837, 36.17341100022977 ], [ -80.556024991061648, 36.177444000509865 ], [ -80.550829991546067, 36.175461999785568 ], [ -80.542082991326055, 36.17448000046258 ], [ -80.540745991216099, 36.177268999887303 ], [ -80.541000991111517, 36.179544999981573 ], [ -80.535064990838279, 36.18245500045154 ], [ -80.528379991526634, 36.188485999768496 ], [ -80.525220991468487, 36.189979000551034 ], [ -80.523031990625654, 36.192130000406614 ], [ -80.518739991586685, 36.193769999859015 ], [ -80.512212991613964, 36.193117999677256 ], [ -80.505359991271575, 36.195045999740415 ], [ -80.504393990859498, 36.189993000291999 ], [ -80.501497991369376, 36.189196000390197 ], [ -80.492340991633313, 36.184280000405991 ], [ -80.491147991048408, 36.181835000253187 ], [ -80.487519990973041, 36.182096000511834 ], [ -80.481018991550471, 36.180511999971429 ], [ -80.479023991591262, 36.179192000365411 ], [ -80.477938991066324, 36.182549000430647 ], [ -80.474307991646867, 36.185255000340447 ], [ -80.465297990746549, 36.181928000347362 ], [ -80.460676990813056, 36.181540000280194 ], [ -80.462552991219837, 36.183899000172957 ], [ -80.46193099142873, 36.186067999905056 ], [ -80.460090991636406, 36.188208999904028 ], [ -80.458797990938578, 36.187861999729236 ], [ -80.458223990745537, 36.190658999831008 ], [ -80.456220991429319, 36.191547000428095 ], [ -80.454444991505142, 36.191297000123242 ], [ -80.451299991665394, 36.189263000449515 ], [ -80.446136991306986, 36.182520000341945 ], [ -80.444371991448207, 36.18200300017358 ], [ -80.443476990942742, 36.183278999692419 ], [ -80.443390991116573, 36.179645000439017 ], [ -80.438523991286388, 36.17553199974693 ], [ -80.436822990874106, 36.169296000269085 ], [ -80.439093991578972, 36.16087699991666 ], [ -80.442349990803606, 36.157502999917014 ], [ -80.442870991343426, 36.155979000397807 ], [ -80.443032991187678, 36.151260000146131 ], [ -80.43892699108433, 36.139299000208297 ], [ -80.439436990786035, 36.13692499969838 ], [ -80.448225991281646, 36.130722999764494 ], [ -80.454381991398776, 36.122139000162406 ], [ -80.462306991606312, 36.118140000531589 ], [ -80.464890990977281, 36.117565999960711 ], [ -80.473286990635501, 36.118770000209665 ], [ -80.481546991077025, 36.116624000404897 ], [ -80.488007990811582, 36.116090000003908 ], [ -80.505531991216571, 36.109155000265105 ], [ -80.507674990915604, 36.10716900021216 ], [ -80.508472990787894, 36.101965999763436 ], [ -80.510728991215714, 36.097110000412989 ], [ -80.514573991341905, 36.09473500006218 ], [ -80.515677991404075, 36.09307599987303 ], [ -80.518664991092137, 36.093051000336082 ], [ -80.519570990740903, 36.091316000509437 ], [ -80.522664991208103, 36.088923000500458 ], [ -80.52329599090676, 36.08658200019768 ], [ -80.526181991637486, 36.085725000537572 ], [ -80.52980399119474, 36.082309999884799 ], [ -80.539503991553858, 36.082017999681383 ], [ -80.545078991219896, 36.086672000318096 ], [ -80.552095990713511, 36.086383000472416 ], [ -80.556323991504883, 36.089187000237423 ], [ -80.562349991145723, 36.09057200051577 ], [ -80.573063991038438, 36.087986000499839 ], [ -80.574493991189982, 36.090094999751486 ], [ -80.574131991124716, 36.095856999720077 ], [ -80.575666990720393, 36.097248000380389 ], [ -80.580045991399075, 36.097490000171192 ], [ -80.581543991251593, 36.10190199972628 ], [ -80.587461991487487, 36.103492000149075 ], [ -80.586805991660896, 36.104302999807004 ], [ -80.587707990679462, 36.106624999690411 ] ] ] } },
{ "type": "Feature", "properties": { "county": "YADKIN", "precinct": "NBCK", "enr_desc": "North Buck Shoals", "winner": "Nick Smitherman", "winner_votes": 144, "winner_share": 53.333333333333336, "runner_up": "Robert Reavis", "runner_up_votes": 126, "runner_up_share": 46.666666666666664, "contest_votes": 270, "margin_of_victory": 6.6666666666666714, "is_tie": false, "results": [ { "candidate": "Nick Smitherman", "votes": 144, "share": 53.333333333333336 }, { "candidate": "Robert Reavis", "votes": 126, "share": 46.666666666666664 } ], "participated": true, "map_key": "YADKIN_NBCK" }, "geometry": { "type": "Polygon", "coordinates": [ [ [ -80.760348991623488, 36.098123000561969 ], [ -80.767740991188305, 36.096418999830732 ], [ -80.769820991280014, 36.096535000546602 ], [ -80.775055991226736, 36.098862000502407 ], [ -80.783678991249531, 36.097589999949619 ], [ -80.788760991566718, 36.099363000077183 ], [ -80.795544991111655, 36.100441000219163 ], [ -80.798026991185822, 36.100542000242925 ], [ -80.799330991657513, 36.099739999725116 ], [ -80.805602991490545, 36.100051000481635 ], [ -80.80809299104142, 36.099096000070311 ], [ -80.810092991293473, 36.100474000031838 ], [ -80.814992990907697, 36.098680999759821 ], [ -80.816979990749275, 36.094829999827653 ], [ -80.821236991255859, 36.0939179999367 ], [ -80.823494990633975, 36.091614000014452 ], [ -80.824039991015269, 36.093575000169039 ], [ -80.826351990905465, 36.092105000255884 ], [ -80.827676991303804, 36.092496999716943 ], [ -80.829424991040028, 36.096048999793126 ], [ -80.831189991043573, 36.097954999686827 ], [ -80.832566991421103, 36.098230999743983 ], [ -80.841974991317826, 36.098377000339013 ], [ -80.845250991631289, 36.097549999936646 ], [ -80.85269599134827, 36.099404000476774 ], [ -80.862513991634486, 36.099760000108283 ], [ -80.86474599122829, 36.094496999980919 ], [ -80.872067990915355, 36.098028999952447 ], [ -80.877943990632943, 36.105297999697854 ], [ -80.879685990670353, 36.106188000538268 ], [ -80.876594990912096, 36.160850999991219 ], [ -80.871567991599505, 36.160524000048113 ], [ -80.868466990675088, 36.158555000228056 ], [ -80.864107991680811, 36.158184000509621 ], [ -80.864387990959514, 36.155537999717936 ], [ -80.857611991575581, 36.155281999695234 ], [ -80.855621991046434, 36.153289999716868 ], [ -80.855382991674475, 36.150394000241697 ], [ -80.853512991209897, 36.149423000455627 ], [ -80.850496991522036, 36.150732999816178 ], [ -80.849108990943492, 36.152879000137581 ], [ -80.843155990899888, 36.156233000522633 ], [ -80.841668991695144, 36.153659000227456 ], [ -80.838004991567459, 36.152961999867799 ], [ -80.837631991306353, 36.149891000576204 ], [ -80.829448991547835, 36.149973999692719 ], [ -80.823546991167291, 36.153969999763206 ], [ -80.81862599153547, 36.153954000070286 ], [ -80.816081991117912, 36.152344999746866 ], [ -80.813659990865801, 36.15438200004823 ], [ -80.812559990689607, 36.156849000155354 ], [ -80.795365991651252, 36.1561309998403 ], [ -80.794104991210787, 36.157143000536507 ], [ -80.784536991691851, 36.147729000425883 ], [ -80.782224991508429, 36.144190000267329 ], [ -80.781343991187754, 36.140239000001017 ], [ -80.777815991327429, 36.137106000419102 ], [ -80.77755399148522, 36.134250000108544 ], [ -80.77162599127594, 36.114496999743359 ], [ -80.769438990715443, 36.109857999890657 ], [ -80.765436991483014, 36.106160000519971 ], [ -80.763216991424898, 36.10138200028215 ], [ -80.760348991623488, 36.098123000561969 ] ] ] } },
{ "type": "Feature", "properties": { "county": "YADKIN", "precinct": "NKNB", "enr_desc": "North Knobs", "winner": "Robert Reavis", "winner_votes": 182, "winner_share": 52.753623188405797, "runner_up": "Nick Smitherman", "runner_up_votes": 163, "runner_up_share": 47.246376811594203, "contest_votes": 345, "margin_of_victory": 5.5072463768115938, "is_tie": false, "results": [ { "candidate": "Robert Reavis", "votes": 182, "share": 52.7536231884058 }, { "candidate": "Nick Smitherman", "votes": 163, "share": 47.2463768115942 } ], "participated": true, "map_key": "YADKIN_NKNB" }, "geometry": { "type": "Polygon", "coordinates": [ [ [ -80.742654991565473, 36.181327000176886 ], [ -80.751406991373443, 36.181806000131829 ], [ -80.75473599158947, 36.180291999921337 ], [ -80.755375991052816, 36.177674000181604 ], [ -80.763885991326532, 36.178067999900712 ], [ -80.768126990852963, 36.175958999942857 ], [ -80.775817991120192, 36.175967000443727 ], [ -80.776233991201039, 36.177473999692069 ], [ -80.772448991073006, 36.185524000462976 ], [ -80.783492991356439, 36.186118999887405 ], [ -80.788488990955614, 36.185440000560824 ], [ -80.791304991184575, 36.188258000364719 ], [ -80.795764991651069, 36.188736000040265 ], [ -80.79875799075225, 36.187882000514385 ], [ -80.803263990729718, 36.188442999763602 ], [ -80.809876991289144, 36.187480999790417 ], [ -80.809250991398443, 36.192890000198673 ], [ -80.809918991460222, 36.195907000549056 ], [ -80.81582999105278, 36.201829999818671 ], [ -80.819177991505398, 36.20274600001099 ], [ -80.824946991664902, 36.206302999892493 ], [ -80.829609990945087, 36.203885000103348 ], [ -80.841074991573862, 36.202954000510296 ], [ -80.847522991246549, 36.205234999910395 ], [ -80.848281990930587, 36.205305999844356 ], [ -80.850261991591296, 36.20489999980061 ], [ -80.849742990966035, 36.204981999815693 ], [ -80.85256299132871, 36.203046000537981 ], [ -80.852832991136466, 36.200546999843162 ], [ -80.853926990878662, 36.19897899972748 ], [ -80.859838991121222, 36.195238000560167 ], [ -80.862906991019827, 36.194964000556105 ], [ -80.863477991436824, 36.200422999828767 ], [ -80.871468991668877, 36.199816000299322 ], [ -80.874926991287168, 36.198793999994052 ], [ -80.873204990915156, 36.236305000270548 ], [ -80.872161991497151, 36.236958000051438 ], [ -80.867628991165247, 36.239056999743433 ], [ -80.85627099139252, 36.240824000239101 ], [ -80.849155990918149, 36.240879999864703 ], [ -80.835202990626129, 36.245192000188091 ], [ -80.825676991054394, 36.249777000102291 ], [ -80.818270990816487, 36.250497000092729 ], [ -80.808713991470029, 36.2543270001118 ], [ -80.802255991520298, 36.252585999892126 ], [ -80.800128991440559, 36.249533000488476 ], [ -80.796701991272911, 36.247973000271557 ], [ -80.783972991232972, 36.252831999773761 ], [ -80.779557991400409, 36.255896999772801 ], [ -80.777638990673339, 36.251049999811961 ], [ -80.77253299073061, 36.243770999749138 ], [ -80.772267990783675, 36.242303000329066 ], [ -80.758277990984439, 36.239201000154772 ], [ -80.759108990975108, 36.237937000457428 ], [ -80.756070990893107, 36.235881000207527 ], [ -80.755132991586365, 36.233899000449938 ], [ -80.755634990847213, 36.230248000229565 ], [ -80.760268991413923, 36.226517000234644 ], [ -80.769800991287738, 36.226494999828937 ], [ -80.775115991177515, 36.224705000191882 ], [ -80.774421991315663, 36.21526500017621 ], [ -80.769852990972879, 36.214828000195432 ], [ -80.766234991204087, 36.212148000304985 ], [ -80.762403990940072, 36.204320000038443 ], [ -80.76207899138069, 36.198643000025406 ], [ -80.758735991186057, 36.19516499978544 ], [ -80.747895990908418, 36.188757999701757 ], [ -80.742654991565473, 36.181327000176886 ] ] ] } },
{ "type": "Feature", "properties": { "county": "YADKIN", "precinct": "NLIB", "enr_desc": "North Liberty", "winner": "Nick Smitherman", "winner_votes": 181, "winner_share": 50.700280112044815, "runner_up": "Robert Reavis", "runner_up_votes": 176, "runner_up_share": 49.299719887955185, "contest_votes": 357, "margin_of_victory": 1.4005602240896309, "is_tie": false, "results": [ { "candidate": "Nick Smitherman", "votes": 181, "share": 50.700280112044815 }, { "candidate": "Robert Reavis", "votes": 176, "share": 49.299719887955185 } ], "participated": true, "map_key": "YADKIN_NLIB" }, "geometry": { "type": "Polygon", "coordinates": [ [ [ -80.587707990679462, 36.106624999690411 ], [ -80.590955991026604, 36.106320000519347 ], [ -80.595998990739503, 36.107444000407249 ], [ -80.60239499064663, 36.106174000549487 ], [ -80.614775991614238, 36.106585000083321 ], [ -80.619964991616385, 36.109096999931438 ], [ -80.627449991464772, 36.109939000223399 ], [ -80.627887991136959, 36.111174000451754 ], [ -80.629796990953864, 36.112119000469789 ], [ -80.632745991636995, 36.109472000297885 ], [ -80.635436991039313, 36.109543000059823 ], [ -80.639514991239139, 36.11252700043724 ], [ -80.641202990653227, 36.111278000428868 ], [ -80.645358990858455, 36.110554999869713 ], [ -80.646489990867181, 36.109303000547506 ], [ -80.648282990651069, 36.109321000337353 ], [ -80.654649991612786, 36.105632999745886 ], [ -80.657064991475451, 36.105206999915531 ], [ -80.657589990594161, 36.107230999808181 ], [ -80.668405991660919, 36.109501000246176 ], [ -80.674447991252251, 36.113226000441998 ], [ -80.686817991336724, 36.111197999943109 ], [ -80.689954990903814, 36.110547000454012 ], [ -80.696085991376364, 36.115905999682994 ], [ -80.701981991629637, 36.11707000052175 ], [ -80.704847990690865, 36.122971000162927 ], [ -80.705214990724684, 36.127049000242621 ], [ -80.70735299140415, 36.12799199988546 ], [ -80.711883991312163, 36.128142000507943 ], [ -80.707758991516997, 36.133204999731944 ], [ -80.705441991608581, 36.134217000322408 ], [ -80.706061990961231, 36.137228000128175 ], [ -80.70878799110713, 36.142033999856224 ], [ -80.713857991155734, 36.146655000452661 ], [ -80.714652990857033, 36.148412999941122 ], [ -80.715674991569145, 36.153340000167063 ], [ -80.714235991059454, 36.158495000157203 ], [ -80.712058991177159, 36.163426999843281 ], [ -80.705591991504278, 36.160922000110169 ], [ -80.699732990842833, 36.16439200040525 ], [ -80.69537099106519, 36.16412999982623 ], [ -80.691253991551903, 36.165893000376407 ], [ -80.686077990974539, 36.164054999862046 ], [ -80.683967991028993, 36.167933000144593 ], [ -80.679997990653717, 36.168368999890838 ], [ -80.678462990916287, 36.170033999703662 ], [ -80.674097991388237, 36.167440000163019 ], [ -80.672815991527926, 36.168770000368049 ], [ -80.674386990992531, 36.172069999800797 ], [ -80.673604991355504, 36.172686000028442 ], [ -80.669769990853112, 36.173423999678832 ], [ -80.6619829912336, 36.17913700039869 ], [ -80.656299990643447, 36.179762000567926 ], [ -80.656427990832015, 36.182154000573298 ], [ -80.651680991444792, 36.184114999921675 ], [ -80.6472169908334, 36.187247999793556 ], [ -80.642043990760371, 36.176346000500743 ], [ -80.637213990980413, 36.172856000383334 ], [ -80.635564990785241, 36.170725999717895 ], [ -80.633566990989408, 36.158432999674638 ], [ -80.630088990837052, 36.157297000008313 ], [ -80.624366991224335, 36.151782000519724 ], [ -80.620785991529644, 36.150821999861201 ], [ -80.61696899144421, 36.148483000533467 ], [ -80.608672991054206, 36.147564999922544 ], [ -80.60326399074286, 36.145722000466392 ], [ -80.599651991060327, 36.146646999686865 ], [ -80.597645990998714, 36.146170999746694 ], [ -80.59355199146141, 36.140237999936765 ], [ -80.587776991088816, 36.138661000193309 ], [ -80.584321990770448, 36.136814999816622 ], [ -80.584592991374066, 36.13421299988314 ], [ -80.589966991632608, 36.12974900055341 ], [ -80.594109990878138, 36.121204000054803 ], [ -80.59404399104821, 36.117091000373208 ], [ -80.58829499165401, 36.116816000553939 ], [ -80.589213991061015, 36.111544000038009 ], [ -80.587707990679462, 36.106624999690411 ] ] ] } },
{ "type": "Feature", "properties": { "county": "YADKIN", "precinct": "NFAL", "enr_desc": "North Fall Creek", "winner": "Nick Smitherman", "winner_votes": 170, "winner_share": 85.858585858585855, "runner_up": "Robert Reavis", "runner_up_votes": 28, "runner_up_share": 14.14141414141414, "contest_votes": 198, "margin_of_victory": 71.717171717171709, "is_tie": false, "results": [ { "candidate": "Nick Smitherman", "votes": 170, "share": 85.85858585858585 }, { "candidate": "Robert Reavis", "votes": 28, "share": 14.14141414141414 } ], "participated": true, "map_key": "YADKIN_NFAL" }, "geometry": { "type": "Polygon", "coordinates": [ [ [ -80.557657991611762, 36.219775000501301 ], [ -80.656398991375852, 36.227052000292979 ], [ -80.656021990920493, 36.231870000085948 ], [ -80.652983990976253, 36.23776799993675 ], [ -80.654677991041623, 36.241363000091233 ], [ -80.654868991557947, 36.243957000255115 ], [ -80.65070699064897, 36.249237000151389 ], [ -80.649383991080995, 36.253875999892813 ], [ -80.64718799110679, 36.254604000053419 ], [ -80.648720991287448, 36.255983000203003 ], [ -80.647651991604604, 36.257540000350716 ], [ -80.64774699093438, 36.263535999890848 ], [ -80.643316991050469, 36.27239999995394 ], [ -80.638876990934037, 36.273428999725816 ], [ -80.630746991538928, 36.2723060001614 ], [ -80.627196991045466, 36.274155000253586 ], [ -80.626405991487189, 36.277572000382662 ], [ -80.629355991244054, 36.280566999840424 ], [ -80.631583991591214, 36.285111999959469 ], [ -80.630455991353628, 36.287111000358578 ], [ -80.628208991334333, 36.287928999916325 ], [ -80.622320990896938, 36.285705999927181 ], [ -80.61502599165442, 36.279634000371068 ], [ -80.607057990705542, 36.277030000196604 ], [ -80.599366990759066, 36.271767999841785 ], [ -80.59325299077922, 36.269844999917623 ], [ -80.58043899068565, 36.277375999874145 ], [ -80.572157990679131, 36.280454000365793 ], [ -80.559566990917389, 36.282961000487703 ], [ -80.554138991177638, 36.282376999933277 ], [ -80.549380991289866, 36.28529999990262 ], [ -80.546008991270185, 36.284934999973892 ], [ -80.53928999153311, 36.282103000222513 ], [ -80.536681991082759, 36.279282000228314 ], [ -80.535499991618636, 36.271289000163144 ], [ -80.537275990782675, 36.265659000125552 ], [ -80.537420990993198, 36.26271299969283 ], [ -80.536349990849914, 36.26019899973317 ], [ -80.534176991577496, 36.25850500002889 ], [ -80.535173991006872, 36.25738299977337 ], [ -80.541147990969037, 36.257541000261256 ], [ -80.542190990736913, 36.250002999896857 ], [ -80.539185991485752, 36.244554000041639 ], [ -80.546660990977813, 36.242543999752669 ], [ -80.552579991411051, 36.237976000345753 ], [ -80.558299991563416, 36.235844999868064 ], [ -80.571934991050611, 36.233992999849512 ], [ -80.572524991139815, 36.233218000346589 ], [ -80.565303991132012, 36.229242999777767 ], [ -80.560544991340393, 36.225136999845411 ], [ -80.558554991348643, 36.224574000022834 ], [ -80.557657991611762, 36.219775000501301 ] ] ] } },
{ "type": "Feature", "properties": { "county": "YADKIN", "precinct": "SKNB", "enr_desc": "South Knobs", "winner": "Robert Reavis", "winner_votes": 100, "winner_share": 52.910052910052904, "runner_up": "Nick Smitherman", "runner_up_votes": 89, "runner_up_share": 47.089947089947088, "contest_votes": 189, "margin_of_victory": 5.820105820105816, "is_tie": false, "results": [ { "candidate": "Robert Reavis", "votes": 100, "share": 52.910052910052904 }, { "candidate": "Nick Smitherman", "votes": 89, "share": 47.08994708994709 } ], "participated": true, "map_key": "YADKIN_SKNB" }, "geometry": { "type": "Polygon", "coordinates": [ [ [ -80.777815991327429, 36.137106000419102 ], [ -80.781343991187754, 36.140239000001017 ], [ -80.782224991508429, 36.144190000267329 ], [ -80.784536991691851, 36.147729000425883 ], [ -80.794104991210787, 36.157143000536507 ], [ -80.795365991651252, 36.1561309998403 ], [ -80.812559990689607, 36.156849000155354 ], [ -80.813659990865801, 36.15438200004823 ], [ -80.816081991117912, 36.152344999746866 ], [ -80.81862599153547, 36.153954000070286 ], [ -80.823546991167291, 36.153969999763206 ], [ -80.829448991547835, 36.149973999692719 ], [ -80.837631991306353, 36.149891000576204 ], [ -80.838004991567459, 36.152961999867799 ], [ -80.841668991695144, 36.153659000227456 ], [ -80.843155990899888, 36.156233000522633 ], [ -80.849108990943492, 36.152879000137581 ], [ -80.850496991522036, 36.150732999816178 ], [ -80.853512991209897, 36.149423000455627 ], [ -80.855382991674475, 36.150394000241697 ], [ -80.855621991046434, 36.153289999716868 ], [ -80.857611991575581, 36.155281999695234 ], [ -80.864387990959514, 36.155537999717936 ], [ -80.864107991680811, 36.158184000509621 ], [ -80.868466990675088, 36.158555000228056 ], [ -80.871567991599505, 36.160524000048113 ], [ -80.876594990912096, 36.160850999991219 ], [ -80.874926991287168, 36.198793999994052 ], [ -80.871468991668877, 36.199816000299322 ], [ -80.863477991436824, 36.200422999828767 ], [ -80.862906991019827, 36.194964000556105 ], [ -80.859838991121222, 36.195238000560167 ], [ -80.853926990878662, 36.19897899972748 ], [ -80.852832991136466, 36.200546999843162 ], [ -80.85256299132871, 36.203046000537981 ], [ -80.849742990966035, 36.204981999815693 ], [ -80.850261991591296, 36.20489999980061 ], [ -80.848281990930587, 36.205305999844356 ], [ -80.847522991246549, 36.205234999910395 ], [ -80.841074991573862, 36.202954000510296 ], [ -80.829609990945087, 36.203885000103348 ], [ -80.824946991664902, 36.206302999892493 ], [ -80.819177991505398, 36.20274600001099 ], [ -80.81582999105278, 36.201829999818671 ], [ -80.809918991460222, 36.195907000549056 ], [ -80.809250991398443, 36.192890000198673 ], [ -80.809876991289144, 36.187480999790417 ], [ -80.803263990729718, 36.188442999763602 ], [ -80.79875799075225, 36.187882000514385 ], [ -80.795764991651069, 36.188736000040265 ], [ -80.791304991184575, 36.188258000364719 ], [ -80.788488990955614, 36.185440000560824 ], [ -80.783492991356439, 36.186118999887405 ], [ -80.772448991073006, 36.185524000462976 ], [ -80.776233991201039, 36.177473999692069 ], [ -80.775817991120192, 36.175967000443727 ], [ -80.768126990852963, 36.175958999942857 ], [ -80.763885991326532, 36.178067999900712 ], [ -80.755375991052816, 36.177674000181604 ], [ -80.75473599158947, 36.180291999921337 ], [ -80.751406991373443, 36.181806000131829 ], [ -80.742654991565473, 36.181327000176886 ], [ -80.739808990743597, 36.178529000345549 ], [ -80.743038991053623, 36.176549000512132 ], [ -80.746615990772142, 36.176138999966895 ], [ -80.746437991606001, 36.173827999862965 ], [ -80.749242991385032, 36.171648000153176 ], [ -80.749811991577943, 36.164345000235144 ], [ -80.752372991536092, 36.164050999843859 ], [ -80.755131991221887, 36.16221000054523 ], [ -80.753679990955192, 36.160687999692399 ], [ -80.7523449908402, 36.153871000013872 ], [ -80.754930991120858, 36.150813000399914 ], [ -80.7612109906634, 36.147777000569036 ], [ -80.768183990692236, 36.148735000158027 ], [ -80.770469991652604, 36.147606000404693 ], [ -80.770266990622829, 36.140571000329892 ], [ -80.770920990649557, 36.139202000555173 ], [ -80.772928990941779, 36.137693000174195 ], [ -80.777815991327429, 36.137106000419102 ] ] ] } },
{ "type": "Feature", "properties": { "county": "YADKIN", "precinct": "SBCK", "enr_desc": "South Buck Shoals", "winner": "Nick Smitherman", "winner_votes": 81, "winner_share": 54.0, "runner_up": "Robert Reavis", "runner_up_votes": 69, "runner_up_share": 46.0, "contest_votes": 150, "margin_of_victory": 8.0, "is_tie": false, "results": [ { "candidate": "Nick Smitherman", "votes": 81, "share": 54.0 }, { "candidate": "Robert Reavis", "votes": 69, "share": 46.0 } ], "participated": true, "map_key": "YADKIN_SBCK" }, "geometry": { "type": "Polygon", "coordinates": [ [ [ -80.879685990670353, 36.106188000538268 ], [ -80.877943990632943, 36.105297999697854 ], [ -80.872067990915355, 36.098028999952447 ], [ -80.86474599122829, 36.094496999980919 ], [ -80.862513991634486, 36.099760000108283 ], [ -80.85269599134827, 36.099404000476774 ], [ -80.845250991631289, 36.097549999936646 ], [ -80.841974991317826, 36.098377000339013 ], [ -80.832566991421103, 36.098230999743983 ], [ -80.831189991043573, 36.097954999686827 ], [ -80.829424991040028, 36.096048999793126 ], [ -80.827676991303804, 36.092496999716943 ], [ -80.826351990905465, 36.092105000255884 ], [ -80.824039991015269, 36.093575000169039 ], [ -80.823494990633975, 36.091614000014452 ], [ -80.821236991255859, 36.0939179999367 ], [ -80.816979990749275, 36.094829999827653 ], [ -80.814992990907697, 36.098680999759821 ], [ -80.810092991293473, 36.100474000031838 ], [ -80.80809299104142, 36.099096000070311 ], [ -80.805602991490545, 36.100051000481635 ], [ -80.799330991657513, 36.099739999725116 ], [ -80.798026991185822, 36.100542000242925 ], [ -80.795544991111655, 36.100441000219163 ], [ -80.788760991566718, 36.099363000077183 ], [ -80.783678991249531, 36.097589999949619 ], [ -80.775055991226736, 36.098862000502407 ], [ -80.769820991280014, 36.096535000546602 ], [ -80.767740991188305, 36.096418999830732 ], [ -80.760348991623488, 36.098123000561969 ], [ -80.758143990876363, 36.095984999896551 ], [ -80.757170991179734, 36.093817999866332 ], [ -80.757789991650753, 36.08511699979374 ], [ -80.757322990986665, 36.08258599978037 ], [ -80.750048991231253, 36.075643000415958 ], [ -80.743938991469449, 36.067594999809508 ], [ -80.744815991272915, 36.064135000522313 ], [ -80.750282990973545, 36.059577999978764 ], [ -80.75096299105202, 36.057608000411584 ], [ -80.753227991396273, 36.055559000293094 ], [ -80.753893991075387, 36.052923000396675 ], [ -80.881590991307462, 36.055718000532401 ], [ -80.879685990670353, 36.106188000538268 ] ] ] } },
{ "type": "Feature", "properties": { "county": "YADKIN", "precinct": "SFAL", "enr_desc": "South Fall Creek", "winner": "Nick Smitherman", "winner_votes": 212, "winner_share": 76.53429602888086, "runner_up": "Robert Reavis", "runner_up_votes": 65, "runner_up_share": 23.465703971119133, "contest_votes": 277, "margin_of_victory": 53.068592057761727, "is_tie": false, "results": [ { "candidate": "Nick Smitherman", "votes": 212, "share": 76.53429602888086 }, { "candidate": "Robert Reavis", "votes": 65, "share": 23.465703971119133 } ], "participated": true, "map_key": "YADKIN_SFAL" }, "geometry": { "type": "Polygon", "coordinates": [ [ [ -80.556024991061648, 36.177444000509865 ], [ -80.555798991329837, 36.17341100022977 ], [ -80.556720991623394, 36.170362000033997 ], [ -80.555092990964823, 36.162304000126241 ], [ -80.556269990738642, 36.160246000070956 ], [ -80.557466990727278, 36.151350000148952 ], [ -80.564799991074821, 36.149167000410294 ], [ -80.56925399088685, 36.151878999832022 ], [ -80.57152199061693, 36.151116999807222 ], [ -80.572336991001421, 36.148875999781644 ], [ -80.574548991085663, 36.14969000009615 ], [ -80.584922991425145, 36.149300999878818 ], [ -80.587564991137199, 36.147738000183708 ], [ -80.597645990998714, 36.146170999746694 ], [ -80.599651991060327, 36.146646999686865 ], [ -80.60326399074286, 36.145722000466392 ], [ -80.608672991054206, 36.147564999922544 ], [ -80.61696899144421, 36.148483000533467 ], [ -80.620785991529644, 36.150821999861201 ], [ -80.624366991224335, 36.151782000519724 ], [ -80.630088990837052, 36.157297000008313 ], [ -80.633566990989408, 36.158432999674638 ], [ -80.635564990785241, 36.170725999717895 ], [ -80.637213990980413, 36.172856000383334 ], [ -80.642043990760371, 36.176346000500743 ], [ -80.6472169908334, 36.187247999793556 ], [ -80.648040990995696, 36.192692000154722 ], [ -80.650919990970891, 36.196894000256904 ], [ -80.649399991109803, 36.204090000104074 ], [ -80.654890990630705, 36.217097000232329 ], [ -80.656398991375852, 36.227052000292979 ], [ -80.557657991611762, 36.219775000501301 ], [ -80.557620991153087, 36.215432000504308 ], [ -80.563887990865965, 36.208403000195375 ], [ -80.56914999120815, 36.206529000542162 ], [ -80.571110990624675, 36.207358000447265 ], [ -80.57431499076462, 36.207357999749405 ], [ -80.581019990750434, 36.203493999794063 ], [ -80.578363991538623, 36.200068000269425 ], [ -80.57523799065828, 36.199597999678858 ], [ -80.574054990710266, 36.19787200025921 ], [ -80.570316991301709, 36.198020999951851 ], [ -80.567347990601988, 36.195365000111138 ], [ -80.561484991514504, 36.193196999665041 ], [ -80.557567990958006, 36.183677000468336 ], [ -80.556024991061648, 36.177444000509865 ] ] ] } },
{ "type": "Feature", "properties": { "county": "YADKIN", "precinct": "SLIB", "enr_desc": "South Liberty", "winner": "Nick Smitherman", "winner_votes": 193, "winner_share": 64.333333333333329, "runner_up": "Robert Reavis", "runner_up_votes": 107, "runner_up_share": 35.666666666666671, "contest_votes": 300, "margin_of_victory": 28.666666666666657, "is_tie": false, "results": [ { "candidate": "Nick Smitherman", "votes": 193, "share": 64.33333333333333 }, { "candidate": "Robert Reavis", "votes": 107, "share": 35.66666666666667 } ], "participated": true, "map_key": "YADKIN_SLIB" }, "geometry": { "type": "Polygon", "coordinates": [ [ [ -80.663709991559912, 36.050036999673964 ], [ -80.660488990758893, 36.052906999959546 ], [ -80.660693991604774, 36.054403000135387 ], [ -80.66409099102475, 36.057110000342192 ], [ -80.67348499093525, 36.069594000334583 ], [ -80.679053991449805, 36.071370999713039 ], [ -80.681655991584179, 36.073323999957793 ], [ -80.67465699123909, 36.079994000565783 ], [ -80.678482991243726, 36.082643000356661 ], [ -80.679592990783391, 36.084854999709435 ], [ -80.679229991513566, 36.088071999814503 ], [ -80.676229991485343, 36.093357000458077 ], [ -80.675417991060783, 36.096923000013497 ], [ -80.677201990960157, 36.098921000250186 ], [ -80.682427990773959, 36.09940600013401 ], [ -80.687351990672525, 36.101464000381775 ], [ -80.688036990987996, 36.104469999855219 ], [ -80.686817991336724, 36.111197999943109 ], [ -80.674447991252251, 36.113226000441998 ], [ -80.668405991660919, 36.109501000246176 ], [ -80.657589990594161, 36.107230999808181 ], [ -80.657064991475451, 36.105206999915531 ], [ -80.654649991612786, 36.105632999745886 ], [ -80.648282990651069, 36.109321000337353 ], [ -80.646489990867181, 36.109303000547506 ], [ -80.645358990858455, 36.110554999869713 ], [ -80.641202990653227, 36.111278000428868 ], [ -80.639514991239139, 36.11252700043724 ], [ -80.635436991039313, 36.109543000059823 ], [ -80.632745991636995, 36.109472000297885 ], [ -80.629796990953864, 36.112119000469789 ], [ -80.627887991136959, 36.111174000451754 ], [ -80.627449991464772, 36.109939000223399 ], [ -80.619964991616385, 36.109096999931438 ], [ -80.614775991614238, 36.106585000083321 ], [ -80.60239499064663, 36.106174000549487 ], [ -80.595998990739503, 36.107444000407249 ], [ -80.590955991026604, 36.106320000519347 ], [ -80.587707990679462, 36.106624999690411 ], [ -80.586805991660896, 36.104302999807004 ], [ -80.587461991487487, 36.103492000149075 ], [ -80.581543991251593, 36.10190199972628 ], [ -80.580045991399075, 36.097490000171192 ], [ -80.575666990720393, 36.097248000380389 ], [ -80.574131991124716, 36.095856999720077 ], [ -80.574493991189982, 36.090094999751486 ], [ -80.573063991038438, 36.087986000499839 ], [ -80.562349991145723, 36.09057200051577 ], [ -80.556323991504883, 36.089187000237423 ], [ -80.552095990713511, 36.086383000472416 ], [ -80.545078991219896, 36.086672000318096 ], [ -80.539503991553858, 36.082017999681383 ], [ -80.52980399119474, 36.082309999884799 ], [ -80.526181991637486, 36.085725000537572 ], [ -80.52329599090676, 36.08658200019768 ], [ -80.522664991208103, 36.088923000500458 ], [ -80.519570990740903, 36.091316000509437 ], [ -80.518664991092137, 36.093051000336082 ], [ -80.515677991404075, 36.09307599987303 ], [ -80.515559991479208, 36.087952000071326 ], [ -80.516577991177513, 36.083351999933498 ], [ -80.515310991482025, 36.080261999742739 ], [ -80.510622990910292, 36.074855999789079 ], [ -80.509514990726487, 36.072230000547648 ], [ -80.508892990960391, 36.06046500027972 ], [ -80.50786399149905, 36.056258000441161 ], [ -80.505333990728104, 36.052668000229936 ], [ -80.496282991255825, 36.046545000432111 ], [ -80.598371991412222, 36.047743000285919 ], [ -80.663709991559912, 36.050036999673964 ] ] ] } }
]
}
